"STATION","DATE","LATITUDE","LONGITUDE","ELEVATION","NAME","REPORT_TYPE","SOURCE","HourlyAltimeterSetting","HourlyDewPointTemperature","HourlyDryBulbTemperature","HourlyPrecipitation","HourlyPresentWeatherType","HourlyPressureChange","HourlyPressureTendency","HourlyRelativeHumidity","HourlySkyConditions","HourlySeaLevelPressure","HourlyStationPressure","HourlyVisibility","HourlyWetBulbTemperature","HourlyWindDirection","HourlyWindGustSpeed","HourlyWindSpeed","Sunrise","Sunset","DailyAverageDewPointTemperature","DailyAverageDryBulbTemperature","DailyAverageRelativeHumidity","DailyAverageSeaLevelPressure","DailyAverageStationPressure","DailyAverageWetBulbTemperature","DailyAverageWindSpeed","DailyCoolingDegreeDays","DailyDepartureFromNormalAverageTemperature","DailyHeatingDegreeDays","DailyMaximumDryBulbTemperature","DailyMinimumDryBulbTemperature","DailyPeakWindDirection","DailyPeakWindSpeed","DailyPrecipitation","DailySnowDepth","DailySnowfall","DailySustainedWindDirection","DailySustainedWindSpeed","DailyWeather","MonthlyAverageRH","MonthlyDaysWithGT001Precip","MonthlyDaysWithGT010Precip","MonthlyDaysWithGT32Temp","MonthlyDaysWithGT90Temp","MonthlyDaysWithLT0Temp","MonthlyDaysWithLT32Temp","MonthlyDepartureFromNormalAverageTemperature","MonthlyDepartureFromNormalCoolingDegreeDays","MonthlyDepartureFromNormalHeatingDegreeDays","MonthlyDepartureFromNormalMaximumTemperature","MonthlyDepartureFromNormalMinimumTemperature","MonthlyDepartureFromNormalPrecipitation","MonthlyDewpointTemperature","MonthlyGreatestPrecip","MonthlyGreatestPrecipDate","MonthlyGreatestSnowDepth","MonthlyGreatestSnowDepthDate","MonthlyGreatestSnowfall","MonthlyGreatestSnowfallDate","MonthlyMaxSeaLevelPressureValue","MonthlyMaxSeaLevelPressureValueDate","MonthlyMaxSeaLevelPressureValueTime","MonthlyMaximumTemperature","MonthlyMeanTemperature","MonthlyMinSeaLevelPressureValue","MonthlyMinSeaLevelPressureValueDate","MonthlyMinSeaLevelPressureValueTime","MonthlyMinimumTemperature","MonthlySeaLevelPressure","MonthlyStationPressure","MonthlyTotalLiquidPrecipitation","MonthlyTotalSnowfall","MonthlyWetBulb","AWND","CDSD","CLDD","DSNW","HDSD","HTDD","DYTS","DYHF","NormalsCoolingDegreeDay","NormalsHeatingDegreeDay","ShortDurationEndDate005","ShortDurationEndDate010","ShortDurationEndDate015","ShortDurationEndDate020","ShortDurationEndDate030","ShortDurationEndDate045","ShortDurationEndDate060","ShortDurationEndDate080","ShortDurationEndDate100","ShortDurationEndDate120","ShortDurationEndDate150","ShortDurationEndDate180","ShortDurationPrecipitationValue005","ShortDurationPrecipitationValue010","ShortDurationPrecipitationValue015","ShortDurationPrecipitationValue020","ShortDurationPrecipitationValue030","ShortDurationPrecipitationValue045","ShortDurationPrecipitationValue060","ShortDurationPrecipitationValue080","ShortDurationPrecipitationValue100","ShortDurationPrecipitationValue120","ShortDurationPrecipitationValue150","ShortDurationPrecipitationValue180","REM","BackupDirection","BackupDistance","BackupDistanceUnit","BackupElements","BackupElevation","BackupEquipment","BackupLatitude","BackupLongitude","BackupName","WindEquipmentChangeDate"
"33173099999","2021-04-27T23:00:00","51.2166666","24.6833333","174.0","KOVEL, UP","FM-12","4","","24","31","","","-0.02","2","77","","30.06","29.42","12.43","29","000","","0","","","","","","","","","","","","","","","","","","","","","","","","","","","","","","","","","","","","","","","","","","","","","","","","","","","","","","","","","","","","","","","","","","","","","","","","","","","","","","","","","","","","","","","","","","","SYN05833173 42998 00000 11006 21042 39962 40181 52007 555 1/001=","","","","","","","","","",""
"33173099999","2021-04-28T11:00:00","51.2166666","24.6833333","174.0","KOVEL, UP","FM-12","4","","24","51","","","+0.02","8","35","","30.04","29.42","12.43","40","160","","7","","","","","","","","","","","","","","","","","","","","","","","","","","","","","","","","","","","","","","","","","","","","","","","","","","","","","","","","","","","","","","","","","","","","","","","","","","","","","","","","","","","","","","","","","","","SYN05833173 42998 01603 10106 21042 39963 40173 58006 555 1/027=","","","","","","","","","",""
"33173099999","2021-04-28T17:00:00","51.2166666","24.6833333","174.0","KOVEL, UP","FM-12","4","","24","57","","","+0.06","7","27","","29.93","29.32","12.43","43","150","","9","","","","","","","","","","","","","","","","","","","","","","","","","","","","","","","","","","","","","","","","","","","","","","","","","","","","","","","","","","","","","","","","","","","","","","","","","","","","","","","","","","","","","","","","","","","SYN05833173 42998 01504 10141 21046 39930 40137 57019 555 1/026=","","","","","","","","","",""
"33173099999","2021-04-28T23:00:00","51.2166666","24.6833333","174.0","KOVEL, UP","FM-12","4","","31","46","","","-0.01","3","56","","29.95","29.32","12.43","40","150","","4","","","","","","","","","","","","","","","","","","","","","","","","","","","","","","","","","","","","","","","","","","","","","","","","","","","","","","","","","","","","","","","","","","","","","","","","","","","","","","","","","","","","","","","","","","","SYN05833173 42998 01502 10076 21006 39930 40142 53005 555 1/005=","","","","","","","","","",""
"33173099999","2021-04-29T23:00:00","51.2166666","24.6833333","174.0","KOVEL, UP","FM-12","4","","44","45","","","+0.00","6","94","","29.77","29.15","12.43","45","120","","2","","","","","","","","","","","","","","","","","","","","","","","","","","","","","","","","","","","","","","","","","","","","","","","","","","","","","","","","","","","","","","","","","","","","","","","","","","","","","","","","","","","","","","","","","","","SYN05833173 42998 01201 10074 20065 39871 40082 56001 555 1/005=","","","","","","","","","",""
"33173099999","2021-04-30T23:00:00","51.2166666","24.6833333","174.0","KOVEL, UP","FM-12","4","","39","51","","","-0.07","3","64","","29.89","29.27","12.43","45","350","","2","","","","","","","","","","","","","","","","","","","","","","","","","","","","","","","","","","","","","","","","","","","","","","","","","","","","","","","","","","","","","","","","","","","","","","","","","","","","","","","","","","","","","","","","","","","SYN05833173 42998 03501 10103 20038 39913 40122 53025 555 1/006=","","","","","","","","","",""
"33173099999","2021-05-03T23:00:00","51.2166666","24.6833333","174.0","KOVEL, UP","FM-12","4","","34","41","","","-0.02","2","77","","30.00","29.37","12.43","38","250","","4","","","","","","","","","","","","","","","","","","","","","","","","","","","","","","","","","","","","","","","","","","","","","","","","","","","","","","","","","","","","","","","","","","","","","","","","","","","","","","","","","","","","","","","","","","","SYN05833173 42998 02502 10049 20011 39945 40159 52006 555 1/003=","","","","","","","","","",""
"33173099999","2021-05-06T23:00:00","51.2166666","24.6833333","174.0","KOVEL, UP","FM-12","4","","36","46","","","-0.01","3","68","","29.84","29.22","12.43","42","160","","2","","","","","","","","","","","","","","","","","","","","","","","","","","","","","","","","","","","","","","","","","","","","","","","","","","","","","","","","","","","","","","","","","","","","","","","","","","","","","","","","","","","","","","","","","","","SYN05833173 42998 01601 10077 20022 39894 40105 53005 555 1/008=","","","","","","","","","",""
"33173099999","2021-05-08T23:00:00","51.2166666","24.6833333","174.0","KOVEL, UP","FM-12","4","","35","38","","","-0.03","2","88","","30.14","29.50","12.43","37","000","","0","","","","","","","","","","","","","","","","","","","","","","","","","","","","","","","","","","","","","","","","","","","","","","","","","","","","","","","","","","","","","","","","","","","","","","","","","","","","","","","","","","","","","","","","","","","SYN05833173 42998 00000 10036 20018 39991 40207 52010 555 1/003=","","","","","","","","","",""
"33173099999","2021-05-09T23:00:00","51.2166666","24.6833333","174.0","KOVEL, UP","FM-12","4","","37","49","","","-0.02","3","62","","30.17","29.55","12.43","44","110","","4","","","","","","","","","","","","","","","","","","","","","","","","","","","","","","","","","","","","","","","","","","","","","","","","","","","","","","","","","","","","","","","","","","","","","","","","","","","","","","","","","","","","","","","","","","","SYN05833173 42998 01102 10096 20027 30006 40218 53008 555 1/008=","","","","","","","","","",""
"33173099999","2021-05-10T11:00:00","51.2166666","24.6833333","174.0","KOVEL, UP","FM-12","4","","42","69","","","+0.02","8","38","","30.15","29.54","12.43","55","130","","11","","","","","","","","","","","","","","","","","","","","","","","","","","","","","","","","","","","","","","","","","","","","","","","","","","","","","","","","","","","","","","","","","","","","","","","","","","","","","","","","","","","","","","","","","","","SYN05833173 42998 01305 10205 20057 30005 40209 58007 555 1/033=","","","","","","","","","",""
"33173099999","2021-05-10T17:00:00","51.2166666","24.6833333","174.0","KOVEL, UP","FM-12","4","","41","73","","","+0.03","7","32","","30.07","29.48","12.43","56","130","","9","","","","","","","","","","","","","","","","","","","","","","","","","","","","","","","","","","","","","","","","","","","","","","","","","","","","","","","","","","","","","","","","","","","","","","","","","","","","","","","","","","","","","","","","","","","SYN05833173 42998 01304 10226 20051 39982 40184 57010 555 1/032=","","","","","","","","","",""
"33173099999","2021-05-10T23:00:00","51.2166666","24.6833333","174.0","KOVEL, UP","FM-12","4","","41","57","","","-0.01","2","56","","30.11","29.50","12.43","49","120","","7","","","","","","","","","","","","","","","","","","","","","","","","","","","","","","","","","","","","","","","","","","","","","","","","","","","","","","","","","","","","","","","","","","","","","","","","","","","","","","","","","","","","","","","","","","","SYN05833173 42998 01203 10138 20052 39989 40197 52005 555 1/010=","","","","","","","","","",""
"33173099999","2021-05-11T17:00:00","51.2166666","24.6833333","174.0","KOVEL, UP","FM-12","4","","37","73","","","+0.04","7","27","","30.01","29.41","12.43","55","110","","11","","","","","","","","","","","","","","","","","","","","","","","","","","","","","","","","","","","","","","","","","","","","","","","","","","","","","","","","","","","","","","","","","","","","","","","","","","","","","","","","","","","","","","","","","","","SYN05833173 42998 01105 10230 20030 39960 40161 57014 555 1/034=","","","","","","","","","",""
"33173099999","2021-05-11T23:00:00","51.2166666","24.6833333","174.0","KOVEL, UP","FM-12","4","","38","59","","","+0.01","6","45","","29.98","29.37","12.43","49","110","","7","","","","","","","","","","","","","","","","","","","","","","","","","","","","","","","","","","","","","","","","","","","","","","","","","","","","","","","","","","","","","","","","","","","","","","","","","","","","","","","","","","","","","","","","","","","SYN05833173 42998 01103 10149 20031 39945 40152 56004 555 1/011=","","","","","","","","","",""
"33173099999","2021-05-12T11:00:00","51.2166666","24.6833333","174.0","KOVEL, UP","FM-12","4","","51","70","","","+0.02","7","50","","29.88","29.29","12.43","59","110","","13","","","","","","","","","","","","","","","","","","","","","","","","","","","","","","","","","","","","","","","","","","","","","","","","","","","","","","","","","","","","","","","","","","","","","","","","","","","","","","","","","","","","","","","","","","","SYN05833173 42998 01106 10213 20104 39918 40119 57007 555 1/037=","","","","","","","","","",""
"33173099999","2021-05-12T17:00:00","51.2166666","24.6833333","174.0","KOVEL, UP","FM-12","4","","35","69","","","+0.03","7","29","","29.84","29.25","12.43","52","100","","13","","","","","","","","","","","","","","","","","","","","","","","","","","","","","","","","","","","","","","","","","","","","","","","","","","","","","","","","","","","","","","","","","","","","","","","","","","","","","","","","","","","","","","","","","","","SYN05833173 42998 01006 10203 20017 39904 40106 57009 555 1/032=","","","","","","","","","",""
"33173099999","2021-05-12T23:00:00","51.2166666","24.6833333","174.0","KOVEL, UP","FM-12","4","","39","53","","","+0.02","7","60","","29.84","29.22","12.43","46","110","","7","","","","","","","","","","","","","","","","","","","","","","","","","","","","","","","","","","","","","","","","","","","","","","","","","","","","","","","","","","","","","","","","","","","","","","","","","","","","","","","","","","","","","","","","","","","SYN05833173 42998 01103 10114 20039 39896 40104 57007 555 1/010=","","","","","","","","","",""
"33173099999","2021-05-15T23:00:00","51.2166666","24.6833333","174.0","KOVEL, UP","FM-12","4","","46","49","","","-0.01","3","88","","29.82","29.21","12.43","48","000","","0","","","","","","","","","","","","","","","","","","","","","","","","","","","","","","","","","","","","","","","","","","","","","","","","","","","","","","","","","","","","","","","","","","","","","","","","","","","","","","","","","","","","","","","","","","","SYN05833173 42998 00000 10095 20076 39890 40099 53002 555 1/009=","","","","","","","","","",""
"33173099999","2021-05-17T23:00:00","51.2166666","24.6833333","174.0","KOVEL, UP","FM-12","4","","51","54","","","+0.01","7","88","","29.59","28.99","12.43","52","000","","0","","","","","","","","","","","","","","","","","","","","","","","","","","","","","","","","","","","","","","","","","","","","","","","","","","","","","","","","","","","","","","","","","","","","","","","","","","","","","","","","","","","","","","","","","","","SYN05833173 42998 00000 10124 20104 39816 40021 57005 555 1/012=","","","","","","","","","",""
"33173099999","2021-05-20T23:00:00","51.2166666","24.6833333","174.0","KOVEL, UP","FM-12","4","","40","53","","","-0.04","2","62","","29.92","29.31","12.43","47","290","","7","","","","","","","","","","","","","","","","","","","","","","","","","","","","","","","","","","","","","","","","","","","","","","","","","","","","","","","","","","","","","","","","","","","","","","","","","","","","","","","","","","","","","","","","","","","SYN05833173 42998 02903 10118 20047 39924 40132 52015 555 1/011=","","","","","","","","","",""
"33173099999","2021-05-27T11:00:00","51.2166666","24.6833333","174.0","KOVEL, UP","FM-12","4","","47","69","","","+0.01","7","46","","29.95","29.35","12.43","57","270","","4","","","","","","","","","","","","","","","","","","","","","","","","","","","","","","","","","","","","","","","","","","","","","","","","","","","","","","","","","","","","","","","","","","","","","","","","","","","","","","","","","","","","","","","","","","","SYN05833173 42998 02702 10205 20085 39939 40141 57002 555 1/040=","","","","","","","","","",""
"33173099999","2021-05-28T23:00:00","51.2166666","24.6833333","174.0","KOVEL, UP","FM-12","4","","50","52","","","-0.01","3","93","","30.01","29.39","12.43","51","000","","0","","","","","","","","","","","","","","","","","","","","","","","","","","","","","","","","","","","","","","","","","","","","","","","","","","","","","","","","","","","","","","","","","","","","","","","","","","","","","","","","","","","","","","","","","","","SYN05833173 42998 00000 10112 20101 39953 40162 53002 555 1/011=","","","","","","","","","",""
"33173099999","2021-06-04T23:00:00","51.2166666","24.6833333","174.0","KOVEL, UP","FM-12","4","","49","54","","","+0.01","7","80","","30.20","29.58","12.43","51","000","","0","","","","","","","","","","","","","","","","","","","","","","","","","","","","","","","","","","","","","","","","","","","","","","","","","","","","","","","","","","","","","","","","","","","","","","","","","","","","","","","","","","","","","","","","","","","SYN05833173 42998 00000 10125 20092 30016 40226 57002 555 1/013=","","","","","","","","","",""
"33173099999","2021-06-14T23:00:00","51.2166666","24.6833333","174.0","KOVEL, UP","FM-12","4","","54","57","","","-0.03","3","89","","30.10","29.48","12.43","55","020","","4","","","","","","","","","","","","","","","","","","","","","","","","","","","","","","","","","","","","","","","","","","","","","","","","","","","","","","","","","","","","","","","","","","","","","","","","","","","","","","","","","","","","","","","","","","","SYN05833173 42998 00202 10140 20122 39984 40192 53009 555 1/014=","","","","","","","","","",""
"33173099999","2021-06-16T23:00:00","51.2166666","24.6833333","174.0","KOVEL, UP","FM-12","4","","55","60","","","-0.04","2","84","","30.11","29.50","12.43","57","000","","0","","","","","","","","","","","","","","","","","","","","","","","","","","","","","","","","","","","","","","","","","","","","","","","","","","","","","","","","","","","","","","","","","","","","","","","","","","","","","","","","","","","","","","","","","","","SYN05833173 42998 00000 10155 20128 39990 40197 52013 555 1/016=","","","","","","","","","",""
"33173099999","2021-06-17T11:00:00","51.2166666","24.6833333","174.0","KOVEL, UP","FM-12","4","","52","77","","","+0.01","8","42","","30.15","29.56","12.43","62","040","","7","","","","","","","","","","","","","","","","","","","","","","","","","","","","","","","","","","","","","","","","","","","","","","","","","","","","","","","","","","","","","","","","","","","","","","","","","","","","","","","","","","","","","","","","","","","SYN05833173 42998 00403 10248 20110 30009 40210 58002 555 1/043=","","","","","","","","","",""
"33173099999","2021-06-17T23:00:00","51.2166666","24.6833333","174.0","KOVEL, UP","FM-12","4","","56","64","","","-0.01","2","75","","30.16","29.56","12.43","59","000","","0","","","","","","","","","","","","","","","","","","","","","","","","","","","","","","","","","","","","","","","","","","","","","","","","","","","","","","","","","","","","","","","","","","","","","","","","","","","","","","","","","","","","","","","","","","","SYN05833173 42998 00000 10179 20134 30010 40215 52005 555 1/018=","","","","","","","","","",""
"33173099999","2021-06-18T17:00:00","51.2166666","24.6833333","174.0","KOVEL, UP","FM-12","4","","55","82","","","+0.03","7","40","","30.10","29.51","12.43","66","100","","4","","","","","","","","","","","","","","","","","","","","","","","","","","","","","","","","","","","","","","","","","","","","","","","","","","","","","","","","","","","","","","","","","","","","","","","","","","","","","","","","","","","","","","","","","","","SYN05833173 42998 01002 10279 20130 39994 40192 57009 555 1/045=","","","","","","","","","",""
"33173099999","2021-06-18T23:00:00","51.2166666","24.6833333","174.0","KOVEL, UP","FM-12","4","","57","64","","","-0.01","3","79","","30.13","29.52","12.43","60","000","","0","","","","","","","","","","","","","","","","","","","","","","","","","","","","","","","","","","","","","","","","","","","","","","","","","","","","","","","","","","","","","","","","","","","","","","","","","","","","","","","","","","","","","","","","","","","SYN05833173 42998 00000 10178 20141 39997 40202 53003 555 1/018=","","","","","","","","","",""
"33173099999","2021-06-19T23:00:00","51.2166666","24.6833333","174.0","KOVEL, UP","FM-12","4","","61","67","","","-0.01","2","79","","30.06","29.46","12.43","63","000","","0","","","","","","","","","","","","","","","","","","","","","","","","","","","","","","","","","","","","","","","","","","","","","","","","","","","","","","","","","","","","","","","","","","","","","","","","","","","","","","","","","","","","","","","","","","","SYN05833173 42998 00000 10196 20159 39976 40179 52005 555 1/020=","","","","","","","","","",""
"33173099999","2021-06-20T23:00:00","51.2166666","24.6833333","174.0","KOVEL, UP","FM-12","4","","57","69","","","-0.02","3","67","","29.93","29.34","12.43","62","110","","7","","","","","","","","","","","","","","","","","","","","","","","","","","","","","","","","","","","","","","","","","","","","","","","","","","","","","","","","","","","","","","","","","","","","","","","","","","","","","","","","","","","","","","","","","","","SYN05833173 42998 01103 10203 20140 39935 40137 53006 555 1/019=","","","","","","","","","",""
"33173099999","2021-06-21T23:00:00","51.2166666","24.6833333","174.0","KOVEL, UP","FM-12","4","","64","69","","","-0.02","2","83","","29.86","29.26","12.43","66","000","","0","","","","","","","","","","","","","","","","","","","","","","","","","","","","","","","","","","","","","","","","","","","","","","","","","","","","","","","","","","","","","","","","","","","","","","","","","","","","","","","","","","","","","","","","","","","SYN05833173 42998 00000 10207 20177 39910 40111 52006 555 1/021=","","","","","","","","","",""
"33173099999","2021-06-24T11:00:00","51.2166666","24.6833333","174.0","KOVEL, UP","FM-12","4","","67","90","","","0.00","4","46","","30.00","29.42","12.43","74","000","","0","","","","","","","","","","","","","","","","","","","","","","","","","","","","","","","","","","","","","","","","","","","","","","","","","","","","","","","","","","","","","","","","","","","","","","","","","","","","","","","","","","","","","","","","","","","SYN05833173 42998 00000 10323 20192 39964 40158 54000 555 1/054=","","","","","","","","","",""
"33173099999","2021-06-27T23:00:00","51.2166666","24.6833333","174.0","KOVEL, UP","FM-12","4","","55","63","","","-0.02","3","76","","29.98","29.38","12.43","58","250","","4","","","","","","","","","","","","","","","","","","","","","","","","","","","","","","","","","","","","","","","","","","","","","","","","","","","","","","","","","","","","","","","","","","","","","","","","","","","","","","","","","","","","","","","","","","","SYN05833173 42998 02502 10172 20129 39949 40154 53007 555 1/015=","","","","","","","","","",""
"33173099999","2021-06-28T23:00:00","51.2166666","24.6833333","174.0","KOVEL, UP","FM-12","4","","58","63","","","-0.01","3","84","","29.98","29.38","12.43","60","000","","0","","","","","","","","","","","","","","","","","","","","","","","","","","","","","","","","","","","","","","","","","","","","","","","","","","","","","","","","","","","","","","","","","","","","","","","","","","","","","","","","","","","","","","","","","","","SYN05833173 42998 00000 10170 20143 39949 40154 53003 555 1/016=","","","","","","","","","",""
"33173099999","2021-06-29T23:00:00","51.2166666","24.6833333","174.0","KOVEL, UP","FM-12","4","","58","65","","","-0.00","3","78","","29.88","29.28","12.43","61","000","","0","","","","","","","","","","","","","","","","","","","","","","","","","","","","","","","","","","","","","","","","","","","","","","","","","","","","","","","","","","","","","","","","","","","","","","","","","","","","","","","","","","","","","","","","","","","SYN05833173 42998 00000 10183 20144 39915 40118 53001 555 1/017=","","","","","","","","","",""
"33173099999","2021-07-06T23:00:00","51.2166666","24.6833333","174.0","KOVEL, UP","FM-12","4","","63","67","","","-0.04","3","85","","29.98","29.38","12.43","65","000","","0","","","","","","","","","","","","","","","","","","","","","","","","","","","","","","","","","","","","","","","","","","","","","","","","","","","","","","","","","","","","","","","","","","","","","","","","","","","","","","","","","","","","","","","","","","","SYN05833173 42998 00000 10196 20170 39950 40153 53013 555 1/020=","","","","","","","","","",""
"33173099999","2021-07-07T23:00:00","51.2166666","24.6833333","174.0","KOVEL, UP","FM-12","4","","65","72","","","-0.04","3","81","","30.13","29.53","12.43","68","140","","2","","","","","","","","","","","","","","","","","","","","","","","","","","","","","","","","","","","","","","","","","","","","","","","","","","","","","","","","","","","","","","","","","","","","","","","","","","","","","","","","","","","","","","","","","","","SYN05833173 42998 01401 10220 20186 30000 40202 53015 555 1/022=","","","","","","","","","",""
"33173099999","2021-07-08T23:00:00","51.2166666","24.6833333","174.0","KOVEL, UP","FM-12","4","","63","70","","","-0.01","3","80","","30.17","29.57","12.43","66","000","","0","","","","","","","","","","","","","","","","","","","","","","","","","","","","","","","","","","","","","","","","","","","","","","","","","","","","","","","","","","","","","","","","","","","","","","","","","","","","","","","","","","","","","","","","","","","SYN05833173 42998 00000 10211 20175 30013 40216 53005 555 1/022=","","","","","","","","","",""
"33173099999","2021-07-09T11:00:00","51.2166666","24.6833333","174.0","KOVEL, UP","FM-12","4","","61","83","","","+0.01","7","47","","30.11","29.52","12.43","69","160","","11","","","","","","","","","","","","","","","","","","","","","","","","","","","","","","","","","","","","","","","","","","","","","","","","","","","","","","","","","","","","","","","","","","","","","","","","","","","","","","","","","","","","","","","","","","","SYN05833173 42998 01605 10285 20161 39998 40196 57003 555 1/044=","","","","","","","","","",""
"33173099999","2021-07-09T23:00:00","51.2166666","24.6833333","174.0","KOVEL, UP","FM-12","4","","58","68","","","-0.01","3","69","","30.05","29.45","12.43","62","110","","4","","","","","","","","","","","","","","","","","","","","","","","","","","","","","","","","","","","","","","","","","","","","","","","","","","","","","","","","","","","","","","","","","","","","","","","","","","","","","","","","","","","","","","","","","","","SYN05833173 42998 01102 10201 20143 39972 40175 53003 555 1/021=","","","","","","","","","",""
"33173099999","2021-07-10T11:00:00","51.2166666","24.6833333","174.0","KOVEL, UP","FM-12","4","","57","83","","","+0.01","8","41","","30.02","29.44","12.43","67","150","","7","","","","","","","","","","","","","","","","","","","","","","","","","","","","","","","","","","","","","","","","","","","","","","","","","","","","","","","","","","","","","","","","","","","","","","","","","","","","","","","","","","","","","","","","","","","SYN05833173 42998 01503 10285 20139 39970 40167 58005 555 1/047=","","","","","","","","","",""
"33173099999","2021-07-10T23:00:00","51.2166666","24.6833333","174.0","KOVEL, UP","FM-12","4","","66","72","","","-0.02","2","82","","30.03","29.44","12.43","68","340","","2","","","","","","","","","","","","","","","","","","","","","","","","","","","","","","","","","","","","","","","","","","","","","","","","","","","","","","","","","","","","","","","","","","","","","","","","","","","","","","","","","","","","","","","","","","","SYN05833173 42998 03401 10223 20191 39968 40169 52007 555 1/023=","","","","","","","","","",""
"33173099999","2021-07-11T23:00:00","51.2166666","24.6833333","174.0","KOVEL, UP","FM-12","4","","63","70","","","-0.01","2","79","","30.01","29.41","12.43","66","000","","0","","","","","","","","","","","","","","","","","","","","","","","","","","","","","","","","","","","","","","","","","","","","","","","","","","","","","","","","","","","","","","","","","","","","","","","","","","","","","","","","","","","","","","","","","","","SYN05833173 42998 00000 10211 20173 39961 40163 52005 555 1/021=","","","","","","","","","",""
"33173099999","2021-07-12T23:00:00","51.2166666","24.6833333","174.0","KOVEL, UP","FM-12","4","","62","71","","","0.00","4","73","","29.94","29.34","12.43","65","000","","0","","","","","","","","","","","","","","","","","","","","","","","","","","","","","","","","","","","","","","","","","","","","","","","","","","","","","","","","","","","","","","","","","","","","","","","","","","","","","","","","","","","","","","","","","","","SYN05833173 42998 00000 10216 20165 39937 40138 54000 555 1/022=","","","","","","","","","",""
"33173099999","2021-07-13T23:00:00","51.2166666","24.6833333","174.0","KOVEL, UP","FM-12","4","","65","72","","","-0.01","2","79","","29.90","29.31","12.43","68","000","","0","","","","","","","","","","","","","","","","","","","","","","","","","","","","","","","","","","","","","","","","","","","","","","","","","","","","","","","","","","","","","","","","","","","","","","","","","","","","","","","","","","","","","","","","","","","SYN05833173 42998 00000 10222 20184 39925 40125 52005 555 1/022=","","","","","","","","","",""
"33173099999","2021-07-14T23:00:00","51.2166666","24.6833333","174.0","KOVEL, UP","FM-12","4","","67","75","","","-0.02","3","77","","29.89","29.30","12.43","70","130","","4","","","","","","","","","","","","","","","","","","","","","","","","","","","","","","","","","","","","","","","","","","","","","","","","","","","","","","","","","","","","","","","","","","","","","","","","","","","","","","","","","","","","","","","","","","","SYN05833173 42998 01302 10239 20196 39923 40122 53006 555 1/024=","","","","","","","","","",""
"33173099999","2021-07-16T23:00:00","51.2166666","24.6833333","174.0","KOVEL, UP","FM-12","4","","66","72","","","-0.01","2","82","","29.91","29.32","12.43","68","000","","0","","","","","","","","","","","","","","","","","","","","","","","","","","","","","","","","","","","","","","","","","","","","","","","","","","","","","","","","","","","","","","","","","","","","","","","","","","","","","","","","","","","","","","","","","","","SYN05833173 42998 00000 10220 20188 39930 40130 52005 555 1/022=","","","","","","","","","",""
"33173099999","2021-07-17T23:00:00","51.2166666","24.6833333","174.0","KOVEL, UP","FM-12","4","","65","72","","","-0.01","3","77","","29.88","29.29","12.43","68","060","","4","","","","","","","","","","","","","","","","","","","","","","","","","","","","","","","","","","","","","","","","","","","","","","","","","","","","","","","","","","","","","","","","","","","","","","","","","","","","","","","","","","","","","","","","","","","SYN05833173 42998 00602 10224 20181 39918 40118 53003 555 1/022=","","","","","","","","","",""
"33173099999","2021-07-22T23:00:00","51.2166666","24.6833333","174.0","KOVEL, UP","FM-12","4","","52","62","","","-0.02","3","70","","30.05","29.44","12.43","56","310","","4","","","","","","","","","","","","","","","","","","","","","","","","","","","","","","","","","","","","","","","","","","","","","","","","","","","","","","","","","","","","","","","","","","","","","","","","","","","","","","","","","","","","","","","","","","","SYN05833173 42998 03102 10168 20113 39970 40175 53007 555 1/016=","","","","","","","","","",""
"33173099999","2021-07-24T23:00:00","51.2166666","24.6833333","174.0","KOVEL, UP","FM-12","4","","57","63","","","-0.02","3","80","","30.03","29.42","12.43","60","000","","0","","","","","","","","","","","","","","","","","","","","","","","","","","","","","","","","","","","","","","","","","","","","","","","","","","","","","","","","","","","","","","","","","","","","","","","","","","","","","","","","","","","","","","","","","","","SYN05833173 42998 00000 10172 20137 39963 40168 53008 555 1/016=","","","","","","","","","",""
"33173099999","2021-07-25T23:00:00","51.2166666","24.6833333","174.0","KOVEL, UP","FM-12","4","","55","65","","","-0.02","2","71","","30.03","29.43","12.43","59","100","","4","","","","","","","","","","","","","","","","","","","","","","","","","","","","","","","","","","","","","","","","","","","","","","","","","","","","","","","","","","","","","","","","","","","","","","","","","","","","","","","","","","","","","","","","","","","SYN05833173 42998 01002 10184 20130 39967 40171 52008 555 1/017=","","","","","","","","","",""
"33173099999","2021-07-28T23:00:00","51.2166666","24.6833333","174.0","KOVEL, UP","FM-12","4","","64","69","","","+0.01","7","84","","29.83","29.24","12.43","66","000","","0","","","","","","","","","","","","","","","","","","","","","","","","","","","","","","","","","","","","","","","","","","","","","","","","","","","","","","","","","","","","","","","","","","","","","","","","","","","","","","","","","","","","","","","","","","","SYN05833173 42998 00000 10208 20180 39902 40103 57003 555 1/022=","","","","","","","","","",""
"33173099999","2021-07-29T23:00:00","51.2166666","24.6833333","174.0","KOVEL, UP","FM-12","4","","60","64","","","-0.02","2","86","","29.85","29.26","12.43","62","000","","0","","","","","","","","","","","","","","","","","","","","","","","","","","","","","","","","","","","","","","","","","","","","","","","","","","","","","","","","","","","","","","","","","","","","","","","","","","","","","","","","","","","","","","","","","","","SYN05833173 42998 00000 10176 20153 39907 40110 52008 555 1/018=","","","","","","","","","",""
"33173099999","2021-07-30T23:00:00","51.2166666","24.6833333","174.0","KOVEL, UP","FM-12","4","","59","64","","","-0.01","3","82","","29.78","29.18","12.43","61","000","","0","","","","","","","","","","","","","","","","","","","","","","","","","","","","","","","","","","","","","","","","","","","","","","","","","","","","","","","","","","","","","","","","","","","","","","","","","","","","","","","","","","","","","","","","","","","SYN05833173 42998 00000 10179 20148 39882 40085 53005 555 1/020=","","","","","","","","","",""
"33173099999","2021-08-02T23:00:00","51.2166666","24.6833333","174.0","KOVEL, UP","FM-12","4","","56","59","","","-0.04","2","89","","29.90","29.29","12.43","57","230","","4","","","","","","","","","","","","","","","","","","","","","","","","","","","","","","","","","","","","","","","","","","","","","","","","","","","","","","","","","","","","","","","","","","","","","","","","","","","","","","","","","","","","","","","","","","","SYN05833173 42998 02302 10151 20133 39920 40125 52012 555 1/015=","","","","","","","","","",""
"33173099999","2021-08-03T23:00:00","51.2166666","24.6833333","174.0","KOVEL, UP","FM-12","4","","54","58","","","-0.02","2","86","","30.00","29.39","12.43","56","000","","0","","","","","","","","","","","","","","","","","","","","","","","","","","","","","","","","","","","","","","","","","","","","","","","","","","","","","","","","","","","","","","","","","","","","","","","","","","","","","","","","","","","","","","","","","","","SYN05833173 42998 00000 10145 20122 39953 40160 52008 555 1/017=","","","","","","","","","",""
"33173099999","2021-08-09T23:00:00","51.2166666","24.6833333","174.0","KOVEL, UP","FM-12","4","","59","62","","","-0.02","2","90","","30.14","29.53","12.43","60","000","","0","","","","","","","","","","","","","","","","","","","","","","","","","","","","","","","","","","","","","","","","","","","","","","","","","","","","","","","","","","","","","","","","","","","","","","","","","","","","","","","","","","","","","","","","","","","SYN05833173 42998 00000 10165 20149 39999 40205 52007 555 1/017=","","","","","","","","","",""
"33173099999","2021-08-10T23:00:00","51.2166666","24.6833333","174.0","KOVEL, UP","FM-12","4","","58","62","","","+0.01","6","86","","30.01","29.40","12.43","60","000","","0","","","","","","","","","","","","","","","","","","","","","","","","","","","","","","","","","","","","","","","","","","","","","","","","","","","","","","","","","","","","","","","","","","","","","","","","","","","","","","","","","","","","","","","","","","","SYN05833173 42998 00000 10167 20144 39957 40162 56002 555 1/018=","","","","","","","","","",""
"33173099999","2021-08-11T23:00:00","51.2166666","24.6833333","174.0","KOVEL, UP","FM-12","4","","56","63","","","-0.03","2","78","","30.06","29.45","12.43","59","300","","7","","","","","","","","","","","","","","","","","","","","","","","","","","","","","","","","","","","","","","","","","","","","","","","","","","","","","","","","","","","","","","","","","","","","","","","","","","","","","","","","","","","","","","","","","","","SYN05833173 42998 03003 10172 20133 39973 40178 52011 555 1/017=","","","","","","","","","",""
"33173099999","2021-08-12T23:00:00","51.2166666","24.6833333","174.0","KOVEL, UP","FM-12","4","","53","60","","","-0.02","2","80","","30.20","29.59","12.43","56","240","","2","","","","","","","","","","","","","","","","","","","","","","","","","","","","","","","","","","","","","","","","","","","","","","","","","","","","","","","","","","","","","","","","","","","","","","","","","","","","","","","","","","","","","","","","","","","SYN05833173 42998 02401 10153 20118 30019 40226 52007 555 1/016=","","","","","","","","","",""
"33173099999","2021-08-13T23:00:00","51.2166666","24.6833333","174.0","KOVEL, UP","FM-12","4","","56","58","","","+0.00","7","90","","30.22","29.61","12.43","57","000","","0","","","","","","","","","","","","","","","","","","","","","","","","","","","","","","","","","","","","","","","","","","","","","","","","","","","","","","","","","","","","","","","","","","","","","","","","","","","","","","","","","","","","","","","","","","","SYN05833173 42998 00000 10147 20131 30026 40234 57001 555 1/016=","","","","","","","","","",""
"33173099999","2021-08-14T23:00:00","51.2166666","24.6833333","174.0","KOVEL, UP","FM-12","4","","64","66","","","+0.03","8","92","","30.03","29.43","12.43","65","000","","0","","","","","","","","","","","","","","","","","","","","","","","","","","","","","","","","","","","","","","","","","","","","","","","","","","","","","","","","","","","","","","","","","","","","","","","","","","","","","","","","","","","","","","","","","","","SYN05833173 42998 00000 10190 20177 39966 40169 58011 555 1/019=","","","","","","","","","",""
"33173099999","2021-08-16T23:00:00","51.2166666","24.6833333","174.0","KOVEL, UP","FM-12","4","","65","68","","","+0.01","8","90","","29.78","29.19","12.43","66","000","","0","","","","","","","","","","","","","","","","","","","","","","","","","","","","","","","","","","","","","","","","","","","","","","","","","","","","","","","","","","","","","","","","","","","","","","","","","","","","","","","","","","","","","","","","","","","SYN05833173 42998 00000 10201 20184 39885 40086 58003 555 1/020=","","","","","","","","","",""
"33173099999","2021-08-17T23:00:00","51.2166666","24.6833333","174.0","KOVEL, UP","FM-12","4","","51","55","","","-0.03","2","88","","29.96","29.35","12.43","53","250","","2","","","","","","","","","","","","","","","","","","","","","","","","","","","","","","","","","","","","","","","","","","","","","","","","","","","","","","","","","","","","","","","","","","","","","","","","","","","","","","","","","","","","","","","","","","","SYN05833173 42998 02501 10126 20107 39938 40146 52010 555 1/013=","","","","","","","","","",""
"33173099999","2021-08-18T23:00:00","51.2166666","24.6833333","174.0","KOVEL, UP","FM-12","4","","50","53","","","0.00","4","90","","29.94","29.32","12.43","51","000","","0","","","","","","","","","","","","","","","","","","","","","","","","","","","","","","","","","","","","","","","","","","","","","","","","","","","","","","","","","","","","","","","","","","","","","","","","","","","","","","","","","","","","","","","","","","","SYN05833173 42998 00000 10115 20099 39930 40138 54000 555 1/013=","","","","","","","","","",""
"33173099999","2021-08-20T23:00:00","51.2166666","24.6833333","174.0","KOVEL, UP","FM-12","4","","55","57","","","-0.02","2","91","","30.03","29.41","12.43","56","000","","0","","","","","","","","","","","","","","","","","","","","","","","","","","","","","","","","","","","","","","","","","","","","","","","","","","","","","","","","","","","","","","","","","","","","","","","","","","","","","","","","","","","","","","","","","","","SYN05833173 42998 00000 10141 20127 39961 40168 52006 555 1/014=","","","","","","","","","",""
"33173099999","2021-08-21T23:00:00","51.2166666","24.6833333","174.0","KOVEL, UP","FM-12","4","","53","55","","","-0.02","2","93","","30.12","29.50","12.43","54","000","","0","","","","","","","","","","","","","","","","","","","","","","","","","","","","","","","","","","","","","","","","","","","","","","","","","","","","","","","","","","","","","","","","","","","","","","","","","","","","","","","","","","","","","","","","","","","SYN05833173 42998 00000 10127 20116 39991 40200 52006 555 1/013=","","","","","","","","","",""
"33173099999","2021-08-28T23:00:00","51.2166666","24.6833333","174.0","KOVEL, UP","FM-12","4","","51","53","","","-0.01","2","94","","29.97","29.36","12.43","52","000","","0","","","","","","","","","","","","","","","","","","","","","","","","","","","","","","","","","","","","","","","","","","","","","","","","","","","","","","","","","","","","","","","","","","","","","","","","","","","","","","","","","","","","","","","","","","","SYN05833173 42998 00000 10118 20108 39942 40150 52004 555 1/012=","","","","","","","","","",""
"33173099999","2021-08-30T23:00:00","51.2166666","24.6833333","174.0","KOVEL, UP","FM-12","4","","51","52","","","+0.01","8","97","","29.83","29.22","12.43","51","000","","0","","","","","","","","","","","","","","","","","","","","","","","","","","","","","","","","","","","","","","","","","","","","","","","","","","","","","","","","","","","","","","","","","","","","","","","","","","","","","","","","","","","","","","","","","","","SYN05833173 42998 00000 10109 20105 39894 40102 58002 555 1/011=","","","","","","","","","",""
"33173099999","2021-09-02T23:00:00","51.2166666","24.6833333","174.0","KOVEL, UP","FM-12","4","","45","48","","","-0.01","1","89","","30.16","29.54","12.43","47","250","","2","","","","","","","","","","","","","","","","","","","","","","","","","","","","","","","","","","","","","","","","","","","","","","","","","","","","","","","","","","","","","","","","","","","","","","","","","","","","","","","","","","","","","","","","","","","SYN05833173 42998 02501 10087 20070 30003 40215 51003 555 1/008=","","","","","","","","","",""
"33173099999","2021-09-04T23:00:00","51.2166666","24.6833333","174.0","KOVEL, UP","FM-12","4","","42","44","","","-0.04","2","92","","30.18","29.55","12.43","43","000","","0","","","","","","","","","","","","","","","","","","","","","","","","","","","","","","","","","","","","","","","","","","","","","","","","","","","","","","","","","","","","","","","","","","","","","","","","","","","","","","","","","","","","","","","","","","","SYN05833173 42998 00000 10065 20053 30007 40221 52015 555 1/008=","","","","","","","","","",""
"33173099999","2021-09-05T23:00:00","51.2166666","24.6833333","174.0","KOVEL, UP","FM-12","4","","39","42","","","-0.02","2","90","","30.36","29.72","12.43","41","000","","0","","","","","","","","","","","","","","","","","","","","","","","","","","","","","","","","","","","","","","","","","","","","","","","","","","","","","","","","","","","","","","","","","","","","","","","","","","","","","","","","","","","","","","","","","","","SYN05833173 42998 00000 10055 20040 30066 40282 52007 555 1/007=","","","","","","","","","",""
"33173099999","2021-09-06T23:00:00","51.2166666","24.6833333","174.0","KOVEL, UP","FM-12","4","","41","43","","","-0.01","2","91","","30.36","29.72","12.43","42","000","","0","","","","","","","","","","","","","","","","","","","","","","","","","","","","","","","","","","","","","","","","","","","","","","","","","","","","","","","","","","","","","","","","","","","","","","","","","","","","","","","","","","","","","","","","","","","SYN05833173 42998 00000 10062 20048 30065 40281 52002 555 1/007=","","","","","","","","","",""
"33173099999","2021-09-07T17:00:00","51.2166666","24.6833333","174.0","KOVEL, UP","FM-12","4","","45","69","","","+0.04","7","42","","30.24","29.64","12.43","56","130","","4","","","","","","","","","","","","","","","","","","","","","","","","","","","","","","","","","","","","","","","","","","","","","","","","","","","","","","","","","","","","","","","","","","","","","","","","","","","","","","","","","","","","","","","","","","","SYN05833173 42998 01302 10204 20071 30037 40241 57012 555 1/025=","","","","","","","","","",""
"33173099999","2021-09-07T23:00:00","51.2166666","24.6833333","174.0","KOVEL, UP","FM-12","4","","45","48","","","-0.01","2","90","","30.29","29.66","12.43","47","000","","0","","","","","","","","","","","","","","","","","","","","","","","","","","","","","","","","","","","","","","","","","","","","","","","","","","","","","","","","","","","","","","","","","","","","","","","","","","","","","","","","","","","","","","","","","","","SYN05833173 42998 00000 10089 20074 30043 40256 52002 555 1/009=","","","","","","","","","",""
"33173099999","2021-09-08T17:00:00","51.2166666","24.6833333","174.0","KOVEL, UP","FM-12","4","","51","74","","","+0.04","7","45","","30.20","29.60","12.43","61","280","","4","","","","","","","","","","","","","","","","","","","","","","","","","","","","","","","","","","","","","","","","","","","","","","","","","","","","","","","","","","","","","","","","","","","","","","","","","","","","","","","","","","","","","","","","","","","SYN05833173 42998 02802 10234 20108 30025 40227 57013 555 1/026=","","","","","","","","","",""
"33173099999","2021-09-08T23:00:00","51.2166666","24.6833333","174.0","KOVEL, UP","FM-12","4","","51","52","","","-0.01","3","94","","30.22","29.60","12.43","51","000","","0","","","","","","","","","","","","","","","","","","","","","","","","","","","","","","","","","","","","","","","","","","","","","","","","","","","","","","","","","","","","","","","","","","","","","","","","","","","","","","","","","","","","","","","","","","","SYN05833173 42998 00000 10113 20104 30023 40234 53002 555 1/011=","","","","","","","","","",""
"33173099999","2021-09-09T17:00:00","51.2166666","24.6833333","174.0","KOVEL, UP","FM-12","4","","50","75","","","+0.04","7","41","","30.09","29.49","12.43","61","140","","4","","","","","","","","","","","","","","","","","","","","","","","","","","","","","","","","","","","","","","","","","","","","","","","","","","","","","","","","","","","","","","","","","","","","","","","","","","","","","","","","","","","","","","","","","","","SYN05833173 42998 01402 10241 20100 39988 40189 57015 555 1/027=","","","","","","","","","",""
"33173099999","2021-09-09T23:00:00","51.2166666","24.6833333","174.0","KOVEL, UP","FM-12","4","","50","53","","","-0.01","3","89","","30.11","29.49","12.43","51","000","","0","","","","","","","","","","","","","","","","","","","","","","","","","","","","","","","","","","","","","","","","","","","","","","","","","","","","","","","","","","","","","","","","","","","","","","","","","","","","","","","","","","","","","","","","","","","SYN05833173 42998 00000 10116 20099 39987 40197 53002 555 1/011=","","","","","","","","","",""
"33173099999","2021-09-10T23:00:00","51.2166666","24.6833333","174.0","KOVEL, UP","FM-12","4","","51","53","","","-0.01","2","92","","30.09","29.47","12.43","52","000","","0","","","","","","","","","","","","","","","","","","","","","","","","","","","","","","","","","","","","","","","","","","","","","","","","","","","","","","","","","","","","","","","","","","","","","","","","","","","","","","","","","","","","","","","","","","","SYN05833173 42998 00000 10116 20104 39979 40188 52003 555 1/011=","","","","","","","","","",""
"33173099999","2021-09-11T23:00:00","51.2166666","24.6833333","174.0","KOVEL, UP","FM-12","4","","52","54","","","0.00","4","91","","30.03","29.41","12.43","53","000","","0","","","","","","","","","","","","","","","","","","","","","","","","","","","","","","","","","","","","","","","","","","","","","","","","","","","","","","","","","","","","","","","","","","","","","","","","","","","","","","","","","","","","","","","","","","","SYN05833173 42998 00000 10125 20111 39961 40169 54000 555 1/012=","","","","","","","","","",""
"33173099999","2021-09-12T23:00:00","51.2166666","24.6833333","174.0","KOVEL, UP","FM-12","4","","56","60","","","-0.01","3","90","","29.96","29.35","12.43","58","000","","0","","","","","","","","","","","","","","","","","","","","","","","","","","","","","","","","","","","","","","","","","","","","","","","","","","","","","","","","","","","","","","","","","","","","","","","","","","","","","","","","","","","","","","","","","","","SYN05833173 42998 00000 10153 20136 39938 40144 53004 555 1/014=","","","","","","","","","",""
"33173099999","2021-09-26T23:00:00","51.2166666","24.6833333","174.0","KOVEL, UP","FM-12","4","","43","45","","","-0.02","2","93","","30.23","29.60","12.43","44","000","","0","","","","","","","","","","","","","","","","","","","","","","","","","","","","","","","","","","","","","","","","","","","","","","","","","","","","","","","","","","","","","","","","","","","","","","","","","","","","","","","","","","","","","","","","","","","SYN05833173 42998 00000 10073 20063 30023 40237 52007 555 1/008=","","","","","","","","","",""
"33173099999","2021-09-27T11:00:00","51.2166666","24.6833333","174.0","KOVEL, UP","FM-12","4","","46","57","","","-0.01","1","66","","30.25","29.64","12.43","51","120","","7","","","","","","","","","","","","","","","","","","","","","","","","","","","","","","","","","","","","","","","","","","","","","","","","","","","","","","","","","","","","","","","","","","","","","","","","","","","","","","","","","","","","","","","","","","","SYN05833173 42998 01203 10141 20079 30036 40245 51003 555 1/020=","","","","","","","","","",""
"33173099999","2021-09-27T23:00:00","51.2166666","24.6833333","174.0","KOVEL, UP","FM-12","4","","42","45","","","-0.01","1","90","","30.25","29.62","12.43","44","110","","4","","","","","","","","","","","","","","","","","","","","","","","","","","","","","","","","","","","","","","","","","","","","","","","","","","","","","","","","","","","","","","","","","","","","","","","","","","","","","","","","","","","","","","","","","","","SYN05833173 42998 01102 10070 20054 30030 40244 51003 555 1/007=","","","","","","","","","",""
"33173099999","2021-09-29T23:00:00","51.2166666","24.6833333","174.0","KOVEL, UP","FM-12","4","","43","45","","","-0.00","3","92","","30.36","29.72","12.43","44","110","","9","","","","","","","","","","","","","","","","","","","","","","","","","","","","","","","","","","","","","","","","","","","","","","","","","","","","","","","","","","","","","","","","","","","","","","","","","","","","","","","","","","","","","","","","","","","SYN05833173 42998 01104 10075 20063 30066 40281 53001 555 1/007=","","","","","","","","","",""
"33173099999","2021-10-02T23:00:00","51.2166666","24.6833333","174.0","KOVEL, UP","FM-12","4","","41","49","","","-0.01","2","72","","30.25","29.62","12.43","45","140","","4","","","","","","","","","","","","","","","","","","","","","","","","","","","","","","","","","","","","","","","","","","","","","","","","","","","","","","","","","","","","","","","","","","","","","","","","","","","","","","","","","","","","","","","","","","","SYN05833173 42998 01402 10096 20048 30031 40243 52002 555 1/008=","","","","","","","","","",""
"33173099999","2021-10-03T23:00:00","51.2166666","24.6833333","174.0","KOVEL, UP","FM-12","4","","42","50","","","-0.01","2","74","","30.21","29.58","12.43","46","120","","4","","","","","","","","","","","","","","","","","","","","","","","","","","","","","","","","","","","","","","","","","","","","","","","","","","","","","","","","","","","","","","","","","","","","","","","","","","","","","","","","","","","","","","","","","","","SYN05833173 42998 01202 10101 20057 30018 40230 52004 555 1/007=","","","","","","","","","",""
"33173099999","2021-10-05T11:00:00","51.2166666","24.6833333","174.0","KOVEL, UP","FM-12","4","","42","60","","","-0.01","2","51","","30.28","29.67","12.43","51","130","","13","","","","","","","","","","","","","","","","","","","","","","","","","","","","","","","","","","","","","","","","","","","","","","","","","","","","","","","","","","","","","","","","","","","","","","","","","","","","","","","","","","","","","","","","","","","SYN05833173 42998 01306 10156 20055 30047 40255 52003 555 1/024=","","","","","","","","","",""
"33173099999","2021-10-05T17:00:00","51.2166666","24.6833333","174.0","KOVEL, UP","FM-12","4","","37","61","","","+0.02","7","41","","30.24","29.63","12.43","49","120","","13","","","","","","","","","","","","","","","","","","","","","","","","","","","","","","","","","","","","","","","","","","","","","","","","","","","","","","","","","","","","","","","","","","","","","","","","","","","","","","","","","","","","","","","","","","","SYN05833173 42998 01206 10161 20028 30034 40242 57006 555 1/016=","","","","","","","","","",""
"33173099999","2021-10-05T23:00:00","51.2166666","24.6833333","174.0","KOVEL, UP","FM-12","4","","37","48","","","-0.01","2","65","","30.28","29.65","12.43","43","120","","9","","","","","","","","","","","","","","","","","","","","","","","","","","","","","","","","","","","","","","","","","","","","","","","","","","","","","","","","","","","","","","","","","","","","","","","","","","","","","","","","","","","","","","","","","","","SYN05833173 42998 01204 10090 20026 30040 40253 52002 555 1/006=","","","","","","","","","",""
"33173099999","2021-10-06T23:00:00","51.2166666","24.6833333","174.0","KOVEL, UP","FM-12","4","","35","47","","","-0.02","2","65","","30.39","29.75","12.43","42","100","","9","","","","","","","","","","","","","","","","","","","","","","","","","","","","","","","","","","","","","","","","","","","","","","","","","","","","","","","","","","","","","","","","","","","","","","","","","","","","","","","","","","","","","","","","","","","SYN05833173 42998 01004 10081 20018 30075 40290 52008 555 1/006=","","","","","","","","","",""
"33173099999","2021-10-07T17:00:00","51.2166666","24.6833333","174.0","KOVEL, UP","FM-12","4","","30","53","","","-0.01","3","43","","30.49","29.86","12.43","43","100","","9","","","","","","","","","","","","","","","","","","","","","","","","","","","","","","","","","","","","","","","","","","","","","","","","","","","","","","","","","","","","","","","","","","","","","","","","","","","","","","","","","","","","","","","","","","","SYN05833173 42998 01004 10114 21010 30113 40326 53004 555 1/012=","","","","","","","","","",""
"33173099999","2021-10-07T23:00:00","51.2166666","24.6833333","174.0","KOVEL, UP","FM-12","4","","28","40","","","-0.01","1","62","","30.56","29.91","12.43","35","100","","7","","","","","","","","","","","","","","","","","","","","","","","","","","","","","","","","","","","","","","","","","","","","","","","","","","","","","","","","","","","","","","","","","","","","","","","","","","","","","","","","","","","","","","","","","","","SYN05833173 42998 01003 10046 21021 30129 40348 51004 555 1/002=","","","","","","","","","",""
"33173099999","2021-10-08T11:00:00","51.2166666","24.6833333","174.0","KOVEL, UP","FM-12","4","","30","51","","","-0.01","1","45","","30.63","30.00","12.43","42","100","","7","","","","","","","","","","","","","","","","","","","","","","","","","","","","","","","","","","","","","","","","","","","","","","","","","","","","","","","","","","","","","","","","","","","","","","","","","","","","","","","","","","","","","","","","","","","SYN05833173 42998 01003 10105 21010 30158 40373 51004 555 1/020=","","","","","","","","","",""
"33173099999","2021-10-08T17:00:00","51.2166666","24.6833333","174.0","KOVEL, UP","FM-12","4","","30","53","","","+0.02","7","41","","30.58","29.96","12.43","43","070","","4","","","","","","","","","","","","","","","","","","","","","","","","","","","","","","","","","","","","","","","","","","","","","","","","","","","","","","","","","","","","","","","","","","","","","","","","","","","","","","","","","","","","","","","","","","","SYN05833173 42998 00702 10116 21012 30144 40357 57006 555 1/012=","","","","","","","","","",""
"33173099999","2021-10-08T23:00:00","51.2166666","24.6833333","174.0","KOVEL, UP","FM-12","4","","31","37","","","-0.01","2","78","","30.62","29.97","12.43","35","050","","4","","","","","","","","","","","","","","","","","","","","","","","","","","","","","","","","","","","","","","","","","","","","","","","","","","","","","","","","","","","","","","","","","","","","","","","","","","","","","","","","","","","","","","","","","","","SYN05833173 42998 00502 10028 21007 30149 40369 52002 555 1/001=","","","","","","","","","",""
"33173099999","2021-10-09T11:00:00","51.2166666","24.6833333","174.0","KOVEL, UP","FM-12","4","","31","51","","","0.00","4","47","","30.60","29.97","12.43","42","070","","7","","","","","","","","","","","","","","","","","","","","","","","","","","","","","","","","","","","","","","","","","","","","","","","","","","","","","","","","","","","","","","","","","","","","","","","","","","","","","","","","","","","","","","","","","","","SYN05833173 42998 00703 10103 21005 30149 40364 54000 555 1/020=","","","","","","","","","",""
"33173099999","2021-10-09T17:00:00","51.2166666","24.6833333","174.0","KOVEL, UP","FM-12","4","","29","53","","","+0.03","7","40","","30.54","29.91","12.43","43","060","","4","","","","","","","","","","","","","","","","","","","","","","","","","","","","","","","","","","","","","","","","","","","","","","","","","","","","","","","","","","","","","","","","","","","","","","","","","","","","","","","","","","","","","","","","","","","SYN05833173 42998 00602 10114 21017 30128 40341 57009 555 1/012=","","","","","","","","","",""
"33173099999","2021-10-09T23:00:00","51.2166666","24.6833333","174.0","KOVEL, UP","FM-12","4","","29","34","","","0.00","4","84","","30.57","29.91","12.43","32","000","","0","","","","","","","","","","","","","","","","","","","","","","","","","","","","","","","","","","","","","","","","","","","","","","","","","","","","","","","","","","","","","","","","","","","","","","","","","","","","","","","","","","","","","","","","","","","SYN05833173 42998 00000 10009 21015 30130 40352 54000 555 1/100=","","","","","","","","","",""
"33173099999","2021-10-10T11:00:00","51.2166666","24.6833333","174.0","KOVEL, UP","FM-12","4","","29","51","","","+0.01","7","42","","30.51","29.88","12.43","42","120","","7","","","","","","","","","","","","","","","","","","","","","","","","","","","","","","","","","","","","","","","","","","","","","","","","","","","","","","","","","","","","","","","","","","","","","","","","","","","","","","","","","","","","","","","","","","","SYN05833173 42998 01203 10107 21017 30117 40331 57005 555 1/020=","","","","","","","","","",""
"33173099999","2021-10-10T17:00:00","51.2166666","24.6833333","174.0","KOVEL, UP","FM-12","4","","25","52","","","+0.04","7","35","","30.43","29.80","12.43","41","110","","4","","","","","","","","","","","","","","","","","","","","","","","","","","","","","","","","","","","","","","","","","","","","","","","","","","","","","","","","","","","","","","","","","","","","","","","","","","","","","","","","","","","","","","","","","","","SYN05833173 42998 01102 10109 21039 30092 40305 57014 555 1/010=","","","","","","","","","",""
"33173099999","2021-10-10T23:00:00","51.2166666","24.6833333","174.0","KOVEL, UP","FM-12","4","","27","30","","","+0.03","7","88","","30.41","29.75","12.43","29","000","","0","","","","","","","","","","","","","","","","","","","","","","","","","","","","","","","","","","","","","","","","","","","","","","","","","","","","","","","","","","","","","","","","","","","","","","","","","","","","","","","","","","","","","","","","","","","SYN05833173 42998 00000 11010 21027 30075 40297 57009 555 1/101=","","","","","","","","","",""
"33173099999","2021-10-12T23:00:00","51.2166666","24.6833333","174.0","KOVEL, UP","FM-12","4","","34","35","","","-0.01","2","96","","29.92","29.28","12.43","35","000","","0","","","","","","","","","","","","","","","","","","","","","","","","","","","","","","","","","","","","","","","","","","","","","","","","","","","","","","","","","","","","","","","","","","","","","","","","","","","","","","","","","","","","","","","","","","","SYN05833173 42998 00000 10017 20011 39915 40131 52003 555 1/000=","","","","","","","","","",""
"33173099999","2021-10-14T17:00:00","51.2166666","24.6833333","174.0","KOVEL, UP","FM-12","4","","37","46","","","+0.01","7","71","","30.18","29.55","12.43","42","270","","4","","","","","","","","","","","","","","","","","","","","","","","","","","","","","","","","","","","","","","","","","","","","","","","","","","","","","","","","","","","","","","","","","","","","","","","","","","","","","","","","","","","","","","","","","","","SYN05833173 42998 02702 10077 20028 30007 40220 57003 555 1/007=","","","","","","","","","",""
"33173099999","2021-10-15T23:00:00","51.2166666","24.6833333","174.0","KOVEL, UP","FM-12","4","","35","42","","","+0.02","7","76","","30.00","29.37","12.43","39","180","","4","","","","","","","","","","","","","","","","","","","","","","","","","","","","","","","","","","","","","","","","","","","","","","","","","","","","","","","","","","","","","","","","","","","","","","","","","","","","","","","","","","","","","","","","","","","SYN05833173 42998 01802 10057 20018 39945 40159 57007 555 1/003=","","","","","","","","","",""
"33173099999","2021-10-18T23:00:00","51.2166666","24.6833333","174.0","KOVEL, UP","FM-12","4","","38","40","","","-0.03","2","92","","30.26","29.62","12.43","39","270","","4","","","","","","","","","","","","","","","","","","","","","","","","","","","","","","","","","","","","","","","","","","","","","","","","","","","","","","","","","","","","","","","","","","","","","","","","","","","","","","","","","","","","","","","","","","","SYN05833173 42998 02702 10047 20035 30031 40247 52011 555 1/002=","","","","","","","","","",""
"33173099999","2021-10-22T23:00:00","51.2166666","24.6833333","174.0","KOVEL, UP","FM-12","4","","29","44","","","-0.01","2","57","","29.85","29.23","12.43","38","220","","4","","","","","","","","","","","","","","","","","","","","","","","","","","","","","","","","","","","","","","","","","","","","","","","","","","","","","","","","","","","","","","","","","","","","","","","","","","","","","","","","","","","","","","","","","","","SYN05833173 42998 02202 10065 21014 39898 40110 52002 555 1/002=","","","","","","","","","",""
"33173099999","2021-10-24T23:00:00","51.2166666","24.6833333","174.0","KOVEL, UP","FM-12","4","","28","31","","","-0.01","2","92","","30.52","29.86","12.43","30","000","","0","","","","","","","","","","","","","","","","","","","","","","","","","","","","","","","","","","","","","","","","","","","","","","","","","","","","","","","","","","","","","","","","","","","","","","","","","","","","","","","","","","","","","","","","","","","SYN05833173 42998 00000 11008 21020 30113 40336 52003 555 1/101=","","","","","","","","","",""
"33173099999","2021-10-25T11:00:00","51.2166666","24.6833333","174.0","KOVEL, UP","FM-12","4","","34","46","","","+0.01","7","62","","30.47","29.83","12.43","41","150","","7","","","","","","","","","","","","","","","","","","","","","","","","","","","","","","","","","","","","","","","","","","","","","","","","","","","","","","","","","","","","","","","","","","","","","","","","","","","","","","","","","","","","","","","","","","","SYN05833173 42998 01503 10077 20009 30103 40318 57004 555 1/017=","","","","","","","","","",""
"33173099999","2021-10-25T17:00:00","51.2166666","24.6833333","174.0","KOVEL, UP","FM-12","4","","30","48","","","+0.06","7","50","","30.36","29.73","12.43","40","140","","4","","","","","","","","","","","","","","","","","","","","","","","","","","","","","","","","","","","","","","","","","","","","","","","","","","","","","","","","","","","","","","","","","","","","","","","","","","","","","","","","","","","","","","","","","","","SYN05833173 42998 01402 10089 21010 30068 40282 57019 555 1/005=","","","","","","","","","",""
"33173099999","2021-10-25T23:00:00","51.2166666","24.6833333","174.0","KOVEL, UP","FM-12","4","","29","37","","","+0.02","7","73","","30.31","29.67","12.43","34","150","","4","","","","","","","","","","","","","","","","","","","","","","","","","","","","","","","","","","","","","","","","","","","","","","","","","","","","","","","","","","","","","","","","","","","","","","","","","","","","","","","","","","","","","","","","","","","SYN05833173 42998 01502 10026 21018 30047 40265 57008 555 1/101=","","","","","","","","","",""
"33173099999","2021-10-28T23:00:00","51.2166666","24.6833333","174.0","KOVEL, UP","FM-12","4","","39","41","","","0.00","4","93","","30.33","29.70","12.43","40","000","","0","","","","","","","","","","","","","","","","","","","","","","","","","","","","","","","","","","","","","","","","","","","","","","","","","","","","","","","","","","","","","","","","","","","","","","","","","","","","","","","","","","","","","","","","","","","SYN05833173 42998 00000 10051 20041 30056 40272 54000 555 1/003=","","","","","","","","","",""
"33173099999","2021-10-29T11:00:00","51.2166666","24.6833333","174.0","KOVEL, UP","FM-12","4","","44","52","","","-0.00","3","75","","30.28","29.66","12.43","48","150","","7","","","","","","","","","","","","","","","","","","","","","","","","","","","","","","","","","","","","","","","","","","","","","","","","","","","","","","","","","","","","","","","","","","","","","","","","","","","","","","","","","","","","","","","","","","","SYN05833173 42998 01503 10112 20069 30044 40255 53001 555 1/019=","","","","","","","","","",""
"33173099999","2021-10-29T23:00:00","51.2166666","24.6833333","174.0","KOVEL, UP","FM-12","4","","42","48","","","-0.00","3","80","","30.24","29.61","12.43","45","140","","4","","","","","","","","","","","","","","","","","","","","","","","","","","","","","","","","","","","","","","","","","","","","","","","","","","","","","","","","","","","","","","","","","","","","","","","","","","","","","","","","","","","","","","","","","","","SYN05833173 42998 01402 10090 20057 30027 40240 53001 555 1/004=","","","","","","","","","",""
"33173099999","2021-10-30T11:00:00","51.2166666","24.6833333","174.0","KOVEL, UP","FM-12","4","","44","57","","","+0.00","8","62","","30.20","29.58","12.43","50","150","","4","","","","","","","","","","","","","","","","","","","","","","","","","","","","","","","","","","","","","","","","","","","","","","","","","","","","","","","","","","","","","","","","","","","","","","","","","","","","","","","","","","","","","","","","","","","SYN05833173 42998 01502 10137 20065 30018 40227 58001 555 1/019=","","","","","","","","","",""
"33173099999","2021-10-30T17:00:00","51.2166666","24.6833333","174.0","KOVEL, UP","FM-12","4","","43","57","","","+0.02","7","58","","30.15","29.54","12.43","50","130","","7","","","","","","","","","","","","","","","","","","","","","","","","","","","","","","","","","","","","","","","","","","","","","","","","","","","","","","","","","","","","","","","","","","","","","","","","","","","","","","","","","","","","","","","","","","","SYN05833173 42998 01303 10141 20059 30002 40210 57006 555 1/009=","","","","","","","","","",""
"33173099999","2021-10-30T23:00:00","51.2166666","24.6833333","174.0","KOVEL, UP","FM-12","4","","40","47","","","-0.01","2","78","","30.18","29.55","12.43","44","130","","7","","","","","","","","","","","","","","","","","","","","","","","","","","","","","","","","","","","","","","","","","","","","","","","","","","","","","","","","","","","","","","","","","","","","","","","","","","","","","","","","","","","","","","","","","","","SYN05833173 42998 01303 10083 20047 30008 40221 52003 555 1/004=","","","","","","","","","",""
"33173099999","2021-10-31T11:00:00","51.2166666","24.6833333","174.0","KOVEL, UP","FM-12","4","","42","53","","","-0.01","2","65","","30.16","29.54","12.43","48","170","","7","","","","","","","","","","","","","","","","","","","","","","","","","","","","","","","","","","","","","","","","","","","","","","","","","","","","","","","","","","","","","","","","","","","","","","","","","","","","","","","","","","","","","","","","","","","SYN05833173 42998 01703 10118 20054 30004 40214 52002 555 1/018=","","","","","","","","","",""
"33173099999","2021-10-31T17:00:00","51.2166666","24.6833333","174.0","KOVEL, UP","FM-12","4","","38","54","","","+0.02","7","56","","30.09","29.48","12.43","46","130","","7","","","","","","","","","","","","","","","","","","","","","","","","","","","","","","","","","","","","","","","","","","","","","","","","","","","","","","","","","","","","","","","","","","","","","","","","","","","","","","","","","","","","","","","","","","","SYN05833173 42998 01303 10121 20036 39982 40191 57008 555 1/008=","","","","","","","","","",""
"33173099999","2021-10-31T23:00:00","51.2166666","24.6833333","174.0","KOVEL, UP","FM-12","4","","38","41","","","+0.02","7","90","","30.08","29.44","12.43","40","130","","4","","","","","","","","","","","","","","","","","","","","","","","","","","","","","","","","","","","","","","","","","","","","","","","","","","","","","","","","","","","","","","","","","","","","","","","","","","","","","","","","","","","","","","","","","","","SYN05833173 42998 01302 10051 20036 39970 40185 57008 555 1/001=","","","","","","","","","",""
"33173099999","2021-11-01T11:00:00","51.2166666","24.6833333","174.0","KOVEL, UP","FM-12","4","","39","48","","","+0.02","7","73","","29.96","29.33","12.43","44","120","","7","","","","","","","","","","","","","","","","","","","","","","","","","","","","","","","","","","","","","","","","","","","","","","","","","","","","","","","","","","","","","","","","","","","","","","","","","","","","","","","","","","","","","","","","","","","SYN05833173 42998 01203 10087 20040 39933 40144 57006 555 1/014=","","","","","","","","","",""
"33173099999","2021-11-01T17:00:00","51.2166666","24.6833333","174.0","KOVEL, UP","FM-12","4","","37","48","","","+0.01","7","67","","29.88","29.26","12.43","43","170","","7","","","","","","","","","","","","","","","","","","","","","","","","","","","","","","","","","","","","","","","","","","","","","","","","","","","","","","","","","","","","","","","","","","","","","","","","","","","","","","","","","","","","","","","","","","","SYN05833173 42998 01703 10088 20030 39910 40120 57005 555 1/006=","","","","","","","","","",""
"33173099999","2021-11-01T23:00:00","51.2166666","24.6833333","174.0","KOVEL, UP","FM-12","4","","35","37","","","+0.01","7","95","","29.87","29.23","12.43","36","120","","2","","","","","","","","","","","","","","","","","","","","","","","","","","","","","","","","","","","","","","","","","","","","","","","","","","","","","","","","","","","","","","","","","","","","","","","","","","","","","","","","","","","","","","","","","","","SYN05833173 42998 01201 10027 20019 39899 40114 57005 555 1/101=","","","","","","","","","",""
"33173099999","2021-11-03T17:00:00","51.2166666","24.6833333","174.0","KOVEL, UP","FM-12","4","","40","49","","","-0.05","2","72","","29.88","29.26","12.43","45","200","","2","","","","","","","","","","","","","","","","","","","","","","","","","","","","","","","","","","","","","","","","","","","","","","","","","","","","","","","","","","","","","","","","","","","","","","","","","","","","","","","","","","","","","","","","","","","SYN05833173 42998 02001 10093 20044 39907 40117 52016 555 1/005=","","","","","","","","","",""
"33173099999","2021-11-03T23:00:00","51.2166666","24.6833333","174.0","KOVEL, UP","FM-12","4","","35","36","","","-0.01","1","93","","29.96","29.32","12.43","36","120","","4","","","","","","","","","","","","","","","","","","","","","","","","","","","","","","","","","","","","","","","","","","","","","","","","","","","","","","","","","","","","","","","","","","","","","","","","","","","","","","","","","","","","","","","","","","","SYN05833173 42998 01202 10025 20015 39928 40144 51005 555 1/000=","","","","","","","","","",""
"33173099999","2021-11-09T17:00:00","51.2166666","24.6833333","174.0","KOVEL, UP","FM-12","4","","28","31","","","-0.04","2","91","","30.55","29.89","12.43","30","290","","4","","","","","","","","","","","","","","","","","","","","","","","","","","","","","","","","","","","","","","","","","","","","","","","","","","","","","","","","","","","","","","","","","","","","","","","","","","","","","","","","","","","","","","","","","","","SYN05833173 42998 02902 11007 21020 30123 40346 52012 555 1/100=","","","","","","","","","",""
"33173099999","2021-11-09T23:00:00","51.2166666","24.6833333","174.0","KOVEL, UP","FM-12","4","","23","24","","","-0.04","2","98","","30.65","29.98","12.43","24","000","","0","","","","","","","","","","","","","","","","","","","","","","","","","","","","","","","","","","","","","","","","","","","","","","","","","","","","","","","","","","","","","","","","","","","","","","","","","","","","","","","","","","","","","","","","","","","SYN05833173 42998 00000 11046 21049 30153 40380 52012 555 1/104=","","","","","","","","","",""
"33173099999","2021-11-10T11:00:00","51.2166666","24.6833333","174.0","KOVEL, UP","FM-12","4","","32","37","","","+0.01","7","80","","30.57","29.92","12.43","35","160","","7","","","","","","","","","","","","","","","","","","","","","","","","","","","","","","","","","","","","","","","","","","","","","","","","","","","","","","","","","","","","","","","","","","","","","","","","","","","","","","","","","","","","","","","","","","","SYN05833173 42998 01603 10029 21002 30132 40352 57004 555 1/005=","","","","","","","","","",""
"33173099999","2021-11-13T23:00:00","51.2166666","24.6833333","174.0","KOVEL, UP","FM-12","4","","36","38","","","+0.01","8","95","","30.18","29.54","12.43","37","100","","7","","","","","","","","","","","","","","","","","","","","","","","","","","","","","","","","","","","","","","","","","","","","","","","","","","","","","","","","","","","","","","","","","","","","","","","","","","","","","","","","","","","","","","","","","","","SYN05833173 42998 01003 10031 20024 30002 40219 58002 555 1/001=","","","","","","","","","",""
"33173099999","2021-11-25T11:00:00","51.2166666","24.6833333","174.0","KOVEL, UP","FM-12","4","","31","39","","","+0.05","7","74","","30.03","29.40","12.43","36","170","","4","","","","","","","","","","","","","","","","","","","","","","","","","","","","","","","","","","","","","","","","","","","","","","","","","","","","","","","","","","","","","","","","","","","","","","","","","","","","","","","","","","","","","","","","","","","SYN05833173 42998 01702 10039 21003 39956 40171 57016 555 1/006=","","","","","","","","","",""
"33173099999","2021-11-25T17:00:00","51.2166666","24.6833333","174.0","KOVEL, UP","FM-12","4","","29","37","","","+0.08","7","72","","29.87","29.23","12.43","34","140","","7","","","","","","","","","","","","","","","","","","","","","","","","","","","","","","","","","","","","","","","","","","","","","","","","","","","","","","","","","","","","","","","","","","","","","","","","","","","","","","","","","","","","","","","","","","","SYN05833173 42998 01403 10030 21017 39899 40114 57026 555 1/000=","","","","","","","","","",""
"33173099999","2021-11-25T23:00:00","51.2166666","24.6833333","174.0","KOVEL, UP","FM-12","4","","29","33","","","+0.04","7","87","","29.79","29.15","12.43","31","190","","7","","","","","","","","","","","","","","","","","","","","","","","","","","","","","","","","","","","","","","","","","","","","","","","","","","","","","","","","","","","","","","","","","","","","","","","","","","","","","","","","","","","","","","","","","","","SYN05833173 42998 01903 10003 21016 39872 40088 57013 555 1/000=","","","","","","","","","",""
"33173099999","2021-12-03T17:00:00","51.2166666","24.6833333","174.0","KOVEL, UP","FM-12","4","","24","31","","","-0.04","2","74","","29.80","29.15","12.43","28","220","","4","","","","","","","","","","","","","","","","","","","","","","","","","","","","","","","","","","","","","","","","","","","","","","","","","","","","","","","","","","","","","","","","","","","","","","","","","","","","","","","","","","","","","","","","","","","SYN05833173 42998 02202 11005 21047 39873 40090 52015 555 1/101=","","","","","","","","","",""
"33173099999","2021-12-04T23:00:00","51.2166666","24.6833333","174.0","KOVEL, UP","FM-12","4","","22","25","","","+0.00","7","86","","29.78","29.13","12.43","24","190","","2","","","","","","","","","","","","","","","","","","","","","","","","","","","","","","","","","","","","","","","","","","","","","","","","","","","","","","","","","","","","","","","","","","","","","","","","","","","","","","","","","","","","","","","","","","","SYN05833173 42998 01901 11037 21057 39863 40083 57001 555 1/104=","","","","","","","","","",""
"33173099999","2021-12-22T17:00:00","51.2166666","24.6833333","174.0","KOVEL, UP","FM-12","4","","9","17","","","-0.02","2","73","","30.35","29.68","12.43","15","000","","0","","","","","","","","","","","","","","","","","","","","","","","","","","","","","","","","","","","","","","","","","","","","","","","","","","","","","","","","","","","","","","","","","","","","","","","","","","","","","","","","","","","","","","","","","","","SYN05833173 42998 00000 11086 21126 30050 40278 52007 555 1/109=","","","","","","","","","",""
"33173099999","2021-12-25T23:00:00","51.2166666","24.6833333","174.0","KOVEL, UP","FM-12","4","","14","16","","","-0.01","1","92","","29.94","29.28","12.43","15","270","","2","","","","","","","","","","","","","","","","","","","","","","","","","","","","","","","","","","","","","","","","","","","","","","","","","","","","","","","","","","","","","","","","","","","","","","","","","","","","","","","","","","","","","","","","","","","SYN05833173 42998 02701 11089 21100 39915 40140 51005 555 1/108=","","","","","","","","","",""
"33173099999","2021-12-26T11:00:00","51.2166666","24.6833333","174.0","KOVEL, UP","FM-12","4","","17","20","","","-0.04","3","87","","30.02","29.36","12.43","19","270","","7","","","","","","","","","","","","","","","","","","","","","","","","","","","","","","","","","","","","","","","","","","","","","","","","","","","","","","","","","","","","","","","","","","","","","","","","","","","","","","","","","","","","","","","","","","","SYN05833173 42998 02703 11066 21085 39941 40165 53012 555 1/104=","","","","","","","","","",""
"33173099999","2021-12-26T17:00:00","51.2166666","24.6833333","174.0","KOVEL, UP","FM-12","4","","17","22","","","-0.03","3","80","","30.04","29.38","12.43","20","270","","4","","","","","","","","","","","","","","","","","","","","","","","","","","","","","","","","","","","","","","","","","","","","","","","","","","","","","","","","","","","","","","","","","","","","","","","","","","","","","","","","","","","","","","","","","","","SYN05833173 42998 02702 11055 21085 39949 40172 53009 555 1/108=","","","","","","","","","",""
"33173099999","2021-12-26T23:00:00","51.2166666","24.6833333","174.0","KOVEL, UP","FM-12","4","","10","11","","","-0.02","1","93","","30.12","29.44","12.43","11","000","","0","","","","","","","","","","","","","","","","","","","","","","","","","","","","","","","","","","","","","","","","","","","","","","","","","","","","","","","","","","","","","","","","","","","","","","","","","","","","","","","","","","","","","","","","","","","SYN05833173 42998 00000 11114 21123 39971 40200 51007 555 1/110=","","","","","","","","","",""
"33173099999","2021-12-27T23:00:00","51.2166666","24.6833333","174.0","KOVEL, UP","FM-12","4","","10","13","","","+0.01","8","90","","30.12","29.45","12.43","12","090","","7","","","","","","","","","","","","","","","","","","","","","","","","","","","","","","","","","","","","","","","","","","","","","","","","","","","","","","","","","","","","","","","","","","","","","","","","","","","","","","","","","","","","","","","","","","","SYN05833173 42998 00903 11107 21120 39972 40200 58002 555 1/110=","","","","","","","","","",""
