"STATION","DATE","LATITUDE","LONGITUDE","ELEVATION","NAME","REPORT_TYPE","SOURCE","HourlyAltimeterSetting","HourlyDewPointTemperature","HourlyDryBulbTemperature","HourlyPrecipitation","HourlyPresentWeatherType","HourlyPressureChange","HourlyPressureTendency","HourlyRelativeHumidity","HourlySkyConditions","HourlySeaLevelPressure","HourlyStationPressure","HourlyVisibility","HourlyWetBulbTemperature","HourlyWindDirection","HourlyWindGustSpeed","HourlyWindSpeed","Sunrise","Sunset","DailyAverageDewPointTemperature","DailyAverageDryBulbTemperature","DailyAverageRelativeHumidity","DailyAverageSeaLevelPressure","DailyAverageStationPressure","DailyAverageWetBulbTemperature","DailyAverageWindSpeed","DailyCoolingDegreeDays","DailyDepartureFromNormalAverageTemperature","DailyHeatingDegreeDays","DailyMaximumDryBulbTemperature","DailyMinimumDryBulbTemperature","DailyPeakWindDirection","DailyPeakWindSpeed","DailyPrecipitation","DailySnowDepth","DailySnowfall","DailySustainedWindDirection","DailySustainedWindSpeed","DailyWeather","MonthlyAverageRH","MonthlyDaysWithGT001Precip","MonthlyDaysWithGT010Precip","MonthlyDaysWithGT32Temp","MonthlyDaysWithGT90Temp","MonthlyDaysWithLT0Temp","MonthlyDaysWithLT32Temp","MonthlyDepartureFromNormalAverageTemperature","MonthlyDepartureFromNormalCoolingDegreeDays","MonthlyDepartureFromNormalHeatingDegreeDays","MonthlyDepartureFromNormalMaximumTemperature","MonthlyDepartureFromNormalMinimumTemperature","MonthlyDepartureFromNormalPrecipitation","MonthlyDewpointTemperature","MonthlyGreatestPrecip","MonthlyGreatestPrecipDate","MonthlyGreatestSnowDepth","MonthlyGreatestSnowDepthDate","MonthlyGreatestSnowfall","MonthlyGreatestSnowfallDate","MonthlyMaxSeaLevelPressureValue","MonthlyMaxSeaLevelPressureValueDate","MonthlyMaxSeaLevelPressureValueTime","MonthlyMaximumTemperature","MonthlyMeanTemperature","MonthlyMinSeaLevelPressureValue","MonthlyMinSeaLevelPressureValueDate","MonthlyMinSeaLevelPressureValueTime","MonthlyMinimumTemperature","MonthlySeaLevelPressure","MonthlyStationPressure","MonthlyTotalLiquidPrecipitation","MonthlyTotalSnowfall","MonthlyWetBulb","AWND","CDSD","CLDD","DSNW","HDSD","HTDD","DYTS","DYHF","NormalsCoolingDegreeDay","NormalsHeatingDegreeDay","ShortDurationEndDate005","ShortDurationEndDate010","ShortDurationEndDate015","ShortDurationEndDate020","ShortDurationEndDate030","ShortDurationEndDate045","ShortDurationEndDate060","ShortDurationEndDate080","ShortDurationEndDate100","ShortDurationEndDate120","ShortDurationEndDate150","ShortDurationEndDate180","ShortDurationPrecipitationValue005","ShortDurationPrecipitationValue010","ShortDurationPrecipitationValue015","ShortDurationPrecipitationValue020","ShortDurationPrecipitationValue030","ShortDurationPrecipitationValue045","ShortDurationPrecipitationValue060","ShortDurationPrecipitationValue080","ShortDurationPrecipitationValue100","ShortDurationPrecipitationValue120","ShortDurationPrecipitationValue150","ShortDurationPrecipitationValue180","REM","BackupDirection","BackupDistance","BackupDistanceUnit","BackupElements","BackupElevation","BackupEquipment","BackupLatitude","BackupLongitude","BackupName","WindEquipmentChangeDate"
"33609099999","2021-04-22T23:00:00","48.7166666","32.6666666","181.0","ZNAMIANKA, UP","FM-12","4","","41","50","","","+0.00","8","71","","30.07","29.42","6.21","46","160","","7","","","","","","","","","","","","","","","","","","","","","","","","","","","","","","","","","","","","","","","","","","","","","","","","","","","","","","","","","","","","","","","","","","","","","","","","","","","","","","","","","","","","","","","","","","","SYN05833609 42997 01603 10101 20050 39964 40183 58001 555 1/007=","","","","","","","","","",""
"33609099999","2021-04-23T02:00:00","48.7166666","32.6666666","181.0","ZNAMIANKA, UP","FM-12","4","","43","45","","","+0.03","7","91","","30.05","29.39","6.21","44","160","","7","","","","","","","","","","","","","","","","","","","","","","","","","","","","","","","","","","","","","","","","","","","","","","","","","","","","","","","","","","","","","","","","","","","","","","","","","","","","","","","","","","","","","","","","","","","SYN05833609 32997 01603 10073 20059 39954 40175 57010 555 1/005=","","","","","","","","","",""
"33609099999","2021-04-24T08:00:00","48.7166666","32.6666666","181.0","ZNAMIANKA, UP","FM-12","4","","33","42","","","-0.04","2","70","","30.08","29.42","6.21","38","280","","7","","","","","","","","","","","","","","","","","","","","","","","","","","","","","","","","","","","","","","","","","","","","","","","","","","","","","","","","","","","","","","","","","","","","","","","","","","","","","","","","","","","","","","","","","","","SYN08633609 12997 02803 10055 20003 39964 40187 52014 60012 333 20024 555 11009 31001 52000=","","","","","","","","","",""
"33609099999","2021-04-27T08:00:00","48.7166666","32.6666666","181.0","ZNAMIANKA, UP","FM-12","4","","33","44","","","-0.00","3","67","BKN:06","30.02","29.36","6.21","39","230","","4","","","","","","","","","","","","","","","","","","","","","","","","","","","","","","","","","","","","","","","","","","","","","","","","","","","","","","","","","","","","","","","","","","","","","","","","","","","","","","","","","","","","","","","","","","","SYN08633609 32997 62302 10065 20007 39944 40165 53001 86070 333 20001 555 11010 31102 52103=","","","","","","","","","",""
"33609099999","2021-04-28T23:00:00","48.7166666","32.6666666","181.0","ZNAMIANKA, UP","FM-12","4","","30","42","","","-0.02","2","64","","30.14","29.49","6.21","37","150","","4","","","","","","","","","","","","","","","","","","","","","","","","","","","","","","","","","","","","","","","","","","","","","","","","","","","","","","","","","","","","","","","","","","","","","","","","","","","","","","","","","","","","","","","","","","","SYN05833609 42997 01502 10054 21010 39985 40208 52007 555 1/002=","","","","","","","","","",""
"33609099999","2021-04-29T02:00:00","48.7166666","32.6666666","181.0","ZNAMIANKA, UP","FM-12","4","","31","36","","","+0.01","8","82","","30.14","29.47","6.21","34","220","","2","","","","","","","","","","","","","","","","","","","","","","","","","","","","","","","","","","","","","","","","","","","","","","","","","","","","","","","","","","","","","","","","","","","","","","","","","","","","","","","","","","","","","","","","","","","SYN05833609 32997 02201 10020 21008 39980 40206 58005 555 1/100=","","","","","","","","","",""
"33609099999","2021-04-29T08:00:00","48.7166666","32.6666666","181.0","ZNAMIANKA, UP","FM-12","4","","35","48","","","-0.01","1","61","OVC:08 32","30.13","29.48","6.21","42","120","","7","","","","","","","","","","","","","","","","","","","","","","","","","","","","","","","","","","","","","","","","","","","","","","","","","","","","","","","","","","","","","","","","","","","","","","","","","","","","","","","","","","","","","","","","","","","SYN09233609 32597 81203 10087 20015 39982 40202 51002 885// 333 20018 88632 555 10013 30100 52100=","","","","","","","","","",""
"33609099999","2021-04-30T08:00:00","48.7166666","32.6666666","181.0","ZNAMIANKA, UP","FM-12","4","","49","57","","","+0.00","5","74","","29.98","29.35","6.21","53","160","","4","","","","","","","","","","","","","","","","","","","","","","","","","","","","","","","","","","","","","","","","","","","","","","","","","","","","","","","","","","","","","","","","","","","","","","","","","","","","","","","","","","","","","","","","","","","SYN08633609 32997 41602 10137 20092 39939 40154 55000 80001 333 20063 555 10019 30003 52003=","","","","","","","","","",""
"33609099999","2021-05-02T23:00:00","48.7166666","32.6666666","181.0","ZNAMIANKA, UP","FM-12","4","","52","55","","","+0.02","7","90","","29.72","29.09","6.21","53","180","","4","","","","","","","","","","","","","","","","","","","","","","","","","","","","","","","","","","","","","","","","","","","","","","","","","","","","","","","","","","","","","","","","","","","","","","","","","","","","","","","","","","","","","","","","","","","SYN05833609 42997 01802 10127 20110 39851 40065 57007 555 1/012=","","","","","","","","","",""
"33609099999","2021-05-03T23:00:00","48.7166666","32.6666666","181.0","ZNAMIANKA, UP","FM-12","4","","33","46","","","-0.08","2","60","","29.95","29.30","6.21","40","310","","4","","","","","","","","","","","","","","","","","","","","","","","","","","","","","","","","","","","","","","","","","","","","","","","","","","","","","","","","","","","","","","","","","","","","","","","","","","","","","","","","","","","","","","","","","","","SYN05833609 42997 03102 10078 20004 39921 40141 52026 555 1/005=","","","","","","","","","",""
"33609099999","2021-05-04T02:00:00","48.7166666","32.6666666","181.0","ZNAMIANKA, UP","FM-12","4","","30","43","","","-0.03","2","59","","29.98","29.33","6.21","38","290","","7","","","","","","","","","","","","","","","","","","","","","","","","","","","","","","","","","","","","","","","","","","","","","","","","","","","","","","","","","","","","","","","","","","","","","","","","","","","","","","","","","","","","","","","","","","","SYN05833609 32997 02903 10062 21013 39931 40152 52010 555 1/003=","","","","","","","","","",""
"33609099999","2021-05-04T08:00:00","48.7166666","32.6666666","181.0","ZNAMIANKA, UP","FM-12","4","","32","48","","","-0.03","2","53","","30.02","29.37","6.21","41","310","","9","","","","","","","","","","","","","","","","","","","","","","","","","","","","","","","","","","","","","","","","","","","","","","","","","","","","","","","","","","","","","","","","","","","","","","","","","","","","","","","","","","","","","","","","","","","SYN08633609 32997 53104 10089 21002 39946 40165 52010 80001 333 20039 555 10017 30001 52000=","","","","","","","","","",""
"33609099999","2021-05-04T23:00:00","48.7166666","32.6666666","181.0","ZNAMIANKA, UP","FM-12","4","","29","41","","","-0.01","2","62","","30.02","29.36","6.21","36","210","","2","","","","","","","","","","","","","","","","","","","","","","","","","","","","","","","","","","","","","","","","","","","","","","","","","","","","","","","","","","","","","","","","","","","","","","","","","","","","","","","","","","","","","","","","","","","SYN05833609 42997 02101 10052 21016 39944 40166 52004 555 1/003=","","","","","","","","","",""
"33609099999","2021-05-05T02:00:00","48.7166666","32.6666666","181.0","ZNAMIANKA, UP","FM-12","4","","31","37","","","+0.00","8","77","","30.02","29.36","6.21","35","190","","2","","","","","","","","","","","","","","","","","","","","","","","","","","","","","","","","","","","","","","","","","","","","","","","","","","","","","","","","","","","","","","","","","","","","","","","","","","","","","","","","","","","","","","","","","","","SYN05833609 32997 01901 10029 21007 39943 40167 58001 555 1/001=","","","","","","","","","",""
"33609099999","2021-05-05T08:00:00","48.7166666","32.6666666","181.0","ZNAMIANKA, UP","FM-12","4","","40","53","","","-0.01","3","62","FEW:02 26","29.99","29.35","6.21","47","200","","7","","","","","","","","","","","","","","","","","","","","","","","","","","","","","","","","","","","","","","","","","","","","","","","","","","","","","","","","","","","","","","","","","","","","","","","","","","","","","","","","","","","","","","","","","","","SYN08633609 32597 62003 10114 20043 39938 40155 53003 82330 333 20015 555 10017 30100 52101=","","","","","","","","","",""
"33609099999","2021-05-07T08:00:00","48.7166666","32.6666666","181.0","ZNAMIANKA, UP","FM-12","4","","44","58","","","-0.02","2","59","","29.97","29.33","6.21","51","110","","2","","","","","","","","","","","","","","","","","","","","","","","","","","","","","","","","","","","","","","","","","","","","","","","","","","","","","","","","","","","","","","","","","","","","","","","","","","","","","","","","","","","","","","","","","","","SYN08633609 32997 21101 10144 20064 39933 40148 52006 80001 333 20052 555 10021 30003 52003=","","","","","","","","","",""
"33609099999","2021-05-08T23:00:00","48.7166666","32.6666666","181.0","ZNAMIANKA, UP","FM-12","4","","35","42","","","-0.04","2","77","","30.02","29.36","6.21","39","300","","7","","","","","","","","","","","","","","","","","","","","","","","","","","","","","","","","","","","","","","","","","","","","","","","","","","","","","","","","","","","","","","","","","","","","","","","","","","","","","","","","","","","","","","","","","","","SYN05833609 42997 03003 10053 20015 39943 40165 52014 555 1/003=","","","","","","","","","",""
"33609099999","2021-05-09T02:00:00","48.7166666","32.6666666","181.0","ZNAMIANKA, UP","FM-12","4","","35","40","","","-0.03","2","82","","30.05","29.39","6.21","38","300","","9","","","","","","","","","","","","","","","","","","","","","","","","","","","","","","","","","","","","","","","","","","","","","","","","","","","","","","","","","","","","","","","","","","","","","","","","","","","","","","","","","","","","","","","","","","","SYN05833609 32997 03004 10046 20018 39953 40176 52010 555 1/003=","","","","","","","","","",""
"33609099999","2021-05-09T23:00:00","48.7166666","32.6666666","181.0","ZNAMIANKA, UP","FM-12","4","","32","43","","","-0.04","2","66","","30.29","29.62","6.21","38","290","","4","","","","","","","","","","","","","","","","","","","","","","","","","","","","","","","","","","","","","","","","","","","","","","","","","","","","","","","","","","","","","","","","","","","","","","","","","","","","","","","","","","","","","","","","","","","SYN05833609 42997 02902 10061 20002 30032 40256 52014 555 1/004=","","","","","","","","","",""
"33609099999","2021-05-10T02:00:00","48.7166666","32.6666666","181.0","ZNAMIANKA, UP","FM-12","4","","31","39","","","-0.02","2","74","","30.31","29.64","6.21","36","290","","4","","","","","","","","","","","","","","","","","","","","","","","","","","","","","","","","","","","","","","","","","","","","","","","","","","","","","","","","","","","","","","","","","","","","","","","","","","","","","","","","","","","","","","","","","","","SYN05833609 32997 92902 10040 21003 30038 40263 52006 555 1/001=","","","","","","","","","",""
"33609099999","2021-05-10T17:00:00","48.7166666","32.6666666","181.0","ZNAMIANKA, UP","FM-12","4","","23","62","","","+0.04","7","22","","30.18","29.54","6.21","45","020","","11","","","","","","","","","","","","","","","","","","","","","","","","","","","","","","","","","","","","","","","","","","","","","","","","","","","","","","","","","","","","","","","","","","","","","","","","","","","","","","","","","","","","","","","","","","","SYN05833609 42997 00205 10167 21050 30005 40220 57015 555 1/021=","","","","","","","","","",""
"33609099999","2021-05-10T23:00:00","48.7166666","32.6666666","181.0","ZNAMIANKA, UP","FM-12","4","","29","49","","","+0.03","7","45","","30.16","29.51","6.21","41","330","","4","","","","","","","","","","","","","","","","","","","","","","","","","","","","","","","","","","","","","","","","","","","","","","","","","","","","","","","","","","","","","","","","","","","","","","","","","","","","","","","","","","","","","","","","","","","SYN05833609 42997 03302 10097 21017 39992 40212 57009 555 1/004=","","","","","","","","","",""
"33609099999","2021-05-11T08:00:00","48.7166666","32.6666666","181.0","ZNAMIANKA, UP","FM-12","4","","35","56","","","+0.03","7","45","FEW:02 26","30.04","29.41","6.21","46","340","","7","","","","","","","","","","","","","","","","","","","","","","","","","","","","","","","","","","","","","","","","","","","","","","","","","","","","","","","","","","","","","","","","","","","","","","","","","","","","","","","","","","","","","","","","","","","SYN08633609 32597 63403 10135 20017 39958 40174 57010 82530 333 20096 555 10016 30004 52004=","","","","","","","","","",""
"33609099999","2021-05-13T08:00:00","48.7166666","32.6666666","181.0","ZNAMIANKA, UP","FM-12","4","","44","49","","","+0.02","7","81","FEW:02","29.90","29.26","6.21","47","120","","2","","","","","","","","","","","","","","","","","","","","","","","","","","","","","","","","","","","","","","","","","","","","","","","","","","","","","","","","","","","","","","","","","","","","","","","","","","","","","","","","","","","","","","","","","","","SYN09233609 31997 31201 10097 20065 39907 40125 57007 70241 82041 333 20036 555 10019 30004 52003=","","","","","","","","","",""
"33609099999","2021-05-14T23:00:00","48.7166666","32.6666666","181.0","ZNAMIANKA, UP","FM-12","4","","50","58","","","-0.04","2","75","","29.80","29.17","6.21","54","190","","7","","","","","","","","","","","","","","","","","","","","","","","","","","","","","","","","","","","","","","","","","","","","","","","","","","","","","","","","","","","","","","","","","","","","","","","","","","","","","","","","","","","","","","","","","","","SYN05833609 42997 01903 10145 20100 39879 40092 52015 555 1/013=","","","","","","","","","",""
"33609099999","2021-05-15T02:00:00","48.7166666","32.6666666","181.0","ZNAMIANKA, UP","FM-12","4","","49","54","","","0.00","9","83","","29.81","29.17","6.21","51","180","","4","","","","","","","","","","","","","","","","","","","","","","","","","","","","","","","","","","","","","","","","","","","","","","","","","","","","","","","","","","","","","","","","","","","","","","","","","","","","","","","","","","","","","","","","","","","SYN05833609 32997 01802 10123 20095 39879 40094 50000 555 1/011=","","","","","","","","","",""
"33609099999","2021-05-15T23:00:00","48.7166666","32.6666666","181.0","ZNAMIANKA, UP","FM-12","4","","49","60","","","-0.03","2","69","","29.88","29.25","6.21","54","230","","4","","","","","","","","","","","","","","","","","","","","","","","","","","","","","","","","","","","","","","","","","","","","","","","","","","","","","","","","","","","","","","","","","","","","","","","","","","","","","","","","","","","","","","","","","","","SYN05833609 42997 02302 10153 20095 39906 40119 52009 555 1/014=","","","","","","","","","",""
"33609099999","2021-05-16T02:00:00","48.7166666","32.6666666","181.0","ZNAMIANKA, UP","FM-12","4","","48","53","","","-0.00","1","84","","29.89","29.26","6.21","50","000","","0","","","","","","","","","","","","","","","","","","","","","","","","","","","","","","","","","","","","","","","","","","","","","","","","","","","","","","","","","","","","","","","","","","","","","","","","","","","","","","","","","","","","","","","","","","","SYN05833609 32997 00000 10114 20088 39907 40123 51001 555 1/011=","","","","","","","","","",""
"33609099999","2021-05-18T05:00:00","48.7166666","32.6666666","181.0","ZNAMIANKA, UP","FM-12","4","","56","57","","","+0.00","5","97","OVC:08 21","29.63","29.00","2.49","56","180","","7","","","","","","","","","","","","","","","","","","","","","","","","","","","","","","","","","","","","","","","","","","","","","","","","","","","","","","","","","","","","","","","","","","","","","","","","","","","","","","","","","","","","","","","","","","","SYN08633609 41596 81803 10137 20133 39822 40034 55000 71022 883// 333 55079 88921 555 1/014=","","","","","","","","","",""
"33609099999","2021-05-19T08:00:00","48.7166666","32.6666666","181.0","ZNAMIANKA, UP","FM-12","4","","53","56","","","-0.02","2","89","OVC:08 15","29.54","28.92","6.21","54","150","","7","","","","","","","","","","","","","","","","","","","","","","","","","","","","","","","","","","","","","","","","","","","","","","","","","","","","","","","","","","","","","","","","","","","","","","","","","","","","","","","","","","","","","","","","","","","SYN08633609 12497 81503 10135 20117 39793 40005 52006 69952 883// 333 20117 88915 555 12017=","","","","","","","","","",""
"33609099999","2021-05-23T02:00:00","48.7166666","32.6666666","181.0","ZNAMIANKA, UP","FM-12","4","","45","52","","","+0.03","8","76","","29.96","29.32","6.21","48","190","","2","","","","","","","","","","","","","","","","","","","","","","","","","","","","","","","","","","","","","","","","","","","","","","","","","","","","","","","","","","","","","","","","","","","","","","","","","","","","","","","","","","","","","","","","","","","SYN05833609 32997 01901 10113 20071 39930 40147 58010 555 1/011=","","","","","","","","","",""
"33609099999","2021-05-24T05:00:00","48.7166666","32.6666666","181.0","ZNAMIANKA, UP","FM-12","4","","47","59","","||SHRA","+0.04","7","64","OVC:08 21","29.96","29.33","2.49","53","130","","4","","","","","","","","","","","","","","","","","","","","","","","","","","","","","","","","","","","","","","","","","","","","","","","","","","","","","","","","","","","","","","","","","","","","","","","","","","","","","","","","","","","","","","","","","","","SYN08633609 41596 81302 10151 20084 39933 40147 57013 78082 883// 333 55114 88921 555 1/014=","","","","","","","","","",""
"33609099999","2021-05-29T05:00:00","48.7166666","32.6666666","181.0","ZNAMIANKA, UP","FM-12","4","","60","61","","||SHRA","+0.09","7","97","BKN:07 21","29.74","29.12","2.49","60","330","","7","","","","","","","","","","","","","","","","","","","","","","","","","","","","","","","","","","","","","","","","","","","","","","","","","","","","","","","","","","","","","","","","","","","","","","","","","","","","","","","","","","","","","","","","","","","SYN08633609 41596 73303 10159 20154 39860 40071 57030 78098 87300 333 55110 87921 555 1/017=","","","","","","","","","",""
"33609099999","2021-06-02T05:00:00","48.7166666","32.6666666","181.0","ZNAMIANKA, UP","FM-12","4","","47","49","","","+0.00","5","95","OVC:08 15","29.86","29.21","2.49","48","020","","7","","","","","","","","","","","","","","","","","","","","","","","","","","","","","","","","","","","","","","","","","","","","","","","","","","","","","","","","","","","","","","","","","","","","","","","","","","","","","","","","","","","","","","","","","","","SYN08633609 41496 80203 10093 20086 39893 40111 55000 71082 883// 333 55000 88915 555 1/010=","","","","","","","","","",""
"33609099999","2021-06-08T23:00:00","48.7166666","32.6666666","181.0","ZNAMIANKA, UP","FM-12","4","","55","58","","","+0.00","8","89","","29.83","29.20","6.21","56","290","","2","","","","","","","","","","","","","","","","","","","","","","","","","","","","","","","","","","","","","","","","","","","","","","","","","","","","","","","","","","","","","","","","","","","","","","","","","","","","","","","","","","","","","","","","","","","SYN05833609 42997 02901 10145 20127 39889 40102 58001 555 1/015=","","","","","","","","","",""
"33609099999","2021-06-09T02:00:00","48.7166666","32.6666666","181.0","ZNAMIANKA, UP","FM-12","4","","55","58","","","+0.01","7","89","","29.82","29.19","6.21","56","310","","2","","","","","","","","","","","","","","","","","","","","","","","","","","","","","","","","","","","","","","","","","","","","","","","","","","","","","","","","","","","","","","","","","","","","","","","","","","","","","","","","","","","","","","","","","","","SYN05833609 32997 03101 10144 20126 39885 40098 57004 555 1/013=","","","","","","","","","",""
"33609099999","2021-06-12T23:00:00","48.7166666","32.6666666","181.0","ZNAMIANKA, UP","FM-12","4","","56","64","","","-0.00","1","76","","29.83","29.21","6.21","59","260","","2","","","","","","","","","","","","","","","","","","","","","","","","","","","","","","","","","","","","","","","","","","","","","","","","","","","","","","","","","","","","","","","","","","","","","","","","","","","","","","","","","","","","","","","","","","","SYN05833609 42997 02601 10180 20136 39892 40103 51001 555 1/017=","","","","","","","","","",""
"33609099999","2021-06-13T02:00:00","48.7166666","32.6666666","181.0","ZNAMIANKA, UP","FM-12","4","","56","59","","","+0.03","8","88","","29.81","29.18","6.21","57","180","","2","","","","","","","","","","","","","","","","","","","","","","","","","","","","","","","","","","","","","","","","","","","","","","","","","","","","","","","","","","","","","","","","","","","","","","","","","","","","","","","","","","","","","","","","","","","SYN05833609 32997 01801 10152 20132 39883 40096 58009 555 1/015=","","","","","","","","","",""
"33609099999","2021-06-13T23:00:00","48.7166666","32.6666666","181.0","ZNAMIANKA, UP","FM-12","4","","55","58","","","-0.02","2","91","","29.78","29.15","6.21","56","310","","2","","","","","","","","","","","","","","","","","","","","","","","","","","","","","","","","","","","","","","","","","","","","","","","","","","","","","","","","","","","","","","","","","","","","","","","","","","","","","","","","","","","","","","","","","","","SYN05833609 42997 03101 10144 20129 39871 40084 52006 555 1/015=","","","","","","","","","",""
"33609099999","2021-06-22T11:00:00","48.7166666","32.6666666","181.0","ZNAMIANKA, UP","FM-12","4","","68","81","","","-0.01","2","64","","29.87","29.27","6.21","72","080","","9","","","","","","","","","","","","","","","","","","","","","","","","","","","","","","","","","","","","","","","","","","","","","","","","","","","","","","","","","","","","","","","","","","","","","","","","","","","","","","","","","","","","","","","","","","","SYN05833609 42997 00804 10273 20200 39911 40115 52004 555 1/045=","","","","","","","","","",""
"33609099999","2021-06-23T02:00:00","48.7166666","32.6666666","181.0","ZNAMIANKA, UP","FM-12","4","","63","68","","","+0.04","8","84","","29.89","29.27","6.21","65","330","","2","","","","","","","","","","","","","","","","","","","","","","","","","","","","","","","","","","","","","","","","","","","","","","","","","","","","","","","","","","","","","","","","","","","","","","","","","","","","","","","","","","","","","","","","","","","SYN05833609 32997 03301 10200 20172 39912 40121 58013 555 1/019=","","","","","","","","","",""
"33609099999","2021-07-06T23:00:00","48.7166666","32.6666666","181.0","ZNAMIANKA, UP","FM-12","4","","62","67","","","-0.03","2","83","","29.90","29.28","6.21","64","020","","4","","","","","","","","","","","","","","","","","","","","","","","","","","","","","","","","","","","","","","","","","","","","","","","","","","","","","","","","","","","","","","","","","","","","","","","","","","","","","","","","","","","","","","","","","","","SYN05833609 42997 00202 10197 20167 39914 40124 52009 555 1/018=","","","","","","","","","",""
"33609099999","2021-07-07T23:00:00","48.7166666","32.6666666","181.0","ZNAMIANKA, UP","FM-12","4","","63","68","","","-0.04","2","85","","30.12","29.50","6.21","65","030","","2","","","","","","","","","","","","","","","","","","","","","","","","","","","","","","","","","","","","","","","","","","","","","","","","","","","","","","","","","","","","","","","","","","","","","","","","","","","","","","","","","","","","","","","","","","","SYN05833609 42997 00301 10199 20173 39990 40201 52014 555 1/018=","","","","","","","","","",""
"33609099999","2021-07-08T11:00:00","48.7166666","32.6666666","181.0","ZNAMIANKA, UP","FM-12","4","","50","81","","","-0.01","2","34","","30.22","29.61","6.21","63","050","","9","","","","","","","","","","","","","","","","","","","","","","","","","","","","","","","","","","","","","","","","","","","","","","","","","","","","","","","","","","","","","","","","","","","","","","","","","","","","","","","","","","","","","","","","","","","SYN05833609 42997 00504 10274 20102 30026 40233 52005 555 1/042=","","","","","","","","","",""
"33609099999","2021-07-08T17:00:00","48.7166666","32.6666666","181.0","ZNAMIANKA, UP","FM-12","4","","53","83","","","+0.01","7","36","","30.19","29.58","6.21","65","020","","7","","","","","","","","","","","","","","","","","","","","","","","","","","","","","","","","","","","","","","","","","","","","","","","","","","","","","","","","","","","","","","","","","","","","","","","","","","","","","","","","","","","","","","","","","","","SYN05833609 42997 00203 10282 20118 30017 40223 57004 555 1/039=","","","","","","","","","",""
"33609099999","2021-07-08T23:00:00","48.7166666","32.6666666","181.0","ZNAMIANKA, UP","FM-12","4","","57","70","","","-0.01","2","64","","30.23","29.61","6.21","62","310","","4","","","","","","","","","","","","","","","","","","","","","","","","","","","","","","","","","","","","","","","","","","","","","","","","","","","","","","","","","","","","","","","","","","","","","","","","","","","","","","","","","","","","","","","","","","","SYN05833609 42997 03102 10212 20140 30026 40237 52005 555 1/019=","","","","","","","","","",""
"33609099999","2021-07-09T02:00:00","48.7166666","32.6666666","181.0","ZNAMIANKA, UP","FM-12","4","","57","67","","","-0.01","2","70","","30.24","29.62","6.21","61","280","","2","","","","","","","","","","","","","","","","","","","","","","","","","","","","","","","","","","","","","","","","","","","","","","","","","","","","","","","","","","","","","","","","","","","","","","","","","","","","","","","","","","","","","","","","","","","SYN05833609 32997 02801 10196 20139 30029 40241 52003 555 1/018=","","","","","","","","","",""
"33609099999","2021-07-09T23:00:00","48.7166666","32.6666666","181.0","ZNAMIANKA, UP","FM-12","4","","62","67","","","+0.01","7","83","","30.10","29.48","6.21","64","290","","2","","","","","","","","","","","","","","","","","","","","","","","","","","","","","","","","","","","","","","","","","","","","","","","","","","","","","","","","","","","","","","","","","","","","","","","","","","","","","","","","","","","","","","","","","","","SYN05833609 42997 02901 10197 20167 39983 40194 57004 555 1/018=","","","","","","","","","",""
"33609099999","2021-07-10T02:00:00","48.7166666","32.6666666","181.0","ZNAMIANKA, UP","FM-12","4","","60","64","","","-0.00","3","88","","30.11","29.48","6.21","62","290","","2","","","","","","","","","","","","","","","","","","","","","","","","","","","","","","","","","","","","","","","","","","","","","","","","","","","","","","","","","","","","","","","","","","","","","","","","","","","","","","","","","","","","","","","","","","","SYN05833609 32997 02901 10177 20157 39984 40197 53001 555 1/017=","","","","","","","","","",""
"33609099999","2021-07-10T23:00:00","48.7166666","32.6666666","181.0","ZNAMIANKA, UP","FM-12","4","","62","70","","","-0.02","3","77","","30.02","29.40","6.21","65","320","","2","","","","","","","","","","","","","","","","","","","","","","","","","","","","","","","","","","","","","","","","","","","","","","","","","","","","","","","","","","","","","","","","","","","","","","","","","","","","","","","","","","","","","","","","","","","SYN05833609 42997 03201 10211 20169 39956 40165 53008 555 1/019=","","","","","","","","","",""
"33609099999","2021-07-11T02:00:00","48.7166666","32.6666666","181.0","ZNAMIANKA, UP","FM-12","4","","63","67","","","+0.01","8","86","","30.01","29.39","6.21","65","310","","2","","","","","","","","","","","","","","","","","","","","","","","","","","","","","","","","","","","","","","","","","","","","","","","","","","","","","","","","","","","","","","","","","","","","","","","","","","","","","","","","","","","","","","","","","","","SYN05833609 32997 03101 10197 20173 39951 40161 58005 555 1/017=","","","","","","","","","",""
"33609099999","2021-07-11T23:00:00","48.7166666","32.6666666","181.0","ZNAMIANKA, UP","FM-12","4","","62","71","","","-0.01","2","73","","29.95","29.34","6.21","65","310","","2","","","","","","","","","","","","","","","","","","","","","","","","","","","","","","","","","","","","","","","","","","","","","","","","","","","","","","","","","","","","","","","","","","","","","","","","","","","","","","","","","","","","","","","","","","","SYN05833609 42997 03101 10214 20164 39934 40143 52003 555 1/021=","","","","","","","","","",""
"33609099999","2021-07-12T02:00:00","48.7166666","32.6666666","181.0","ZNAMIANKA, UP","FM-12","4","","64","69","","","+0.01","8","84","","29.95","29.33","6.21","66","310","","2","","","","","","","","","","","","","","","","","","","","","","","","","","","","","","","","","","","","","","","","","","","","","","","","","","","","","","","","","","","","","","","","","","","","","","","","","","","","","","","","","","","","","","","","","","","SYN05833609 32997 03101 10205 20177 39932 40141 58002 555 1/019=","","","","","","","","","",""
"33609099999","2021-07-14T17:00:00","48.7166666","32.6666666","181.0","ZNAMIANKA, UP","FM-12","4","","58","88","","","+0.01","7","36","","29.99","29.39","6.21","69","070","","4","","","","","","","","","","","","","","","","","","","","","","","","","","","","","","","","","","","","","","","","","","","","","","","","","","","","","","","","","","","","","","","","","","","","","","","","","","","","","","","","","","","","","","","","","","","SYN05833609 42997 00702 10309 20143 39952 40155 57004 555 1/049=","","","","","","","","","",""
"33609099999","2021-07-14T23:00:00","48.7166666","32.6666666","181.0","ZNAMIANKA, UP","FM-12","4","","61","67","","","0.00","9","80","","30.01","29.39","6.21","63","000","","0","","","","","","","","","","","","","","","","","","","","","","","","","","","","","","","","","","","","","","","","","","","","","","","","","","","","","","","","","","","","","","","","","","","","","","","","","","","","","","","","","","","","","","","","","","","SYN05833609 42997 00000 10197 20162 39952 40162 50000 555 1/020=","","","","","","","","","",""
"33609099999","2021-07-15T02:00:00","48.7166666","32.6666666","181.0","ZNAMIANKA, UP","FM-12","4","","61","64","","","+0.00","6","90","","30.01","29.39","6.21","62","310","","2","","","","","","","","","","","","","","","","","","","","","","","","","","","","","","","","","","","","","","","","","","","","","","","","","","","","","","","","","","","","","","","","","","","","","","","","","","","","","","","","","","","","","","","","","","","SYN05833609 32997 03101 10176 20159 39951 40163 56001 555 1/017=","","","","","","","","","",""
"33609099999","2021-07-16T02:00:00","48.7166666","32.6666666","181.0","ZNAMIANKA, UP","FM-12","4","","61","65","","","-0.00","1","85","","29.94","29.32","6.21","63","190","","2","","","","","","","","","","","","","","","","","","","","","","","","","","","","","","","","","","","","","","","","","","","","","","","","","","","","","","","","","","","","","","","","","","","","","","","","","","","","","","","","","","","","","","","","","","","SYN05833609 32997 01901 10186 20161 39928 40139 51001 555 1/019=","","","","","","","","","",""
"33609099999","2021-07-17T23:00:00","48.7166666","32.6666666","181.0","ZNAMIANKA, UP","FM-12","4","","65","70","","","+0.01","8","84","","29.81","29.19","6.21","67","320","","2","","","","","","","","","","","","","","","","","","","","","","","","","","","","","","","","","","","","","","","","","","","","","","","","","","","","","","","","","","","","","","","","","","","","","","","","","","","","","","","","","","","","","","","","","","","SYN05833609 42997 03201 10211 20182 39886 40094 58005 555 1/022=","","","","","","","","","",""
"33609099999","2021-07-18T02:00:00","48.7166666","32.6666666","181.0","ZNAMIANKA, UP","FM-12","4","","66","68","","","-0.01","3","91","","29.82","29.20","6.21","67","320","","2","","","","","","","","","","","","","","","","","","","","","","","","","","","","","","","","","","","","","","","","","","","","","","","","","","","","","","","","","","","","","","","","","","","","","","","","","","","","","","","","","","","","","","","","","","","SYN05833609 32997 03201 10202 20187 39889 40097 53003 555 1/021=","","","","","","","","","",""
"33609099999","2021-07-18T23:00:00","48.7166666","32.6666666","181.0","ZNAMIANKA, UP","FM-12","4","","68","75","","","-0.03","3","81","","29.79","29.18","6.21","70","320","","2","","","","","","","","","","","","","","","","","","","","","","","","","","","","","","","","","","","","","","","","","","","","","","","","","","","","","","","","","","","","","","","","","","","","","","","","","","","","","","","","","","","","","","","","","","","SYN05833609 42997 03201 10237 20202 39882 40088 53011 555 1/024=","","","","","","","","","",""
"33609099999","2021-07-19T02:00:00","48.7166666","32.6666666","181.0","ZNAMIANKA, UP","FM-12","4","","68","73","","","+0.01","8","85","","29.78","29.17","6.21","70","330","","2","","","","","","","","","","","","","","","","","","","","","","","","","","","","","","","","","","","","","","","","","","","","","","","","","","","","","","","","","","","","","","","","","","","","","","","","","","","","","","","","","","","","","","","","","","","SYN05833609 32997 03301 10227 20201 39878 40084 58004 555 1/022=","","","","","","","","","",""
"33609099999","2021-07-22T02:00:00","48.7166666","32.6666666","181.0","ZNAMIANKA, UP","FM-12","4","","61","66","","","-0.01","2","83","","29.77","29.15","6.21","63","340","","7","","","","","","","","","","","","","","","","","","","","","","","","","","","","","","","","","","","","","","","","","","","","","","","","","","","","","","","","","","","","","","","","","","","","","","","","","","","","","","","","","","","","","","","","","","","SYN05833609 32997 03403 10189 20160 39872 40081 52003 555 1/018=","","","","","","","","","",""
"33609099999","2021-07-22T23:00:00","48.7166666","32.6666666","181.0","ZNAMIANKA, UP","FM-12","4","","54","62","","","-0.03","2","75","","29.91","29.28","6.21","57","330","","4","","","","","","","","","","","","","","","","","","","","","","","","","","","","","","","","","","","","","","","","","","","","","","","","","","","","","","","","","","","","","","","","","","","","","","","","","","","","","","","","","","","","","","","","","","","SYN05833609 42997 03302 10167 20122 39915 40127 52011 555 1/015=","","","","","","","","","",""
"33609099999","2021-07-23T02:00:00","48.7166666","32.6666666","181.0","ZNAMIANKA, UP","FM-12","4","","54","59","","","-0.02","2","85","","29.93","29.30","6.21","56","310","","4","","","","","","","","","","","","","","","","","","","","","","","","","","","","","","","","","","","","","","","","","","","","","","","","","","","","","","","","","","","","","","","","","","","","","","","","","","","","","","","","","","","","","","","","","","","SYN05833609 32997 03102 10148 20122 39922 40136 52007 555 1/014=","","","","","","","","","",""
"33609099999","2021-07-23T23:00:00","48.7166666","32.6666666","181.0","ZNAMIANKA, UP","FM-12","4","","56","60","","","-0.02","2","84","","29.95","29.32","6.21","58","300","","2","","","","","","","","","","","","","","","","","","","","","","","","","","","","","","","","","","","","","","","","","","","","","","","","","","","","","","","","","","","","","","","","","","","","","","","","","","","","","","","","","","","","","","","","","","","SYN05833609 42997 03001 10158 20131 39930 40143 52007 555 1/014=","","","","","","","","","",""
"33609099999","2021-07-24T02:00:00","48.7166666","32.6666666","181.0","ZNAMIANKA, UP","FM-12","4","","54","59","","","-0.00","1","85","","29.96","29.33","6.21","56","290","","2","","","","","","","","","","","","","","","","","","","","","","","","","","","","","","","","","","","","","","","","","","","","","","","","","","","","","","","","","","","","","","","","","","","","","","","","","","","","","","","","","","","","","","","","","","","SYN05833609 32997 02901 10149 20123 39931 40145 51001 555 1/013=","","","","","","","","","",""
"33609099999","2021-07-25T23:00:00","48.7166666","32.6666666","181.0","ZNAMIANKA, UP","FM-12","4","","62","67","","","-0.02","2","84","","30.11","29.49","6.21","64","330","","2","","","","","","","","","","","","","","","","","","","","","","","","","","","","","","","","","","","","","","","","","","","","","","","","","","","","","","","","","","","","","","","","","","","","","","","","","","","","","","","","","","","","","","","","","","","SYN05833609 42997 03301 10195 20167 39985 40196 52008 555 1/020=","","","","","","","","","",""
"33609099999","2021-07-26T02:00:00","48.7166666","32.6666666","181.0","ZNAMIANKA, UP","FM-12","4","","60","64","","","-0.01","2","89","","30.12","29.49","6.21","62","300","","2","","","","","","","","","","","","","","","","","","","","","","","","","","","","","","","","","","","","","","","","","","","","","","","","","","","","","","","","","","","","","","","","","","","","","","","","","","","","","","","","","","","","","","","","","","","SYN05833609 32997 03001 10176 20158 39988 40201 52003 555 1/018=","","","","","","","","","",""
"33609099999","2021-07-26T23:00:00","48.7166666","32.6666666","181.0","ZNAMIANKA, UP","FM-12","4","","59","68","","","-0.02","3","74","","30.12","29.50","6.21","63","000","","0","","","","","","","","","","","","","","","","","","","","","","","","","","","","","","","","","","","","","","","","","","","","","","","","","","","","","","","","","","","","","","","","","","","","","","","","","","","","","","","","","","","","","","","","","","","SYN05833609 42997 00000 10200 20152 39989 40200 53006 555 1/019=","","","","","","","","","",""
"33609099999","2021-07-27T02:00:00","48.7166666","32.6666666","181.0","ZNAMIANKA, UP","FM-12","4","","58","63","","","0.00","9","85","","30.13","29.50","6.21","60","000","","0","","","","","","","","","","","","","","","","","","","","","","","","","","","","","","","","","","","","","","","","","","","","","","","","","","","","","","","","","","","","","","","","","","","","","","","","","","","","","","","","","","","","","","","","","","","SYN05833609 32997 00000 10172 20146 39989 40202 50000 555 1/017=","","","","","","","","","",""
"33609099999","2021-07-30T23:00:00","48.7166666","32.6666666","181.0","ZNAMIANKA, UP","FM-12","4","","62","69","","","-0.03","2","80","","29.84","29.22","6.21","65","310","","2","","","","","","","","","","","","","","","","","","","","","","","","","","","","","","","","","","","","","","","","","","","","","","","","","","","","","","","","","","","","","","","","","","","","","","","","","","","","","","","","","","","","","","","","","","","SYN05833609 42997 03101 10203 20167 39895 40104 52010 555 1/020=","","","","","","","","","",""
"33609099999","2021-07-31T02:00:00","48.7166666","32.6666666","181.0","ZNAMIANKA, UP","FM-12","4","","59","64","","","-0.01","1","83","","29.85","29.23","6.21","61","000","","0","","","","","","","","","","","","","","","","","","","","","","","","","","","","","","","","","","","","","","","","","","","","","","","","","","","","","","","","","","","","","","","","","","","","","","","","","","","","","","","","","","","","","","","","","","","SYN05833609 32997 00000 10179 20150 39897 40108 51002 555 1/018=","","","","","","","","","",""
"33609099999","2021-07-31T23:00:00","48.7166666","32.6666666","181.0","ZNAMIANKA, UP","FM-12","4","","65","70","","","-0.03","3","82","","29.86","29.25","6.21","67","000","","0","","","","","","","","","","","","","","","","","","","","","","","","","","","","","","","","","","","","","","","","","","","","","","","","","","","","","","","","","","","","","","","","","","","","","","","","","","","","","","","","","","","","","","","","","","","SYN05833609 42997 00000 10213 20181 39905 40113 53009 555 1/021=","","","","","","","","","",""
"33609099999","2021-08-01T02:00:00","48.7166666","32.6666666","181.0","ZNAMIANKA, UP","FM-12","4","","62","68","","","-0.00","1","81","","29.87","29.25","6.21","64","170","","2","","","","","","","","","","","","","","","","","","","","","","","","","","","","","","","","","","","","","","","","","","","","","","","","","","","","","","","","","","","","","","","","","","","","","","","","","","","","","","","","","","","","","","","","","","","SYN05833609 32997 01701 10201 20168 39906 40115 51001 555 1/020=","","","","","","","","","",""
"33609099999","2021-08-03T05:00:00","48.7166666","32.6666666","181.0","ZNAMIANKA, UP","FM-12","4","","64","65","","","-0.03","2","95","OVC:08 18","29.91","29.28","2.49","64","320","","4","","","","","","","","","","","","","","","","","","","","","","","","","","","","","","","","","","","","","","","","","","","","","","","","","","","","","","","","","","","","","","","","","","","","","","","","","","","","","","","","","","","","","","","","","","","SYN08633609 41496 83202 10186 20178 39917 40127 52010 72582 883// 333 55075 88918 555 1/020=","","","","","","","","","",""
"33609099999","2021-08-03T23:00:00","48.7166666","32.6666666","181.0","ZNAMIANKA, UP","FM-12","4","","58","62","","","-0.04","2","87","","30.02","29.39","6.21","60","270","","2","","","","","","","","","","","","","","","","","","","","","","","","","","","","","","","","","","","","","","","","","","","","","","","","","","","","","","","","","","","","","","","","","","","","","","","","","","","","","","","","","","","","","","","","","","","SYN05833609 42997 02701 10169 20147 39952 40165 52012 555 1/018=","","","","","","","","","",""
"33609099999","2021-08-04T02:00:00","48.7166666","32.6666666","181.0","ZNAMIANKA, UP","FM-12","4","","57","60","","","-0.00","1","88","","30.02","29.39","6.21","58","350","","2","","","","","","","","","","","","","","","","","","","","","","","","","","","","","","","","","","","","","","","","","","","","","","","","","","","","","","","","","","","","","","","","","","","","","","","","","","","","","","","","","","","","","","","","","","","SYN05833609 32997 03501 10157 20137 39953 40167 51001 555 1/016=","","","","","","","","","",""
"33609099999","2021-08-08T02:00:00","48.7166666","32.6666666","181.0","ZNAMIANKA, UP","FM-12","4","","57","62","","","-0.01","2","86","","29.90","29.27","6.21","59","330","","4","","","","","","","","","","","","","","","","","","","","","","","","","","","","","","","","","","","","","","","","","","","","","","","","","","","","","","","","","","","","","","","","","","","","","","","","","","","","","","","","","","","","","","","","","","","SYN05833609 32997 03302 10164 20141 39913 40125 52004 555 1/015=","","","","","","","","","",""
"33609099999","2021-08-08T17:00:00","48.7166666","32.6666666","181.0","ZNAMIANKA, UP","FM-12","4","","60","77","","","0.00","9","56","","29.93","29.32","6.21","66","320","","9","","","","","","","","","","","","","","","","","","","","","","","","","","","","","","","","","","","","","","","","","","","","","","","","","","","","","","","","","","","","","","","","","","","","","","","","","","","","","","","","","","","","","","","","","","","SYN05833609 42997 03204 10252 20157 39928 40134 50000 555 1/034=","","","","","","","","","",""
"33609099999","2021-08-08T23:00:00","48.7166666","32.6666666","181.0","ZNAMIANKA, UP","FM-12","4","","61","68","","","-0.01","2","80","","29.97","29.35","6.21","64","330","","4","","","","","","","","","","","","","","","","","","","","","","","","","","","","","","","","","","","","","","","","","","","","","","","","","","","","","","","","","","","","","","","","","","","","","","","","","","","","","","","","","","","","","","","","","","","SYN05833609 42997 03302 10198 20163 39938 40148 52005 555 1/018=","","","","","","","","","",""
"33609099999","2021-08-09T02:00:00","48.7166666","32.6666666","181.0","ZNAMIANKA, UP","FM-12","4","","62","66","","","0.00","9","86","","29.97","29.35","6.21","64","320","","4","","","","","","","","","","","","","","","","","","","","","","","","","","","","","","","","","","","","","","","","","","","","","","","","","","","","","","","","","","","","","","","","","","","","","","","","","","","","","","","","","","","","","","","","","","","SYN05833609 32997 03202 10190 20165 39938 40149 50000 555 1/018=","","","","","","","","","",""
"33609099999","2021-08-09T11:00:00","48.7166666","32.6666666","181.0","ZNAMIANKA, UP","FM-12","4","","66","81","","","-0.01","3","60","","29.94","29.34","6.21","71","340","","7","","","","","","","","","","","","","","","","","","","","","","","","","","","","","","","","","","","","","","","","","","","","","","","","","","","","","","","","","","","","","","","","","","","","","","","","","","","","","","","","","","","","","","","","","","","SYN05833609 42997 03403 10271 20187 39935 40140 53003 555 1/043=","","","","","","","","","",""
"33609099999","2021-08-09T14:00:00","48.7166666","32.6666666","181.0","ZNAMIANKA, UP","FM-12","4","","69","85","","","+0.01","8","58","","29.93","29.33","6.21","74","330","","7","","","","","","","","","","","","","","","","","","","","","","","","","","","","","","","","","","","","","","","","","","","","","","","","","","","","","","","","","","","","","","","","","","","","","","","","","","","","","","","","","","","","","","","","","","","SYN05833609 32997 03303 10295 20203 39932 40135 58003 555 1/050=","","","","","","","","","",""
"33609099999","2021-08-10T23:00:00","48.7166666","32.6666666","181.0","ZNAMIANKA, UP","FM-12","4","","65","70","","","+0.01","7","86","","29.86","29.25","6.21","67","310","","2","","","","","","","","","","","","","","","","","","","","","","","","","","","","","","","","","","","","","","","","","","","","","","","","","","","","","","","","","","","","","","","","","","","","","","","","","","","","","","","","","","","","","","","","","","","SYN05833609 42997 03101 10211 20186 39904 40112 57003 555 1/021=","","","","","","","","","",""
"33609099999","2021-08-11T02:00:00","48.7166666","32.6666666","181.0","ZNAMIANKA, UP","FM-12","4","","65","69","","","+0.03","7","85","","29.83","29.22","6.21","66","310","","4","","","","","","","","","","","","","","","","","","","","","","","","","","","","","","","","","","","","","","","","","","","","","","","","","","","","","","","","","","","","","","","","","","","","","","","","","","","","","","","","","","","","","","","","","","","SYN05833609 32997 03102 10207 20181 39895 40103 57009 555 1/020=","","","","","","","","","",""
"33609099999","2021-08-12T02:00:00","48.7166666","32.6666666","181.0","ZNAMIANKA, UP","FM-12","4","","57","67","","","-0.01","2","71","","29.89","29.27","6.21","61","290","","7","","","","","","","","","","","","","","","","","","","","","","","","","","","","","","","","","","","","","","","","","","","","","","","","","","","","","","","","","","","","","","","","","","","","","","","","","","","","","","","","","","","","","","","","","","","SYN05833609 32997 02903 10195 20141 39913 40123 52005 555 1/017=","","","","","","","","","",""
"33609099999","2021-08-12T23:00:00","48.7166666","32.6666666","181.0","ZNAMIANKA, UP","FM-12","4","","54","62","","","-0.04","2","75","","30.08","29.45","6.21","57","300","","2","","","","","","","","","","","","","","","","","","","","","","","","","","","","","","","","","","","","","","","","","","","","","","","","","","","","","","","","","","","","","","","","","","","","","","","","","","","","","","","","","","","","","","","","","","","SYN05833609 42997 03001 10169 20124 39972 40185 52012 555 1/016=","","","","","","","","","",""
"33609099999","2021-08-13T02:00:00","48.7166666","32.6666666","181.0","ZNAMIANKA, UP","FM-12","4","","53","59","","","-0.02","2","80","","30.10","29.47","6.21","56","290","","2","","","","","","","","","","","","","","","","","","","","","","","","","","","","","","","","","","","","","","","","","","","","","","","","","","","","","","","","","","","","","","","","","","","","","","","","","","","","","","","","","","","","","","","","","","","SYN05833609 32997 02901 10152 20117 39978 40193 52006 555 1/014=","","","","","","","","","",""
"33609099999","2021-08-14T02:00:00","48.7166666","32.6666666","181.0","ZNAMIANKA, UP","FM-12","4","","54","62","","","-0.01","3","75","","30.16","29.53","6.21","57","310","","4","","","","","","","","","","","","","","","","","","","","","","","","","","","","","","","","","","","","","","","","","","","","","","","","","","","","","","","","","","","","","","","","","","","","","","","","","","","","","","","","","","","","","","","","","","","SYN05833609 32997 03102 10164 20120 30001 40215 53003 555 1/016=","","","","","","","","","",""
"33609099999","2021-08-14T23:00:00","48.7166666","32.6666666","181.0","ZNAMIANKA, UP","FM-12","4","","55","62","","","+0.01","7","77","","30.11","29.48","6.21","58","300","","2","","","","","","","","","","","","","","","","","","","","","","","","","","","","","","","","","","","","","","","","","","","","","","","","","","","","","","","","","","","","","","","","","","","","","","","","","","","","","","","","","","","","","","","","","","","SYN05833609 42997 03001 10169 20129 39983 40196 57005 555 1/015=","","","","","","","","","",""
"33609099999","2021-08-15T02:00:00","48.7166666","32.6666666","181.0","ZNAMIANKA, UP","FM-12","4","","56","60","","","+0.01","7","87","","30.10","29.47","6.21","58","300","","2","","","","","","","","","","","","","","","","","","","","","","","","","","","","","","","","","","","","","","","","","","","","","","","","","","","","","","","","","","","","","","","","","","","","","","","","","","","","","","","","","","","","","","","","","","","SYN05833609 32997 03001 10155 20133 39979 40193 57004 555 1/014=","","","","","","","","","",""
"33609099999","2021-08-15T11:00:00","48.7166666","32.6666666","181.0","ZNAMIANKA, UP","FM-12","4","","54","78","","","+0.01","8","43","","30.05","29.44","6.21","64","350","","4","","","","","","","","","","","","","","","","","","","","","","","","","","","","","","","","","","","","","","","","","","","","","","","","","","","","","","","","","","","","","","","","","","","","","","","","","","","","","","","","","","","","","","","","","","","SYN05833609 42997 03502 10257 20122 39970 40177 58005 555 1/046=","","","","","","","","","",""
"33609099999","2021-08-15T14:00:00","48.7166666","32.6666666","181.0","ZNAMIANKA, UP","FM-12","4","","54","81","","","+0.04","7","39","","30.01","29.40","6.21","65","030","","7","","","","","","","","","","","","","","","","","","","","","","","","","","","","","","","","","","","","","","","","","","","","","","","","","","","","","","","","","","","","","","","","","","","","","","","","","","","","","","","","","","","","","","","","","","","SYN05833609 32997 00303 10274 20121 39957 40162 57013 555 1/050=","","","","","","","","","",""
"33609099999","2021-08-15T23:00:00","48.7166666","32.6666666","181.0","ZNAMIANKA, UP","FM-12","4","","54","64","","","+0.00","8","71","","30.00","29.38","6.21","58","330","","2","","","","","","","","","","","","","","","","","","","","","","","","","","","","","","","","","","","","","","","","","","","","","","","","","","","","","","","","","","","","","","","","","","","","","","","","","","","","","","","","","","","","","","","","","","","SYN05833609 42997 93301 10179 20125 39948 40160 58001 555 1/017=","","","","","","","","","",""
"33609099999","2021-08-16T02:00:00","48.7166666","32.6666666","181.0","ZNAMIANKA, UP","FM-12","4","","55","58","","","+0.02","7","88","","29.99","29.36","6.21","56","000","","0","","","","","","","","","","","","","","","","","","","","","","","","","","","","","","","","","","","","","","","","","","","","","","","","","","","","","","","","","","","","","","","","","","","","","","","","","","","","","","","","","","","","","","","","","","","SYN05833609 32997 00000 10147 20127 39941 40155 57007 555 1/013=","","","","","","","","","",""
"33609099999","2021-08-16T11:00:00","48.7166666","32.6666666","181.0","ZNAMIANKA, UP","FM-12","4","","56","83","","","+0.01","8","40","","29.98","29.38","6.21","66","120","","2","","","","","","","","","","","","","","","","","","","","","","","","","","","","","","","","","","","","","","","","","","","","","","","","","","","","","","","","","","","","","","","","","","","","","","","","","","","","","","","","","","","","","","","","","","","SYN05833609 42997 01201 10284 20136 39948 40152 58003 555 1/047=","","","","","","","","","",""
"33609099999","2021-08-16T23:00:00","48.7166666","32.6666666","181.0","ZNAMIANKA, UP","FM-12","4","","59","66","","","0.00","9","80","","29.96","29.34","6.21","62","000","","0","","","","","","","","","","","","","","","","","","","","","","","","","","","","","","","","","","","","","","","","","","","","","","","","","","","","","","","","","","","","","","","","","","","","","","","","","","","","","","","","","","","","","","","","","","","SYN05833609 42997 00000 10188 20152 39935 40146 50000 555 1/018=","","","","","","","","","",""
"33609099999","2021-08-17T02:00:00","48.7166666","32.6666666","181.0","ZNAMIANKA, UP","FM-12","4","","58","62","","","+0.01","7","89","","29.95","29.32","6.21","60","320","","2","","","","","","","","","","","","","","","","","","","","","","","","","","","","","","","","","","","","","","","","","","","","","","","","","","","","","","","","","","","","","","","","","","","","","","","","","","","","","","","","","","","","","","","","","","","SYN05833609 32997 03201 10166 20147 39930 40142 57005 555 1/016=","","","","","","","","","",""
"33609099999","2021-08-17T11:00:00","48.7166666","32.6666666","181.0","ZNAMIANKA, UP","FM-12","4","","56","86","","","0.00","9","37","","29.93","29.33","6.21","67","110","","4","","","","","","","","","","","","","","","","","","","","","","","","","","","","","","","","","","","","","","","","","","","","","","","","","","","","","","","","","","","","","","","","","","","","","","","","","","","","","","","","","","","","","","","","","","","SYN05833609 42997 01102 10298 20134 39931 40134 50000 555 1/050=","","","","","","","","","",""
"33609099999","2021-08-18T02:00:00","48.7166666","32.6666666","181.0","ZNAMIANKA, UP","FM-12","4","","60","69","","","+0.02","8","74","","29.87","29.26","6.21","64","160","","4","","","","","","","","","","","","","","","","","","","","","","","","","","","","","","","","","","","","","","","","","","","","","","","","","","","","","","","","","","","","","","","","","","","","","","","","","","","","","","","","","","","","","","","","","","","SYN05833609 32997 01602 10204 20155 39907 40116 58007 555 1/020=","","","","","","","","","",""
"33609099999","2021-08-21T02:00:00","48.7166666","32.6666666","181.0","ZNAMIANKA, UP","FM-12","4","","56","63","","","-0.01","1","78","","29.89","29.27","6.21","59","290","","4","","","","","","","","","","","","","","","","","","","","","","","","","","","","","","","","","","","","","","","","","","","","","","","","","","","","","","","","","","","","","","","","","","","","","","","","","","","","","","","","","","","","","","","","","","","SYN05833609 32997 02902 10172 20133 39911 40123 51002 555 1/016=","","","","","","","","","",""
"33609099999","2021-08-23T02:00:00","48.7166666","32.6666666","181.0","ZNAMIANKA, UP","FM-12","4","","50","53","","","-0.02","2","91","","30.13","29.49","6.21","51","340","","2","","","","","","","","","","","","","","","","","","","","","","","","","","","","","","","","","","","","","","","","","","","","","","","","","","","","","","","","","","","","","","","","","","","","","","","","","","","","","","","","","","","","","","","","","","","SYN05833609 32997 03401 10117 20102 39985 40203 52006 555 1/011=","","","","","","","","","",""
"33609099999","2021-08-23T11:00:00","48.7166666","32.6666666","181.0","ZNAMIANKA, UP","FM-12","4","","47","75","","","+0.01","8","37","","30.10","29.49","6.21","59","030","","4","","","","","","","","","","","","","","","","","","","","","","","","","","","","","","","","","","","","","","","","","","","","","","","","","","","","","","","","","","","","","","","","","","","","","","","","","","","","","","","","","","","","","","","","","","","SYN05833609 42997 00302 10241 20084 39985 40194 58004 555 1/042=","","","","","","","","","",""
"33609099999","2021-08-24T02:00:00","48.7166666","32.6666666","181.0","ZNAMIANKA, UP","FM-12","4","","50","54","","","+0.01","8","88","","30.11","29.47","6.21","52","000","","0","","","","","","","","","","","","","","","","","","","","","","","","","","","","","","","","","","","","","","","","","","","","","","","","","","","","","","","","","","","","","","","","","","","","","","","","","","","","","","","","","","","","","","","","","","","SYN05833609 32997 00000 10121 20102 39978 40195 58005 555 1/012=","","","","","","","","","",""
"33609099999","2021-08-24T17:00:00","48.7166666","32.6666666","181.0","ZNAMIANKA, UP","FM-12","4","","49","81","","","+0.04","7","33","","29.98","29.37","6.21","62","080","","4","","","","","","","","","","","","","","","","","","","","","","","","","","","","","","","","","","","","","","","","","","","","","","","","","","","","","","","","","","","","","","","","","","","","","","","","","","","","","","","","","","","","","","","","","","","SYN05833609 42997 00802 10274 20097 39946 40151 57014 555 1/037=","","","","","","","","","",""
"33609099999","2021-08-27T05:00:00","48.7166666","32.6666666","181.0","ZNAMIANKA, UP","FM-12","4","","62","62","","","-0.02","3","99","OVC:08 15","29.83","29.20","2.49","62","310","","2","","","","","","","","","","","","","","","","","","","","","","","","","","","","","","","","","","","","","","","","","","","","","","","","","","","","","","","","","","","","","","","","","","","","","","","","","","","","","","","","","","","","","","","","","","","SYN08633609 41496 83101 10166 20164 39889 40100 53008 71022 883// 333 55041 88915 555 1/018=","","","","","","","","","",""
"33609099999","2021-08-27T23:00:00","48.7166666","32.6666666","181.0","ZNAMIANKA, UP","FM-12","4","","54","57","","","-0.00","1","88","","29.93","29.30","6.21","55","050","","2","","","","","","","","","","","","","","","","","","","","","","","","","","","","","","","","","","","","","","","","","","","","","","","","","","","","","","","","","","","","","","","","","","","","","","","","","","","","","","","","","","","","","","","","","","","SYN05833609 42997 00501 10141 20121 39922 40136 51001 555 1/015=","","","","","","","","","",""
"33609099999","2021-08-31T23:00:00","48.7166666","32.6666666","181.0","ZNAMIANKA, UP","FM-12","4","","54","60","","","-0.02","2","81","","29.88","29.25","6.21","57","290","","4","","","","","","","","","","","","","","","","","","","","","","","","","","","","","","","","","","","","","","","","","","","","","","","","","","","","","","","","","","","","","","","","","","","","","","","","","","","","","","","","","","","","","","","","","","","SYN05833609 42997 02902 10154 20121 39904 40117 52008 555 1/014=","","","","","","","","","",""
"33609099999","2021-09-01T02:00:00","48.7166666","32.6666666","181.0","ZNAMIANKA, UP","FM-12","4","","53","57","","","+0.00","8","87","","29.88","29.24","6.21","55","290","","2","","","","","","","","","","","","","","","","","","","","","","","","","","","","","","","","","","","","","","","","","","","","","","","","","","","","","","","","","","","","","","","","","","","","","","","","","","","","","","","","","","","","","","","","","","","SYN05833609 32997 02901 10139 20117 39903 40117 58001 555 1/012=","","","","","","","","","",""
"33609099999","2021-09-02T05:00:00","48.7166666","32.6666666","181.0","ZNAMIANKA, UP","FM-12","4","","56","58","","","+0.01","7","93","BKN:07 24","29.72","29.10","2.49","57","310","","4","","","","","","","","","","","","","","","","","","","","","","","","","","","","","","","","","","","","","","","","","","","","","","","","","","","","","","","","","","","","","","","","","","","","","","","","","","","","","","","","","","","","","","","","","","","SYN08633609 41596 73102 10146 20135 39854 40066 57004 71022 87500 333 55083 87924 555 1/015=","","","","","","","","","",""
"33609099999","2021-09-02T08:00:00","48.7166666","32.6666666","181.0","ZNAMIANKA, UP","FM-12","4","","56","59","","","-0.00","3","90","BKN:06 15","29.73","29.10","6.21","57","330","","7","","","","","","","","","","","","","","","","","","","","","","","","","","","","","","","","","","","","","","","","","","","","","","","","","","","","","","","","","","","","","","","","","","","","","","","","","","","","","","","","","","","","","","","","","","","SYN08633609 12497 83303 10150 20134 39855 40067 53001 69952 8632/ 333 20141 86915 555 10017=","","","","","","","","","",""
"33609099999","2021-09-04T02:00:00","48.7166666","32.6666666","181.0","ZNAMIANKA, UP","FM-12","4","","46","52","","","+0.03","7","79","","29.92","29.28","6.21","49","260","","4","","","","","","","","","","","","","","","","","","","","","","","","","","","","","","","","","","","","","","","","","","","","","","","","","","","","","","","","","","","","","","","","","","","","","","","","","","","","","","","","","","","","","","","","","","","SYN05833609 32997 02602 10112 20077 39914 40131 57010 555 1/009=","","","","","","","","","",""
"33609099999","2021-09-04T23:00:00","48.7166666","32.6666666","181.0","ZNAMIANKA, UP","FM-12","4","","40","46","","","-0.04","2","79","","30.07","29.42","6.21","43","310","","2","","","","","","","","","","","","","","","","","","","","","","","","","","","","","","","","","","","","","","","","","","","","","","","","","","","","","","","","","","","","","","","","","","","","","","","","","","","","","","","","","","","","","","","","","","","SYN05833609 42997 03101 10078 20043 39964 40184 52013 555 1/007=","","","","","","","","","",""
"33609099999","2021-09-05T08:00:00","48.7166666","32.6666666","181.0","ZNAMIANKA, UP","FM-12","4","","45","55","","","-0.04","2","69","","30.15","29.51","6.21","50","340","","2","","","","","","","","","","","","","","","","","","","","","","","","","","","","","","","","","","","","","","","","","","","","","","","","","","","","","","","","","","","","","","","","","","","","","","","","","","","","","","","","","","","","","","","","","","","SYN08633609 32997 13401 10127 20071 39994 40211 52012 80001 333 20070 555 10016 30005 52004=","","","","","","","","","",""
"33609099999","2021-09-06T02:00:00","48.7166666","32.6666666","181.0","ZNAMIANKA, UP","FM-12","4","","35","44","","","-0.01","2","71","","30.30","29.65","6.21","40","290","","2","","","","","","","","","","","","","","","","","","","","","","","","","","","","","","","","","","","","","","","","","","","","","","","","","","","","","","","","","","","","","","","","","","","","","","","","","","","","","","","","","","","","","","","","","","","SYN05833609 32997 02901 10068 20019 30039 40262 52003 555 1/005=","","","","","","","","","",""
"33609099999","2021-09-06T08:00:00","48.7166666","32.6666666","181.0","ZNAMIANKA, UP","FM-12","4","","45","51","","","-0.04","2","80","","30.34","29.69","6.21","48","330","","2","","","","","","","","","","","","","","","","","","","","","","","","","","","","","","","","","","","","","","","","","","","","","","","","","","","","","","","","","","","","","","","","","","","","","","","","","","","","","","","","","","","","","","","","","","","SYN08633609 32997 63301 10104 20070 30055 40275 52012 80001 333 20050 555 10015 30004 52002=","","","","","","","","","",""
"33609099999","2021-09-06T23:00:00","48.7166666","32.6666666","181.0","ZNAMIANKA, UP","FM-12","4","","36","43","","","-0.02","2","76","","30.40","29.74","6.21","40","310","","2","","","","","","","","","","","","","","","","","","","","","","","","","","","","","","","","","","","","","","","","","","","","","","","","","","","","","","","","","","","","","","","","","","","","","","","","","","","","","","","","","","","","","","","","","","","SYN05833609 42997 03101 10061 20022 30070 40294 52006 555 1/006=","","","","","","","","","",""
"33609099999","2021-09-07T02:00:00","48.7166666","32.6666666","181.0","ZNAMIANKA, UP","FM-12","4","","35","39","","","-0.01","2","83","","30.42","29.75","6.21","37","290","","2","","","","","","","","","","","","","","","","","","","","","","","","","","","","","","","","","","","","","","","","","","","","","","","","","","","","","","","","","","","","","","","","","","","","","","","","","","","","","","","","","","","","","","","","","","","SYN05833609 32997 02901 10041 20015 30074 40300 52004 555 1/005=","","","","","","","","","",""
"33609099999","2021-09-07T08:00:00","48.7166666","32.6666666","181.0","ZNAMIANKA, UP","FM-12","4","","40","51","","","-0.03","2","66","","30.44","29.78","6.21","46","300","","2","","","","","","","","","","","","","","","","","","","","","","","","","","","","","","","","","","","","","","","","","","","","","","","","","","","","","","","","","","","","","","","","","","","","","","","","","","","","","","","","","","","","","","","","","","","SYN08633609 32997 23001 10104 20043 30086 40307 52009 80001 333 20017 555 10014 30100 52101=","","","","","","","","","",""
"33609099999","2021-09-07T23:00:00","48.7166666","32.6666666","181.0","ZNAMIANKA, UP","FM-12","4","","38","45","","","-0.01","2","75","","30.41","29.75","6.21","42","180","","2","","","","","","","","","","","","","","","","","","","","","","","","","","","","","","","","","","","","","","","","","","","","","","","","","","","","","","","","","","","","","","","","","","","","","","","","","","","","","","","","","","","","","","","","","","","SYN05833609 42997 01801 10073 20032 30076 40299 52003 555 1/008=","","","","","","","","","",""
"33609099999","2021-09-08T02:00:00","48.7166666","32.6666666","181.0","ZNAMIANKA, UP","FM-12","4","","36","42","","","+0.01","8","82","","30.41","29.75","6.21","39","170","","2","","","","","","","","","","","","","","","","","","","","","","","","","","","","","","","","","","","","","","","","","","","","","","","","","","","","","","","","","","","","","","","","","","","","","","","","","","","","","","","","","","","","","","","","","","","SYN05833609 32997 01701 10054 20025 30073 40298 58003 555 1/006=","","","","","","","","","",""
"33609099999","2021-09-08T11:00:00","48.7166666","32.6666666","181.0","ZNAMIANKA, UP","FM-12","4","","37","67","","","+0.01","8","33","","30.37","29.73","6.21","52","220","","4","","","","","","","","","","","","","","","","","","","","","","","","","","","","","","","","","","","","","","","","","","","","","","","","","","","","","","","","","","","","","","","","","","","","","","","","","","","","","","","","","","","","","","","","","","","SYN05833609 42997 02202 10194 20027 30069 40283 58003 555 1/038=","","","","","","","","","",""
"33609099999","2021-09-08T17:00:00","48.7166666","32.6666666","181.0","ZNAMIANKA, UP","FM-12","4","","37","69","","","+0.03","7","31","","30.28","29.65","6.21","53","230","","4","","","","","","","","","","","","","","","","","","","","","","","","","","","","","","","","","","","","","","","","","","","","","","","","","","","","","","","","","","","","","","","","","","","","","","","","","","","","","","","","","","","","","","","","","","","SYN05833609 42997 02302 10208 20030 30042 40254 57010 555 1/029=","","","","","","","","","",""
"33609099999","2021-09-08T23:00:00","48.7166666","32.6666666","181.0","ZNAMIANKA, UP","FM-12","4","","38","51","","","+0.01","7","62","","30.28","29.63","6.21","45","190","","2","","","","","","","","","","","","","","","","","","","","","","","","","","","","","","","","","","","","","","","","","","","","","","","","","","","","","","","","","","","","","","","","","","","","","","","","","","","","","","","","","","","","","","","","","","","SYN05833609 42997 01901 10106 20036 30035 40255 57003 555 1/011=","","","","","","","","","",""
"33609099999","2021-09-09T02:00:00","48.7166666","32.6666666","181.0","ZNAMIANKA, UP","FM-12","4","","40","50","","","+0.01","7","70","","30.27","29.62","6.21","45","180","","2","","","","","","","","","","","","","","","","","","","","","","","","","","","","","","","","","","","","","","","","","","","","","","","","","","","","","","","","","","","","","","","","","","","","","","","","","","","","","","","","","","","","","","","","","","","SYN05833609 32997 01801 10098 20045 30032 40252 57003 555 1/010=","","","","","","","","","",""
"33609099999","2021-09-09T14:00:00","48.7166666","32.6666666","181.0","ZNAMIANKA, UP","FM-12","4","","46","76","","","+0.05","7","34","","30.18","29.57","6.21","59","300","","4","","","","","","","","","","","","","","","","","","","","","","","","","","","","","","","","","","","","","","","","","","","","","","","","","","","","","","","","","","","","","","","","","","","","","","","","","","","","","","","","","","","","","","","","","","","SYN05833609 32997 03002 10246 20078 30012 40221 57017 555 1/044=","","","","","","","","","",""
"33609099999","2021-09-09T17:00:00","48.7166666","32.6666666","181.0","ZNAMIANKA, UP","FM-12","4","","46","75","","","+0.04","7","35","","30.15","29.53","6.21","59","290","","4","","","","","","","","","","","","","","","","","","","","","","","","","","","","","","","","","","","","","","","","","","","","","","","","","","","","","","","","","","","","","","","","","","","","","","","","","","","","","","","","","","","","","","","","","","","SYN05833609 42997 02902 10241 20078 30000 40209 57012 555 1/032=","","","","","","","","","",""
"33609099999","2021-09-09T23:00:00","48.7166666","32.6666666","181.0","ZNAMIANKA, UP","FM-12","4","","49","55","","","0.00","4","80","","30.17","29.53","6.21","52","000","","0","","","","","","","","","","","","","","","","","","","","","","","","","","","","","","","","","","","","","","","","","","","","","","","","","","","","","","","","","","","","","","","","","","","","","","","","","","","","","","","","","","","","","","","","","","","SYN05833609 42997 00000 10129 20095 39999 40216 54000 555 1/012=","","","","","","","","","",""
"33609099999","2021-09-10T11:00:00","48.7166666","32.6666666","181.0","ZNAMIANKA, UP","FM-12","4","","51","76","","","+0.01","8","43","","30.11","29.49","6.21","62","320","","2","","","","","","","","","","","","","","","","","","","","","","","","","","","","","","","","","","","","","","","","","","","","","","","","","","","","","","","","","","","","","","","","","","","","","","","","","","","","","","","","","","","","","","","","","","","SYN05833609 42997 03201 10242 20107 39987 40195 58003 555 1/041=","","","","","","","","","",""
"33609099999","2021-09-10T17:00:00","48.7166666","32.6666666","181.0","ZNAMIANKA, UP","FM-12","4","","46","77","","","+0.03","7","34","","30.03","29.42","6.21","60","340","","4","","","","","","","","","","","","","","","","","","","","","","","","","","","","","","","","","","","","","","","","","","","","","","","","","","","","","","","","","","","","","","","","","","","","","","","","","","","","","","","","","","","","","","","","","","","SYN05833609 42997 03402 10248 20077 39963 40171 57009 555 1/032=","","","","","","","","","",""
"33609099999","2021-09-10T23:00:00","48.7166666","32.6666666","181.0","ZNAMIANKA, UP","FM-12","4","","51","58","","","-0.01","1","76","","30.06","29.43","6.21","54","290","","2","","","","","","","","","","","","","","","","","","","","","","","","","","","","","","","","","","","","","","","","","","","","","","","","","","","","","","","","","","","","","","","","","","","","","","","","","","","","","","","","","","","","","","","","","","","SYN05833609 42997 02901 10145 20103 39965 40180 51002 555 1/013=","","","","","","","","","",""
"33609099999","2021-09-11T02:00:00","48.7166666","32.6666666","181.0","ZNAMIANKA, UP","FM-12","4","","50","54","","","+0.01","8","85","","30.06","29.41","6.21","52","310","","2","","","","","","","","","","","","","","","","","","","","","","","","","","","","","","","","","","","","","","","","","","","","","","","","","","","","","","","","","","","","","","","","","","","","","","","","","","","","","","","","","","","","","","","","","","","SYN05833609 32997 03101 10124 20099 39961 40178 58004 555 1/011=","","","","","","","","","",""
"33609099999","2021-09-13T23:00:00","48.7166666","32.6666666","181.0","ZNAMIANKA, UP","FM-12","4","","50","59","","","-0.01","2","72","","29.93","29.29","6.21","54","290","","2","","","","","","","","","","","","","","","","","","","","","","","","","","","","","","","","","","","","","","","","","","","","","","","","","","","","","","","","","","","","","","","","","","","","","","","","","","","","","","","","","","","","","","","","","","","SYN05833609 42997 02901 10148 20098 39920 40134 52005 555 1/013=","","","","","","","","","",""
"33609099999","2021-09-14T02:00:00","48.7166666","32.6666666","181.0","ZNAMIANKA, UP","FM-12","4","","49","55","","","0.00","9","80","","29.93","29.29","6.21","52","280","","2","","","","","","","","","","","","","","","","","","","","","","","","","","","","","","","","","","","","","","","","","","","","","","","","","","","","","","","","","","","","","","","","","","","","","","","","","","","","","","","","","","","","","","","","","","","SYN05833609 32997 02801 10129 20095 39920 40135 50000 555 1/012=","","","","","","","","","",""
"33609099999","2021-09-16T17:00:00","48.7166666","32.6666666","181.0","ZNAMIANKA, UP","FM-12","4","","41","68","","","+0.00","6","37","","30.06","29.43","6.21","54","360","","7","","","","","","","","","","","","","","","","","","","","","","","","","","","","","","","","","","","","","","","","","","","","","","","","","","","","","","","","","","","","","","","","","","","","","","","","","","","","","","","","","","","","","","","","","","","SYN05833609 42997 03603 10201 20050 39967 40178 56001 555 1/027=","","","","","","","","","",""
"33609099999","2021-09-16T23:00:00","48.7166666","32.6666666","181.0","ZNAMIANKA, UP","FM-12","4","","44","50","","","+0.01","8","80","","30.09","29.44","6.21","47","350","","2","","","","","","","","","","","","","","","","","","","","","","","","","","","","","","","","","","","","","","","","","","","","","","","","","","","","","","","","","","","","","","","","","","","","","","","","","","","","","","","","","","","","","","","","","","","SYN05833609 42997 03501 10098 20065 39970 40189 58002 555 1/010=","","","","","","","","","",""
"33609099999","2021-09-17T02:00:00","48.7166666","32.6666666","181.0","ZNAMIANKA, UP","FM-12","4","","42","52","","","+0.01","7","71","","30.07","29.43","6.21","47","180","","2","","","","","","","","","","","","","","","","","","","","","","","","","","","","","","","","","","","","","","","","","","","","","","","","","","","","","","","","","","","","","","","","","","","","","","","","","","","","","","","","","","","","","","","","","","","SYN05833609 32997 01801 10109 20058 39966 40184 57004 555 1/008=","","","","","","","","","",""
"33609099999","2021-09-21T20:00:00","48.7166666","32.6666666","181.0","ZNAMIANKA, UP","FM-12","4","","40","46","","","-0.02","2","79","BKN:07 24","30.02","29.37","6.21","43","270","","7","","","","","","","","","","","","","","","","","","","","","","","","","","","","","","","","","","","","","","","","","","","","","","","","","","","","","","","","","","","","","","","","","","","","","","","","","","","","","","","","","","","","","","","","","","","SYN08633609 12597 72703 10079 20045 39946 40166 52006 69972 87300 333 10105 87924 555 1/009=","","","","","","","","","",""
"33609099999","2021-09-22T20:00:00","48.7166666","32.6666666","181.0","ZNAMIANKA, UP","FM-12","4","","42","46","","","-0.01","3","86","OVC:08 24","29.97","29.32","6.21","44","270","","2","","","","","","","","","","","","","","","","","","","","","","","","","","","","","","","","","","","","","","","","","","","","","","","","","","","","","","","","","","","","","","","","","","","","","","","","","","","","","","","","","","","","","","","","","","","SYN08633609 12597 82701 10076 20053 39928 40148 53002 69902 883// 333 10098 88924 555 1/009=","","","","","","","","","",""
"33609099999","2021-09-23T05:00:00","48.7166666","32.6666666","181.0","ZNAMIANKA, UP","FM-12","4","","42","44","","","+0.00","5","94","OVC:08 22","29.94","29.29","2.49","43","310","","4","","","","","","","","","","","","","","","","","","","","","","","","","","","","","","","","","","","","","","","","","","","","","","","","","","","","","","","","","","","","","","","","","","","","","","","","","","","","","","","","","","","","","","","","","","","SYN08633609 41596 83102 10067 20058 39919 40139 55000 71082 883// 333 55000 88922 555 1/008=","","","","","","","","","",""
"33609099999","2021-09-27T08:00:00","48.7166666","32.6666666","181.0","ZNAMIANKA, UP","FM-12","4","","46","48","","","-0.01","2","91","BKN:07 30","30.16","29.51","6.21","47","340","","7","","","","","","","","","","","","","","","","","","","","","","","","","","","","","","","","","","","","","","","","","","","","","","","","","","","","","","","","","","","","","","","","","","","","","","","","","","","","","","","","","","","","","","","","","","","SYN09233609 32597 73403 10091 20077 39992 40212 52004 87500 333 20059 87930 555 11011 31004 52003=","","","","","","","","","",""
"33609099999","2021-09-28T08:00:00","48.7166666","32.6666666","181.0","ZNAMIANKA, UP","FM-12","4","","47","49","","","-0.03","2","93","SCT:04 26","30.22","29.57","6.21","48","350","","4","","","","","","","","","","","","","","","","","","","","","","","","","","","","","","","","","","","","","","","","","","","","","","","","","","","","","","","","","","","","","","","","","","","","","","","","","","","","","","","","","","","","","","","","","","","SYN08633609 32597 63502 10096 20085 30014 40234 52010 84240 333 20068 555 11012 31005 52004=","","","","","","","","","",""
"33609099999","2021-09-29T23:00:00","48.7166666","32.6666666","181.0","ZNAMIANKA, UP","FM-12","4","","39","43","","","-0.01","1","88","","30.48","29.82","6.21","41","010","","2","","","","","","","","","","","","","","","","","","","","","","","","","","","","","","","","","","","","","","","","","","","","","","","","","","","","","","","","","","","","","","","","","","","","","","","","","","","","","","","","","","","","","","","","","","","SYN05833609 42997 00101 10059 20040 30097 40322 51002 555 1/004=","","","","","","","","","",""
"33609099999","2021-09-30T17:00:00","48.7166666","32.6666666","181.0","ZNAMIANKA, UP","FM-12","4","","35","55","","","+0.02","7","47","","30.43","29.79","6.21","46","060","","7","","","","","","","","","","","","","","","","","","","","","","","","","","","","","","","","","","","","","","","","","","","","","","","","","","","","","","","","","","","","","","","","","","","","","","","","","","","","","","","","","","","","","","","","","","","SYN05833609 42997 00603 10127 20015 30087 40306 57008 555 1/012=","","","","","","","","","",""
"33609099999","2021-09-30T23:00:00","48.7166666","32.6666666","181.0","ZNAMIANKA, UP","FM-12","4","","34","40","","","-0.02","2","79","","30.49","29.82","6.21","37","060","","2","","","","","","","","","","","","","","","","","","","","","","","","","","","","","","","","","","","","","","","","","","","","","","","","","","","","","","","","","","","","","","","","","","","","","","","","","","","","","","","","","","","","","","","","","","","SYN05833609 42997 00601 10043 20009 30099 40325 52008 555 1/002=","","","","","","","","","",""
"33609099999","2021-10-01T02:00:00","48.7166666","32.6666666","181.0","ZNAMIANKA, UP","FM-12","4","","33","38","","","-0.01","2","82","","30.50","29.83","6.21","36","320","","2","","","","","","","","","","","","","","","","","","","","","","","","","","","","","","","","","","","","","","","","","","","","","","","","","","","","","","","","","","","","","","","","","","","","","","","","","","","","","","","","","","","","","","","","","","","SYN05833609 32997 03201 10036 20007 30103 40330 52004 555 1/002=","","","","","","","","","",""
"33609099999","2021-10-01T11:00:00","48.7166666","32.6666666","181.0","ZNAMIANKA, UP","FM-12","4","","36","57","","","+0.01","8","45","","30.50","29.85","6.21","47","090","","7","","","","","","","","","","","","","","","","","","","","","","","","","","","","","","","","","","","","","","","","","","","","","","","","","","","","","","","","","","","","","","","","","","","","","","","","","","","","","","","","","","","","","","","","","","","SYN05833609 42997 00903 10139 20021 30109 40328 58005 555 1/024=","","","","","","","","","",""
"33609099999","2021-10-01T14:00:00","48.7166666","32.6666666","181.0","ZNAMIANKA, UP","FM-12","4","","35","59","","","+0.03","7","41","","30.47","29.82","6.21","48","090","","7","","","","","","","","","","","","","","","","","","","","","","","","","","","","","","","","","","","","","","","","","","","","","","","","","","","","","","","","","","","","","","","","","","","","","","","","","","","","","","","","","","","","","","","","","","","SYN05833609 32997 00903 10151 20019 30099 40317 57010 555 1/025=","","","","","","","","","",""
"33609099999","2021-10-01T17:00:00","48.7166666","32.6666666","181.0","ZNAMIANKA, UP","FM-12","4","","36","57","","","+0.02","7","46","","30.45","29.80","6.21","47","070","","4","","","","","","","","","","","","","","","","","","","","","","","","","","","","","","","","","","","","","","","","","","","","","","","","","","","","","","","","","","","","","","","","","","","","","","","","","","","","","","","","","","","","","","","","","","","SYN05833609 42997 00702 10139 20023 30093 40312 57006 555 1/013=","","","","","","","","","",""
"33609099999","2021-10-01T23:00:00","48.7166666","32.6666666","181.0","ZNAMIANKA, UP","FM-12","4","","36","42","","","+0.01","8","78","","30.46","29.80","6.21","39","340","","2","","","","","","","","","","","","","","","","","","","","","","","","","","","","","","","","","","","","","","","","","","","","","","","","","","","","","","","","","","","","","","","","","","","","","","","","","","","","","","","","","","","","","","","","","","","SYN05833609 42997 03401 10057 20022 30090 40315 58005 555 1/003=","","","","","","","","","",""
"33609099999","2021-10-02T02:00:00","48.7166666","32.6666666","181.0","ZNAMIANKA, UP","FM-12","4","","34","39","","","+0.00","6","83","","30.46","29.79","6.21","37","310","","2","","","","","","","","","","","","","","","","","","","","","","","","","","","","","","","","","","","","","","","","","","","","","","","","","","","","","","","","","","","","","","","","","","","","","","","","","","","","","","","","","","","","","","","","","","","SYN05833609 32997 03101 10039 20013 30089 40316 56001 555 1/002=","","","","","","","","","",""
"33609099999","2021-10-02T11:00:00","48.7166666","32.6666666","181.0","ZNAMIANKA, UP","FM-12","4","","30","55","","","+0.01","8","39","","30.42","29.78","6.21","44","070","","9","","","","","","","","","","","","","","","","","","","","","","","","","","","","","","","","","","","","","","","","","","","","","","","","","","","","","","","","","","","","","","","","","","","","","","","","","","","","","","","","","","","","","","","","","","","SYN05833609 42997 00704 10130 21009 30084 40303 58003 555 1/022=","","","","","","","","","",""
"33609099999","2021-10-02T14:00:00","48.7166666","32.6666666","181.0","ZNAMIANKA, UP","FM-12","4","","27","58","","","+0.04","7","30","","30.38","29.74","6.21","45","080","","9","","","","","","","","","","","","","","","","","","","","","","","","","","","","","","","","","","","","","","","","","","","","","","","","","","","","","","","","","","","","","","","","","","","","","","","","","","","","","","","","","","","","","","","","","","","SYN05833609 32997 00804 10147 21030 30071 40289 57013 555 1/024=","","","","","","","","","",""
"33609099999","2021-10-02T17:00:00","48.7166666","32.6666666","181.0","ZNAMIANKA, UP","FM-12","4","","32","57","","","+0.02","7","39","","30.37","29.72","6.21","46","070","","4","","","","","","","","","","","","","","","","","","","","","","","","","","","","","","","","","","","","","","","","","","","","","","","","","","","","","","","","","","","","","","","","","","","","","","","","","","","","","","","","","","","","","","","","","","","SYN05833609 42997 00702 10137 21002 30065 40283 57006 555 1/012=","","","","","","","","","",""
"33609099999","2021-10-02T23:00:00","48.7166666","32.6666666","181.0","ZNAMIANKA, UP","FM-12","4","","33","40","","","-0.01","2","76","","30.40","29.74","6.21","37","300","","2","","","","","","","","","","","","","","","","","","","","","","","","","","","","","","","","","","","","","","","","","","","","","","","","","","","","","","","","","","","","","","","","","","","","","","","","","","","","","","","","","","","","","","","","","","","SYN05833609 42997 03001 10044 20005 30070 40296 52003 555 1/002=","","","","","","","","","",""
"33609099999","2021-10-03T02:00:00","48.7166666","32.6666666","181.0","ZNAMIANKA, UP","FM-12","4","","33","38","","","0.00","9","83","","30.41","29.74","6.21","36","330","","2","","","","","","","","","","","","","","","","","","","","","","","","","","","","","","","","","","","","","","","","","","","","","","","","","","","","","","","","","","","","","","","","","","","","","","","","","","","","","","","","","","","","","","","","","","","SYN05833609 32997 03301 10031 20005 30070 40297 50000 555 1/001=","","","","","","","","","",""
"33609099999","2021-10-03T17:00:00","48.7166666","32.6666666","181.0","ZNAMIANKA, UP","FM-12","4","","38","58","","","+0.01","6","48","","30.36","29.71","6.21","48","040","","7","","","","","","","","","","","","","","","","","","","","","","","","","","","","","","","","","","","","","","","","","","","","","","","","","","","","","","","","","","","","","","","","","","","","","","","","","","","","","","","","","","","","","","","","","","","SYN05833609 42997 00403 10142 20034 30062 40280 56002 555 1/013=","","","","","","","","","",""
"33609099999","2021-10-03T23:00:00","48.7166666","32.6666666","181.0","ZNAMIANKA, UP","FM-12","4","","37","42","","","-0.01","1","85","","30.40","29.73","6.21","40","320","","2","","","","","","","","","","","","","","","","","","","","","","","","","","","","","","","","","","","","","","","","","","","","","","","","","","","","","","","","","","","","","","","","","","","","","","","","","","","","","","","","","","","","","","","","","","","SYN05833609 42997 03201 10054 20030 30069 40294 51002 555 1/003=","","","","","","","","","",""
"33609099999","2021-10-04T02:00:00","48.7166666","32.6666666","181.0","ZNAMIANKA, UP","FM-12","4","","36","39","","","+0.01","8","87","","30.40","29.73","6.21","38","310","","2","","","","","","","","","","","","","","","","","","","","","","","","","","","","","","","","","","","","","","","","","","","","","","","","","","","","","","","","","","","","","","","","","","","","","","","","","","","","","","","","","","","","","","","","","","","SYN05833609 32997 03101 10040 20020 30067 40293 58002 555 1/001=","","","","","","","","","",""
"33609099999","2021-10-04T08:00:00","48.7166666","32.6666666","181.0","ZNAMIANKA, UP","FM-12","4","","36","43","","","-0.03","2","76","FEW:02","30.42","29.75","6.21","40","330","","2","","","","","","","","","","","","","","","","","","","","","","","","","","","","","","","","","","","","","","","","","","","","","","","","","","","","","","","","","","","","","","","","","","","","","","","","","","","","","","","","","","","","","","","","","","","SYN08633609 32997 33301 10063 20024 30076 40300 52009 82081 333 20024 555 10009 30100 52101=","","","","","","","","","",""
"33609099999","2021-10-05T08:00:00","48.7166666","32.6666666","181.0","ZNAMIANKA, UP","FM-12","4","","39","42","","","-0.04","2","91","FEW:02","30.49","29.83","2.49","41","340","","2","","","","","","","","","","","","","","","","","","","","","","","","","","","","","","","","","","","","","","","","","","","","","","","","","","","","","","","","","","","","","","","","","","","","","","","","","","","","","","","","","","","","","","","","","","","SYN09233609 31996 23401 10055 20041 30101 40326 52013 71000 82030 333 20027 555 10007 30100 52101=","","","","","","","","","",""
"33609099999","2021-10-06T08:00:00","48.7166666","32.6666666","181.0","ZNAMIANKA, UP","FM-12","4","","40","45","","","-0.02","2","83","","30.56","29.90","6.21","43","070","","4","","","","","","","","","","","","","","","","","","","","","","","","","","","","","","","","","","","","","","","","","","","","","","","","","","","","","","","","","","","","","","","","","","","","","","","","","","","","","","","","","","","","","","","","","","","SYN08633609 32997 20702 10074 20046 30126 40350 52007 80009 333 20043 555 10008 30001 52000=","","","","","","","","","",""
"33609099999","2021-10-06T14:00:00","48.7166666","32.6666666","181.0","ZNAMIANKA, UP","FM-12","4","","27","54","","","+0.02","7","35","","30.51","29.86","6.21","43","050","","11","","","","","","","","","","","","","","","","","","","","","","","","","","","","","","","","","","","","","","","","","","","","","","","","","","","","","","","","","","","","","","","","","","","","","","","","","","","","","","","","","","","","","","","","","","","SYN05833609 32997 00505 10125 21027 30111 40331 57008 555 1/019=","","","","","","","","","",""
"33609099999","2021-10-06T17:00:00","48.7166666","32.6666666","181.0","ZNAMIANKA, UP","FM-12","4","","20","51","","","-0.00","3","30","","30.52","29.86","6.21","39","080","","11","","","","","","","","","","","","","","","","","","","","","","","","","","","","","","","","","","","","","","","","","","","","","","","","","","","","","","","","","","","","","","","","","","","","","","","","","","","","","","","","","","","","","","","","","","","SYN05833609 42997 00805 10105 21064 30112 40334 53001 555 1/009=","","","","","","","","","",""
"33609099999","2021-10-06T23:00:00","48.7166666","32.6666666","181.0","ZNAMIANKA, UP","FM-12","4","","25","37","","","-0.01","2","62","","30.56","29.88","6.21","33","060","","4","","","","","","","","","","","","","","","","","","","","","","","","","","","","","","","","","","","","","","","","","","","","","","","","","","","","","","","","","","","","","","","","","","","","","","","","","","","","","","","","","","","","","","","","","","","SYN05833609 42997 00602 10027 21039 30120 40348 52002 555 1/101=","","","","","","","","","",""
"33609099999","2021-10-07T02:00:00","48.7166666","32.6666666","181.0","ZNAMIANKA, UP","FM-12","4","","26","34","","","-0.00","1","70","","30.57","29.89","6.21","31","050","","4","","","","","","","","","","","","","","","","","","","","","","","","","","","","","","","","","","","","","","","","","","","","","","","","","","","","","","","","","","","","","","","","","","","","","","","","","","","","","","","","","","","","","","","","","","","SYN05833609 32997 00502 10013 21036 30121 40351 51001 555 1/103=","","","","","","","","","",""
"33609099999","2021-10-07T08:00:00","48.7166666","32.6666666","181.0","ZNAMIANKA, UP","FM-12","4","","28","38","","","-0.02","2","68","","30.59","29.92","6.21","34","060","","7","","","","","","","","","","","","","","","","","","","","","","","","","","","","","","","","","","","","","","","","","","","","","","","","","","","","","","","","","","","","","","","","","","","","","","","","","","","","","","","","","","","","","","","","","","","SYN08633609 32997 30603 10031 21023 30131 40359 52007 80001 333 21005 555 10003 30104 52105=","","","","","","","","","",""
"33609099999","2021-10-07T17:00:00","48.7166666","32.6666666","181.0","ZNAMIANKA, UP","FM-12","4","","19","51","","","+0.01","6","28","","30.53","29.88","6.21","39","050","","9","","","","","","","","","","","","","","","","","","","","","","","","","","","","","","","","","","","","","","","","","","","","","","","","","","","","","","","","","","","","","","","","","","","","","","","","","","","","","","","","","","","","","","","","","","","SYN05833609 42997 00504 10106 21074 30117 40339 56002 555 1/009=","","","","","","","","","",""
"33609099999","2021-10-07T23:00:00","48.7166666","32.6666666","181.0","ZNAMIANKA, UP","FM-12","4","","25","37","","","+0.02","8","61","","30.56","29.89","6.21","33","030","","4","","","","","","","","","","","","","","","","","","","","","","","","","","","","","","","","","","","","","","","","","","","","","","","","","","","","","","","","","","","","","","","","","","","","","","","","","","","","","","","","","","","","","","","","","","","SYN05833609 42997 00302 10030 21038 30122 40350 58007 555 1/000=","","","","","","","","","",""
"33609099999","2021-10-08T02:00:00","48.7166666","32.6666666","181.0","ZNAMIANKA, UP","FM-12","4","","27","36","","","+0.01","7","70","","30.55","29.88","6.21","33","040","","4","","","","","","","","","","","","","","","","","","","","","","","","","","","","","","","","","","","","","","","","","","","","","","","","","","","","","","","","","","","","","","","","","","","","","","","","","","","","","","","","","","","","","","","","","","","SYN05833609 32997 00402 10024 21025 30117 40346 57005 555 1/101=","","","","","","","","","",""
"33609099999","2021-10-08T08:00:00","48.7166666","32.6666666","181.0","ZNAMIANKA, UP","FM-12","4","","27","40","","","-0.02","3","59","FEW:02 41","30.56","29.89","6.21","35","040","","7","","","","","","","","","","","","","","","","","","","","","","","","","","","","","","","","","","","","","","","","","","","","","","","","","","","","","","","","","","","","","","","","","","","","","","","","","","","","","","","","","","","","","","","","","","","SYN08633609 32697 60403 10045 21029 30123 40350 53007 82530 333 20010 555 10006 30101 52102=","","","","","","","","","",""
"33609099999","2021-10-09T08:00:00","48.7166666","32.6666666","181.0","ZNAMIANKA, UP","FM-12","4","","22","38","","","-0.02","3","53","","30.51","29.84","6.21","32","040","","7","","","","","","","","","","","","","","","","","","","","","","","","","","","","","","","","","","","","","","","","","","","","","","","","","","","","","","","","","","","","","","","","","","","","","","","","","","","","","","","","","","","","","","","","","","","SYN08633609 32997 40403 10031 21056 30104 40332 53006 80001 333 20007 555 10004 30102 52103=","","","","","","","","","",""
"33609099999","2021-10-09T14:00:00","48.7166666","32.6666666","181.0","ZNAMIANKA, UP","FM-12","4","","26","52","","","","","36","BKN:06 26","30.46","29.81","6.21","41","040","","11","","","","","","","","","","","","","","","","","","","","","","","","","","","","","","","","","","","","","","","","","","","","","","","","","","","","","","","","","","","","","","","","","","","","","","","","","","","","","","","","","","","","","","","","","","","SYN05833609 32597 80405 10109 21036 30094 40315 8655/ 555 1/013=","","","","","","","","","",""
"33609099999","2021-10-10T08:00:00","48.7166666","32.6666666","181.0","ZNAMIANKA, UP","FM-12","4","","29","41","","","-0.01","3","64","BKN:06 26","30.45","29.79","6.21","36","020","","2","","","","","","","","","","","","","","","","","","","","","","","","","","","","","","","","","","","","","","","","","","","","","","","","","","","","","","","","","","","","","","","","","","","","","","","","","","","","","","","","","","","","","","","","","","","SYN08633609 32597 70201 10049 21014 30087 40313 53004 86530 333 20034 555 10006 30001 52000=","","","","","","","","","",""
"33609099999","2021-10-10T23:00:00","48.7166666","32.6666666","181.0","ZNAMIANKA, UP","FM-12","4","","33","39","","","+0.02","7","80","","30.39","29.72","6.21","37","320","","2","","","","","","","","","","","","","","","","","","","","","","","","","","","","","","","","","","","","","","","","","","","","","","","","","","","","","","","","","","","","","","","","","","","","","","","","","","","","","","","","","","","","","","","","","","","SYN05833609 42997 03201 10037 20005 30066 40292 57007 555 1/101=","","","","","","","","","",""
"33609099999","2021-10-11T02:00:00","48.7166666","32.6666666","181.0","ZNAMIANKA, UP","FM-12","4","","33","37","","","+0.02","7","86","","30.37","29.70","6.21","35","310","","2","","","","","","","","","","","","","","","","","","","","","","","","","","","","","","","","","","","","","","","","","","","","","","","","","","","","","","","","","","","","","","","","","","","","","","","","","","","","","","","","","","","","","","","","","","","SYN05833609 32997 03101 10027 20006 30058 40285 57008 555 1/101=","","","","","","","","","",""
"33609099999","2021-10-11T11:00:00","48.7166666","32.6666666","181.0","ZNAMIANKA, UP","FM-12","4","","32","57","","","+0.04","7","39","","30.23","29.59","6.21","46","100","","9","","","","","","","","","","","","","","","","","","","","","","","","","","","","","","","","","","","","","","","","","","","","","","","","","","","","","","","","","","","","","","","","","","","","","","","","","","","","","","","","","","","","","","","","","","","SYN05833609 42997 01004 10138 20000 30021 40238 57014 555 1/023=","","","","","","","","","",""
"33609099999","2021-10-11T23:00:00","48.7166666","32.6666666","181.0","ZNAMIANKA, UP","FM-12","4","","36","44","","","+0.04","7","74","","30.09","29.44","6.21","40","000","","0","","","","","","","","","","","","","","","","","","","","","","","","","","","","","","","","","","","","","","","","","","","","","","","","","","","","","","","","","","","","","","","","","","","","","","","","","","","","","","","","","","","","","","","","","","","SYN05833609 42997 00000 10067 20023 39969 40191 57015 555 1/003=","","","","","","","","","",""
"33609099999","2021-10-12T02:00:00","48.7166666","32.6666666","181.0","ZNAMIANKA, UP","FM-12","4","","36","39","","","+0.03","7","88","","30.07","29.41","6.21","38","000","","0","","","","","","","","","","","","","","","","","","","","","","","","","","","","","","","","","","","","","","","","","","","","","","","","","","","","","","","","","","","","","","","","","","","","","","","","","","","","","","","","","","","","","","","","","","","SYN05833609 32997 00000 10039 20021 39958 40182 57011 555 1/001=","","","","","","","","","",""
"33609099999","2021-10-12T08:00:00","48.7166666","32.6666666","181.0","ZNAMIANKA, UP","FM-12","4","","38","42","","","+0.02","7","85","","30.00","29.34","6.21","40","000","","0","","","","","","","","","","","","","","","","","","","","","","","","","","","","","","","","","","","","","","","","","","","","","","","","","","","","","","","","","","","","","","","","","","","","","","","","","","","","","","","","","","","","","","","","","","","SYN08633609 32997 60000 10058 20034 39937 40159 57007 80009 333 20026 555 10007 30100 52101=","","","","","","","","","",""
"33609099999","2021-10-13T05:00:00","48.7166666","32.6666666","181.0","ZNAMIANKA, UP","FM-12","4","","44","46","","","+0.01","7","92","OVC:08 21","29.82","29.18","2.49","45","330","","4","","","","","","","","","","","","","","","","","","","","","","","","","","","","","","","","","","","","","","","","","","","","","","","","","","","","","","","","","","","","","","","","","","","","","","","","","","","","","","","","","","","","","","","","","","","SYN08633609 41596 83302 10080 20067 39880 40098 57003 71082 883// 333 55025 88921 555 1/009=","","","","","","","","","",""
"33609099999","2021-10-13T08:00:00","48.7166666","32.6666666","181.0","ZNAMIANKA, UP","FM-12","4","","48","48","","||SHRA","+0.00","6","100","","29.81","29.17","0.31","48","340","","7","","","","","","","","","","","","","","","","","","","","","","","","","","","","","","","","","","","","","","","","","","","","","","","","","","","","","","","","","","","","","","","","","","","","","","","","","","","","","","","","","","","","","","","","","","","SYN08633609 11/93 93403 10091 20091 39879 40096 56001 60052 78084 333 20077 96045 555 11009=","","","","","","","","","",""
"33609099999","2021-10-14T05:00:00","48.7166666","32.6666666","181.0","ZNAMIANKA, UP","FM-12","4","","44","44","","","-0.06","2","97","OVC:08 12","29.94","29.29","2.49","44","310","","9","","","","","","","","","","","","","","","","","","","","","","","","","","","","","","","","","","","","","","","","","","","","","","","","","","","","","","","","","","","","","","","","","","","","","","","","","","","","","","","","","","","","","","","","","","","SYN08633609 41496 83104 10069 20065 39920 40140 52022 71062 886// 333 55000 88712 555 1/007=","","","","","","","","","",""
"33609099999","2021-10-16T08:00:00","48.7166666","32.6666666","181.0","ZNAMIANKA, UP","FM-12","4","","40","42","","","+0.01","7","92","BKN:05 26","30.12","29.46","2.49","41","330","","2","","","","","","","","","","","","","","","","","","","","","","","","","","","","","","","","","","","","","","","","","","","","","","","","","","","","","","","","","","","","","","","","","","","","","","","","","","","","","","","","","","","","","","","","","","","SYN09233609 31596 83301 10057 20045 39977 40200 57003 71022 8553/ 333 20037 555 11007 31003 52002=","","","","","","","","","",""
"33609099999","2021-10-17T05:00:00","48.7166666","32.6666666","181.0","ZNAMIANKA, UP","FM-12","4","","45","46","","","0.00","4","95","OVC:08 25","30.07","29.42","2.49","46","330","","4","","","","","","","","","","","","","","","","","","","","","","","","","","","","","","","","","","","","","","","","","","","","","","","","","","","","","","","","","","","","","","","","","","","","","","","","","","","","","","","","","","","","","","","","","","","SYN08633609 41596 83302 10078 20070 39962 40182 54000 71022 885// 333 55000 88625 555 1/007=","","","","","","","","","",""
"33609099999","2021-10-18T08:00:00","48.7166666","32.6666666","181.0","ZNAMIANKA, UP","FM-12","4","","36","42","","","-0.02","3","78","OVC:08 48","30.14","29.49","6.21","39","290","","2","","","","","","","","","","","","","","","","","","","","","","","","","","","","","","","","","","","","","","","","","","","","","","","","","","","","","","","","","","","","","","","","","","","","","","","","","","","","","","","","","","","","","","","","","","","SYN09233609 32697 82901 10055 20020 39985 40208 53007 885// 333 20025 88649 555 11006 31001 52102=","","","","","","","","","",""
"33609099999","2021-10-18T23:00:00","48.7166666","32.6666666","181.0","ZNAMIANKA, UP","FM-12","4","","36","41","","","-0.02","2","84","","30.15","29.49","6.21","39","290","","4","","","","","","","","","","","","","","","","","","","","","","","","","","","","","","","","","","","","","","","","","","","","","","","","","","","","","","","","","","","","","","","","","","","","","","","","","","","","","","","","","","","","","","","","","","","SYN05833609 42997 02902 10049 20024 39987 40210 52006 555 1/003=","","","","","","","","","",""
"33609099999","2021-10-19T08:00:00","48.7166666","32.6666666","181.0","ZNAMIANKA, UP","FM-12","4","","36","42","","","-0.06","2","78","FEW:02","30.22","29.56","6.21","39","300","","7","","","","","","","","","","","","","","","","","","","","","","","","","","","","","","","","","","","","","","","","","","","","","","","","","","","","","","","","","","","","","","","","","","","","","","","","","","","","","","","","","","","","","","","","","","","SYN08633609 32997 43003 10057 20022 30011 40234 52020 82031 333 20047 555 11007 31002 52001=","","","","","","","","","",""
"33609099999","2021-10-19T17:00:00","48.7166666","32.6666666","181.0","ZNAMIANKA, UP","FM-12","4","","33","47","","","-0.01","2","57","","30.27","29.61","6.21","41","290","","7","","","","","","","","","","","","","","","","","","","","","","","","","","","","","","","","","","","","","","","","","","","","","","","","","","","","","","","","","","","","","","","","","","","","","","","","","","","","","","","","","","","","","","","","","","","SYN05833609 42997 02903 10084 20004 30028 40250 52004 555 1/005=","","","","","","","","","",""
"33609099999","2021-10-20T08:00:00","48.7166666","32.6666666","181.0","ZNAMIANKA, UP","FM-12","4","","30","35","","","-0.04","3","82","FEW:02","30.38","29.71","6.21","33","270","","2","","","","","","","","","","","","","","","","","","","","","","","","","","","","","","","","","","","","","","","","","","","","","","","","","","","","","","","","","","","","","","","","","","","","","","","","","","","","","","","","","","","","","","","","","","","SYN08633609 32997 32701 10018 21010 30060 40288 53013 82059 333 20001 555 14100 34102 52103=","","","","","","","","","",""
"33609099999","2021-10-23T08:00:00","48.7166666","32.6666666","181.0","ZNAMIANKA, UP","FM-12","4","","44","50","","","-0.04","2","80","BKN:05 26","29.99","29.35","6.21","47","260","","4","","","","","","","","","","","","","","","","","","","","","","","","","","","","","","","","","","","","","","","","","","","","","","","","","","","","","","","","","","","","","","","","","","","","","","","","","","","","","","","","","","","","","","","","","","","SYN08633609 32597 62602 10098 20065 39938 40156 52012 85530 333 20080 555 11009 31005 52004=","","","","","","","","","",""
"33609099999","2021-10-23T23:00:00","48.7166666","32.6666666","181.0","ZNAMIANKA, UP","FM-12","4","","30","38","","","-0.05","2","72","","30.19","29.53","6.21","35","260","","2","","","","","","","","","","","","","","","","","","","","","","","","","","","","","","","","","","","","","","","","","","","","","","","","","","","","","","","","","","","","","","","","","","","","","","","","","","","","","","","","","","","","","","","","","","","SYN05833609 42997 02601 10034 21013 30000 40225 52016 555 1/001=","","","","","","","","","",""
"33609099999","2021-10-24T02:00:00","48.7166666","32.6666666","181.0","ZNAMIANKA, UP","FM-12","4","","28","36","","","-0.01","2","72","","30.21","29.54","6.21","33","270","","2","","","","","","","","","","","","","","","","","","","","","","","","","","","","","","","","","","","","","","","","","","","","","","","","","","","","","","","","","","","","","","","","","","","","","","","","","","","","","","","","","","","","","","","","","","","SYN05833609 32997 02701 10025 21021 30005 40231 52005 555 1/101=","","","","","","","","","",""
"33609099999","2021-10-24T08:00:00","48.7166666","32.6666666","181.0","ZNAMIANKA, UP","FM-12","4","","33","39","","","-0.03","2","77","BKN:07 26","30.26","29.59","6.21","37","270","","7","","","","","","","","","","","","","","","","","","","","","","","","","","","","","","","","","","","","","","","","","","","","","","","","","","","","","","","","","","","","","","","","","","","","","","","","","","","","","","","","","","","","","","","","","","","SYN08633609 32597 72703 10040 20003 30021 40246 52011 87500 333 20020 555 11005 31102 52103=","","","","","","","","","",""
"33609099999","2021-10-25T08:00:00","48.7166666","32.6666666","181.0","ZNAMIANKA, UP","FM-12","4","","31","38","","","-0.04","2","76","BKN:06","30.51","29.84","6.21","35","320","","4","","","","","","","","","","","","","","","","","","","","","","","","","","","","","","","","","","","","","","","","","","","","","","","","","","","","","","","","","","","","","","","","","","","","","","","","","","","","","","","","","","","","","","","","","","","SYN08633609 32997 63202 10035 21003 30105 40332 52014 86050 333 20010 555 10004 30101 52102=","","","","","","","","","",""
"33609099999","2021-10-25T17:00:00","48.7166666","32.6666666","181.0","ZNAMIANKA, UP","FM-12","4","","28","40","","","+0.00","6","61","","30.52","29.85","6.21","35","340","","4","","","","","","","","","","","","","","","","","","","","","","","","","","","","","","","","","","","","","","","","","","","","","","","","","","","","","","","","","","","","","","","","","","","","","","","","","","","","","","","","","","","","","","","","","","","SYN05833609 42997 03402 10047 21023 30109 40336 56001 555 1/004=","","","","","","","","","",""
"33609099999","2021-10-25T23:00:00","48.7166666","32.6666666","181.0","ZNAMIANKA, UP","FM-12","4","","26","29","","","-0.01","1","87","","30.55","29.87","6.21","28","000","","0","","","","","","","","","","","","","","","","","","","","","","","","","","","","","","","","","","","","","","","","","","","","","","","","","","","","","","","","","","","","","","","","","","","","","","","","","","","","","","","","","","","","","","","","","","","SYN05833609 42997 00000 11014 21033 30115 40347 51002 555 1/102=","","","","","","","","","",""
"33609099999","2021-10-26T02:00:00","48.7166666","32.6666666","181.0","ZNAMIANKA, UP","FM-12","4","","27","30","","","+0.01","8","88","","30.54","29.86","6.21","29","190","","2","","","","","","","","","","","","","","","","","","","","","","","","","","","","","","","","","","","","","","","","","","","","","","","","","","","","","","","","","","","","","","","","","","","","","","","","","","","","","","","","","","","","","","","","","","","SYN05833609 32997 01901 11010 21028 30111 40342 58004 555 1/102=","","","","","","","","","",""
"33609099999","2021-10-26T08:00:00","48.7166666","32.6666666","181.0","ZNAMIANKA, UP","FM-12","4","","27","32","","","-0.00","3","81","","30.53","29.85","6.21","30","180","","2","","","","","","","","","","","","","","","","","","","","","","","","","","","","","","","","","","","","","","","","","","","","","","","","","","","","","","","","","","","","","","","","","","","","","","","","","","","","","","","","","","","","","","","","","","","SYN08633609 32997 11801 10002 21028 30107 40337 53001 80001 333 21024 555 14101 34103 52104=","","","","","","","","","",""
"33609099999","2021-10-26T14:00:00","48.7166666","32.6666666","181.0","ZNAMIANKA, UP","FM-12","4","","26","49","","","+0.06","7","40","","30.43","29.78","6.21","40","170","","9","","","","","","","","","","","","","","","","","","","","","","","","","","","","","","","","","","","","","","","","","","","","","","","","","","","","","","","","","","","","","","","","","","","","","","","","","","","","","","","","","","","","","","","","","","","SYN05833609 32997 01704 10095 21036 30083 40305 57022 555 1/015=","","","","","","","","","",""
"33609099999","2021-10-26T17:00:00","48.7166666","32.6666666","181.0","ZNAMIANKA, UP","FM-12","4","","26","45","","","+0.03","7","46","","30.41","29.75","6.21","37","170","","2","","","","","","","","","","","","","","","","","","","","","","","","","","","","","","","","","","","","","","","","","","","","","","","","","","","","","","","","","","","","","","","","","","","","","","","","","","","","","","","","","","","","","","","","","","","SYN05833609 42997 01701 10073 21036 30074 40298 57009 555 1/004=","","","","","","","","","",""
"33609099999","2021-10-26T23:00:00","48.7166666","32.6666666","181.0","ZNAMIANKA, UP","FM-12","4","","24","31","","","+0.03","8","77","","30.39","29.71","6.21","29","140","","2","","","","","","","","","","","","","","","","","","","","","","","","","","","","","","","","","","","","","","","","","","","","","","","","","","","","","","","","","","","","","","","","","","","","","","","","","","","","","","","","","","","","","","","","","","","SYN05833609 42997 01401 11007 21042 30061 40291 58011 555 1/102=","","","","","","","","","",""
"33609099999","2021-10-27T02:00:00","48.7166666","32.6666666","181.0","ZNAMIANKA, UP","FM-12","4","","31","35","","","+0.00","5","86","","30.38","29.71","6.21","33","190","","4","","","","","","","","","","","","","","","","","","","","","","","","","","","","","","","","","","","","","","","","","","","","","","","","","","","","","","","","","","","","","","","","","","","","","","","","","","","","","","","","","","","","","","","","","","","SYN05833609 32997 01902 10017 21005 30061 40289 55000 555 1/101=","","","","","","","","","",""
"33609099999","2021-10-27T08:00:00","48.7166666","32.6666666","181.0","ZNAMIANKA, UP","FM-12","4","","29","35","","","+0.00","5","80","BKN:05 26","30.36","29.69","6.21","33","150","","4","","","","","","","","","","","","","","","","","","","","","","","","","","","","","","","","","","","","","","","","","","","","","","","","","","","","","","","","","","","","","","","","","","","","","","","","","","","","","","","","","","","","","","","","","","","SYN08633609 32597 61502 10014 21018 30054 40282 55000 85530 333 21018 555 14001 34104 52105=","","","","","","","","","",""
"33609099999","2021-10-27T17:00:00","48.7166666","32.6666666","181.0","ZNAMIANKA, UP","FM-12","4","","38","46","","","+0.01","7","74","","30.26","29.61","6.21","42","190","","4","","","","","","","","","","","","","","","","","","","","","","","","","","","","","","","","","","","","","","","","","","","","","","","","","","","","","","","","","","","","","","","","","","","","","","","","","","","","","","","","","","","","","","","","","","","SYN05833609 42997 01902 10077 20034 30026 40248 57005 555 1/004=","","","","","","","","","",""
"33609099999","2021-10-28T08:00:00","48.7166666","32.6666666","181.0","ZNAMIANKA, UP","FM-12","4","","38","40","","","-0.01","1","93","","30.30","29.64","2.49","39","270","","2","","","","","","","","","","","","","","","","","","","","","","","","","","","","","","","","","","","","","","","","","","","","","","","","","","","","","","","","","","","","","","","","","","","","","","","","","","","","","","","","","","","","","","","","","","","SYN09233609 31996 22701 10044 20034 30036 40261 51002 71000 80001 333 20021 555 14100 34102 52103=","","","","","","","","","",""
"33609099999","2021-10-29T08:00:00","48.7166666","32.6666666","181.0","ZNAMIANKA, UP","FM-12","4","","47","48","","","-0.04","2","97","OVC:08 12","30.37","29.71","2.49","48","020","","2","","","","","","","","","","","","","","","","","","","","","","","","","","","","","","","","","","","","","","","","","","","","","","","","","","","","","","","","","","","","","","","","","","","","","","","","","","","","","","","","","","","","","","","","","","","SYN09833609 31496 80201 10091 20086 30062 40283 52015 71011 886// 333 20080 88712 555 10009 30005 52004=","","","","","","","","","",""
"33609099999","2021-10-29T20:00:00","48.7166666","32.6666666","181.0","ZNAMIANKA, UP","FM-12","4","","45","45","","","-0.02","2","97","OVC:08 9","30.43","29.78","2.49","45","090","","4","","","","","","","","","","","","","","","","","","","","","","","","","","","","","","","","","","","","","","","","","","","","","","","","","","","","","","","","","","","","","","","","","","","","","","","","","","","","","","","","","","","","","","","","","","","SYN08633609 31396 80902 10074 20070 30083 40306 52007 71011 886// 333 10135 88709 555 1/009=","","","","","","","","","",""
"33609099999","2021-10-30T17:00:00","48.7166666","32.6666666","181.0","ZNAMIANKA, UP","FM-12","4","","39","49","","","+0.01","7","67","","30.43","29.78","6.21","44","120","","4","","","","","","","","","","","","","","","","","","","","","","","","","","","","","","","","","","","","","","","","","","","","","","","","","","","","","","","","","","","","","","","","","","","","","","","","","","","","","","","","","","","","","","","","","","","SYN05833609 42997 01202 10097 20038 30084 40306 57003 555 1/007=","","","","","","","","","",""
"33609099999","2021-10-31T08:00:00","48.7166666","32.6666666","181.0","ZNAMIANKA, UP","FM-12","4","","32","32","","||FG","+0.02","7","100","","30.41","29.73","0.31","32","000","","0","","","","","","","","","","","","","","","","","","","","","","","","","","","","","","","","","","","","","","","","","","","","","","","","","","","","","","","","","","","","","","","","","","","","","","","","","","","","","","","","","","","","","","","","","","","SYN08633609 31993 00000 11002 21002 30068 40298 57006 74440 333 21010 555 14100 34102 52103=","","","","","","","","","",""
"33609099999","2021-10-31T17:00:00","48.7166666","32.6666666","181.0","ZNAMIANKA, UP","FM-12","4","","37","48","","","+0.03","7","67","","30.28","29.62","6.21","43","080","","2","","","","","","","","","","","","","","","","","","","","","","","","","","","","","","","","","","","","","","","","","","","","","","","","","","","","","","","","","","","","","","","","","","","","","","","","","","","","","","","","","","","","","","","","","","","SYN05833609 42997 00801 10088 20029 30032 40253 57011 555 1/007=","","","","","","","","","",""
"33609099999","2021-10-31T23:00:00","48.7166666","32.6666666","181.0","ZNAMIANKA, UP","FM-12","4","","35","38","","","+0.04","8","89","","30.26","29.59","6.21","37","000","","0","","","","","","","","","","","","","","","","","","","","","","","","","","","","","","","","","","","","","","","","","","","","","","","","","","","","","","","","","","","","","","","","","","","","","","","","","","","","","","","","","","","","","","","","","","","SYN05833609 42997 00000 10031 20015 30020 40246 58012 555 1/000=","","","","","","","","","",""
"33609099999","2021-11-01T08:00:00","48.7166666","32.6666666","181.0","ZNAMIANKA, UP","FM-12","4","","32","33","","","+0.02","7","96","FEW:02 26","30.19","29.52","1.24","33","000","","0","","","","","","","","","","","","","","","","","","","","","","","","","","","","","","","","","","","","","","","","","","","","","","","","","","","","","","","","","","","","","","","","","","","","","","","","","","","","","","","","","","","","","","","","","","","SYN09233609 31595 50000 10005 21001 39996 40223 57006 72841 82580 333 20002 555 10100 30102 52104=","","","","","","","","","",""
"33609099999","2021-11-02T05:00:00","48.7166666","32.6666666","181.0","ZNAMIANKA, UP","FM-12","4","","43","43","","||SHRA","+0.04","7","99","OVC:08 15","29.91","29.26","2.49","43","030","","4","","","","","","","","","","","","","","","","","","","","","","","","","","","","","","","","","","","","","","","","","","","","","","","","","","","","","","","","","","","","","","","","","","","","","","","","","","","","","","","","","","","","","","","","","","","SYN08633609 41496 80302 10063 20061 39910 40130 57014 78082 883// 333 55039 88915 555 1/007=","","","","","","","","","",""
"33609099999","2021-11-02T08:00:00","48.7166666","32.6666666","181.0","ZNAMIANKA, UP","FM-12","4","","44","44","","||RA","+0.04","7","100","","29.88","29.23","0.31","44","070","","4","","","","","","","","","","","","","","","","","","","","","","","","","","","","","","","","","","","","","","","","","","","","","","","","","","","","","","","","","","","","","","","","","","","","","","","","","","","","","","","","","","","","","","","","","","","SYN09833609 11/93 90702 10067 20067 39897 40117 57013 60042 76186 333 20062 96047 555 11007 31005 52003=","","","","","","","","","",""
"33609099999","2021-11-03T05:00:00","48.7166666","32.6666666","181.0","ZNAMIANKA, UP","FM-12","4","","46","47","","","-0.01","3","97","OVC:08 11","29.86","29.22","2.49","47","130","","7","","","","","","","","","","","","","","","","","","","","","","","","","","","","","","","","","","","","","","","","","","","","","","","","","","","","","","","","","","","","","","","","","","","","","","","","","","","","","","","","","","","","","","","","","","","SYN08633609 41496 81303 10084 20080 39894 40112 53004 71022 886// 333 55000 88711 555 1/008=","","","","","","","","","",""
"33609099999","2021-11-03T08:00:00","48.7166666","32.6666666","181.0","ZNAMIANKA, UP","FM-12","4","","47","48","","","-0.03","2","97","OVC:08 7","29.89","29.25","0.62","47","130","","7","","","","","","","","","","","","","","","","","","","","","","","","","","","","","","","","","","","","","","","","","","","","","","","","","","","","","","","","","","","","","","","","","","","","","","","","","","","","","","","","","","","","","","","","","","","SYN08633609 31394 81303 10087 20082 39904 40122 52010 71022 886// 333 20071 88707 555 11009=","","","","","","","","","",""
"33609099999","2021-11-04T08:00:00","48.7166666","32.6666666","181.0","ZNAMIANKA, UP","FM-12","4","","39","39","","||FG","-0.03","2","100","","30.23","29.57","0.31","39","120","","2","","","","","","","","","","","","","","","","","","","","","","","","","","","","","","","","","","","","","","","","","","","","","","","","","","","","","","","","","","","","","","","","","","","","","","","","","","","","","","","","","","","","","","","","","","","SYN08633609 31/93 91201 10039 20039 30012 40237 52010 74544 333 20023 555 11005 31003 52002=","","","","","","","","","",""
"33609099999","2021-11-04T20:00:00","48.7166666","32.6666666","181.0","ZNAMIANKA, UP","FM-12","4","","48","50","","","-0.01","3","92","OVC:08 12","30.19","29.54","2.49","49","140","","9","","","","","","","","","","","","","","","","","","","","","","","","","","","","","","","","","","","","","","","","","","","","","","","","","","","","","","","","","","","","","","","","","","","","","","","","","","","","","","","","","","","","","","","","","","","SYN08633609 31496 81404 10100 20088 30005 40224 53004 71022 886// 333 10113 88712 555 1/009=","","","","","","","","","",""
"33609099999","2021-11-05T05:00:00","48.7166666","32.6666666","181.0","ZNAMIANKA, UP","FM-12","4","","51","52","","||DZ","+0.01","7","97","OVC:08 6","30.14","29.49","0.62","51","150","","11","","","","","","","","","","","","","","","","","","","","","","","","","","","","","","","","","","","","","","","","","","","","","","","","","","","","","","","","","","","","","","","","","","","","","","","","","","","","","","","","","","","","","","","","","","","SYN08633609 41394 81505 10111 20107 39987 40205 57003 75154 886// 333 55000 88706 555 1/011=","","","","","","","","","",""
"33609099999","2021-11-06T08:00:00","48.7166666","32.6666666","181.0","ZNAMIANKA, UP","FM-12","4","","54","54","","||DZ","-0.04","2","100","","30.18","29.54","0.31","54","280","","2","","","","","","","","","","","","","","","","","","","","","","","","","","","","","","","","","","","","","","","","","","","","","","","","","","","","","","","","","","","","","","","","","","","","","","","","","","","","","","","","","","","","","","","","","","","SYN08633609 11/93 92801 10120 20120 30003 40221 52015 69962 75165 333 20118 96045 555 1/012=","","","","","","","","","",""
"33609099999","2021-11-06T23:00:00","48.7166666","32.6666666","181.0","ZNAMIANKA, UP","FM-12","4","","36","40","","","-0.01","2","87","","30.31","29.65","6.21","38","260","","2","","","","","","","","","","","","","","","","","","","","","","","","","","","","","","","","","","","","","","","","","","","","","","","","","","","","","","","","","","","","","","","","","","","","","","","","","","","","","","","","","","","","","","","","","","","SYN05833609 42997 02601 10042 20022 30040 40265 52004 555 1/002=","","","","","","","","","",""
"33609099999","2021-11-07T02:00:00","48.7166666","32.6666666","181.0","ZNAMIANKA, UP","FM-12","4","","35","38","","","+0.01","8","88","","30.31","29.64","6.21","37","270","","4","","","","","","","","","","","","","","","","","","","","","","","","","","","","","","","","","","","","","","","","","","","","","","","","","","","","","","","","","","","","","","","","","","","","","","","","","","","","","","","","","","","","","","","","","","","SYN05833609 32997 02702 10032 20014 30038 40264 58002 555 1/001=","","","","","","","","","",""
"33609099999","2021-11-07T08:00:00","48.7166666","32.6666666","181.0","ZNAMIANKA, UP","FM-12","4","","35","36","","","+0.00","6","95","","30.29","29.62","2.49","36","260","","4","","","","","","","","","","","","","","","","","","","","","","","","","","","","","","","","","","","","","","","","","","","","","","","","","","","","","","","","","","","","","","","","","","","","","","","","","","","","","","","","","","","","","","","","","","","SYN09233609 31996 32602 10022 20014 30031 40258 56001 71000 80001 333 20014 555 14100 34102 52103=","","","","","","","","","",""
"33609099999","2021-11-09T08:00:00","48.7166666","32.6666666","181.0","ZNAMIANKA, UP","FM-12","4","","38","44","","","-0.02","2","80","OVC:08 30","30.14","29.48","6.21","41","300","","4","","","","","","","","","","","","","","","","","","","","","","","","","","","","","","","","","","","","","","","","","","","","","","","","","","","","","","","","","","","","","","","","","","","","","","","","","","","","","","","","","","","","","","","","","","","SYN09233609 32597 83002 10065 20032 39983 40205 52007 885// 333 20059 88630 555 11006 31004 52003=","","","","","","","","","",""
"33609099999","2021-11-12T08:00:00","48.7166666","32.6666666","181.0","ZNAMIANKA, UP","FM-12","4","","33","33","","||FG","+0.03","7","100","","30.20","29.52","0.31","33","240","","7","","","","","","","","","","","","","","","","","","","","","","","","","","","","","","","","","","","","","","","","","","","","","","","","","","","","","","","","","","","","","","","","","","","","","","","","","","","","","","","","","","","","","","","","","","","SYN08633609 31/93 92403 10004 20004 39998 40226 57010 74741 333 21002 555 14000 34101 52102=","","","","","","","","","",""
"33609099999","2021-11-13T08:00:00","48.7166666","32.6666666","181.0","ZNAMIANKA, UP","FM-12","4","","31","34","","","-0.03","2","89","SCT:03","30.32","29.65","6.21","33","000","","0","","","","","","","","","","","","","","","","","","","","","","","","","","","","","","","","","","","","","","","","","","","","","","","","","","","","","","","","","","","","","","","","","","","","","","","","","","","","","","","","","","","","","","","","","","","SYN08633609 32997 30000 10010 21007 30039 40267 52009 83030 333 20008 555 11000 31101 52102=","","","","","","","","","",""
"33609099999","2021-11-13T11:00:00","48.7166666","32.6666666","181.0","ZNAMIANKA, UP","FM-12","4","","35","45","","","-0.03","2","69","","30.33","29.67","6.21","41","070","","4","","","","","","","","","","","","","","","","","","","","","","","","","","","","","","","","","","","","","","","","","","","","","","","","","","","","","","","","","","","","","","","","","","","","","","","","","","","","","","","","","","","","","","","","","","","SYN05833609 42997 00702 10073 20019 30049 40272 52010 555 1/012=","","","","","","","","","",""
"33609099999","2021-11-14T08:00:00","48.7166666","32.6666666","181.0","ZNAMIANKA, UP","FM-12","4","","24","24","","||FG","-0.02","3","100","","30.42","29.72","0.31","24","000","","0","","","","","","","","","","","","","","","","","","","","","","","","","","","","","","","","","","","","","","","","","","","","","","","","","","","","","","","","","","","","","","","","","","","","","","","","","","","","","","","","","","","","","","","","","","","SYN09233609 31993 20000 11046 21046 30066 40300 53006 74840 80001 333 21048 555 14103 34103 52104=","","","","","","","","","",""
"33609099999","2021-11-15T08:00:00","48.7166666","32.6666666","181.0","ZNAMIANKA, UP","FM-12","4","","35","35","","||FG","-0.05","3","100","","30.41","29.74","0.12","35","320","","4","","","","","","","","","","","","","","","","","","","","","","","","","","","","","","","","","","","","","","","","","","","","","","","","","","","","","","","","","","","","","","","","","","","","","","","","","","","","","","","","","","","","","","","","","","","SYN08633609 31/92 93202 10014 20014 30070 40298 53016 74741 333 21025 555 14000 34104 52105=","","","","","","","","","",""
"33609099999","2021-11-15T23:00:00","48.7166666","32.6666666","181.0","ZNAMIANKA, UP","FM-12","4","","25","30","","","-0.07","2","83","","30.67","29.99","6.21","28","040","","4","","","","","","","","","","","","","","","","","","","","","","","","","","","","","","","","","","","","","","","","","","","","","","","","","","","","","","","","","","","","","","","","","","","","","","","","","","","","","","","","","","","","","","","","","","","SYN05833609 42997 00402 11011 21037 30155 40387 52023 555 1/101=","","","","","","","","","",""
"33609099999","2021-11-16T02:00:00","48.7166666","32.6666666","181.0","ZNAMIANKA, UP","FM-12","4","","22","26","","","-0.01","2","86","","30.70","30.00","6.21","25","050","","2","","","","","","","","","","","","","","","","","","","","","","","","","","","","","","","","","","","","","","","","","","","","","","","","","","","","","","","","","","","","","","","","","","","","","","","","","","","","","","","","","","","","","","","","","","","SYN05833609 32997 00501 11035 21056 30160 40395 52005 555 1/103=","","","","","","","","","",""
"33609099999","2021-11-16T08:00:00","48.7166666","32.6666666","181.0","ZNAMIANKA, UP","FM-12","4","","19","20","","","-0.01","3","94","","30.71","30.01","6.21","20","000","","0","","","","","","","","","","","","","","","","","","","","","","","","","","","","","","","","","","","","","","","","","","","","","","","","","","","","","","","","","","","","","","","","","","","","","","","","","","","","","","","","","","","","","","","","","","","SYN08633609 32997 10000 11064 21072 30161 40398 53003 80001 333 21069 555 14104 34105 52106=","","","","","","","","","",""
"33609099999","2021-11-16T11:00:00","48.7166666","32.6666666","181.0","ZNAMIANKA, UP","FM-12","4","","25","34","","","+0.01","8","70","","30.68","30.00","6.21","31","150","","7","","","","","","","","","","","","","","","","","","","","","","","","","","","","","","","","","","","","","","","","","","","","","","","","","","","","","","","","","","","","","","","","","","","","","","","","","","","","","","","","","","","","","","","","","","","SYN05833609 42997 01503 10010 21040 30158 40389 58003 555 1/007=","","","","","","","","","",""
"33609099999","2021-11-16T17:00:00","48.7166666","32.6666666","181.0","ZNAMIANKA, UP","FM-12","4","","23","32","","","+0.04","7","70","","30.57","29.89","6.21","29","130","","2","","","","","","","","","","","","","","","","","","","","","","","","","","","","","","","","","","","","","","","","","","","","","","","","","","","","","","","","","","","","","","","","","","","","","","","","","","","","","","","","","","","","","","","","","","","SYN05833609 42997 01301 11001 21049 30122 40353 57014 555 1/101=","","","","","","","","","",""
"33609099999","2021-11-16T23:00:00","48.7166666","32.6666666","181.0","ZNAMIANKA, UP","FM-12","4","","18","21","","","+0.04","7","89","","30.52","29.82","6.21","20","160","","2","","","","","","","","","","","","","","","","","","","","","","","","","","","","","","","","","","","","","","","","","","","","","","","","","","","","","","","","","","","","","","","","","","","","","","","","","","","","","","","","","","","","","","","","","","","SYN05833609 42997 01601 11060 21075 30099 40335 57012 555 1/105=","","","","","","","","","",""
"33609099999","2021-11-18T08:00:00","48.7166666","32.6666666","181.0","ZNAMIANKA, UP","FM-12","4","","20","21","","","+0.00","5","97","BKN:07 12","30.32","29.63","0.62","21","150","","2","","","","","","","","","","","","","","","","","","","","","","","","","","","","","","","","","","","","","","","","","","","","","","","","","","","","","","","","","","","","","","","","","","","","","","","","","","","","","","","","","","","","","","","","","","","SYN08633609 31494 71501 11062 21066 30033 40267 55000 71011 87500 333 21076 87712 555 14105=","","","","","","","","","",""
"33609099999","2021-11-20T05:00:00","48.7166666","32.6666666","181.0","ZNAMIANKA, UP","FM-12","4","","42","43","","||RA","+0.08","7","99","OVC:08 7","29.72","29.07","2.49","43","240","","9","","","","","","","","","","","","","","","","","","","","","","","","","","","","","","","","","","","","","","","","","","","","","","","","","","","","","","","","","","","","","","","","","","","","","","","","","","","","","","","","","","","","","","","","","","","SYN08633609 41396 82404 10059 20057 39845 40064 57028 76162 8872/ 333 55000 88707 555 1/004=","","","","","","","","","",""
"33609099999","2021-11-20T23:00:00","48.7166666","32.6666666","181.0","ZNAMIANKA, UP","FM-12","4","","32","43","","","-0.07","2","67","","29.86","29.21","6.21","38","300","","9","","","","","","","","","","","","","","","","","","","","","","","","","","","","","","","","","","","","","","","","","","","","","","","","","","","","","","","","","","","","","","","","","","","","","","","","","","","","","","","","","","","","","","","","","","","SYN05833609 42997 03004 10059 20002 39892 40113 52025 555 1/002=","","","","","","","","","",""
"33609099999","2021-11-21T02:00:00","48.7166666","32.6666666","181.0","ZNAMIANKA, UP","FM-12","4","","32","37","","","-0.03","2","81","","29.90","29.24","6.21","35","270","","4","","","","","","","","","","","","","","","","","","","","","","","","","","","","","","","","","","","","","","","","","","","","","","","","","","","","","","","","","","","","","","","","","","","","","","","","","","","","","","","","","","","","","","","","","","","SYN05833609 32997 02702 10029 21001 39902 40125 52010 555 1/101=","","","","","","","","","",""
"33609099999","2021-11-24T05:00:00","48.7166666","32.6666666","181.0","ZNAMIANKA, UP","FM-12","4","","27","27","","","-0.06","2","98","OVC:08 18","30.24","29.56","2.49","27","210","","2","","","","","","","","","","","","","","","","","","","","","","","","","","","","","","","","","","","","","","","","","","","","","","","","","","","","","","","","","","","","","","","","","","","","","","","","","","","","","","","","","","","","","","","","","","","SYN08633609 41496 82101 11027 21030 30010 40240 52020 71022 883// 333 55033 88918 555 1/101=","","","","","","","","","",""
"33609099999","2021-11-25T08:00:00","48.7166666","32.6666666","181.0","ZNAMIANKA, UP","FM-12","4","","29","31","","","+0.00","5","90","BKN:07 34","30.30","29.63","6.21","30","190","","2","","","","","","","","","","","","","","","","","","","","","","","","","","","","","","","","","","","","","","","","","","","","","","","","","","","","","","","","","","","","","","","","","","","","","","","","","","","","","","","","","","","","","","","","","","","SYN08633609 32697 71901 11003 21018 30033 40262 55000 87500 333 21006 42001 87635 555 12101=","","","","","","","","","",""
"33609099999","2021-11-25T11:00:00","48.7166666","32.6666666","181.0","ZNAMIANKA, UP","FM-12","4","","27","38","","","+0.00","8","64","","30.29","29.62","6.21","34","210","","4","","","","","","","","","","","","","","","","","","","","","","","","","","","","","","","","","","","","","","","","","","","","","","","","","","","","","","","","","","","","","","","","","","","","","","","","","","","","","","","","","","","","","","","","","","","SYN05833609 42997 02102 10036 21027 30032 40258 58001 555 1/001=","","","","","","","","","",""
"33609099999","2021-11-27T05:00:00","48.7166666","32.6666666","181.0","ZNAMIANKA, UP","FM-12","4","","41","42","","||RA","+0.09","7","94","OVC:08 7","29.61","28.97","2.49","42","140","","16","","","","","","","","","","","","","","","","","","","","","","","","","","","","","","","","","","","","","","","","","","","","","","","","","","","","","","","","","","","","","","","","","","","","","","","","","","","","","","","","","","","","","","","","","","","SYN08633609 41396 81407 10057 20048 39809 40028 57031 76162 8872/ 333 55000 88707 555 1/005=","","","","","","","","","",""
"33609099999","2021-11-29T05:00:00","48.7166666","32.6666666","181.0","ZNAMIANKA, UP","FM-12","4","","49","50","","","+0.06","7","96","OVC:08 7","29.52","28.88","2.49","49","150","","4","","","","","","","","","","","","","","","","","","","","","","","","","","","","","","","","","","","","","","","","","","","","","","","","","","","","","","","","","","","","","","","","","","","","","","","","","","","","","","","","","","","","","","","","","","","SYN08633609 41396 81502 10100 20094 39781 49995 57020 71022 886// 333 55000 88707 555 1/009=","","","","","","","","","",""
"33609099999","2021-11-30T02:00:00","48.7166666","32.6666666","181.0","ZNAMIANKA, UP","FM-12","4","","34","38","","","-0.09","2","84","","29.36","28.72","6.21","36","280","","11","","","","","","","","","","","","","","","","","","","","","","","","","","","","","","","","","","","","","","","","","","","","","","","","","","","","","","","","","","","","","","","","","","","","","","","","","","","","","","","","","","","","","","","","","","","SYN05833609 32997 02805 10033 20009 39725 49944 52032 555 1/003=","","","","","","","","","",""
"33609099999","2021-11-30T23:00:00","48.7166666","32.6666666","181.0","ZNAMIANKA, UP","FM-12","4","","27","31","","","-0.01","3","84","","29.50","28.84","6.21","30","280","","7","","","","","","","","","","","","","","","","","","","","","","","","","","","","","","","","","","","","","","","","","","","","","","","","","","","","","","","","","","","","","","","","","","","","","","","","","","","","","","","","","","","","","","","","","","","SYN05833609 42997 02803 11003 21027 39768 49991 53005 555 1/101=","","","","","","","","","",""
"33609099999","2021-12-01T02:00:00","48.7166666","32.6666666","181.0","ZNAMIANKA, UP","FM-12","4","","25","29","","","-0.01","2","86","","29.52","28.85","6.21","28","230","","4","","","","","","","","","","","","","","","","","","","","","","","","","","","","","","","","","","","","","","","","","","","","","","","","","","","","","","","","","","","","","","","","","","","","","","","","","","","","","","","","","","","","","","","","","","","SYN05833609 32997 02302 11017 21038 39771 49995 52003 555 1/101=","","","","","","","","","",""
"33609099999","2021-12-05T08:00:00","48.7166666","32.6666666","181.0","ZNAMIANKA, UP","FM-12","4","","26","26","","","+0.00","8","97","OVC:08 8","29.93","29.26","2.49","26","120","","4","","","","","","","","","","","","","","","","","","","","","","","","","","","","","","","","","","","","","","","","","","","","","","","","","","","","","","","","","","","","","","","","","","","","","","","","","","","","","","","","","","","","","","","","","","","SYN08633609 31396 81202 11032 21036 39908 40137 58001 72841 886// 333 21053 88708 555 14101=","","","","","","","","","",""
"33609099999","2021-12-05T20:00:00","48.7166666","32.6666666","181.0","ZNAMIANKA, UP","FM-12","4","","30","31","","","-0.02","2","97","OVC:08 8","29.98","29.31","2.49","31","120","","2","","","","","","","","","","","","","","","","","","","","","","","","","","","","","","","","","","","","","","","","","","","","","","","","","","","","","","","","","","","","","","","","","","","","","","","","","","","","","","","","","","","","","","","","","","","SYN08633609 31396 81201 11008 21012 39925 40152 52006 71022 886// 333 11008 88708 555 1/000=","","","","","","","","","",""
"33609099999","2021-12-06T05:00:00","48.7166666","32.6666666","181.0","ZNAMIANKA, UP","FM-12","4","","32","32","","","+0.02","8","98","OVC:08 8","29.95","29.28","0.62","32","130","","7","","","","","","","","","","","","","","","","","","","","","","","","","","","","","","","","","","","","","","","","","","","","","","","","","","","","","","","","","","","","","","","","","","","","","","","","","","","","","","","","","","","","","","","","","","","SYN08633609 41394 81303 10001 21002 39916 40142 58006 71072 886// 333 55000 88708 555 1/000=","","","","","","","","","",""
"33609099999","2021-12-07T05:00:00","48.7166666","32.6666666","181.0","ZNAMIANKA, UP","FM-12","4","","47","48","","","+0.02","7","97","OVC:08 7","29.80","29.15","2.49","47","170","","9","","","","","","","","","","","","","","","","","","","","","","","","","","","","","","","","","","","","","","","","","","","","","","","","","","","","","","","","","","","","","","","","","","","","","","","","","","","","","","","","","","","","","","","","","","","SYN08633609 41396 81704 10087 20082 39873 40091 57006 71022 886// 333 55000 88707 555 1/008=","","","","","","","","","",""
"33609099999","2021-12-08T05:00:00","48.7166666","32.6666666","181.0","ZNAMIANKA, UP","FM-12","4","","42","43","","","-0.02","3","97","OVC:08 8","29.72","29.08","1.24","43","020","","7","","","","","","","","","","","","","","","","","","","","","","","","","","","","","","","","","","","","","","","","","","","","","","","","","","","","","","","","","","","","","","","","","","","","","","","","","","","","","","","","","","","","","","","","","","","SYN08633609 41395 80203 10061 20056 39847 40066 53006 71022 886// 333 55000 88708 555 1/006=","","","","","","","","","",""
"33609099999","2021-12-09T05:00:00","48.7166666","32.6666666","181.0","ZNAMIANKA, UP","FM-12","4","","41","42","","||DZ","-0.03","2","99","OVC:08 6","29.79","29.14","0.62","42","040","","4","","","","","","","","","","","","","","","","","","","","","","","","","","","","","","","","","","","","","","","","","","","","","","","","","","","","","","","","","","","","","","","","","","","","","","","","","","","","","","","","","","","","","","","","","","","SYN08633609 41294 80402 10054 20052 39869 40089 52011 75152 886// 333 55000 88706 555 1/006=","","","","","","","","","",""
"33609099999","2021-12-09T08:00:00","48.7166666","32.6666666","181.0","ZNAMIANKA, UP","FM-12","4","","42","42","","||DZ","-0.05","2","100","","29.84","29.19","0.12","42","030","","4","","","","","","","","","","","","","","","","","","","","","","","","","","","","","","","","","","","","","","","","","","","","","","","","","","","","","","","","","","","","","","","","","","","","","","","","","","","","","","","","","","","","","","","","","","","SYN08633609 11/92 90302 10054 20054 39885 40106 52016 69942 75154 333 20053 96047 555 11006=","","","","","","","","","",""
"33609099999","2021-12-10T05:00:00","48.7166666","32.6666666","181.0","ZNAMIANKA, UP","FM-12","4","","39","40","","","-0.01","2","97","OVC:08 7","30.08","29.42","2.49","40","130","","4","","","","","","","","","","","","","","","","","","","","","","","","","","","","","","","","","","","","","","","","","","","","","","","","","","","","","","","","","","","","","","","","","","","","","","","","","","","","","","","","","","","","","","","","","","","SYN08633609 41396 81302 10043 20038 39962 40185 52005 71022 886// 333 55000 88707 555 1/005=","","","","","","","","","",""
"33609099999","2021-12-10T08:00:00","48.7166666","32.6666666","181.0","ZNAMIANKA, UP","FM-12","4","","38","38","","","-0.01","2","99","OVC:08 8","30.09","29.43","0.62","38","110","","4","","","","","","","","","","","","","","","","","","","","","","","","","","","","","","","","","","","","","","","","","","","","","","","","","","","","","","","","","","","","","","","","","","","","","","","","","","","","","","","","","","","","","","","","","","","SYN08633609 31394 81102 10036 20034 39967 40191 52005 72842 886// 333 20033 88708 555 11004=","","","","","","","","","",""
"33609099999","2021-12-12T08:00:00","48.7166666","32.6666666","181.0","ZNAMIANKA, UP","FM-12","4","","36","36","","||DZ","-0.01","2","100","","30.26","29.59","0.31","36","120","","16","","","","","","","","","","","","","","","","","","","","","","","","","","","","","","","","","","","","","","","","","","","","","","","","","","","","","","","","","","","","","","","","","","","","","","","","","","","","","","","","","","","","","","","","","","","SYN08633609 11/93 91207 10022 20022 30021 40247 52004 69902 75154 333 20020 96045 555 11002=","","","","","","","","","",""
"33609099999","2021-12-13T05:00:00","48.7166666","32.6666666","181.0","ZNAMIANKA, UP","FM-12","4","","31","33","","","+0.03","7","94","OVC:08 8","30.14","29.47","2.49","32","110","","7","","","","","","","","","","","","","","","","","","","","","","","","","","","","","","","","","","","","","","","","","","","","","","","","","","","","","","","","","","","","","","","","","","","","","","","","","","","","","","","","","","","","","","","","","","","SYN08633609 41396 81103 10005 21003 39978 40205 57009 71022 886// 333 55000 88708 555 1/001=","","","","","","","","","",""
"33609099999","2021-12-14T05:00:00","48.7166666","32.6666666","181.0","ZNAMIANKA, UP","FM-12","4","","32","32","","||DZ","-0.01","3","98","OVC:08 4","30.16","29.49","0.62","32","040","","4","","","","","","","","","","","","","","","","","","","","","","","","","","","","","","","","","","","","","","","","","","","","","","","","","","","","","","","","","","","","","","","","","","","","","","","","","","","","","","","","","","","","","","","","","","","SYN08633609 41294 80402 10002 21001 39986 40213 53002 75165 886// 333 55000 88704 555 1/001=","","","","","","","","","",""
"33609099999","2021-12-16T05:00:00","48.7166666","32.6666666","181.0","ZNAMIANKA, UP","FM-12","4","","30","31","","","+0.01","8","97","OVC:08 11","30.27","29.59","2.49","31","010","","7","","","","","","","","","","","","","","","","","","","","","","","","","","","","","","","","","","","","","","","","","","","","","","","","","","","","","","","","","","","","","","","","","","","","","","","","","","","","","","","","","","","","","","","","","","","SYN08633609 41496 80103 11008 21012 30020 40249 58002 71022 886// 333 55000 88711 555 1/100=","","","","","","","","","",""
"33609099999","2021-12-16T08:00:00","48.7166666","32.6666666","181.0","ZNAMIANKA, UP","FM-12","4","","29","30","","","-0.01","3","95","OVC:08 11","30.27","29.60","2.49","30","010","","7","","","","","","","","","","","","","","","","","","","","","","","","","","","","","","","","","","","","","","","","","","","","","","","","","","","","","","","","","","","","","","","","","","","","","","","","","","","","","","","","","","","","","","","","","","","SYN08633609 31496 80103 11009 21016 30023 40252 53003 71022 886// 333 21012 88711 555 11100=","","","","","","","","","",""
"33609099999","2021-12-16T20:00:00","48.7166666","32.6666666","181.0","ZNAMIANKA, UP","FM-12","4","","31","32","","","+0.04","7","98","OVC:08 6","30.13","29.46","1.24","32","260","","4","","","","","","","","","","","","","","","","","","","","","","","","","","","","","","","","","","","","","","","","","","","","","","","","","","","","","","","","","","","","","","","","","","","","","","","","","","","","","","","","","","","","","","","","","","","SYN08633609 31295 82602 11002 21005 39975 40202 57012 71022 886// 333 11002 88706 555 1/001=","","","","","","","","","",""
"33609099999","2021-12-17T05:00:00","48.7166666","32.6666666","181.0","ZNAMIANKA, UP","FM-12","4","","36","37","","||RA","+0.04","7","98","OVC:08 8","29.96","29.30","2.49","37","320","","7","","","","","","","","","","","","","","","","","","","","","","","","","","","","","","","","","","","","","","","","","","","","","","","","","","","","","","","","","","","","","","","","","","","","","","","","","","","","","","","","","","","","","","","","","","","SYN08633609 41396 83203 10026 20023 39922 40146 57014 76166 8872/ 333 55000 88708 555 1/002=","","","","","","","","","",""
"33609099999","2021-12-18T05:00:00","48.7166666","32.6666666","181.0","ZNAMIANKA, UP","FM-12","4","","33","34","","","-0.03","2","94","OVC:08 12","30.01","29.34","2.49","34","330","","9","","","","","","","","","","","","","","","","","","","","","","","","","","","","","","","","","","","","","","","","","","","","","","","","","","","","","","","","","","","","","","","","","","","","","","","","","","","","","","","","","","","","","","","","","","","SYN08633609 41496 83304 10012 20004 39936 40161 52009 71022 883// 333 55010 88712 555 1/001=","","","","","","","","","",""
"33609099999","2021-12-19T08:00:00","48.7166666","32.6666666","181.0","ZNAMIANKA, UP","FM-12","4","","29","32","","","+0.09","7","88","OVC:08 11","29.79","29.13","6.21","31","240","","9","","","","","","","","","","","","","","","","","","","","","","","","","","","","","","","","","","","","","","","","","","","","","","","","","","","","","","","","","","","","","","","","","","","","","","","","","","","","","","","","","","","","","","","","","","","SYN08633609 12497 82404 11002 21019 39864 40089 57032 69902 885// 333 21012 88711 555 14100=","","","","","","","","","",""
"33609099999","2021-12-21T05:00:00","48.7166666","32.6666666","181.0","ZNAMIANKA, UP","FM-12","4","","24","26","","","-0.05","2","93","OVC:08 11","29.76","29.09","2.49","25","340","","7","","","","","","","","","","","","","","","","","","","","","","","","","","","","","","","","","","","","","","","","","","","","","","","","","","","","","","","","","","","","","","","","","","","","","","","","","","","","","","","","","","","","","","","","","","","SYN08633609 41496 83403 11032 21042 39852 40079 52017 77177 8872/ 333 55000 88711 555 1/101=","","","","","","","","","",""
"33609099999","2021-12-23T17:00:00","48.7166666","32.6666666","181.0","ZNAMIANKA, UP","FM-12","4","","5","10","","","-0.00","3","81","","30.31","29.60","6.21","9","000","","0","","","","","","","","","","","","","","","","","","","","","","","","","","","","","","","","","","","","","","","","","","","","","","","","","","","","","","","","","","","","","","","","","","","","","","","","","","","","","","","","","","","","","","","","","","","SYN05833609 42997 00000 11122 21149 30025 40265 53001 555 1/114=","","","","","","","","","",""
"33609099999","2021-12-23T23:00:00","48.7166666","32.6666666","181.0","ZNAMIANKA, UP","FM-12","4","","0","3","","","+0.04","7","90","","30.26","29.54","6.21","2","000","","0","","","","","","","","","","","","","","","","","","","","","","","","","","","","","","","","","","","","","","","","","","","","","","","","","","","","","","","","","","","","","","","","","","","","","","","","","","","","","","","","","","","","","","","","","","","SYN05833609 42997 00000 11162 21175 30004 40247 57014 555 1/120=","","","","","","","","","",""
"33609099999","2021-12-24T02:00:00","48.7166666","32.6666666","181.0","ZNAMIANKA, UP","FM-12","4","","3","5","","","+0.04","7","90","","30.21","29.50","6.21","5","000","","0","","","","","","","","","","","","","","","","","","","","","","","","","","","","","","","","","","","","","","","","","","","","","","","","","","","","","","","","","","","","","","","","","","","","","","","","","","","","","","","","","","","","","","","","","","","SYN05833609 32997 00000 11148 21161 39989 40230 57015 555 1/117=","","","","","","","","","",""
"33609099999","2021-12-24T08:00:00","48.7166666","32.6666666","181.0","ZNAMIANKA, UP","FM-12","4","","8","11","","","+0.07","7","85","BKN:06 20","30.03","29.33","6.21","10","150","","9","","","","","","","","","","","","","","","","","","","","","","","","","","","","","","","","","","","","","","","","","","","","","","","","","","","","","","","","","","","","","","","","","","","","","","","","","","","","","","","","","","","","","","","","","","","SYN08633609 32597 71504 11115 21135 39933 40170 57025 86350 333 21166 47005 86920 555 17108=","","","","","","","","","",""
"33609099999","2021-12-26T08:00:00","48.7166666","32.6666666","181.0","ZNAMIANKA, UP","FM-12","4","","17","23","","","-0.04","2","79","BKN:05 26","29.98","29.30","6.21","21","310","","2","","","","","","","","","","","","","","","","","","","","","","","","","","","","","","","","","","","","","","","","","","","","","","","","","","","","","","","","","","","","","","","","","","","","","","","","","","","","","","","","","","","","","","","","","","","SYN08633609 12597 83101 11049 21081 39921 40152 52015 60022 8535/ 333 21053 47003 555 17105=","","","","","","","","","",""
"33609099999","2021-12-27T08:00:00","48.7166666","32.6666666","181.0","ZNAMIANKA, UP","FM-12","4","","7","10","","","-0.04","2","90","SCT:04","30.22","29.51","2.49","9","320","","2","","","","","","","","","","","","","","","","","","","","","","","","","","","","","","","","","","","","","","","","","","","","","","","","","","","","","","","","","","","","","","","","","","","","","","","","","","","","","","","","","","","","","","","","","","","SYN08633609 31996 63201 11124 21137 39994 40233 52013 71011 84031 333 21127 47003 555 17116=","","","","","","","","","",""
"33609099999","2021-12-28T05:00:00","48.7166666","32.6666666","181.0","ZNAMIANKA, UP","FM-12","4","","15","18","","||SHSN","+0.04","7","87","OVC:08 11","30.14","29.45","0.62","17","060","","9","","","","","","","","","","","","","","","","","","","","","","","","","","","","","","","","","","","","","","","","","","","","","","","","","","","","","","","","","","","","","","","","","","","","","","","","","","","","","","","","","","","","","","","","","","","SYN08633609 41494 80604 11076 21094 39972 40206 57013 78682 883// 333 55000 88711 555 1/106=","","","","","","","","","",""
"33609099999","2021-12-29T05:00:00","48.7166666","32.6666666","181.0","ZNAMIANKA, UP","FM-12","4","","21","22","","","-0.01","3","97","OVC:08 5","29.86","29.18","0.62","22","300","","2","","","","","","","","","","","","","","","","","","","","","","","","","","","","","","","","","","","","","","","","","","","","","","","","","","","","","","","","","","","","","","","","","","","","","","","","","","","","","","","","","","","","","","","","","","","SYN08633609 41294 83001 11058 21062 39881 40111 53004 71022 886// 333 55000 88705 555 1/105=","","","","","","","","","",""
"33609099999","2021-12-29T20:00:00","48.7166666","32.6666666","181.0","ZNAMIANKA, UP","FM-12","4","","21","22","","","-0.02","2","97","OVC:08 8","29.99","29.31","2.49","22","320","","2","","","","","","","","","","","","","","","","","","","","","","","","","","","","","","","","","","","","","","","","","","","","","","","","","","","","","","","","","","","","","","","","","","","","","","","","","","","","","","","","","","","","","","","","","","","SYN08633609 31396 83201 11057 21061 39925 40156 52008 71022 886// 333 11052 88708 555 1/105=","","","","","","","","","",""
"33609099999","2021-12-30T05:00:00","48.7166666","32.6666666","181.0","ZNAMIANKA, UP","FM-12","4","","21","22","","","-0.01","2","97","OVC:08 8","30.07","29.39","2.49","22","290","","2","","","","","","","","","","","","","","","","","","","","","","","","","","","","","","","","","","","","","","","","","","","","","","","","","","","","","","","","","","","","","","","","","","","","","","","","","","","","","","","","","","","","","","","","","","","SYN08633609 41396 82901 11058 21062 39952 40184 52005 71022 886// 333 55000 88708 555 1/106=","","","","","","","","","",""
"33609099999","2021-12-30T08:00:00","48.7166666","32.6666666","181.0","ZNAMIANKA, UP","FM-12","4","","21","22","","","-0.03","2","97","OVC:08 8","30.11","29.42","2.49","22","320","","2","","","","","","","","","","","","","","","","","","","","","","","","","","","","","","","","","","","","","","","","","","","","","","","","","","","","","","","","","","","","","","","","","","","","","","","","","","","","","","","","","","","","","","","","","","","SYN09233609 31396 83201 11058 21062 39963 40195 52011 71022 886// 333 21060 47012 88708 555 17105=","","","","","","","","","",""
"33609099999","2021-12-30T20:00:00","48.7166666","32.6666666","181.0","ZNAMIANKA, UP","FM-12","4","","22","24","","","-0.01","2","91","OVC:08 12","30.16","29.48","2.49","23","160","","2","","","","","","","","","","","","","","","","","","","","","","","","","","","","","","","","","","","","","","","","","","","","","","","","","","","","","","","","","","","","","","","","","","","","","","","","","","","","","","","","","","","","","","","","","","","SYN08633609 31496 81601 11043 21055 39982 40213 52004 71022 886// 333 11032 88712 555 1/105=","","","","","","","","","",""
"33609099999","2021-12-31T05:00:00","48.7166666","32.6666666","181.0","ZNAMIANKA, UP","FM-12","4","","20","22","","","+0.05","7","95","OVC:08 11","30.08","29.39","2.49","21","210","","4","","","","","","","","","","","","","","","","","","","","","","","","","","","","","","","","","","","","","","","","","","","","","","","","","","","","","","","","","","","","","","","","","","","","","","","","","","","","","","","","","","","","","","","","","","","SYN08633609 41496 82102 11058 21065 39954 40186 57017 71022 886// 333 55000 88711 555 1/105=","","","","","","","","","",""
"33609099999","2021-12-31T08:00:00","48.7166666","32.6666666","181.0","ZNAMIANKA, UP","FM-12","4","","21","22","","","+0.01","7","95","OVC:08 11","30.06","29.38","2.49","22","240","","4","","","","","","","","","","","","","","","","","","","","","","","","","","","","","","","","","","","","","","","","","","","","","","","","","","","","","","","","","","","","","","","","","","","","","","","","","","","","","","","","","","","","","","","","","","","SYN09233609 31496 82402 11053 21060 39950 40181 57004 71022 886// 333 21060 43010 88711 555 13105=","","","","","","","","","",""
