"STATION","DATE","LATITUDE","LONGITUDE","ELEVATION","NAME","REPORT_TYPE","SOURCE","HourlyAltimeterSetting","HourlyDewPointTemperature","HourlyDryBulbTemperature","HourlyPrecipitation","HourlyPresentWeatherType","HourlyPressureChange","HourlyPressureTendency","HourlyRelativeHumidity","HourlySkyConditions","HourlySeaLevelPressure","HourlyStationPressure","HourlyVisibility","HourlyWetBulbTemperature","HourlyWindDirection","HourlyWindGustSpeed","HourlyWindSpeed","Sunrise","Sunset","DailyAverageDewPointTemperature","DailyAverageDryBulbTemperature","DailyAverageRelativeHumidity","DailyAverageSeaLevelPressure","DailyAverageStationPressure","DailyAverageWetBulbTemperature","DailyAverageWindSpeed","DailyCoolingDegreeDays","DailyDepartureFromNormalAverageTemperature","DailyHeatingDegreeDays","DailyMaximumDryBulbTemperature","DailyMinimumDryBulbTemperature","DailyPeakWindDirection","DailyPeakWindSpeed","DailyPrecipitation","DailySnowDepth","DailySnowfall","DailySustainedWindDirection","DailySustainedWindSpeed","DailyWeather","MonthlyAverageRH","MonthlyDaysWithGT001Precip","MonthlyDaysWithGT010Precip","MonthlyDaysWithGT32Temp","MonthlyDaysWithGT90Temp","MonthlyDaysWithLT0Temp","MonthlyDaysWithLT32Temp","MonthlyDepartureFromNormalAverageTemperature","MonthlyDepartureFromNormalCoolingDegreeDays","MonthlyDepartureFromNormalHeatingDegreeDays","MonthlyDepartureFromNormalMaximumTemperature","MonthlyDepartureFromNormalMinimumTemperature","MonthlyDepartureFromNormalPrecipitation","MonthlyDewpointTemperature","MonthlyGreatestPrecip","MonthlyGreatestPrecipDate","MonthlyGreatestSnowDepth","MonthlyGreatestSnowDepthDate","MonthlyGreatestSnowfall","MonthlyGreatestSnowfallDate","MonthlyMaxSeaLevelPressureValue","MonthlyMaxSeaLevelPressureValueDate","MonthlyMaxSeaLevelPressureValueTime","MonthlyMaximumTemperature","MonthlyMeanTemperature","MonthlyMinSeaLevelPressureValue","MonthlyMinSeaLevelPressureValueDate","MonthlyMinSeaLevelPressureValueTime","MonthlyMinimumTemperature","MonthlySeaLevelPressure","MonthlyStationPressure","MonthlyTotalLiquidPrecipitation","MonthlyTotalSnowfall","MonthlyWetBulb","AWND","CDSD","CLDD","DSNW","HDSD","HTDD","DYTS","DYHF","NormalsCoolingDegreeDay","NormalsHeatingDegreeDay","ShortDurationEndDate005","ShortDurationEndDate010","ShortDurationEndDate015","ShortDurationEndDate020","ShortDurationEndDate030","ShortDurationEndDate045","ShortDurationEndDate060","ShortDurationEndDate080","ShortDurationEndDate100","ShortDurationEndDate120","ShortDurationEndDate150","ShortDurationEndDate180","ShortDurationPrecipitationValue005","ShortDurationPrecipitationValue010","ShortDurationPrecipitationValue015","ShortDurationPrecipitationValue020","ShortDurationPrecipitationValue030","ShortDurationPrecipitationValue045","ShortDurationPrecipitationValue060","ShortDurationPrecipitationValue080","ShortDurationPrecipitationValue100","ShortDurationPrecipitationValue120","ShortDurationPrecipitationValue150","ShortDurationPrecipitationValue180","REM","BackupDirection","BackupDistance","BackupDistanceUnit","BackupElements","BackupElevation","BackupEquipment","BackupLatitude","BackupLongitude","BackupName","WindEquipmentChangeDate"
"33605099999","2021-04-22T23:00:00","49.0833333","32.6666666","124.0","CHYHYRYN, UP","FM-12","4","","43","50","","","+0.01","8","76","","30.05","29.61","12.43","47","200","","7","","","","","","","","","","","","","","","","","","","","","","","","","","","","","","","","","","","","","","","","","","","","","","","","","","","","","","","","","","","","","","","","","","","","","","","","","","","","","","","","","","","","","","","","","","","SYN05833605 42998 02003 10100 20059 30027 40177 58003 555 1/006=","","","","","","","","","",""
"33605099999","2021-04-23T02:00:00","49.0833333","32.6666666","124.0","CHYHYRYN, UP","FM-12","4","","42","47","","","+0.03","7","82","","30.03","29.58","12.43","45","200","","9","","","","","","","","","","","","","","","","","","","","","","","","","","","","","","","","","","","","","","","","","","","","","","","","","","","","","","","","","","","","","","","","","","","","","","","","","","","","","","","","","","","","","","","","","","","SYN05833605 32998 02004 10083 20054 30017 40168 57010 555 1/005=","","","","","","","","","",""
"33605099999","2021-04-24T05:00:00","49.0833333","32.6666666","124.0","CHYHYRYN, UP","FM-12","4","","30","39","","","-0.03","3","70","","30.05","29.59","12.43","35","280","","9","","","","","","","","","","","","","","","","","","","","","","","","","","","","","","","","","","","","","","","","","","","","","","","","","","","","","","","","","","","","","","","","","","","","","","","","","","","","","","","","","","","","","","","","","","","SYN05833605 42998 02804 10037 21013 30021 40175 53010 555 1/001=","","","","","","","","","",""
"33605099999","2021-04-24T08:00:00","49.0833333","32.6666666","124.0","CHYHYRYN, UP","FM-12","4","","32","45","","","-0.03","2","61","","30.07","29.62","12.43","39","300","","7","","","","","","","","","","","","","","","","","","","","","","","","","","","","","","","","","","","","","","","","","","","","","","","","","","","","","","","","","","","","","","","","","","","","","","","","","","","","","","","","","","","","","","","","","","","SYN09233605 12998 23003 10071 21001 30031 40183 52010 60012 80001 333 20031 555 12013 32001 52001=","","","","","","","","","",""
"33605099999","2021-04-26T02:00:00","49.0833333","32.6666666","124.0","CHYHYRYN, UP","FM-12","4","","34","42","","","+0.04","7","75","","30.00","29.54","31.07","39","230","","7","","","","","","","","","","","","","","","","","","","","","","","","","","","","","","","","","","","","","","","","","","","","","","","","","","","","","","","","","","","","","","","","","","","","","","","","","","","","","","","","","","","","","","","","","","","SYN05833605 32999 02303 10053 20012 30005 40158 57014 555 1/002=","","","","","","","","","",""
"33605099999","2021-04-27T08:00:00","49.0833333","32.6666666","124.0","CHYHYRYN, UP","FM-12","4","","30","45","","","-0.01","3","56","FEW:02","30.02","29.57","12.43","39","250","","9","","","","","","","","","","","","","","","","","","","","","","","","","","","","","","","","","","","","","","","","","","","","","","","","","","","","","","","","","","","","","","","","","","","","","","","","","","","","","","","","","","","","","","","","","","","SYN08633605 32998 52504 10073 21011 30013 40165 53002 82051 333 20017 555 11011 31101 52101=","","","","","","","","","",""
"33605099999","2021-04-28T08:00:00","49.0833333","32.6666666","124.0","CHYHYRYN, UP","FM-12","4","","38","42","","","-0.05","2","86","","30.14","29.69","14.29","40","250","","2","","","","","","","","","","","","","","","","","","","","","","","","","","","","","","","","","","","","","","","","","","","","","","","","","","","","","","","","","","","","","","","","","","","","","","","","","","","","","","","","","","","","","","","","","","","SYN09233605 12973 22501 10056 20034 30054 40207 52016 69962 80001 333 21005 555 12013 32102 52102=","","","","","","","","","",""
"33605099999","2021-04-28T23:00:00","49.0833333","32.6666666","124.0","CHYHYRYN, UP","FM-12","4","","30","42","","","-0.02","2","62","","30.14","29.69","31.07","37","210","","4","","","","","","","","","","","","","","","","","","","","","","","","","","","","","","","","","","","","","","","","","","","","","","","","","","","","","","","","","","","","","","","","","","","","","","","","","","","","","","","","","","","","","","","","","","","SYN05833605 42999 02102 10055 21013 30054 40207 52006 555 1/002=","","","","","","","","","",""
"33605099999","2021-04-29T02:00:00","49.0833333","32.6666666","124.0","CHYHYRYN, UP","FM-12","4","","30","37","","","+0.01","8","76","","30.14","29.68","31.07","34","230","","7","","","","","","","","","","","","","","","","","","","","","","","","","","","","","","","","","","","","","","","","","","","","","","","","","","","","","","","","","","","","","","","","","","","","","","","","","","","","","","","","","","","","","","","","","","","SYN05833605 32999 02303 10029 21010 30051 40206 58003 555 1/000=","","","","","","","","","",""
"33605099999","2021-04-29T08:00:00","49.0833333","32.6666666","124.0","CHYHYRYN, UP","FM-12","4","","37","47","","","-0.01","3","69","OVC:08","30.14","29.69","14.91","42","140","","4","","","","","","","","","","","","","","","","","","","","","","","","","","","","","","","","","","","","","","","","","","","","","","","","","","","","","","","","","","","","","","","","","","","","","","","","","","","","","","","","","","","","","","","","","","","SYN08633605 32974 81402 10081 20026 30055 40207 53004 8805/ 333 20005 555 11012 31101 52101=","","","","","","","","","",""
"33605099999","2021-04-29T23:00:00","49.0833333","32.6666666","124.0","CHYHYRYN, UP","FM-12","4","","40","51","","","+0.01","8","65","","30.01","29.57","12.43","46","200","","4","","","","","","","","","","","","","","","","","","","","","","","","","","","","","","","","","","","","","","","","","","","","","","","","","","","","","","","","","","","","","","","","","","","","","","","","","","","","","","","","","","","","","","","","","","","SYN05833605 42998 02002 10105 20042 30013 40163 58002 555 1/007=","","","","","","","","","",""
"33605099999","2021-04-30T08:00:00","49.0833333","32.6666666","124.0","CHYHYRYN, UP","FM-12","4","","44","58","","","0.00","4","61","FEW:02","29.98","29.54","12.43","51","170","","9","","","","","","","","","","","","","","","","","","","","","","","","","","","","","","","","","","","","","","","","","","","","","","","","","","","","","","","","","","","","","","","","","","","","","","","","","","","","","","","","","","","","","","","","","","","SYN08633605 32998 31704 10143 20067 30004 40152 54000 82041 333 20061 555 10019 30003 52004=","","","","","","","","","",""
"33605099999","2021-05-03T02:00:00","49.0833333","32.6666666","124.0","CHYHYRYN, UP","FM-12","4","","50","56","","","+0.01","8","82","","29.70","29.27","12.43","53","210","","9","","","","","","","","","","","","","","","","","","","","","","","","","","","","","","","","","","","","","","","","","","","","","","","","","","","","","","","","","","","","","","","","","","","","","","","","","","","","","","","","","","","","","","","","","","","SYN05833605 32998 02104 10131 20100 39911 40058 58003 555 1/011=","","","","","","","","","",""
"33605099999","2021-05-03T23:00:00","49.0833333","32.6666666","124.0","CHYHYRYN, UP","FM-12","4","","30","47","","","-0.06","2","52","","29.94","29.49","31.07","40","290","","4","","","","","","","","","","","","","","","","","","","","","","","","","","","","","","","","","","","","","","","","","","","","","","","","","","","","","","","","","","","","","","","","","","","","","","","","","","","","","","","","","","","","","","","","","","","SYN05833605 42999 02902 10086 21009 39988 40139 52021 555 1/006=","","","","","","","","","",""
"33605099999","2021-05-04T02:00:00","49.0833333","32.6666666","124.0","CHYHYRYN, UP","FM-12","4","","29","44","","","-0.03","2","56","","29.97","29.52","31.07","38","280","","7","","","","","","","","","","","","","","","","","","","","","","","","","","","","","","","","","","","","","","","","","","","","","","","","","","","","","","","","","","","","","","","","","","","","","","","","","","","","","","","","","","","","","","","","","","","SYN05833605 32999 02803 10068 21015 39998 40150 52010 555 1/004=","","","","","","","","","",""
"33605099999","2021-05-04T05:00:00","49.0833333","32.6666666","124.0","CHYHYRYN, UP","FM-12","4","","31","41","","","-0.02","2","67","","29.99","29.54","12.43","37","270","","9","","","","","","","","","","","","","","","","","","","","","","","","","","","","","","","","","","","","","","","","","","","","","","","","","","","","","","","","","","","","","","","","","","","","","","","","","","","","","","","","","","","","","","","","","","","SYN05833605 42998 02704 10049 21007 30004 40157 52006 555 1/002=","","","","","","","","","",""
"33605099999","2021-05-04T08:00:00","49.0833333","32.6666666","124.0","CHYHYRYN, UP","FM-12","4","","32","50","","","-0.02","2","50","","30.01","29.56","12.43","42","260","","7","","","","","","","","","","","","","","","","","","","","","","","","","","","","","","","","","","","","","","","","","","","","","","","","","","","","","","","","","","","","","","","","","","","","","","","","","","","","","","","","","","","","","","","","","","","SYN08633605 32998 32603 10098 21002 30011 40161 52007 80001 333 20045 555 11018 31002 52002=","","","","","","","","","",""
"33605099999","2021-05-04T23:00:00","49.0833333","32.6666666","124.0","CHYHYRYN, UP","FM-12","4","","30","44","","","-0.01","3","58","","30.01","29.56","31.07","38","230","","4","","","","","","","","","","","","","","","","","","","","","","","","","","","","","","","","","","","","","","","","","","","","","","","","","","","","","","","","","","","","","","","","","","","","","","","","","","","","","","","","","","","","","","","","","","","SYN05833605 42999 02302 10069 21010 30011 40163 53004 555 1/004=","","","","","","","","","",""
"33605099999","2021-05-05T02:00:00","49.0833333","32.6666666","124.0","CHYHYRYN, UP","FM-12","4","","29","42","","","+0.01","8","59","","30.01","29.56","31.07","37","230","","4","","","","","","","","","","","","","","","","","","","","","","","","","","","","","","","","","","","","","","","","","","","","","","","","","","","","","","","","","","","","","","","","","","","","","","","","","","","","","","","","","","","","","","","","","","","SYN05833605 32999 02302 10055 21019 30009 40162 58002 555 1/003=","","","","","","","","","",""
"33605099999","2021-05-05T08:00:00","49.0833333","32.6666666","124.0","CHYHYRYN, UP","FM-12","4","","41","52","","","+0.01","8","66","SCT:03 26","29.97","29.53","12.43","47","200","","9","","","","","","","","","","","","","","","","","","","","","","","","","","","","","","","","","","","","","","","","","","","","","","","","","","","","","","","","","","","","","","","","","","","","","","","","","","","","","","","","","","","","","","","","","","","SYN08633605 32598 62004 10113 20052 30000 40149 58004 83351 333 20040 555 10014 30002 52002=","","","","","","","","","",""
"33605099999","2021-05-05T23:00:00","49.0833333","32.6666666","124.0","CHYHYRYN, UP","FM-12","4","","41","57","","","+0.02","8","55","","29.85","29.41","31.07","49","200","","9","","","","","","","","","","","","","","","","","","","","","","","","","","","","","","","","","","","","","","","","","","","","","","","","","","","","","","","","","","","","","","","","","","","","","","","","","","","","","","","","","","","","","","","","","","","SYN05833605 42999 02004 10139 20049 39961 40108 58006 555 1/011=","","","","","","","","","",""
"33605099999","2021-05-07T08:00:00","49.0833333","32.6666666","124.0","CHYHYRYN, UP","FM-12","4","","43","54","","","-0.02","2","65","","29.98","29.54","12.43","49","180","","4","","","","","","","","","","","","","","","","","","","","","","","","","","","","","","","","","","","","","","","","","","","","","","","","","","","","","","","","","","","","","","","","","","","","","","","","","","","","","","","","","","","","","","","","","","","SYN08633605 32998 41802 10123 20059 30002 40151 52006 80001 333 20045 555 11017 31004 52004=","","","","","","","","","",""
"33605099999","2021-05-08T23:00:00","49.0833333","32.6666666","124.0","CHYHYRYN, UP","FM-12","4","","35","43","","","-0.03","2","75","","30.01","29.57","31.07","40","290","","7","","","","","","","","","","","","","","","","","","","","","","","","","","","","","","","","","","","","","","","","","","","","","","","","","","","","","","","","","","","","","","","","","","","","","","","","","","","","","","","","","","","","","","","","","","","SYN05833605 42999 02903 10059 20017 30012 40164 52011 555 1/004=","","","","","","","","","",""
"33605099999","2021-05-09T02:00:00","49.0833333","32.6666666","124.0","CHYHYRYN, UP","FM-12","4","","35","40","","","-0.04","2","81","","30.05","29.60","31.07","38","300","","7","","","","","","","","","","","","","","","","","","","","","","","","","","","","","","","","","","","","","","","","","","","","","","","","","","","","","","","","","","","","","","","","","","","","","","","","","","","","","","","","","","","","","","","","","","","SYN05833605 32999 03003 10047 20017 30024 40177 52012 555 1/003=","","","","","","","","","",""
"33605099999","2021-05-09T05:00:00","49.0833333","32.6666666","124.0","CHYHYRYN, UP","FM-12","4","","35","40","","","-0.06","2","82","","30.11","29.66","12.43","38","310","","9","","","","","","","","","","","","","","","","","","","","","","","","","","","","","","","","","","","","","","","","","","","","","","","","","","","","","","","","","","","","","","","","","","","","","","","","","","","","","","","","","","","","","","","","","","","SYN05833605 42998 03104 10043 20015 30043 40197 52019 555 1/002=","","","","","","","","","",""
"33605099999","2021-05-09T23:00:00","49.0833333","32.6666666","124.0","CHYHYRYN, UP","FM-12","4","","33","43","","","-0.05","2","66","","30.29","29.84","31.07","39","240","","4","","","","","","","","","","","","","","","","","","","","","","","","","","","","","","","","","","","","","","","","","","","","","","","","","","","","","","","","","","","","","","","","","","","","","","","","","","","","","","","","","","","","","","","","","","","SYN05833605 42999 02402 10063 20004 30104 40258 52016 555 1/005=","","","","","","","","","",""
"33605099999","2021-05-10T02:00:00","49.0833333","32.6666666","124.0","CHYHYRYN, UP","FM-12","4","","33","38","","","-0.01","3","82","","30.31","29.85","31.07","36","230","","4","","","","","","","","","","","","","","","","","","","","","","","","","","","","","","","","","","","","","","","","","","","","","","","","","","","","","","","","","","","","","","","","","","","","","","","","","","","","","","","","","","","","","","","","","","","SYN05833605 32999 02302 10035 20006 30108 40263 53004 555 1/002=","","","","","","","","","",""
"33605099999","2021-05-10T05:00:00","49.0833333","32.6666666","124.0","CHYHYRYN, UP","FM-12","4","","32","36","","","-0.02","2","84","","30.33","29.87","13.05","34","230","","4","","","","","","","","","","","","","","","","","","","","","","","","","","","","","","","","","","","","","","","","","","","","","","","","","","","","","","","","","","","","","","","","","","","","","","","","","","","","","","","","","","","","","","","","","","","SYN05833605 42971 02302 10024 21001 30114 40270 52006 555 1/002=","","","","","","","","","",""
"33605099999","2021-05-10T14:00:00","49.0833333","32.6666666","124.0","CHYHYRYN, UP","FM-12","4","","27","62","","","+0.06","7","27","","30.24","29.80","12.43","47","030","","11","","","","","","","","","","","","","","","","","","","","","","","","","","","","","","","","","","","","","","","","","","","","","","","","","","","","","","","","","","","","","","","","","","","","","","","","","","","","","","","","","","","","","","","","","","","SYN05833605 32998 00305 10166 21027 30092 40240 57021 555 1/035=","","","","","","","","","",""
"33605099999","2021-05-10T17:00:00","49.0833333","32.6666666","124.0","CHYHYRYN, UP","FM-12","4","","24","63","","","+0.06","7","23","","30.18","29.75","12.43","46","040","","11","","","","","","","","","","","","","","","","","","","","","","","","","","","","","","","","","","","","","","","","","","","","","","","","","","","","","","","","","","","","","","","","","","","","","","","","","","","","","","","","","","","","","","","","","","","SYN05833605 42998 00405 10170 21045 30073 40221 57019 555 1/023=","","","","","","","","","",""
"33605099999","2021-05-10T23:00:00","49.0833333","32.6666666","124.0","CHYHYRYN, UP","FM-12","4","","33","53","","","+0.02","7","47","","30.16","29.71","31.07","44","350","","7","","","","","","","","","","","","","","","","","","","","","","","","","","","","","","","","","","","","","","","","","","","","","","","","","","","","","","","","","","","","","","","","","","","","","","","","","","","","","","","","","","","","","","","","","","","SYN05833605 42999 03503 10117 20006 30062 40212 57008 555 1/007=","","","","","","","","","",""
"33605099999","2021-05-11T23:00:00","49.0833333","32.6666666","124.0","CHYHYRYN, UP","FM-12","4","","39","52","","","-0.02","3","62","","30.06","29.61","12.43","46","070","","2","","","","","","","","","","","","","","","","","","","","","","","","","","","","","","","","","","","","","","","","","","","","","","","","","","","","","","","","","","","","","","","","","","","","","","","","","","","","","","","","","","","","","","","","","","","SYN05833605 42998 00701 10110 20040 30028 40178 53008 555 1/008=","","","","","","","","","",""
"33605099999","2021-05-12T02:00:00","49.0833333","32.6666666","124.0","CHYHYRYN, UP","FM-12","4","","39","49","","","+0.03","8","69","","30.03","29.58","12.43","44","040","","9","","","","","","","","","","","","","","","","","","","","","","","","","","","","","","","","","","","","","","","","","","","","","","","","","","","","","","","","","","","","","","","","","","","","","","","","","","","","","","","","","","","","","","","","","","","SYN05833605 32998 00404 10095 20040 30018 40169 58010 555 1/007=","","","","","","","","","",""
"33605099999","2021-05-12T23:00:00","49.0833333","32.6666666","124.0","CHYHYRYN, UP","FM-12","4","","36","42","","","+0.01","7","79","","29.90","29.45","12.43","39","230","","4","","","","","","","","","","","","","","","","","","","","","","","","","","","","","","","","","","","","","","","","","","","","","","","","","","","","","","","","","","","","","","","","","","","","","","","","","","","","","","","","","","","","","","","","","","","SYN05833605 42998 02302 10057 20023 39973 40125 57005 555 1/006=","","","","","","","","","",""
"33605099999","2021-05-13T02:00:00","49.0833333","32.6666666","124.0","CHYHYRYN, UP","FM-12","4","","35","41","","","+0.01","8","81","","29.89","29.44","12.43","38","230","","4","","","","","","","","","","","","","","","","","","","","","","","","","","","","","","","","","","","","","","","","","","","","","","","","","","","","","","","","","","","","","","","","","","","","","","","","","","","","","","","","","","","","","","","","","","","SYN05833605 32998 02302 10049 20019 39969 40121 58004 555 1/004=","","","","","","","","","",""
"33605099999","2021-05-13T08:00:00","49.0833333","32.6666666","124.0","CHYHYRYN, UP","FM-12","4","","45","54","","","-0.01","3","71","","29.89","29.45","12.43","49","170","","4","","","","","","","","","","","","","","","","","","","","","","","","","","","","","","","","","","","","","","","","","","","","","","","","","","","","","","","","","","","","","","","","","","","","","","","","","","","","","","","","","","","","","","","","","","","SYN08633605 32998 41702 10123 20071 39974 40122 53005 80009 333 20035 555 11023 31004 52003=","","","","","","","","","",""
"33605099999","2021-05-14T23:00:00","49.0833333","32.6666666","124.0","CHYHYRYN, UP","FM-12","4","","50","61","","","-0.03","2","68","","29.79","29.36","31.07","55","230","","4","","","","","","","","","","","","","","","","","","","","","","","","","","","","","","","","","","","","","","","","","","","","","","","","","","","","","","","","","","","","","","","","","","","","","","","","","","","","","","","","","","","","","","","","","","","SYN05833605 42999 02302 10159 20100 39942 40088 52011 555 1/013=","","","","","","","","","",""
"33605099999","2021-05-15T02:00:00","49.0833333","32.6666666","124.0","CHYHYRYN, UP","FM-12","4","","49","54","","","-0.01","3","83","","29.80","29.36","31.07","51","190","","2","","","","","","","","","","","","","","","","","","","","","","","","","","","","","","","","","","","","","","","","","","","","","","","","","","","","","","","","","","","","","","","","","","","","","","","","","","","","","","","","","","","","","","","","","","","SYN05833605 32999 01901 10125 20096 39944 40092 53002 555 1/011=","","","","","","","","","",""
"33605099999","2021-05-15T05:00:00","49.0833333","32.6666666","124.0","CHYHYRYN, UP","FM-12","4","","47","53","","","-0.03","2","82","","29.83","29.39","12.43","50","220","","7","","","","","","","","","","","","","","","","","","","","","","","","","","","","","","","","","","","","","","","","","","","","","","","","","","","","","","","","","","","","","","","","","","","","","","","","","","","","","","","","","","","","","","","","","","","SYN05833605 42998 02203 10116 20086 39953 40101 52009 555 1/010=","","","","","","","","","",""
"33605099999","2021-05-16T02:00:00","49.0833333","32.6666666","124.0","CHYHYRYN, UP","FM-12","4","","46","53","","","-0.01","3","76","","29.89","29.45","12.43","49","230","","7","","","","","","","","","","","","","","","","","","","","","","","","","","","","","","","","","","","","","","","","","","","","","","","","","","","","","","","","","","","","","","","","","","","","","","","","","","","","","","","","","","","","","","","","","","","SYN05833605 32998 02303 10119 20078 39974 40122 53002 555 1/011=","","","","","","","","","",""
"33605099999","2021-05-19T08:00:00","49.0833333","32.6666666","124.0","CHYHYRYN, UP","FM-12","4","","53","58","","","-0.02","2","85","BKN:07 17","29.55","29.13","11.81","55","180","","4","","","","","","","","","","","","","","","","","","","","","","","","","","","","","","","","","","","","","","","","","","","","","","","","","","","","","","","","","","","","","","","","","","","","","","","","","","","","","","","","","","","","","","","","","","","SYN08633605 12469 71802 10145 20119 39863 40008 52008 69982 87300 333 20121 87917 555 12018=","","","","","","","","","",""
"33605099999","2021-05-21T23:00:00","49.0833333","32.6666666","124.0","CHYHYRYN, UP","FM-12","4","","46","53","","","-0.03","2","77","","29.97","29.53","12.43","49","240","","4","","","","","","","","","","","","","","","","","","","","","","","","","","","","","","","","","","","","","","","","","","","","","","","","","","","","","","","","","","","","","","","","","","","","","","","","","","","","","","","","","","","","","","","","","","","SYN05833605 42998 02402 10119 20080 30001 40150 52009 555 1/010=","","","","","","","","","",""
"33605099999","2021-05-22T02:00:00","49.0833333","32.6666666","124.0","CHYHYRYN, UP","FM-12","4","","45","48","","","-0.02","2","89","","30.00","29.55","12.43","47","230","","4","","","","","","","","","","","","","","","","","","","","","","","","","","","","","","","","","","","","","","","","","","","","","","","","","","","","","","","","","","","","","","","","","","","","","","","","","","","","","","","","","","","","","","","","","","","SYN05833605 32998 02302 10087 20070 30008 40159 52007 555 1/008=","","","","","","","","","",""
"33605099999","2021-05-22T23:00:00","49.0833333","32.6666666","124.0","CHYHYRYN, UP","FM-12","4","","44","56","","","0.00","4","64","","29.98","29.55","31.07","50","230","","4","","","","","","","","","","","","","","","","","","","","","","","","","","","","","","","","","","","","","","","","","","","","","","","","","","","","","","","","","","","","","","","","","","","","","","","","","","","","","","","","","","","","","","","","","","","SYN05833605 42999 02302 10136 20068 30006 40154 54000 555 1/012=","","","","","","","","","",""
"33605099999","2021-05-23T02:00:00","49.0833333","32.6666666","124.0","CHYHYRYN, UP","FM-12","4","","42","54","","","+0.03","8","64","","29.96","29.52","31.07","48","230","","4","","","","","","","","","","","","","","","","","","","","","","","","","","","","","","","","","","","","","","","","","","","","","","","","","","","","","","","","","","","","","","","","","","","","","","","","","","","","","","","","","","","","","","","","","","","SYN05833605 32999 02302 10121 20054 39997 40146 58009 555 1/010=","","","","","","","","","",""
"33605099999","2021-05-25T05:00:00","49.0833333","32.6666666","124.0","CHYHYRYN, UP","FM-12","4","","49","54","","","-0.03","2","83","","30.21","29.77","11.18","51","320","","4","","","","","","","","","","","","","","","","","","","","","","","","","","","","","","","","","","","","","","","","","","","","","","","","","","","","","","","","","","","","","","","","","","","","","","","","","","","","","","","","","","","","","","","","","","","SYN05833605 42968 03202 10122 20094 30081 40231 52009 555 1/011=","","","","","","","","","",""
"33605099999","2021-05-26T02:00:00","49.0833333","32.6666666","124.0","CHYHYRYN, UP","FM-12","4","","54","58","","","+0.02","8","88","","30.08","29.65","6.21","56","220","","7","","","","","","","","","","","","","","","","","","","","","","","","","","","","","","","","","","","","","","","","","","","","","","","","","","","","","","","","","","","","","","","","","","","","","","","","","","","","","","","","","","","","","","","","","","","SYN05833605 32997 02203 10143 20123 30039 40187 58008 555 1/012=","","","","","","","","","",""
"33605099999","2021-05-26T05:00:00","49.0833333","32.6666666","124.0","CHYHYRYN, UP","FM-12","4","","54","57","","","-0.01","3","88","","30.09","29.65","9.32","55","220","","7","","","","","","","","","","","","","","","","","","","","","","","","","","","","","","","","","","","","","","","","","","","","","","","","","","","","","","","","","","","","","","","","","","","","","","","","","","","","","","","","","","","","","","","","","","","SYN05833605 42965 02203 10139 20120 30042 40190 53003 555 1/013=","","","","","","","","","",""
"33605099999","2021-05-28T20:00:00","49.0833333","32.6666666","124.0","CHYHYRYN, UP","FM-12","4","","62","73","","||TS","+0.01","8","68","BKN:06 17","29.79","29.37","12.43","66","060","","4","","","","","","","","","","","","","","","","","","","","","","","","","","","","","","","","","","","","","","","","","","","","","","","","","","","","","","","","","","","","","","","","","","","","","","","","","","","","","","","","","","","","","","","","","","","SYN08633605 31498 60602 10226 20164 39946 40088 58003 71791 86300 333 10275 86917 555 1/023=","","","","","","","","","",""
"33605099999","2021-05-29T23:00:00","49.0833333","32.6666666","124.0","CHYHYRYN, UP","FM-12","4","","55","61","","","0.00","4","79","","29.82","29.39","12.43","58","360","","7","","","","","","","","","","","","","","","","","","","","","","","","","","","","","","","","","","","","","","","","","","","","","","","","","","","","","","","","","","","","","","","","","","","","","","","","","","","","","","","","","","","","","","","","","","","SYN05833605 42998 03603 10162 20126 39951 40097 54000 555 1/014=","","","","","","","","","",""
"33605099999","2021-05-31T08:00:00","49.0833333","32.6666666","124.0","CHYHYRYN, UP","FM-12","4","","48","56","","","-0.01","3","74","OVC:08 20","29.98","29.54","12.43","52","050","","4","","","","","","","","","","","","","","","","","","","","","","","","","","","","","","","","","","","","","","","","","","","","","","","","","","","","","","","","","","","","","","","","","","","","","","","","","","","","","","","","","","","","","","","","","","","SYN08633605 12598 80502 10134 20088 30005 40153 53003 69902 883// 333 20122 88920 555 11017=","","","","","","","","","",""
"33605099999","2021-06-07T23:00:00","49.0833333","32.6666666","124.0","CHYHYRYN, UP","FM-12","4","","55","59","","","-0.01","3","88","","29.87","29.44","12.43","57","290","","4","","","","","","","","","","","","","","","","","","","","","","","","","","","","","","","","","","","","","","","","","","","","","","","","","","","","","","","","","","","","","","","","","","","","","","","","","","","","","","","","","","","","","","","","","","","SYN05833605 42998 02902 10149 20129 39968 40115 53004 555 1/014=","","","","","","","","","",""
"33605099999","2021-06-08T02:00:00","49.0833333","32.6666666","124.0","CHYHYRYN, UP","FM-12","4","","55","59","","","+0.02","8","86","","29.85","29.42","12.43","57","280","","4","","","","","","","","","","","","","","","","","","","","","","","","","","","","","","","","","","","","","","","","","","","","","","","","","","","","","","","","","","","","","","","","","","","","","","","","","","","","","","","","","","","","","","","","","","","SYN05833605 32998 02802 10151 20127 39962 40108 58006 555 1/013=","","","","","","","","","",""
"33605099999","2021-06-08T23:00:00","49.0833333","32.6666666","124.0","CHYHYRYN, UP","FM-12","4","","56","59","","","+0.01","8","91","","29.83","29.39","12.43","57","280","","4","","","","","","","","","","","","","","","","","","","","","","","","","","","","","","","","","","","","","","","","","","","","","","","","","","","","","","","","","","","","","","","","","","","","","","","","","","","","","","","","","","","","","","","","","","","SYN05833605 42998 02802 10148 20134 39954 40100 58004 555 1/015=","","","","","","","","","",""
"33605099999","2021-06-09T02:00:00","49.0833333","32.6666666","124.0","CHYHYRYN, UP","FM-12","4","","55","60","","","+0.01","8","85","","29.82","29.39","12.43","57","320","","7","","","","","","","","","","","","","","","","","","","","","","","","","","","","","","","","","","","","","","","","","","","","","","","","","","","","","","","","","","","","","","","","","","","","","","","","","","","","","","","","","","","","","","","","","","","SYN05833605 32998 03203 10154 20129 39951 40097 58003 555 1/014=","","","","","","","","","",""
"33605099999","2021-06-11T23:00:00","49.0833333","32.6666666","124.0","CHYHYRYN, UP","FM-12","4","","60","62","","","-0.01","3","93","","29.83","29.41","6.21","61","240","","4","","","","","","","","","","","","","","","","","","","","","","","","","","","","","","","","","","","","","","","","","","","","","","","","","","","","","","","","","","","","","","","","","","","","","","","","","","","","","","","","","","","","","","","","","","","SYN05833605 42997 02402 10165 20153 39958 40103 53003 555 1/016=","","","","","","","","","",""
"33605099999","2021-06-12T23:00:00","49.0833333","32.6666666","124.0","CHYHYRYN, UP","FM-12","4","","59","65","","","0.00","4","81","","29.83","29.41","31.07","61","220","","7","","","","","","","","","","","","","","","","","","","","","","","","","","","","","","","","","","","","","","","","","","","","","","","","","","","","","","","","","","","","","","","","","","","","","","","","","","","","","","","","","","","","","","","","","","","SYN05833605 42999 02203 10183 20149 39958 40103 54000 555 1/017=","","","","","","","","","",""
"33605099999","2021-06-13T02:00:00","49.0833333","32.6666666","124.0","CHYHYRYN, UP","FM-12","4","","57","62","","","+0.03","8","84","","29.80","29.38","31.07","59","230","","7","","","","","","","","","","","","","","","","","","","","","","","","","","","","","","","","","","","","","","","","","","","","","","","","","","","","","","","","","","","","","","","","","","","","","","","","","","","","","","","","","","","","","","","","","","","SYN05833605 32999 02303 10165 20137 39948 40093 58010 555 1/015=","","","","","","","","","",""
"33605099999","2021-06-13T05:00:00","49.0833333","32.6666666","124.0","CHYHYRYN, UP","FM-12","4","","56","61","","","+0.04","7","86","","29.77","29.34","17.40","58","220","","7","","","","","","","","","","","","","","","","","","","","","","","","","","","","","","","","","","","","","","","","","","","","","","","","","","","","","","","","","","","","","","","","","","","","","","","","","","","","","","","","","","","","","","","","","","","SYN05833605 42978 02203 10159 20136 39936 40082 57012 555 1/016=","","","","","","","","","",""
"33605099999","2021-06-13T23:00:00","49.0833333","32.6666666","124.0","CHYHYRYN, UP","FM-12","4","","56","59","","","-0.01","3","93","","29.77","29.34","6.21","57","210","","2","","","","","","","","","","","","","","","","","","","","","","","","","","","","","","","","","","","","","","","","","","","","","","","","","","","","","","","","","","","","","","","","","","","","","","","","","","","","","","","","","","","","","","","","","","","SYN05833605 42997 02101 10148 20136 39936 40082 53002 555 1/014=","","","","","","","","","",""
"33605099999","2021-06-14T23:00:00","49.0833333","32.6666666","124.0","CHYHYRYN, UP","FM-12","4","","62","65","","","-0.01","3","88","","29.92","29.49","6.21","63","140","","4","","","","","","","","","","","","","","","","","","","","","","","","","","","","","","","","","","","","","","","","","","","","","","","","","","","","","","","","","","","","","","","","","","","","","","","","","","","","","","","","","","","","","","","","","","","SYN05833605 42997 01402 10185 20164 39986 40132 53003 555 1/017=","","","","","","","","","",""
"33605099999","2021-06-16T23:00:00","49.0833333","32.6666666","124.0","CHYHYRYN, UP","FM-12","4","","58","62","","","-0.02","2","88","","29.96","29.53","12.43","60","270","","4","","","","","","","","","","","","","","","","","","","","","","","","","","","","","","","","","","","","","","","","","","","","","","","","","","","","","","","","","","","","","","","","","","","","","","","","","","","","","","","","","","","","","","","","","","","SYN05833605 42998 02702 10167 20146 39999 40145 52006 555 1/016=","","","","","","","","","",""
"33605099999","2021-06-17T02:00:00","49.0833333","32.6666666","124.0","CHYHYRYN, UP","FM-12","4","","58","61","","","0.00","4","90","","29.96","29.53","6.21","59","020","","4","","","","","","","","","","","","","","","","","","","","","","","","","","","","","","","","","","","","","","","","","","","","","","","","","","","","","","","","","","","","","","","","","","","","","","","","","","","","","","","","","","","","","","","","","","","SYN05433605 32997 40202 10163 20146 39999 40145 54000 80001=","","","","","","","","","",""
"33605099999","2021-06-20T23:00:00","49.0833333","32.6666666","124.0","CHYHYRYN, UP","FM-12","4","","61","69","","","+0.02","8","76","","29.91","29.48","31.07","64","070","","4","","","","","","","","","","","","","","","","","","","","","","","","","","","","","","","","","","","","","","","","","","","","","","","","","","","","","","","","","","","","","","","","","","","","","","","","","","","","","","","","","","","","","","","","","","","SYN05833605 42999 00702 10207 20162 39983 40127 58007 555 1/018=","","","","","","","","","",""
"33605099999","2021-06-21T02:00:00","49.0833333","32.6666666","124.0","CHYHYRYN, UP","FM-12","4","","62","66","","","+0.02","7","84","","29.88","29.46","31.07","64","000","","0","","","","","","","","","","","","","","","","","","","","","","","","","","","","","","","","","","","","","","","","","","","","","","","","","","","","","","","","","","","","","","","","","","","","","","","","","","","","","","","","","","","","","","","","","","","SYN05833605 32999 00000 10191 20164 39975 40119 57008 555 1/017=","","","","","","","","","",""
"33605099999","2021-06-21T05:00:00","49.0833333","32.6666666","124.0","CHYHYRYN, UP","FM-12","4","","60","63","","","-0.01","3","90","","29.90","29.47","14.91","61","000","","0","","","","","","","","","","","","","","","","","","","","","","","","","","","","","","","","","","","","","","","","","","","","","","","","","","","","","","","","","","","","","","","","","","","","","","","","","","","","","","","","","","","","","","","","","","","SYN05833605 42974 00000 10170 20153 39978 40124 53003 555 1/018=","","","","","","","","","",""
"33605099999","2021-06-25T23:00:00","49.0833333","32.6666666","124.0","CHYHYRYN, UP","FM-12","4","","69","79","","","-0.01","3","72","","29.88","29.47","12.43","72","350","","2","","","","","","","","","","","","","","","","","","","","","","","","","","","","","","","","","","","","","","","","","","","","","","","","","","","","","","","","","","","","","","","","","","","","","","","","","","","","","","","","","","","","","","","","","","","SYN05833605 42998 03501 10259 20204 39978 40119 53005 555 1/025=","","","","","","","","","",""
"33605099999","2021-06-28T23:00:00","49.0833333","32.6666666","124.0","CHYHYRYN, UP","FM-12","4","","60","69","","","-0.01","3","72","","29.92","29.49","31.07","64","250","","4","","","","","","","","","","","","","","","","","","","","","","","","","","","","","","","","","","","","","","","","","","","","","","","","","","","","","","","","","","","","","","","","","","","","","","","","","","","","","","","","","","","","","","","","","","","SYN05833605 42999 02502 10205 20153 39988 40132 53003 555 1/018=","","","","","","","","","",""
"33605099999","2021-06-29T23:00:00","49.0833333","32.6666666","124.0","CHYHYRYN, UP","FM-12","4","","63","67","","","-0.00","3","88","","29.90","29.47","12.43","65","230","","2","","","","","","","","","","","","","","","","","","","","","","","","","","","","","","","","","","","","","","","","","","","","","","","","","","","","","","","","","","","","","","","","","","","","","","","","","","","","","","","","","","","","","","","","","","","SYN05833605 42998 02301 10192 20172 39981 40125 53001 555 1/020=","","","","","","","","","",""
"33605099999","2021-07-02T02:00:00","49.0833333","32.6666666","124.0","CHYHYRYN, UP","FM-12","4","","61","69","","","+0.03","8","76","","29.78","29.36","31.07","64","220","","2","","","","","","","","","","","","","","","","","","","","","","","","","","","","","","","","","","","","","","","","","","","","","","","","","","","","","","","","","","","","","","","","","","","","","","","","","","","","","","","","","","","","","","","","","","","SYN05833605 32999 02201 10205 20162 39943 40086 58009 555 1/020=","","","","","","","","","",""
"33605099999","2021-07-04T23:00:00","49.0833333","32.6666666","124.0","CHYHYRYN, UP","FM-12","4","","67","75","","","+0.01","8","76","","29.66","29.24","12.43","70","350","","2","","","","","","","","","","","","","","","","","","","","","","","","","","","","","","","","","","","","","","","","","","","","","","","","","","","","","","","","","","","","","","","","","","","","","","","","","","","","","","","","","","","","","","","","","","","SYN05833605 42998 03501 10237 20192 39902 40043 58003 555 1/022=","","","","","","","","","",""
"33605099999","2021-07-07T23:00:00","49.0833333","32.6666666","124.0","CHYHYRYN, UP","FM-12","4","","64","71","","","-0.03","2","79","","30.13","29.70","31.07","67","000","","0","","","","","","","","","","","","","","","","","","","","","","","","","","","","","","","","","","","","","","","","","","","","","","","","","","","","","","","","","","","","","","","","","","","","","","","","","","","","","","","","","","","","","","","","","","","SYN05833605 42999 00000 10218 20179 30059 40203 52011 555 1/020=","","","","","","","","","",""
"33605099999","2021-07-08T02:00:00","49.0833333","32.6666666","124.0","CHYHYRYN, UP","FM-12","4","","64","67","","","-0.03","2","89","","30.16","29.73","6.21","65","000","","0","","","","","","","","","","","","","","","","","","","","","","","","","","","","","","","","","","","","","","","","","","","","","","","","","","","","","","","","","","","","","","","","","","","","","","","","","","","","","","","","","","","","","","","","","","","SYN05833605 32997 00000 10197 20179 30068 40213 52009 555 1/018=","","","","","","","","","",""
"33605099999","2021-07-08T05:00:00","49.0833333","32.6666666","124.0","CHYHYRYN, UP","FM-12","4","","64","69","","","-0.04","2","83","","30.19","29.77","8.70","66","000","","0","","","","","","","","","","","","","","","","","","","","","","","","","","","","","","","","","","","","","","","","","","","","","","","","","","","","","","","","","","","","","","","","","","","","","","","","","","","","","","","","","","","","","","","","","","","SYN05833605 42964 00000 10207 20176 30080 40225 52012 555 1/020=","","","","","","","","","",""
"33605099999","2021-07-08T11:00:00","49.0833333","32.6666666","124.0","CHYHYRYN, UP","FM-12","4","","55","81","","","-0.01","3","40","","30.23","29.81","12.43","65","030","","7","","","","","","","","","","","","","","","","","","","","","","","","","","","","","","","","","","","","","","","","","","","","","","","","","","","","","","","","","","","","","","","","","","","","","","","","","","","","","","","","","","","","","","","","","","","SYN05833605 42998 00303 10275 20126 30096 40238 53004 555 1/048=","","","","","","","","","",""
"33605099999","2021-07-08T17:00:00","49.0833333","32.6666666","124.0","CHYHYRYN, UP","FM-12","4","","54","83","","","+0.02","7","37","","30.20","29.78","12.43","65","030","","4","","","","","","","","","","","","","","","","","","","","","","","","","","","","","","","","","","","","","","","","","","","","","","","","","","","","","","","","","","","","","","","","","","","","","","","","","","","","","","","","","","","","","","","","","","","SYN05833605 42998 00302 10283 20121 30086 40228 57006 555 1/040=","","","","","","","","","",""
"33605099999","2021-07-08T23:00:00","49.0833333","32.6666666","124.0","CHYHYRYN, UP","FM-12","4","","60","65","","","-0.01","2","82","","30.24","29.81","12.43","62","220","","2","","","","","","","","","","","","","","","","","","","","","","","","","","","","","","","","","","","","","","","","","","","","","","","","","","","","","","","","","","","","","","","","","","","","","","","","","","","","","","","","","","","","","","","","","","","SYN05833605 42998 02201 10186 20154 30094 40240 52005 555 1/018=","","","","","","","","","",""
"33605099999","2021-07-09T02:00:00","49.0833333","32.6666666","124.0","CHYHYRYN, UP","FM-12","4","","58","60","","","-0.01","3","90","","30.25","29.81","12.43","59","250","","2","","","","","","","","","","","","","","","","","","","","","","","","","","","","","","","","","","","","","","","","","","","","","","","","","","","","","","","","","","","","","","","","","","","","","","","","","","","","","","","","","","","","","","","","","","","SYN05833605 32998 02501 10158 20142 30096 40244 53002 555 1/016=","","","","","","","","","",""
"33605099999","2021-07-09T14:00:00","49.0833333","32.6666666","124.0","CHYHYRYN, UP","FM-12","4","","56","85","","","+0.05","7","37","","30.15","29.74","12.43","67","040","","2","","","","","","","","","","","","","","","","","","","","","","","","","","","","","","","","","","","","","","","","","","","","","","","","","","","","","","","","","","","","","","","","","","","","","","","","","","","","","","","","","","","","","","","","","","","SYN05833605 32998 00401 10296 20136 30070 40211 57016 555 1/052=","","","","","","","","","",""
"33605099999","2021-07-09T23:00:00","49.0833333","32.6666666","124.0","CHYHYRYN, UP","FM-12","4","","61","67","","","+0.01","8","82","","30.11","29.68","12.43","63","230","","2","","","","","","","","","","","","","","","","","","","","","","","","","","","","","","","","","","","","","","","","","","","","","","","","","","","","","","","","","","","","","","","","","","","","","","","","","","","","","","","","","","","","","","","","","","","SYN05833605 42998 02301 10193 20161 30050 40195 58004 555 1/020=","","","","","","","","","",""
"33605099999","2021-07-10T02:00:00","49.0833333","32.6666666","124.0","CHYHYRYN, UP","FM-12","4","","60","63","","","-0.01","3","90","","30.11","29.68","6.21","61","250","","2","","","","","","","","","","","","","","","","","","","","","","","","","","","","","","","","","","","","","","","","","","","","","","","","","","","","","","","","","","","","","","","","","","","","","","","","","","","","","","","","","","","","","","","","","","","SYN05833605 32997 02501 10172 20155 30052 40198 53002 555 1/017=","","","","","","","","","",""
"33605099999","2021-07-11T02:00:00","49.0833333","32.6666666","124.0","CHYHYRYN, UP","FM-12","4","","61","66","","","+0.01","8","84","","30.01","29.58","12.43","63","230","","2","","","","","","","","","","","","","","","","","","","","","","","","","","","","","","","","","","","","","","","","","","","","","","","","","","","","","","","","","","","","","","","","","","","","","","","","","","","","","","","","","","","","","","","","","","","SYN05833605 32998 02301 10187 20160 30018 40163 58004 555 1/019=","","","","","","","","","",""
"33605099999","2021-07-11T11:00:00","49.0833333","32.6666666","124.0","CHYHYRYN, UP","FM-12","4","","59","87","","","+0.01","8","39","","29.98","29.56","12.43","69","010","","9","","","","","","","","","","","","","","","","","","","","","","","","","","","","","","","","","","","","","","","","","","","","","","","","","","","","","","","","","","","","","","","","","","","","","","","","","","","","","","","","","","","","","","","","","","","SYN05833605 42998 00104 10303 20150 30011 40151 58003 555 1/055=","","","","","","","","","",""
"33605099999","2021-07-11T23:00:00","49.0833333","32.6666666","124.0","CHYHYRYN, UP","FM-12","4","","62","74","","","-0.01","3","68","","29.95","29.53","31.07","66","210","","2","","","","","","","","","","","","","","","","","","","","","","","","","","","","","","","","","","","","","","","","","","","","","","","","","","","","","","","","","","","","","","","","","","","","","","","","","","","","","","","","","","","","","","","","","","","SYN05833605 42999 02101 10231 20169 30000 40143 53002 555 1/022=","","","","","","","","","",""
"33605099999","2021-07-12T02:00:00","49.0833333","32.6666666","124.0","CHYHYRYN, UP","FM-12","4","","64","67","","","0.00","4","89","","29.96","29.53","12.43","65","280","","2","","","","","","","","","","","","","","","","","","","","","","","","","","","","","","","","","","","","","","","","","","","","","","","","","","","","","","","","","","","","","","","","","","","","","","","","","","","","","","","","","","","","","","","","","","","SYN05833605 32998 02801 10197 20178 30000 40144 54000 555 1/020=","","","","","","","","","",""
"33605099999","2021-07-13T14:00:00","49.0833333","32.6666666","124.0","CHYHYRYN, UP","FM-12","4","","62","83","","","-0.01","3","49","","29.99","29.58","12.43","69","040","","4","","","","","","","","","","","","","","","","","","","","","","","","","","","","","","","","","","","","","","","","","","","","","","","","","","","","","","","","","","","","","","","","","","","","","","","","","","","","","","","","","","","","","","","","","","","SYN05833605 32998 00402 10282 20165 30016 40157 53002 555 1/046=","","","","","","","","","",""
"33605099999","2021-07-13T23:00:00","49.0833333","32.6666666","124.0","CHYHYRYN, UP","FM-12","4","","69","72","","","-0.01","3","90","","30.00","29.57","12.43","70","210","","2","","","","","","","","","","","","","","","","","","","","","","","","","","","","","","","","","","","","","","","","","","","","","","","","","","","","","","","","","","","","","","","","","","","","","","","","","","","","","","","","","","","","","","","","","","","SYN05833605 42998 02101 10220 20203 30015 40158 53003 555 1/023=","","","","","","","","","",""
"33605099999","2021-07-14T02:00:00","49.0833333","32.6666666","124.0","CHYHYRYN, UP","FM-12","4","","65","68","","","-0.01","3","91","","30.01","29.58","6.21","66","230","","2","","","","","","","","","","","","","","","","","","","","","","","","","","","","","","","","","","","","","","","","","","","","","","","","","","","","","","","","","","","","","","","","","","","","","","","","","","","","","","","","","","","","","","","","","","","SYN05833605 32997 02301 10201 20185 30018 40162 53003 555 1/020=","","","","","","","","","",""
"33605099999","2021-07-14T14:00:00","49.0833333","32.6666666","124.0","CHYHYRYN, UP","FM-12","4","","56","89","","","+0.01","8","33","","30.01","29.60","12.43","68","090","","2","","","","","","","","","","","","","","","","","","","","","","","","","","","","","","","","","","","","","","","","","","","","","","","","","","","","","","","","","","","","","","","","","","","","","","","","","","","","","","","","","","","","","","","","","","","SYN05833605 32998 00901 10315 20132 30023 40162 58003 555 1/055=","","","","","","","","","",""
"33605099999","2021-07-14T17:00:00","49.0833333","32.6666666","124.0","CHYHYRYN, UP","FM-12","4","","56","88","","","+0.02","7","33","","29.99","29.58","12.43","68","090","","2","","","","","","","","","","","","","","","","","","","","","","","","","","","","","","","","","","","","","","","","","","","","","","","","","","","","","","","","","","","","","","","","","","","","","","","","","","","","","","","","","","","","","","","","","","","SYN05833605 42998 00901 10312 20132 30017 40156 57006 555 1/039=","","","","","","","","","",""
"33605099999","2021-07-14T23:00:00","49.0833333","32.6666666","124.0","CHYHYRYN, UP","FM-12","4","","63","69","","","-0.01","3","81","","30.01","29.58","31.07","65","210","","2","","","","","","","","","","","","","","","","","","","","","","","","","","","","","","","","","","","","","","","","","","","","","","","","","","","","","","","","","","","","","","","","","","","","","","","","","","","","","","","","","","","","","","","","","","","SYN05833605 42999 02101 10205 20171 30018 40162 53002 555 1/021=","","","","","","","","","",""
"33605099999","2021-07-15T02:00:00","49.0833333","32.6666666","124.0","CHYHYRYN, UP","FM-12","4","","60","66","","","+0.01","8","83","","30.00","29.57","12.43","62","210","","2","","","","","","","","","","","","","","","","","","","","","","","","","","","","","","","","","","","","","","","","","","","","","","","","","","","","","","","","","","","","","","","","","","","","","","","","","","","","","","","","","","","","","","","","","","","SYN05833605 32998 02101 10187 20158 30015 40160 58003 555 1/019=","","","","","","","","","",""
"33605099999","2021-07-15T05:00:00","49.0833333","32.6666666","124.0","CHYHYRYN, UP","FM-12","4","","58","64","","","0.00","4","80","","30.01","29.57","12.43","60","210","","2","","","","","","","","","","","","","","","","","","","","","","","","","","","","","","","","","","","","","","","","","","","","","","","","","","","","","","","","","","","","","","","","","","","","","","","","","","","","","","","","","","","","","","","","","","","SYN05833605 42998 02101 10180 20145 30015 40161 54000 555 1/018=","","","","","","","","","",""
"33605099999","2021-07-16T02:00:00","49.0833333","32.6666666","124.0","CHYHYRYN, UP","FM-12","4","","63","69","","","+0.00","8","82","","29.92","29.50","31.07","65","230","","9","","","","","","","","","","","","","","","","","","","","","","","","","","","","","","","","","","","","","","","","","","","","","","","","","","","","","","","","","","","","","","","","","","","","","","","","","","","","","","","","","","","","","","","","","","","SYN05833605 32999 02304 10203 20172 39989 40133 58001 555 1/020=","","","","","","","","","",""
"33605099999","2021-07-16T05:00:00","49.0833333","32.6666666","124.0","CHYHYRYN, UP","FM-12","4","","62","67","","","+0.01","8","84","","29.91","29.49","12.43","64","230","","7","","","","","","","","","","","","","","","","","","","","","","","","","","","","","","","","","","","","","","","","","","","","","","","","","","","","","","","","","","","","","","","","","","","","","","","","","","","","","","","","","","","","","","","","","","","SYN05833605 42998 02303 10197 20169 39985 40129 58004 555 1/020=","","","","","","","","","",""
"33605099999","2021-07-16T23:00:00","49.0833333","32.6666666","124.0","CHYHYRYN, UP","FM-12","4","","68","76","","","-0.01","3","76","","29.89","29.47","12.43","71","360","","2","","","","","","","","","","","","","","","","","","","","","","","","","","","","","","","","","","","","","","","","","","","","","","","","","","","","","","","","","","","","","","","","","","","","","","","","","","","","","","","","","","","","","","","","","","","SYN05833605 42998 03601 10244 20199 39981 40123 53003 555 1/023=","","","","","","","","","",""
"33605099999","2021-07-17T02:00:00","49.0833333","32.6666666","124.0","CHYHYRYN, UP","FM-12","4","","68","72","","","+0.01","8","88","","29.89","29.47","12.43","69","240","","2","","","","","","","","","","","","","","","","","","","","","","","","","","","","","","","","","","","","","","","","","","","","","","","","","","","","","","","","","","","","","","","","","","","","","","","","","","","","","","","","","","","","","","","","","","","SYN05833605 32998 02401 10221 20201 39978 40121 58003 555 1/021=","","","","","","","","","",""
"33605099999","2021-07-18T02:00:00","49.0833333","32.6666666","124.0","CHYHYRYN, UP","FM-12","4","","68","72","","","-0.01","3","87","","29.82","29.40","6.21","69","300","","4","","","","","","","","","","","","","","","","","","","","","","","","","","","","","","","","","","","","","","","","","","","","","","","","","","","","","","","","","","","","","","","","","","","","","","","","","","","","","","","","","","","","","","","","","","","SYN05833605 32997 03002 10224 20201 39955 40097 53002 555 1/022=","","","","","","","","","",""
"33605099999","2021-07-18T23:00:00","49.0833333","32.6666666","124.0","CHYHYRYN, UP","FM-12","4","","68","79","","","-0.01","2","69","","29.78","29.37","31.07","72","320","","2","","","","","","","","","","","","","","","","","","","","","","","","","","","","","","","","","","","","","","","","","","","","","","","","","","","","","","","","","","","","","","","","","","","","","","","","","","","","","","","","","","","","","","","","","","","SYN05833605 42999 03201 10261 20200 39946 40086 52005 555 1/026=","","","","","","","","","",""
"33605099999","2021-07-19T02:00:00","49.0833333","32.6666666","124.0","CHYHYRYN, UP","FM-12","4","","65","72","","","+0.01","8","78","","29.78","29.36","12.43","68","320","","2","","","","","","","","","","","","","","","","","","","","","","","","","","","","","","","","","","","","","","","","","","","","","","","","","","","","","","","","","","","","","","","","","","","","","","","","","","","","","","","","","","","","","","","","","","","SYN05833605 32998 03201 10223 20183 39944 40086 58002 555 1/023=","","","","","","","","","",""
"33605099999","2021-07-19T05:00:00","49.0833333","32.6666666","124.0","CHYHYRYN, UP","FM-12","4","","65","71","","","-0.01","3","81","","29.79","29.37","13.05","67","350","","2","","","","","","","","","","","","","","","","","","","","","","","","","","","","","","","","","","","","","","","","","","","","","","","","","","","","","","","","","","","","","","","","","","","","","","","","","","","","","","","","","","","","","","","","","","","SYN05833605 42971 03501 10219 20184 39947 40089 53003 555 1/022=","","","","","","","","","",""
"33605099999","2021-07-20T02:00:00","49.0833333","32.6666666","124.0","CHYHYRYN, UP","FM-12","4","","68","72","","","+0.01","8","85","","29.81","29.39","6.21","69","350","","4","","","","","","","","","","","","","","","","","","","","","","","","","","","","","","","","","","","","","","","","","","","","","","","","","","","","","","","","","","","","","","","","","","","","","","","","","","","","","","","","","","","","","","","","","","","SYN05833605 32997 03502 10225 20199 39953 40095 58002 555 1/022=","","","","","","","","","",""
"33605099999","2021-07-22T23:00:00","49.0833333","32.6666666","124.0","CHYHYRYN, UP","FM-12","4","","54","68","","","-0.03","2","61","","29.91","29.48","12.43","60","010","","9","","","","","","","","","","","","","","","","","","","","","","","","","","","","","","","","","","","","","","","","","","","","","","","","","","","","","","","","","","","","","","","","","","","","","","","","","","","","","","","","","","","","","","","","","","","SYN05833605 42998 00104 10200 20122 39984 40128 52011 555 1/017=","","","","","","","","","",""
"33605099999","2021-07-23T02:00:00","49.0833333","32.6666666","124.0","CHYHYRYN, UP","FM-12","4","","53","64","","","-0.02","2","67","","29.93","29.50","12.43","58","340","","4","","","","","","","","","","","","","","","","","","","","","","","","","","","","","","","","","","","","","","","","","","","","","","","","","","","","","","","","","","","","","","","","","","","","","","","","","","","","","","","","","","","","","","","","","","","SYN05833605 32998 03402 10178 20116 39991 40136 52007 555 1/014=","","","","","","","","","",""
"33605099999","2021-07-23T05:00:00","49.0833333","32.6666666","124.0","CHYHYRYN, UP","FM-12","4","","52","59","","","-0.01","3","79","","29.94","29.51","12.43","55","290","","7","","","","","","","","","","","","","","","","","","","","","","","","","","","","","","","","","","","","","","","","","","","","","","","","","","","","","","","","","","","","","","","","","","","","","","","","","","","","","","","","","","","","","","","","","","","SYN05833605 42998 02903 10150 20113 39993 40140 53002 555 1/014=","","","","","","","","","",""
"33605099999","2021-07-23T23:00:00","49.0833333","32.6666666","124.0","CHYHYRYN, UP","FM-12","4","","56","61","","","-0.02","2","83","","29.95","29.52","31.07","58","230","","7","","","","","","","","","","","","","","","","","","","","","","","","","","","","","","","","","","","","","","","","","","","","","","","","","","","","","","","","","","","","","","","","","","","","","","","","","","","","","","","","","","","","","","","","","","","SYN05833605 42999 02303 10161 20131 39997 40143 52007 555 1/016=","","","","","","","","","",""
"33605099999","2021-07-24T02:00:00","49.0833333","32.6666666","124.0","CHYHYRYN, UP","FM-12","4","","54","58","","","0.00","4","85","","29.96","29.52","31.07","56","220","","4","","","","","","","","","","","","","","","","","","","","","","","","","","","","","","","","","","","","","","","","","","","","","","","","","","","","","","","","","","","","","","","","","","","","","","","","","","","","","","","","","","","","","","","","","","","SYN05833605 32999 02202 10147 20121 39997 40144 54000 555 1/014=","","","","","","","","","",""
"33605099999","2021-07-24T23:00:00","49.0833333","32.6666666","124.0","CHYHYRYN, UP","FM-12","4","","59","64","","","-0.03","2","84","","30.04","29.61","12.43","61","230","","4","","","","","","","","","","","","","","","","","","","","","","","","","","","","","","","","","","","","","","","","","","","","","","","","","","","","","","","","","","","","","","","","","","","","","","","","","","","","","","","","","","","","","","","","","","","SYN05833605 42998 02302 10178 20151 30027 40173 52010 555 1/017=","","","","","","","","","",""
"33605099999","2021-07-25T02:00:00","49.0833333","32.6666666","124.0","CHYHYRYN, UP","FM-12","4","","56","61","","","-0.01","3","83","","30.05","29.62","12.43","58","220","","4","","","","","","","","","","","","","","","","","","","","","","","","","","","","","","","","","","","","","","","","","","","","","","","","","","","","","","","","","","","","","","","","","","","","","","","","","","","","","","","","","","","","","","","","","","","SYN05833605 32998 02202 10161 20132 30030 40177 53003 555 1/015=","","","","","","","","","",""
"33605099999","2021-07-25T05:00:00","49.0833333","32.6666666","124.0","CHYHYRYN, UP","FM-12","4","","56","60","","","-0.02","2","88","","30.07","29.64","13.67","58","230","","4","","","","","","","","","","","","","","","","","","","","","","","","","","","","","","","","","","","","","","","","","","","","","","","","","","","","","","","","","","","","","","","","","","","","","","","","","","","","","","","","","","","","","","","","","","","SYN05833605 42972 02302 10154 20134 30036 40183 52006 555 1/015=","","","","","","","","","",""
"33605099999","2021-07-25T23:00:00","49.0833333","32.6666666","124.0","CHYHYRYN, UP","FM-12","4","","63","67","","","-0.02","2","89","","30.11","29.69","12.43","65","220","","2","","","","","","","","","","","","","","","","","","","","","","","","","","","","","","","","","","","","","","","","","","","","","","","","","","","","","","","","","","","","","","","","","","","","","","","","","","","","","","","","","","","","","","","","","","","SYN05833605 42998 02201 10193 20175 30053 40198 52008 555 1/020=","","","","","","","","","",""
"33605099999","2021-07-26T02:00:00","49.0833333","32.6666666","124.0","CHYHYRYN, UP","FM-12","4","","61","63","","","-0.01","3","95","","30.13","29.69","6.21","62","220","","2","","","","","","","","","","","","","","","","","","","","","","","","","","","","","","","","","","","","","","","","","","","","","","","","","","","","","","","","","","","","","","","","","","","","","","","","","","","","","","","","","","","","","","","","","","","SYN05833605 32997 02201 10171 20163 30055 40202 53002 555 1/017=","","","","","","","","","",""
"33605099999","2021-07-26T23:00:00","49.0833333","32.6666666","124.0","CHYHYRYN, UP","FM-12","4","","60","67","","","-0.02","3","78","","30.12","29.70","31.07","63","220","","4","","","","","","","","","","","","","","","","","","","","","","","","","","","","","","","","","","","","","","","","","","","","","","","","","","","","","","","","","","","","","","","","","","","","","","","","","","","","","","","","","","","","","","","","","","","SYN05833605 42999 02202 10197 20158 30056 40201 53006 555 1/020=","","","","","","","","","",""
"33605099999","2021-07-27T02:00:00","49.0833333","32.6666666","124.0","CHYHYRYN, UP","FM-12","4","","59","65","","","0.00","4","81","","30.13","29.70","12.43","61","230","","2","","","","","","","","","","","","","","","","","","","","","","","","","","","","","","","","","","","","","","","","","","","","","","","","","","","","","","","","","","","","","","","","","","","","","","","","","","","","","","","","","","","","","","","","","","","SYN05833605 32998 02301 10183 20150 30056 40202 54000 555 1/018=","","","","","","","","","",""
"33605099999","2021-07-27T17:00:00","49.0833333","32.6666666","124.0","CHYHYRYN, UP","FM-12","4","","55","87","","","+0.04","7","34","","30.04","29.62","12.43","67","140","","4","","","","","","","","","","","","","","","","","","","","","","","","","","","","","","","","","","","","","","","","","","","","","","","","","","","","","","","","","","","","","","","","","","","","","","","","","","","","","","","","","","","","","","","","","","","SYN05833605 42998 01402 10307 20129 30032 40172 57013 555 1/041=","","","","","","","","","",""
"33605099999","2021-07-28T23:00:00","49.0833333","32.6666666","124.0","CHYHYRYN, UP","FM-12","4","","67","72","","","+0.02","8","83","","29.89","29.47","12.43","69","230","","4","","","","","","","","","","","","","","","","","","","","","","","","","","","","","","","","","","","","","","","","","","","","","","","","","","","","","","","","","","","","","","","","","","","","","","","","","","","","","","","","","","","","","","","","","","","SYN05833605 42998 02302 10224 20193 39980 40123 58008 555 1/022=","","","","","","","","","",""
"33605099999","2021-07-29T02:00:00","49.0833333","32.6666666","124.0","CHYHYRYN, UP","FM-12","4","","66","71","","","+0.03","7","84","","29.87","29.44","12.43","68","230","","4","","","","","","","","","","","","","","","","","","","","","","","","","","","","","","","","","","","","","","","","","","","","","","","","","","","","","","","","","","","","","","","","","","","","","","","","","","","","","","","","","","","","","","","","","","","SYN05833605 32998 02302 10218 20190 39971 40114 57009 555 1/020=","","","","","","","","","",""
"33605099999","2021-07-29T05:00:00","49.0833333","32.6666666","124.0","CHYHYRYN, UP","FM-12","4","","65","69","","","+0.00","8","87","","29.86","29.44","8.70","66","220","","7","","","","","","","","","","","","","","","","","","","","","","","","","","","","","","","","","","","","","","","","","","","","","","","","","","","","","","","","","","","","","","","","","","","","","","","","","","","","","","","","","","","","","","","","","","","SYN05833605 42964 02203 10206 20184 39970 40113 58001 555 1/020=","","","","","","","","","",""
"33605099999","2021-07-30T23:00:00","49.0833333","32.6666666","124.0","CHYHYRYN, UP","FM-12","4","","61","68","","","-0.02","2","79","","29.83","29.41","12.43","64","220","","4","","","","","","","","","","","","","","","","","","","","","","","","","","","","","","","","","","","","","","","","","","","","","","","","","","","","","","","","","","","","","","","","","","","","","","","","","","","","","","","","","","","","","","","","","","","SYN05833605 42998 02202 10201 20163 39959 40103 52007 555 1/020=","","","","","","","","","",""
"33605099999","2021-07-31T02:00:00","49.0833333","32.6666666","124.0","CHYHYRYN, UP","FM-12","4","","59","65","","","-0.01","3","80","","29.84","29.41","12.43","61","230","","7","","","","","","","","","","","","","","","","","","","","","","","","","","","","","","","","","","","","","","","","","","","","","","","","","","","","","","","","","","","","","","","","","","","","","","","","","","","","","","","","","","","","","","","","","","","SYN05833605 32998 02303 10185 20149 39961 40106 53002 555 1/018=","","","","","","","","","",""
"33605099999","2021-07-31T05:00:00","49.0833333","32.6666666","124.0","CHYHYRYN, UP","FM-12","4","","59","65","","","-0.01","3","82","","29.85","29.42","12.43","61","220","","7","","","","","","","","","","","","","","","","","","","","","","","","","","","","","","","","","","","","","","","","","","","","","","","","","","","","","","","","","","","","","","","","","","","","","","","","","","","","","","","","","","","","","","","","","","","SYN05833605 42998 02203 10181 20150 39964 40109 53003 555 1/018=","","","","","","","","","",""
"33605099999","2021-07-31T23:00:00","49.0833333","32.6666666","124.0","CHYHYRYN, UP","FM-12","4","","65","70","","","-0.02","2","83","","29.86","29.44","31.07","67","230","","7","","","","","","","","","","","","","","","","","","","","","","","","","","","","","","","","","","","","","","","","","","","","","","","","","","","","","","","","","","","","","","","","","","","","","","","","","","","","","","","","","","","","","","","","","","","SYN05833605 42999 02303 10213 20183 39969 40112 52007 555 1/021=","","","","","","","","","",""
"33605099999","2021-08-01T02:00:00","49.0833333","32.6666666","124.0","CHYHYRYN, UP","FM-12","4","","62","69","","","-0.01","3","77","","29.87","29.44","31.07","65","230","","7","","","","","","","","","","","","","","","","","","","","","","","","","","","","","","","","","","","","","","","","","","","","","","","","","","","","","","","","","","","","","","","","","","","","","","","","","","","","","","","","","","","","","","","","","","","SYN05833605 32999 02303 10207 20164 39971 40114 53002 555 1/019=","","","","","","","","","",""
"33605099999","2021-08-01T23:00:00","49.0833333","32.6666666","124.0","CHYHYRYN, UP","FM-12","4","","64","75","","","-0.00","3","70","","29.82","29.40","12.43","68","200","","4","","","","","","","","","","","","","","","","","","","","","","","","","","","","","","","","","","","","","","","","","","","","","","","","","","","","","","","","","","","","","","","","","","","","","","","","","","","","","","","","","","","","","","","","","","","SYN05833605 42998 02002 10239 20180 39957 40099 53001 555 1/023=","","","","","","","","","",""
"33605099999","2021-08-02T23:00:00","49.0833333","32.6666666","124.0","CHYHYRYN, UP","FM-12","4","","63","66","","","-0.04","2","89","","29.81","29.38","6.21","64","230","","9","","","","","","","","","","","","","","","","","","","","","","","","","","","","","","","","","","","","","","","","","","","","","","","","","","","","","","","","","","","","","","","","","","","","","","","","","","","","","","","","","","","","","","","","","","","SYN05833605 42997 02304 10189 20171 39949 40094 52013 555 1/020=","","","","","","","","","",""
"33605099999","2021-08-03T23:00:00","49.0833333","32.6666666","124.0","CHYHYRYN, UP","FM-12","4","","58","64","","","-0.03","2","81","","30.01","29.58","12.43","60","220","","4","","","","","","","","","","","","","","","","","","","","","","","","","","","","","","","","","","","","","","","","","","","","","","","","","","","","","","","","","","","","","","","","","","","","","","","","","","","","","","","","","","","","","","","","","","","SYN05833605 42998 02202 10180 20147 30016 40162 52011 555 1/018=","","","","","","","","","",""
"33605099999","2021-08-04T02:00:00","49.0833333","32.6666666","124.0","CHYHYRYN, UP","FM-12","4","","58","61","","","-0.01","3","90","","30.02","29.59","6.21","59","250","","4","","","","","","","","","","","","","","","","","","","","","","","","","","","","","","","","","","","","","","","","","","","","","","","","","","","","","","","","","","","","","","","","","","","","","","","","","","","","","","","","","","","","","","","","","","","SYN05833605 32997 02502 10162 20145 30020 40167 53004 555 1/016=","","","","","","","","","",""
"33605099999","2021-08-04T05:00:00","49.0833333","32.6666666","124.0","CHYHYRYN, UP","FM-12","4","","58","60","","","-0.02","2","91","","30.05","29.61","11.18","59","320","","2","","","","","","","","","","","","","","","","","","","","","","","","","","","","","","","","","","","","","","","","","","","","","","","","","","","","","","","","","","","","","","","","","","","","","","","","","","","","","","","","","","","","","","","","","","","SYN05833605 42968 03201 10158 20144 30028 40175 52008 555 1/015=","","","","","","","","","",""
"33605099999","2021-08-05T23:00:00","49.0833333","32.6666666","124.0","CHYHYRYN, UP","FM-12","4","","64","72","","","+0.05","7","77","","29.78","29.36","31.07","67","020","","2","","","","","","","","","","","","","","","","","","","","","","","","","","","","","","","","","","","","","","","","","","","","","","","","","","","","","","","","","","","","","","","","","","","","","","","","","","","","","","","","","","","","","","","","","","","SYN05833605 42999 00201 10220 20178 39942 40084 57016 555 1/021=","","","","","","","","","",""
"33605099999","2021-08-06T02:00:00","49.0833333","32.6666666","124.0","CHYHYRYN, UP","FM-12","4","","60","69","","","-0.01","3","75","","29.79","29.36","31.07","64","200","","4","","","","","","","","","","","","","","","","","","","","","","","","","","","","","","","","","","","","","","","","","","","","","","","","","","","","","","","","","","","","","","","","","","","","","","","","","","","","","","","","","","","","","","","","","","","SYN05833605 32999 02002 10203 20158 39944 40087 53002 555 1/019=","","","","","","","","","",""
"33605099999","2021-08-08T02:00:00","49.0833333","32.6666666","124.0","CHYHYRYN, UP","FM-12","4","","58","65","","","-0.01","2","81","","29.91","29.48","6.21","61","360","","7","","","","","","","","","","","","","","","","","","","","","","","","","","","","","","","","","","","","","","","","","","","","","","","","","","","","","","","","","","","","","","","","","","","","","","","","","","","","","","","","","","","","","","","","","","","SYN05833605 32997 03603 10181 20147 39982 40127 52005 555 1/015=","","","","","","","","","",""
"33605099999","2021-08-08T11:00:00","49.0833333","32.6666666","124.0","CHYHYRYN, UP","FM-12","4","","59","74","","","+0.00","8","61","","29.92","29.50","12.43","65","010","","11","","","","","","","","","","","","","","","","","","","","","","","","","","","","","","","","","","","","","","","","","","","","","","","","","","","","","","","","","","","","","","","","","","","","","","","","","","","","","","","","","","","","","","","","","","","SYN05833605 42998 00105 10231 20151 39990 40133 58001 555 1/036=","","","","","","","","","",""
"33605099999","2021-08-08T14:00:00","49.0833333","32.6666666","124.0","CHYHYRYN, UP","FM-12","4","","59","77","","","-0.01","3","54","","29.93","29.52","12.43","66","010","","11","","","","","","","","","","","","","","","","","","","","","","","","","","","","","","","","","","","","","","","","","","","","","","","","","","","","","","","","","","","","","","","","","","","","","","","","","","","","","","","","","","","","","","","","","","","SYN05833605 32998 00105 10252 20151 39995 40137 53005 555 1/044=","","","","","","","","","",""
"33605099999","2021-08-08T17:00:00","49.0833333","32.6666666","124.0","CHYHYRYN, UP","FM-12","4","","60","78","","","0.00","4","54","","29.93","29.52","12.43","67","350","","9","","","","","","","","","","","","","","","","","","","","","","","","","","","","","","","","","","","","","","","","","","","","","","","","","","","","","","","","","","","","","","","","","","","","","","","","","","","","","","","","","","","","","","","","","","","SYN05833605 42998 03504 10256 20156 39995 40137 54000 555 1/032=","","","","","","","","","",""
"33605099999","2021-08-08T23:00:00","49.0833333","32.6666666","124.0","CHYHYRYN, UP","FM-12","4","","62","69","","","-0.01","3","78","","29.98","29.55","31.07","65","320","","4","","","","","","","","","","","","","","","","","","","","","","","","","","","","","","","","","","","","","","","","","","","","","","","","","","","","","","","","","","","","","","","","","","","","","","","","","","","","","","","","","","","","","","","","","","","SYN05833605 42999 03202 10208 20169 30008 40152 53003 555 1/019=","","","","","","","","","",""
"33605099999","2021-08-09T02:00:00","49.0833333","32.6666666","124.0","CHYHYRYN, UP","FM-12","4","","62","68","","","+0.00","8","82","","29.98","29.55","31.07","64","320","","7","","","","","","","","","","","","","","","","","","","","","","","","","","","","","","","","","","","","","","","","","","","","","","","","","","","","","","","","","","","","","","","","","","","","","","","","","","","","","","","","","","","","","","","","","","","SYN05833605 32999 03203 10199 20168 30007 40151 58001 555 1/018=","","","","","","","","","",""
"33605099999","2021-08-09T05:00:00","49.0833333","32.6666666","124.0","CHYHYRYN, UP","FM-12","4","","60","65","","","+0.01","7","83","","29.96","29.54","15.53","62","320","","7","","","","","","","","","","","","","","","","","","","","","","","","","","","","","","","","","","","","","","","","","","","","","","","","","","","","","","","","","","","","","","","","","","","","","","","","","","","","","","","","","","","","","","","","","","","SYN05833605 42975 03203 10184 20155 30002 40147 57005 555 1/017=","","","","","","","","","",""
"33605099999","2021-08-09T11:00:00","49.0833333","32.6666666","124.0","CHYHYRYN, UP","FM-12","4","","64","81","","","-0.01","3","58","","29.96","29.54","12.43","70","340","","11","","","","","","","","","","","","","","","","","","","","","","","","","","","","","","","","","","","","","","","","","","","","","","","","","","","","","","","","","","","","","","","","","","","","","","","","","","","","","","","","","","","","","","","","","","","SYN05833605 42998 03405 10271 20180 30004 40145 53004 555 1/044=","","","","","","","","","",""
"33605099999","2021-08-09T14:00:00","49.0833333","32.6666666","124.0","CHYHYRYN, UP","FM-12","4","","65","85","","","+0.02","8","50","","29.94","29.52","12.43","72","330","","9","","","","","","","","","","","","","","","","","","","","","","","","","","","","","","","","","","","","","","","","","","","","","","","","","","","","","","","","","","","","","","","","","","","","","","","","","","","","","","","","","","","","","","","","","","","SYN05833605 32998 03304 10295 20181 39998 40138 58006 555 1/047=","","","","","","","","","",""
"33605099999","2021-08-09T23:00:00","49.0833333","32.6666666","124.0","CHYHYRYN, UP","FM-12","4","","62","76","","","+0.01","8","63","","29.95","29.53","31.07","67","340","","7","","","","","","","","","","","","","","","","","","","","","","","","","","","","","","","","","","","","","","","","","","","","","","","","","","","","","","","","","","","","","","","","","","","","","","","","","","","","","","","","","","","","","","","","","","","SYN05833605 42999 03403 10243 20167 30001 40143 58004 555 1/022=","","","","","","","","","",""
"33605099999","2021-08-10T02:00:00","49.0833333","32.6666666","124.0","CHYHYRYN, UP","FM-12","4","","61","72","","","+0.01","8","69","","29.94","29.52","31.07","65","320","","7","","","","","","","","","","","","","","","","","","","","","","","","","","","","","","","","","","","","","","","","","","","","","","","","","","","","","","","","","","","","","","","","","","","","","","","","","","","","","","","","","","","","","","","","","","","SYN05833605 32999 03203 10222 20163 39997 40140 58004 555 1/020=","","","","","","","","","",""
"33605099999","2021-08-10T20:00:00","49.0833333","32.6666666","124.0","CHYHYRYN, UP","FM-12","4","","63","79","","","-0.01","3","58","BKN:06 18","29.88","29.46","12.43","69","020","","7","","","","","","","","","","","","","","","","","","","","","","","","","","","","","","","","","","","","","","","","","","","","","","","","","","","","","","","","","","","","","","","","","","","","","","","","","","","","","","","","","","","","","","","","","","","SYN08633605 31498 60203 10263 20174 39977 40118 53002 71311 86302 333 10294 86918 555 1/026=","","","","","","","","","",""
"33605099999","2021-08-11T23:00:00","49.0833333","32.6666666","124.0","CHYHYRYN, UP","FM-12","4","","56","72","","","-0.01","2","56","","29.88","29.45","31.07","62","290","","4","","","","","","","","","","","","","","","","","","","","","","","","","","","","","","","","","","","","","","","","","","","","","","","","","","","","","","","","","","","","","","","","","","","","","","","","","","","","","","","","","","","","","","","","","","","SYN05833605 42999 02902 10223 20131 39974 40117 52005 555 1/020=","","","","","","","","","",""
"33605099999","2021-08-12T02:00:00","49.0833333","32.6666666","124.0","CHYHYRYN, UP","FM-12","4","","56","68","","","-0.01","2","67","","29.89","29.47","31.07","61","320","","9","","","","","","","","","","","","","","","","","","","","","","","","","","","","","","","","","","","","","","","","","","","","","","","","","","","","","","","","","","","","","","","","","","","","","","","","","","","","","","","","","","","","","","","","","","","SYN05833605 32999 03204 10199 20136 39979 40123 52005 555 1/018=","","","","","","","","","",""
"33605099999","2021-08-12T23:00:00","49.0833333","32.6666666","124.0","CHYHYRYN, UP","FM-12","4","","53","66","","","-0.03","2","64","","30.08","29.65","31.07","59","290","","7","","","","","","","","","","","","","","","","","","","","","","","","","","","","","","","","","","","","","","","","","","","","","","","","","","","","","","","","","","","","","","","","","","","","","","","","","","","","","","","","","","","","","","","","","","","SYN05833605 42999 02903 10187 20116 30041 40187 52011 555 1/017=","","","","","","","","","",""
"33605099999","2021-08-13T02:00:00","49.0833333","32.6666666","124.0","CHYHYRYN, UP","FM-12","4","","50","63","","","-0.01","2","63","","30.10","29.67","31.07","56","280","","7","","","","","","","","","","","","","","","","","","","","","","","","","","","","","","","","","","","","","","","","","","","","","","","","","","","","","","","","","","","","","","","","","","","","","","","","","","","","","","","","","","","","","","","","","","","SYN05833605 32999 02803 10173 20101 30046 40193 52005 555 1/015=","","","","","","","","","",""
"33605099999","2021-08-13T05:00:00","49.0833333","32.6666666","124.0","CHYHYRYN, UP","FM-12","4","","53","60","","","-0.04","2","78","","30.14","29.70","12.43","56","300","","7","","","","","","","","","","","","","","","","","","","","","","","","","","","","","","","","","","","","","","","","","","","","","","","","","","","","","","","","","","","","","","","","","","","","","","","","","","","","","","","","","","","","","","","","","","","SYN05833605 42998 03003 10156 20117 30058 40206 52012 555 1/014=","","","","","","","","","",""
"33605099999","2021-08-13T23:00:00","49.0833333","32.6666666","124.0","CHYHYRYN, UP","FM-12","4","","57","67","","","+0.01","8","71","","30.16","29.73","31.07","61","320","","4","","","","","","","","","","","","","","","","","","","","","","","","","","","","","","","","","","","","","","","","","","","","","","","","","","","","","","","","","","","","","","","","","","","","","","","","","","","","","","","","","","","","","","","","","","","SYN05833605 42999 03202 10194 20140 30069 40215 58002 555 1/017=","","","","","","","","","",""
"33605099999","2021-08-14T02:00:00","49.0833333","32.6666666","124.0","CHYHYRYN, UP","FM-12","4","","57","64","","","-0.02","3","79","","30.19","29.75","31.07","60","330","","4","","","","","","","","","","","","","","","","","","","","","","","","","","","","","","","","","","","","","","","","","","","","","","","","","","","","","","","","","","","","","","","","","","","","","","","","","","","","","","","","","","","","","","","","","","","SYN05833605 32999 03302 10176 20139 30075 40222 53006 555 1/015=","","","","","","","","","",""
"33605099999","2021-08-14T23:00:00","49.0833333","32.6666666","124.0","CHYHYRYN, UP","FM-12","4","","54","62","","","+0.01","8","75","","30.12","29.68","31.07","58","230","","4","","","","","","","","","","","","","","","","","","","","","","","","","","","","","","","","","","","","","","","","","","","","","","","","","","","","","","","","","","","","","","","","","","","","","","","","","","","","","","","","","","","","","","","","","","","SYN05833605 42999 02302 10165 20121 30052 40199 58003 555 1/016=","","","","","","","","","",""
"33605099999","2021-08-15T02:00:00","49.0833333","32.6666666","124.0","CHYHYRYN, UP","FM-12","4","","54","58","","","+0.01","7","88","","30.11","29.67","31.07","56","250","","4","","","","","","","","","","","","","","","","","","","","","","","","","","","","","","","","","","","","","","","","","","","","","","","","","","","","","","","","","","","","","","","","","","","","","","","","","","","","","","","","","","","","","","","","","","","SYN05833605 32999 02502 10144 20124 30047 40195 57005 555 1/014=","","","","","","","","","",""
"33605099999","2021-08-15T14:00:00","49.0833333","32.6666666","124.0","CHYHYRYN, UP","FM-12","4","","49","81","","","+0.04","7","32","","30.02","29.60","12.43","62","060","","4","","","","","","","","","","","","","","","","","","","","","","","","","","","","","","","","","","","","","","","","","","","","","","","","","","","","","","","","","","","","","","","","","","","","","","","","","","","","","","","","","","","","","","","","","","","SYN05833605 32998 00602 10273 20094 30024 40165 57012 555 1/051=","","","","","","","","","",""
"33605099999","2021-08-15T17:00:00","49.0833333","32.6666666","124.0","CHYHYRYN, UP","FM-12","4","","51","81","","","+0.03","7","35","","29.99","29.57","12.43","63","010","","4","","","","","","","","","","","","","","","","","","","","","","","","","","","","","","","","","","","","","","","","","","","","","","","","","","","","","","","","","","","","","","","","","","","","","","","","","","","","","","","","","","","","","","","","","","","SYN05833605 42998 00102 10275 20108 30014 40155 57010 555 1/036=","","","","","","","","","",""
"33605099999","2021-08-15T23:00:00","49.0833333","32.6666666","124.0","CHYHYRYN, UP","FM-12","4","","55","66","","","+0.01","8","69","","29.99","29.57","12.43","60","230","","7","","","","","","","","","","","","","","","","","","","","","","","","","","","","","","","","","","","","","","","","","","","","","","","","","","","","","","","","","","","","","","","","","","","","","","","","","","","","","","","","","","","","","","","","","","","SYN05833605 42998 02303 10187 20128 30012 40157 58004 555 1/018=","","","","","","","","","",""
"33605099999","2021-08-16T02:00:00","49.0833333","32.6666666","124.0","CHYHYRYN, UP","FM-12","4","","54","63","","","+0.00","8","71","","29.99","29.56","12.43","58","230","","7","","","","","","","","","","","","","","","","","","","","","","","","","","","","","","","","","","","","","","","","","","","","","","","","","","","","","","","","","","","","","","","","","","","","","","","","","","","","","","","","","","","","","","","","","","","SYN05833605 32998 02303 10173 20120 30011 40157 58001 555 1/017=","","","","","","","","","",""
"33605099999","2021-08-16T05:00:00","49.0833333","32.6666666","124.0","CHYHYRYN, UP","FM-12","4","","54","60","","","0.00","4","80","","30.00","29.56","12.43","57","230","","7","","","","","","","","","","","","","","","","","","","","","","","","","","","","","","","","","","","","","","","","","","","","","","","","","","","","","","","","","","","","","","","","","","","","","","","","","","","","","","","","","","","","","","","","","","","SYN05833605 42998 02303 10157 20122 30011 40158 54000 555 1/015=","","","","","","","","","",""
"33605099999","2021-08-16T14:00:00","49.0833333","32.6666666","124.0","CHYHYRYN, UP","FM-12","4","","56","86","","","+0.04","7","35","","29.95","29.54","12.43","67","230","","7","","","","","","","","","","","","","","","","","","","","","","","","","","","","","","","","","","","","","","","","","","","","","","","","","","","","","","","","","","","","","","","","","","","","","","","","","","","","","","","","","","","","","","","","","","","SYN05833605 32998 02303 10301 20132 30002 40142 57012 555 1/054=","","","","","","","","","",""
"33605099999","2021-08-16T17:00:00","49.0833333","32.6666666","124.0","CHYHYRYN, UP","FM-12","4","","60","84","","","+0.02","7","45","","29.93","29.52","12.43","69","090","","4","","","","","","","","","","","","","","","","","","","","","","","","","","","","","","","","","","","","","","","","","","","","","","","","","","","","","","","","","","","","","","","","","","","","","","","","","","","","","","","","","","","","","","","","","","","SYN05833605 42998 00902 10288 20157 39995 40135 57007 555 1/040=","","","","","","","","","",""
"33605099999","2021-08-16T23:00:00","49.0833333","32.6666666","124.0","CHYHYRYN, UP","FM-12","4","","60","68","","","+0.01","8","78","","29.95","29.52","31.07","63","220","","4","","","","","","","","","","","","","","","","","","","","","","","","","","","","","","","","","","","","","","","","","","","","","","","","","","","","","","","","","","","","","","","","","","","","","","","","","","","","","","","","","","","","","","","","","","","SYN05833605 42999 02202 10198 20158 39998 40142 58002 555 1/019=","","","","","","","","","",""
"33605099999","2021-08-17T02:00:00","49.0833333","32.6666666","124.0","CHYHYRYN, UP","FM-12","4","","58","65","","","+0.01","7","79","","29.94","29.51","31.07","61","220","","4","","","","","","","","","","","","","","","","","","","","","","","","","","","","","","","","","","","","","","","","","","","","","","","","","","","","","","","","","","","","","","","","","","","","","","","","","","","","","","","","","","","","","","","","","","","SYN05833605 32999 02202 10184 20146 39993 40138 57005 555 1/017=","","","","","","","","","",""
"33605099999","2021-08-17T11:00:00","49.0833333","32.6666666","124.0","CHYHYRYN, UP","FM-12","4","","59","86","","","0.00","4","40","","29.93","29.52","12.43","69","200","","7","","","","","","","","","","","","","","","","","","","","","","","","","","","","","","","","","","","","","","","","","","","","","","","","","","","","","","","","","","","","","","","","","","","","","","","","","","","","","","","","","","","","","","","","","","","SYN05833605 42998 02003 10299 20149 39995 40135 54000 555 1/054=","","","","","","","","","",""
"33605099999","2021-08-17T23:00:00","49.0833333","32.6666666","124.0","CHYHYRYN, UP","FM-12","4","","62","74","","","-0.01","3","66","","29.88","29.46","12.43","66","210","","7","","","","","","","","","","","","","","","","","","","","","","","","","","","","","","","","","","","","","","","","","","","","","","","","","","","","","","","","","","","","","","","","","","","","","","","","","","","","","","","","","","","","","","","","","","","SYN05833605 42998 02103 10234 20167 39977 40119 53003 555 1/021=","","","","","","","","","",""
"33605099999","2021-08-18T02:00:00","49.0833333","32.6666666","124.0","CHYHYRYN, UP","FM-12","4","","63","70","","","+0.02","8","79","","29.86","29.44","12.43","66","220","","7","","","","","","","","","","","","","","","","","","","","","","","","","","","","","","","","","","","","","","","","","","","","","","","","","","","","","","","","","","","","","","","","","","","","","","","","","","","","","","","","","","","","","","","","","","","SYN05833605 32998 02203 10213 20174 39969 40112 58008 555 1/020=","","","","","","","","","",""
"33605099999","2021-08-20T23:00:00","49.0833333","32.6666666","124.0","CHYHYRYN, UP","FM-12","4","","56","70","","","-0.01","3","60","","29.88","29.46","31.07","62","010","","9","","","","","","","","","","","","","","","","","","","","","","","","","","","","","","","","","","","","","","","","","","","","","","","","","","","","","","","","","","","","","","","","","","","","","","","","","","","","","","","","","","","","","","","","","","","SYN05833605 42999 00104 10213 20131 39975 40118 53002 555 1/018=","","","","","","","","","",""
"33605099999","2021-08-21T02:00:00","49.0833333","32.6666666","124.0","CHYHYRYN, UP","FM-12","4","","58","66","","","-0.01","3","75","","29.89","29.47","31.07","61","340","","7","","","","","","","","","","","","","","","","","","","","","","","","","","","","","","","","","","","","","","","","","","","","","","","","","","","","","","","","","","","","","","","","","","","","","","","","","","","","","","","","","","","","","","","","","","","SYN05833605 32999 03403 10190 20144 39978 40123 53003 555 1/018=","","","","","","","","","",""
"33605099999","2021-08-21T23:00:00","49.0833333","32.6666666","124.0","CHYHYRYN, UP","FM-12","4","","54","62","","","-0.01","3","75","","30.01","29.57","31.07","57","260","","4","","","","","","","","","","","","","","","","","","","","","","","","","","","","","","","","","","","","","","","","","","","","","","","","","","","","","","","","","","","","","","","","","","","","","","","","","","","","","","","","","","","","","","","","","","","SYN05833605 42999 02602 10164 20120 30014 40161 53004 555 1/016=","","","","","","","","","",""
"33605099999","2021-08-22T02:00:00","49.0833333","32.6666666","124.0","CHYHYRYN, UP","FM-12","4","","53","61","","","-0.01","3","76","","30.01","29.58","31.07","57","270","","7","","","","","","","","","","","","","","","","","","","","","","","","","","","","","","","","","","","","","","","","","","","","","","","","","","","","","","","","","","","","","","","","","","","","","","","","","","","","","","","","","","","","","","","","","","","SYN05833605 32999 02703 10161 20119 30017 40164 53003 555 1/014=","","","","","","","","","",""
"33605099999","2021-08-23T02:00:00","49.0833333","32.6666666","124.0","CHYHYRYN, UP","FM-12","4","","50","53","","","-0.02","2","88","","30.14","29.69","31.07","51","230","","7","","","","","","","","","","","","","","","","","","","","","","","","","","","","","","","","","","","","","","","","","","","","","","","","","","","","","","","","","","","","","","","","","","","","","","","","","","","","","","","","","","","","","","","","","","","SYN05833605 32999 02303 10118 20098 30055 40205 52008 555 1/012=","","","","","","","","","",""
"33605099999","2021-08-24T11:00:00","49.0833333","32.6666666","124.0","CHYHYRYN, UP","FM-12","4","","49","78","","","+0.01","8","37","","30.06","29.65","12.43","61","040","","7","","","","","","","","","","","","","","","","","","","","","","","","","","","","","","","","","","","","","","","","","","","","","","","","","","","","","","","","","","","","","","","","","","","","","","","","","","","","","","","","","","","","","","","","","","","SYN05833605 42998 00403 10255 20097 30039 40181 58004 555 1/046=","","","","","","","","","",""
"33605099999","2021-08-24T14:00:00","49.0833333","32.6666666","124.0","CHYHYRYN, UP","FM-12","4","","49","80","","","+0.03","7","33","","30.03","29.62","12.43","62","050","","7","","","","","","","","","","","","","","","","","","","","","","","","","","","","","","","","","","","","","","","","","","","","","","","","","","","","","","","","","","","","","","","","","","","","","","","","","","","","","","","","","","","","","","","","","","","SYN05833605 32998 00503 10268 20094 30029 40171 57010 555 1/047=","","","","","","","","","",""
"33605099999","2021-08-24T17:00:00","49.0833333","32.6666666","124.0","CHYHYRYN, UP","FM-12","4","","51","77","","","+0.04","7","41","","29.99","29.57","12.43","62","080","","7","","","","","","","","","","","","","","","","","","","","","","","","","","","","","","","","","","","","","","","","","","","","","","","","","","","","","","","","","","","","","","","","","","","","","","","","","","","","","","","","","","","","","","","","","","","SYN05833605 42998 00803 10250 20107 30014 40156 57015 555 1/033=","","","","","","","","","",""
"33605099999","2021-08-24T23:00:00","49.0833333","32.6666666","124.0","CHYHYRYN, UP","FM-12","4","","50","58","","","+0.01","8","74","","30.01","29.57","12.43","54","220","","4","","","","","","","","","","","","","","","","","","","","","","","","","","","","","","","","","","","","","","","","","","","","","","","","","","","","","","","","","","","","","","","","","","","","","","","","","","","","","","","","","","","","","","","","","","","SYN05833605 42998 02202 10145 20099 30014 40162 58005 555 1/015=","","","","","","","","","",""
"33605099999","2021-08-27T08:00:00","49.0833333","32.6666666","124.0","CHYHYRYN, UP","FM-12","4","","62","64","","","-0.03","2","92","OVC:08 21","29.86","29.43","2.67","63","340","","4","","","","","","","","","","","","","","","","","","","","","","","","","","","","","","","","","","","","","","","","","","","","","","","","","","","","","","","","","","","","","","","","","","","","","","","","","","","","","","","","","","","","","","","","","","","SYN08633605 31543 83402 10180 20167 39967 40112 52011 71082 883// 333 20170 88921 555 12021=","","","","","","","","","",""
"33605099999","2021-08-29T23:00:00","49.0833333","32.6666666","124.0","CHYHYRYN, UP","FM-12","4","","62","76","","","+0.02","8","63","","29.77","29.36","12.43","67","140","","4","","","","","","","","","","","","","","","","","","","","","","","","","","","","","","","","","","","","","","","","","","","","","","","","","","","","","","","","","","","","","","","","","","","","","","","","","","","","","","","","","","","","","","","","","","","SYN05833605 42998 01402 10243 20167 39941 40082 58006 555 1/020=","","","","","","","","","",""
"33605099999","2021-08-31T08:00:00","49.0833333","32.6666666","124.0","CHYHYRYN, UP","FM-12","4","","61","64","","","-0.03","2","90","OVC:08 19","29.80","29.37","2.05","62","270","","7","","","","","","","","","","","","","","","","","","","","","","","","","","","","","","","","","","","","","","","","","","","","","","","","","","","","","","","","","","","","","","","","","","","","","","","","","","","","","","","","","","","","","","","","","","","SYN08633605 31433 82703 10178 20161 39946 40091 52009 71022 883// 333 20178 88919 555 10022=","","","","","","","","","",""
"33605099999","2021-08-31T23:00:00","49.0833333","32.6666666","124.0","CHYHYRYN, UP","FM-12","4","","53","60","","","-0.00","3","80","","29.87","29.44","6.21","56","240","","7","","","","","","","","","","","","","","","","","","","","","","","","","","","","","","","","","","","","","","","","","","","","","","","","","","","","","","","","","","","","","","","","","","","","","","","","","","","","","","","","","","","","","","","","","","","SYN05833605 42997 02403 10153 20118 39969 40115 53001 555 1/016=","","","","","","","","","",""
"33605099999","2021-09-01T02:00:00","49.0833333","32.6666666","124.0","CHYHYRYN, UP","FM-12","4","","53","57","","","0.00","4","88","","29.87","29.44","6.21","55","230","","7","","","","","","","","","","","","","","","","","","","","","","","","","","","","","","","","","","","","","","","","","","","","","","","","","","","","","","","","","","","","","","","","","","","","","","","","","","","","","","","","","","","","","","","","","","","SYN05833605 32997 02303 10137 20117 39969 40116 54000 555 1/013=","","","","","","","","","",""
"33605099999","2021-09-02T20:00:00","49.0833333","32.6666666","124.0","CHYHYRYN, UP","FM-12","4","","41","58","","","-0.06","2","53","BKN:06 18","29.90","29.46","31.07","50","350","","13","","","","","","","","","","","","","","","","","","","","","","","","","","","","","","","","","","","","","","","","","","","","","","","","","","","","","","","","","","","","","","","","","","","","","","","","","","","","","","","","","","","","","","","","","","","SYN08633605 12499 63506 10144 20050 39977 40124 52022 69902 86300 333 10191 86918 555 1/014=","","","","","","","","","",""
"33605099999","2021-09-04T02:00:00","49.0833333","32.6666666","124.0","CHYHYRYN, UP","FM-12","4","","46","53","","","+0.03","7","75","","29.90","29.46","31.07","49","240","","7","","","","","","","","","","","","","","","","","","","","","","","","","","","","","","","","","","","","","","","","","","","","","","","","","","","","","","","","","","","","","","","","","","","","","","","","","","","","","","","","","","","","","","","","","","","SYN05833605 32999 02403 10119 20076 39977 40125 57010 555 1/010=","","","","","","","","","",""
"33605099999","2021-09-04T23:00:00","49.0833333","32.6666666","124.0","CHYHYRYN, UP","FM-12","4","","38","46","","","-0.04","2","72","","30.08","29.63","12.43","42","290","","2","","","","","","","","","","","","","","","","","","","","","","","","","","","","","","","","","","","","","","","","","","","","","","","","","","","","","","","","","","","","","","","","","","","","","","","","","","","","","","","","","","","","","","","","","","","SYN05833605 42998 02901 10080 20033 30035 40187 52012 555 1/007=","","","","","","","","","",""
"33605099999","2021-09-05T02:00:00","49.0833333","32.6666666","124.0","CHYHYRYN, UP","FM-12","4","","37","43","","","-0.02","2","82","","30.10","29.65","6.21","40","230","","7","","","","","","","","","","","","","","","","","","","","","","","","","","","","","","","","","","","","","","","","","","","","","","","","","","","","","","","","","","","","","","","","","","","","","","","","","","","","","","","","","","","","","","","","","","","SYN05833605 32997 02303 10059 20030 30041 40194 52006 555 1/006=","","","","","","","","","",""
"33605099999","2021-09-05T23:00:00","49.0833333","32.6666666","124.0","CHYHYRYN, UP","FM-12","4","","39","51","","","-0.04","2","63","","30.29","29.85","12.43","45","310","","4","","","","","","","","","","","","","","","","","","","","","","","","","","","","","","","","","","","","","","","","","","","","","","","","","","","","","","","","","","","","","","","","","","","","","","","","","","","","","","","","","","","","","","","","","","","SYN05833605 42998 03102 10106 20038 30107 40258 52012 555 1/008=","","","","","","","","","",""
"33605099999","2021-09-06T02:00:00","49.0833333","32.6666666","124.0","CHYHYRYN, UP","FM-12","4","","40","47","","","-0.00","3","77","","30.30","29.85","12.43","44","320","","4","","","","","","","","","","","","","","","","","","","","","","","","","","","","","","","","","","","","","","","","","","","","","","","","","","","","","","","","","","","","","","","","","","","","","","","","","","","","","","","","","","","","","","","","","","","SYN05833605 32998 03202 10084 20045 30108 40260 53001 555 1/006=","","","","","","","","","",""
"33605099999","2021-09-06T05:00:00","49.0833333","32.6666666","124.0","CHYHYRYN, UP","FM-12","4","","40","44","","","-0.02","2","85","","30.32","29.87","12.43","42","290","","2","","","","","","","","","","","","","","","","","","","","","","","","","","","","","","","","","","","","","","","","","","","","","","","","","","","","","","","","","","","","","","","","","","","","","","","","","","","","","","","","","","","","","","","","","","","SYN05833605 42998 02901 10069 20046 30114 40267 52006 555 1/005=","","","","","","","","","",""
"33605099999","2021-09-06T08:00:00","49.0833333","32.6666666","124.0","CHYHYRYN, UP","FM-12","4","","42","51","","","-0.04","2","72","FEW:01 41","30.35","29.90","12.43","47","330","","2","","","","","","","","","","","","","","","","","","","","","","","","","","","","","","","","","","","","","","","","","","","","","","","","","","","","","","","","","","","","","","","","","","","","","","","","","","","","","","","","","","","","","","","","","","","SYN08633605 32698 53301 10104 20056 30126 40278 52012 81101 333 20048 555 10005 30005 52004=","","","","","","","","","",""
"33605099999","2021-09-07T02:00:00","49.0833333","32.6666666","124.0","CHYHYRYN, UP","FM-12","4","","34","39","","","-0.01","3","82","","30.42","29.96","12.43","37","230","","7","","","","","","","","","","","","","","","","","","","","","","","","","","","","","","","","","","","","","","","","","","","","","","","","","","","","","","","","","","","","","","","","","","","","","","","","","","","","","","","","","","","","","","","","","","","SYN05833605 32998 02303 10039 20010 30144 40300 53003 555 1/004=","","","","","","","","","",""
"33605099999","2021-09-07T08:00:00","49.0833333","32.6666666","124.0","CHYHYRYN, UP","FM-12","4","","41","49","","","-0.02","2","73","FEW:02","30.44","29.99","13.05","45","230","","2","","","","","","","","","","","","","","","","","","","","","","","","","","","","","","","","","","","","","","","","","","","","","","","","","","","","","","","","","","","","","","","","","","","","","","","","","","","","","","","","","","","","","","","","","","","SYN08633605 32971 22301 10095 20048 30156 40309 52008 82030 333 20030 555 10012 30003 52002=","","","","","","","","","",""
"33605099999","2021-09-07T17:00:00","49.0833333","32.6666666","124.0","CHYHYRYN, UP","FM-12","4","","36","62","","","+0.03","7","38","","30.39","29.95","12.43","50","090","","4","","","","","","","","","","","","","","","","","","","","","","","","","","","","","","","","","","","","","","","","","","","","","","","","","","","","","","","","","","","","","","","","","","","","","","","","","","","","","","","","","","","","","","","","","","","SYN05833605 42998 00902 10169 20025 30141 40290 57011 555 1/023=","","","","","","","","","",""
"33605099999","2021-09-07T23:00:00","49.0833333","32.6666666","124.0","CHYHYRYN, UP","FM-12","4","","39","45","","","-0.00","3","80","","30.41","29.96","31.07","42","230","","4","","","","","","","","","","","","","","","","","","","","","","","","","","","","","","","","","","","","","","","","","","","","","","","","","","","","","","","","","","","","","","","","","","","","","","","","","","","","","","","","","","","","","","","","","","","SYN05833605 42999 02302 10074 20041 30144 40298 53001 555 1/007=","","","","","","","","","",""
"33605099999","2021-09-08T02:00:00","49.0833333","32.6666666","124.0","CHYHYRYN, UP","FM-12","4","","38","45","","","+0.01","8","76","","30.40","29.94","12.43","42","230","","4","","","","","","","","","","","","","","","","","","","","","","","","","","","","","","","","","","","","","","","","","","","","","","","","","","","","","","","","","","","","","","","","","","","","","","","","","","","","","","","","","","","","","","","","","","","SYN05833605 32998 02302 10073 20033 30140 40294 58004 555 1/005=","","","","","","","","","",""
"33605099999","2021-09-08T08:00:00","49.0833333","32.6666666","124.0","CHYHYRYN, UP","FM-12","4","","40","56","","","-0.01","3","55","","30.39","29.95","12.43","48","230","","7","","","","","","","","","","","","","","","","","","","","","","","","","","","","","","","","","","","","","","","","","","","","","","","","","","","","","","","","","","","","","","","","","","","","","","","","","","","","","","","","","","","","","","","","","","","SYN08633605 32998 22303 10133 20043 30141 40291 53002 80001 333 20062 555 10019 30004 52004=","","","","","","","","","",""
"33605099999","2021-09-08T17:00:00","49.0833333","32.6666666","124.0","CHYHYRYN, UP","FM-12","4","","43","67","","","+0.03","7","43","","30.29","29.85","12.43","54","090","","4","","","","","","","","","","","","","","","","","","","","","","","","","","","","","","","","","","","","","","","","","","","","","","","","","","","","","","","","","","","","","","","","","","","","","","","","","","","","","","","","","","","","","","","","","","","SYN05833605 42998 00902 10193 20062 30110 40257 57011 555 1/026=","","","","","","","","","",""
"33605099999","2021-09-08T23:00:00","49.0833333","32.6666666","124.0","CHYHYRYN, UP","FM-12","4","","42","52","","","+0.01","8","68","","30.28","29.84","12.43","47","230","","7","","","","","","","","","","","","","","","","","","","","","","","","","","","","","","","","","","","","","","","","","","","","","","","","","","","","","","","","","","","","","","","","","","","","","","","","","","","","","","","","","","","","","","","","","","","SYN05833605 42998 02303 10111 20054 30104 40255 58002 555 1/009=","","","","","","","","","",""
"33605099999","2021-09-09T02:00:00","49.0833333","32.6666666","124.0","CHYHYRYN, UP","FM-12","4","","41","51","","","+0.00","8","71","","30.28","29.83","6.21","46","230","","7","","","","","","","","","","","","","","","","","","","","","","","","","","","","","","","","","","","","","","","","","","","","","","","","","","","","","","","","","","","","","","","","","","","","","","","","","","","","","","","","","","","","","","","","","","","SYN05833605 32997 02303 10103 20052 30103 40254 58001 555 1/008=","","","","","","","","","",""
"33605099999","2021-09-09T05:00:00","49.0833333","32.6666666","124.0","CHYHYRYN, UP","FM-12","4","","41","51","","","+0.01","7","68","","30.27","29.82","12.43","46","220","","9","","","","","","","","","","","","","","","","","","","","","","","","","","","","","","","","","","","","","","","","","","","","","","","","","","","","","","","","","","","","","","","","","","","","","","","","","","","","","","","","","","","","","","","","","","","SYN05833605 42998 02204 10108 20051 30098 40249 57005 555 1/008=","","","","","","","","","",""
"33605099999","2021-09-09T14:00:00","49.0833333","32.6666666","124.0","CHYHYRYN, UP","FM-12","4","","51","74","","","+0.04","7","45","","30.19","29.77","12.43","61","030","","7","","","","","","","","","","","","","","","","","","","","","","","","","","","","","","","","","","","","","","","","","","","","","","","","","","","","","","","","","","","","","","","","","","","","","","","","","","","","","","","","","","","","","","","","","","","SYN05833605 32998 00303 10235 20107 30081 40225 57014 555 1/045=","","","","","","","","","",""
"33605099999","2021-09-09T17:00:00","49.0833333","32.6666666","124.0","CHYHYRYN, UP","FM-12","4","","51","74","","","+0.04","7","46","","30.16","29.73","12.43","61","100","","2","","","","","","","","","","","","","","","","","","","","","","","","","","","","","","","","","","","","","","","","","","","","","","","","","","","","","","","","","","","","","","","","","","","","","","","","","","","","","","","","","","","","","","","","","","","SYN05833605 42998 01001 10231 20108 30069 40213 57012 555 1/023=","","","","","","","","","",""
"33605099999","2021-09-09T23:00:00","49.0833333","32.6666666","124.0","CHYHYRYN, UP","FM-12","4","","50","56","","","0.00","4","81","","30.16","29.72","12.43","53","230","","7","","","","","","","","","","","","","","","","","","","","","","","","","","","","","","","","","","","","","","","","","","","","","","","","","","","","","","","","","","","","","","","","","","","","","","","","","","","","","","","","","","","","","","","","","","","SYN05833605 42998 02303 10133 20100 30066 40215 54000 555 1/012=","","","","","","","","","",""
"33605099999","2021-09-10T02:00:00","49.0833333","32.6666666","124.0","CHYHYRYN, UP","FM-12","4","","48","52","","","+0.02","8","88","","30.15","29.71","6.21","50","230","","4","","","","","","","","","","","","","","","","","","","","","","","","","","","","","","","","","","","","","","","","","","","","","","","","","","","","","","","","","","","","","","","","","","","","","","","","","","","","","","","","","","","","","","","","","","","SYN05833605 32997 02302 10110 20090 30060 40210 58006 555 1/011=","","","","","","","","","",""
"33605099999","2021-09-10T05:00:00","49.0833333","32.6666666","124.0","CHYHYRYN, UP","FM-12","4","","48","50","","","+0.01","8","91","","30.14","29.70","6.21","49","230","","4","","","","","","","","","","","","","","","","","","","","","","","","","","","","","","","","","","","","","","","","","","","","","","","","","","","","","","","","","","","","","","","","","","","","","","","","","","","","","","","","","","","","","","","","","","","SYN05833605 42997 02302 10101 20087 30057 40208 58003 555 1/009=","","","","","","","","","",""
"33605099999","2021-09-10T11:00:00","49.0833333","32.6666666","124.0","CHYHYRYN, UP","FM-12","4","","50","74","","","+0.01","8","43","","30.12","29.70","12.43","60","050","","4","","","","","","","","","","","","","","","","","","","","","","","","","","","","","","","","","","","","","","","","","","","","","","","","","","","","","","","","","","","","","","","","","","","","","","","","","","","","","","","","","","","","","","","","","","","SYN05833605 42998 00502 10234 20101 30057 40201 58002 555 1/045=","","","","","","","","","",""
"33605099999","2021-09-10T17:00:00","49.0833333","32.6666666","124.0","CHYHYRYN, UP","FM-12","4","","52","76","","","+0.03","7","43","","30.04","29.62","12.43","62","020","","4","","","","","","","","","","","","","","","","","","","","","","","","","","","","","","","","","","","","","","","","","","","","","","","","","","","","","","","","","","","","","","","","","","","","","","","","","","","","","","","","","","","","","","","","","","","SYN05833605 42998 00202 10244 20110 30030 40173 57011 555 1/028=","","","","","","","","","",""
"33605099999","2021-09-10T23:00:00","49.0833333","32.6666666","124.0","CHYHYRYN, UP","FM-12","4","","52","65","","","-0.01","3","63","","30.06","29.63","12.43","58","320","","4","","","","","","","","","","","","","","","","","","","","","","","","","","","","","","","","","","","","","","","","","","","","","","","","","","","","","","","","","","","","","","","","","","","","","","","","","","","","","","","","","","","","","","","","","","","SYN05833605 42998 03202 10182 20110 30034 40180 53002 555 1/015=","","","","","","","","","",""
"33605099999","2021-09-11T02:00:00","49.0833333","32.6666666","124.0","CHYHYRYN, UP","FM-12","4","","52","61","","","+0.01","8","74","","30.05","29.62","12.43","56","300","","2","","","","","","","","","","","","","","","","","","","","","","","","","","","","","","","","","","","","","","","","","","","","","","","","","","","","","","","","","","","","","","","","","","","","","","","","","","","","","","","","","","","","","","","","","","","SYN05833605 32998 03001 10159 20113 30030 40177 58004 555 1/012=","","","","","","","","","",""
"33605099999","2021-09-11T05:00:00","49.0833333","32.6666666","124.0","CHYHYRYN, UP","FM-12","4","","49","52","","","-0.00","3","88","","30.06","29.62","6.21","50","300","","2","","","","","","","","","","","","","","","","","","","","","","","","","","","","","","","","","","","","","","","","","","","","","","","","","","","","","","","","","","","","","","","","","","","","","","","","","","","","","","","","","","","","","","","","","","","SYN05833605 42997 03001 10112 20092 30031 40181 53001 555 1/010=","","","","","","","","","",""
"33605099999","2021-09-11T23:00:00","49.0833333","32.6666666","124.0","CHYHYRYN, UP","FM-12","4","","50","57","","","+0.01","8","77","","30.00","29.56","12.43","53","240","","4","","","","","","","","","","","","","","","","","","","","","","","","","","","","","","","","","","","","","","","","","","","","","","","","","","","","","","","","","","","","","","","","","","","","","","","","","","","","","","","","","","","","","","","","","","","SYN05833605 42998 02402 10141 20101 30011 40159 58002 555 1/014=","","","","","","","","","",""
"33605099999","2021-09-12T02:00:00","49.0833333","32.6666666","124.0","CHYHYRYN, UP","FM-12","4","","49","53","","","+0.02","7","88","","29.98","29.54","12.43","51","290","","2","","","","","","","","","","","","","","","","","","","","","","","","","","","","","","","","","","","","","","","","","","","","","","","","","","","","","","","","","","","","","","","","","","","","","","","","","","","","","","","","","","","","","","","","","","","SYN05833605 32998 02901 10117 20097 30005 40154 57006 555 1/011=","","","","","","","","","",""
"33605099999","2021-09-12T05:00:00","49.0833333","32.6666666","124.0","CHYHYRYN, UP","FM-12","4","","48","51","","","+0.00","8","89","","29.98","29.54","6.21","49","220","","4","","","","","","","","","","","","","","","","","","","","","","","","","","","","","","","","","","","","","","","","","","","","","","","","","","","","","","","","","","","","","","","","","","","","","","","","","","","","","","","","","","","","","","","","","","","SYN05833605 42997 02202 10105 20087 30004 40154 58001 555 1/010=","","","","","","","","","",""
"33605099999","2021-09-13T11:00:00","49.0833333","32.6666666","124.0","CHYHYRYN, UP","FM-12","4","","50","77","","","+0.00","8","38","","29.91","29.49","12.43","61","310","","4","","","","","","","","","","","","","","","","","","","","","","","","","","","","","","","","","","","","","","","","","","","","","","","","","","","","","","","","","","","","","","","","","","","","","","","","","","","","","","","","","","","","","","","","","","","SYN05833605 42998 03102 10250 20098 39986 40128 58001 555 1/043=","","","","","","","","","",""
"33605099999","2021-09-13T23:00:00","49.0833333","32.6666666","124.0","CHYHYRYN, UP","FM-12","4","","52","59","","","-0.01","3","78","","29.92","29.49","12.43","55","220","","7","","","","","","","","","","","","","","","","","","","","","","","","","","","","","","","","","","","","","","","","","","","","","","","","","","","","","","","","","","","","","","","","","","","","","","","","","","","","","","","","","","","","","","","","","","","SYN05833605 42998 02203 10152 20113 39985 40132 53003 555 1/014=","","","","","","","","","",""
"33605099999","2021-09-14T17:00:00","49.0833333","32.6666666","124.0","CHYHYRYN, UP","FM-12","4","","46","74","","","+0.01","8","37","","29.96","29.54","12.43","59","340","","9","","","","","","","","","","","","","","","","","","","","","","","","","","","","","","","","","","","","","","","","","","","","","","","","","","","","","","","","","","","","","","","","","","","","","","","","","","","","","","","","","","","","","","","","","","","SYN05833605 42998 03404 10231 20077 30002 40145 58002 555 1/025=","","","","","","","","","",""
"33605099999","2021-09-15T02:00:00","49.0833333","32.6666666","124.0","CHYHYRYN, UP","FM-12","4","","51","58","","","-0.01","2","78","","30.06","29.62","31.07","54","360","","7","","","","","","","","","","","","","","","","","","","","","","","","","","","","","","","","","","","","","","","","","","","","","","","","","","","","","","","","","","","","","","","","","","","","","","","","","","","","","","","","","","","","","","","","","","","SYN05833605 32999 03603 10146 20108 30032 40180 52005 555 1/013=","","","","","","","","","",""
"33605099999","2021-09-16T08:00:00","49.0833333","32.6666666","124.0","CHYHYRYN, UP","FM-12","4","","46","55","","","-0.01","2","71","SCT:03 26","30.11","29.67","12.43","50","270","","2","","","","","","","","","","","","","","","","","","","","","","","","","","","","","","","","","","","","","","","","","","","","","","","","","","","","","","","","","","","","","","","","","","","","","","","","","","","","","","","","","","","","","","","","","","","SYN08633605 32598 62701 10127 20076 30046 40195 52005 83550 333 20054 555 10017 30005 52005=","","","","","","","","","",""
"33605099999","2021-09-17T02:00:00","49.0833333","32.6666666","124.0","CHYHYRYN, UP","FM-12","4","","42","50","","","+0.02","7","73","","30.06","29.62","6.21","46","230","","7","","","","","","","","","","","","","","","","","","","","","","","","","","","","","","","","","","","","","","","","","","","","","","","","","","","","","","","","","","","","","","","","","","","","","","","","","","","","","","","","","","","","","","","","","","","SYN05833605 32997 02303 10101 20055 30031 40181 57006 555 1/008=","","","","","","","","","",""
"33605099999","2021-09-20T08:00:00","49.0833333","32.6666666","124.0","CHYHYRYN, UP","FM-12","4","","44","49","","","-0.03","3","83","BKN:07 21","29.80","29.36","12.43","47","230","","9","","","","","","","","","","","","","","","","","","","","","","","","","","","","","","","","","","","","","","","","","","","","","","","","","","","","","","","","","","","","","","","","","","","","","","","","","","","","","","","","","","","","","","","","","","","SYN08633605 12598 72304 10093 20065 39944 40093 53009 69902 87300 333 20076 87921 555 11011=","","","","","","","","","",""
"33605099999","2021-09-23T20:00:00","49.0833333","32.6666666","124.0","CHYHYRYN, UP","FM-12","4","","44","48","","","0.00","4","84","OVC:08 17","29.95","29.50","12.43","46","280","","4","","","","","","","","","","","","","","","","","","","","","","","","","","","","","","","","","","","","","","","","","","","","","","","","","","","","","","","","","","","","","","","","","","","","","","","","","","","","","","","","","","","","","","","","","","","SYN08633605 31498 82802 10090 20064 39991 40141 54000 70282 883// 333 10114 88917 555 1/009=","","","","","","","","","",""
"33605099999","2021-09-24T08:00:00","49.0833333","32.6666666","124.0","CHYHYRYN, UP","FM-12","4","","42","48","","","+0.05","7","80","BKN:05 16","29.78","29.33","18.02","45","200","","9","","","","","","","","","","","","","","","","","","","","","","","","","","","","","","","","","","","","","","","","","","","","","","","","","","","","","","","","","","","","","","","","","","","","","","","","","","","","","","","","","","","","","","","","","","","SYN09233605 32479 82004 10087 20054 39933 40083 57017 8537/ 333 20057 85916 555 11008 31004 52004=","","","","","","","","","",""
"33605099999","2021-09-27T02:00:00","49.0833333","32.6666666","124.0","CHYHYRYN, UP","FM-12","4","","43","48","","","-0.01","3","83","","30.13","29.68","6.21","46","320","","7","","","","","","","","","","","","","","","","","","","","","","","","","","","","","","","","","","","","","","","","","","","","","","","","","","","","","","","","","","","","","","","","","","","","","","","","","","","","","","","","","","","","","","","","","","","SYN05833605 32997 03203 10091 20063 30052 40203 53002 555 1/006=","","","","","","","","","",""
"33605099999","2021-09-27T08:00:00","49.0833333","32.6666666","124.0","CHYHYRYN, UP","FM-12","4","","44","49","","","-0.01","2","84","BKN:06 21","30.16","29.72","14.91","47","020","","7","","","","","","","","","","","","","","","","","","","","","","","","","","","","","","","","","","","","","","","","","","","","","","","","","","","","","","","","","","","","","","","","","","","","","","","","","","","","","","","","","","","","","","","","","","","SYN09233605 32574 60203 10095 20069 30064 40215 52005 86300 333 20076 86921 555 11011 31005 52005=","","","","","","","","","",""
"33605099999","2021-09-30T23:00:00","49.0833333","32.6666666","124.0","CHYHYRYN, UP","FM-12","4","","36","40","","","-0.02","2","87","","30.50","30.03","6.21","38","150","","2","","","","","","","","","","","","","","","","","","","","","","","","","","","","","","","","","","","","","","","","","","","","","","","","","","","","","","","","","","","","","","","","","","","","","","","","","","","","","","","","","","","","","","","","","","","SYN05833605 42997 01501 10044 20024 30171 40327 52007 555 1/004=","","","","","","","","","",""
"33605099999","2021-10-01T02:00:00","49.0833333","32.6666666","124.0","CHYHYRYN, UP","FM-12","4","","33","36","","","-0.02","2","91","","30.52","30.05","6.21","35","280","","2","","","","","","","","","","","","","","","","","","","","","","","","","","","","","","","","","","","","","","","","","","","","","","","","","","","","","","","","","","","","","","","","","","","","","","","","","","","","","","","","","","","","","","","","","","","SYN05833605 32997 02801 10021 20008 30177 40334 52006 555 1/003=","","","","","","","","","",""
"33605099999","2021-10-01T11:00:00","49.0833333","32.6666666","124.0","CHYHYRYN, UP","FM-12","4","","36","57","","","+0.01","8","46","","30.51","30.07","12.43","47","070","","7","","","","","","","","","","","","","","","","","","","","","","","","","","","","","","","","","","","","","","","","","","","","","","","","","","","","","","","","","","","","","","","","","","","","","","","","","","","","","","","","","","","","","","","","","","","SYN05833605 42998 00703 10137 20022 30182 40333 58005 555 1/027=","","","","","","","","","",""
"33605099999","2021-10-01T14:00:00","49.0833333","32.6666666","124.0","CHYHYRYN, UP","FM-12","4","","33","59","","","+0.03","7","38","","30.48","30.04","12.43","47","070","","7","","","","","","","","","","","","","","","","","","","","","","","","","","","","","","","","","","","","","","","","","","","","","","","","","","","","","","","","","","","","","","","","","","","","","","","","","","","","","","","","","","","","","","","","","","","SYN05833605 32998 00703 10148 20007 30172 40322 57010 555 1/026=","","","","","","","","","",""
"33605099999","2021-10-01T17:00:00","49.0833333","32.6666666","124.0","CHYHYRYN, UP","FM-12","4","","38","57","","","+0.01","7","50","","30.47","30.02","12.43","48","040","","2","","","","","","","","","","","","","","","","","","","","","","","","","","","","","","","","","","","","","","","","","","","","","","","","","","","","","","","","","","","","","","","","","","","","","","","","","","","","","","","","","","","","","","","","","","","SYN05833605 42998 00401 10137 20034 30167 40318 57005 555 1/013=","","","","","","","","","",""
"33605099999","2021-10-01T23:00:00","49.0833333","32.6666666","124.0","CHYHYRYN, UP","FM-12","4","","37","40","","","+0.01","8","89","","30.47","30.01","6.21","39","220","","2","","","","","","","","","","","","","","","","","","","","","","","","","","","","","","","","","","","","","","","","","","","","","","","","","","","","","","","","","","","","","","","","","","","","","","","","","","","","","","","","","","","","","","","","","","","SYN05833605 42997 02201 10047 20030 30162 40317 58005 555 1/003=","","","","","","","","","",""
"33605099999","2021-10-02T08:00:00","49.0833333","32.6666666","124.0","CHYHYRYN, UP","FM-12","4","","38","46","","","-0.01","3","73","","30.46","30.01","5.59","42","070","","2","","","","","","","","","","","","","","","","","","","","","","","","","","","","","","","","","","","","","","","","","","","","","","","","","","","","","","","","","","","","","","","","","","","","","","","","","","","","","","","","","","","","","","","","","","","SYN08633605 31959 00701 10079 20034 30161 40315 53002 71000 333 20012 555 11013 31000 52000=","","","","","","","","","",""
"33605099999","2021-10-02T11:00:00","49.0833333","32.6666666","124.0","CHYHYRYN, UP","FM-12","4","","35","56","","","+0.01","8","45","","30.44","29.99","12.43","46","060","","7","","","","","","","","","","","","","","","","","","","","","","","","","","","","","","","","","","","","","","","","","","","","","","","","","","","","","","","","","","","","","","","","","","","","","","","","","","","","","","","","","","","","","","","","","","","SYN05833605 42998 00603 10133 20016 30156 40307 58005 555 1/026=","","","","","","","","","",""
"33605099999","2021-10-02T14:00:00","49.0833333","32.6666666","124.0","CHYHYRYN, UP","FM-12","4","","31","58","","","+0.04","7","36","","30.40","29.96","12.43","46","050","","9","","","","","","","","","","","","","","","","","","","","","","","","","","","","","","","","","","","","","","","","","","","","","","","","","","","","","","","","","","","","","","","","","","","","","","","","","","","","","","","","","","","","","","","","","","","SYN05833605 32998 00504 10143 21005 30144 40294 57012 555 1/025=","","","","","","","","","",""
"33605099999","2021-10-02T17:00:00","49.0833333","32.6666666","124.0","CHYHYRYN, UP","FM-12","4","","36","56","","","+0.02","7","47","","30.38","29.94","12.43","47","100","","2","","","","","","","","","","","","","","","","","","","","","","","","","","","","","","","","","","","","","","","","","","","","","","","","","","","","","","","","","","","","","","","","","","","","","","","","","","","","","","","","","","","","","","","","","","","SYN05833605 42998 01001 10134 20021 30138 40288 57006 555 1/013=","","","","","","","","","",""
"33605099999","2021-10-02T23:00:00","49.0833333","32.6666666","124.0","CHYHYRYN, UP","FM-12","4","","34","38","","","-0.01","3","88","","30.41","29.95","6.21","36","220","","2","","","","","","","","","","","","","","","","","","","","","","","","","","","","","","","","","","","","","","","","","","","","","","","","","","","","","","","","","","","","","","","","","","","","","","","","","","","","","","","","","","","","","","","","","","","SYN05833605 42997 02201 10031 20013 30142 40298 53002 555 1/003=","","","","","","","","","",""
"33605099999","2021-10-03T17:00:00","49.0833333","32.6666666","124.0","CHYHYRYN, UP","FM-12","4","","39","57","","","+0.01","8","51","","30.37","29.93","12.43","48","050","","2","","","","","","","","","","","","","","","","","","","","","","","","","","","","","","","","","","","","","","","","","","","","","","","","","","","","","","","","","","","","","","","","","","","","","","","","","","","","","","","","","","","","","","","","","","","SYN05833605 42998 00501 10137 20037 30135 40285 58004 555 1/012=","","","","","","","","","",""
"33605099999","2021-10-03T23:00:00","49.0833333","32.6666666","124.0","CHYHYRYN, UP","FM-12","4","","36","40","","","-0.01","3","85","","30.40","29.95","6.21","38","180","","2","","","","","","","","","","","","","","","","","","","","","","","","","","","","","","","","","","","","","","","","","","","","","","","","","","","","","","","","","","","","","","","","","","","","","","","","","","","","","","","","","","","","","","","","","","","SYN05833605 42997 01801 10045 20022 30141 40296 53002 555 1/003=","","","","","","","","","",""
"33605099999","2021-10-04T02:00:00","49.0833333","32.6666666","124.0","CHYHYRYN, UP","FM-12","4","","33","36","","","+0.01","8","87","","30.40","29.94","6.21","35","220","","2","","","","","","","","","","","","","","","","","","","","","","","","","","","","","","","","","","","","","","","","","","","","","","","","","","","","","","","","","","","","","","","","","","","","","","","","","","","","","","","","","","","","","","","","","","","SYN05833605 32997 02201 10023 20004 30139 40295 58002 555 1/001=","","","","","","","","","",""
"33605099999","2021-10-04T05:00:00","49.0833333","32.6666666","124.0","CHYHYRYN, UP","FM-12","4","","30","33","","","-0.01","3","89","","30.41","29.95","6.21","32","200","","2","","","","","","","","","","","","","","","","","","","","","","","","","","","","","","","","","","","","","","","","","","","","","","","","","","","","","","","","","","","","","","","","","","","","","","","","","","","","","","","","","","","","","","","","","","","SYN05833605 42997 02001 10004 21012 30141 40299 53002 555 1/001=","","","","","","","","","",""
"33605099999","2021-10-04T08:00:00","49.0833333","32.6666666","124.0","CHYHYRYN, UP","FM-12","4","","38","44","","","-0.03","2","78","","30.43","29.98","7.46","41","020","","2","","","","","","","","","","","","","","","","","","","","","","","","","","","","","","","","","","","","","","","","","","","","","","","","","","","","","","","","","","","","","","","","","","","","","","","","","","","","","","","","","","","","","","","","","","","SYN08633605 32962 20201 10067 20031 30151 40305 52010 80009 333 20004 555 10014 30000 52000=","","","","","","","","","",""
"33605099999","2021-10-04T23:00:00","49.0833333","32.6666666","124.0","CHYHYRYN, UP","FM-12","4","","41","49","","","-0.02","2","73","","30.43","29.98","12.43","45","070","","4","","","","","","","","","","","","","","","","","","","","","","","","","","","","","","","","","","","","","","","","","","","","","","","","","","","","","","","","","","","","","","","","","","","","","","","","","","","","","","","","","","","","","","","","","","","SYN05833605 42998 00702 10095 20048 30153 40306 52008 555 1/006=","","","","","","","","","",""
"33605099999","2021-10-05T02:00:00","49.0833333","32.6666666","124.0","CHYHYRYN, UP","FM-12","4","","40","45","","","-0.01","3","85","","30.45","29.99","12.43","43","050","","2","","","","","","","","","","","","","","","","","","","","","","","","","","","","","","","","","","","","","","","","","","","","","","","","","","","","","","","","","","","","","","","","","","","","","","","","","","","","","","","","","","","","","","","","","","","SYN05833605 32998 00501 10070 20047 30156 40310 53003 555 1/003=","","","","","","","","","",""
"33605099999","2021-10-05T05:00:00","49.0833333","32.6666666","124.0","CHYHYRYN, UP","FM-12","4","","40","44","","","-0.02","2","88","","30.46","30.01","6.21","42","040","","2","","","","","","","","","","","","","","","","","","","","","","","","","","","","","","","","","","","","","","","","","","","","","","","","","","","","","","","","","","","","","","","","","","","","","","","","","","","","","","","","","","","","","","","","","","","SYN05833605 42997 00401 10064 20045 30162 40316 52006 555 1/002=","","","","","","","","","",""
"33605099999","2021-10-05T08:00:00","49.0833333","32.6666666","124.0","CHYHYRYN, UP","FM-12","4","","42","46","","","-0.04","2","89","BKN:05","30.50","30.05","3.73","44","010","","2","","","","","","","","","","","","","","","","","","","","","","","","","","","","","","","","","","","","","","","","","","","","","","","","","","","","","","","","","","","","","","","","","","","","","","","","","","","","","","","","","","","","","","","","","","","SYN09233605 31956 60101 10076 20058 30176 40330 52014 71011 85053 333 20044 555 10010 30001 52001=","","","","","","","","","",""
"33605099999","2021-10-06T05:00:00","49.0833333","32.6666666","124.0","CHYHYRYN, UP","FM-12","4","","39","44","","","-0.01","3","83","","30.55","30.09","12.43","42","090","","4","","","","","","","","","","","","","","","","","","","","","","","","","","","","","","","","","","","","","","","","","","","","","","","","","","","","","","","","","","","","","","","","","","","","","","","","","","","","","","","","","","","","","","","","","","","SYN05833605 42998 00902 10066 20038 30191 40346 53004 555 1/003=","","","","","","","","","",""
"33605099999","2021-10-06T11:00:00","49.0833333","32.6666666","124.0","CHYHYRYN, UP","FM-12","4","","32","54","","","+0.02","8","44","","30.56","30.11","12.43","44","090","","11","","","","","","","","","","","","","","","","","","","","","","","","","","","","","","","","","","","","","","","","","","","","","","","","","","","","","","","","","","","","","","","","","","","","","","","","","","","","","","","","","","","","","","","","","","","SYN05833605 42998 00905 10120 21001 30196 40348 58007 555 1/024=","","","","","","","","","",""
"33605099999","2021-10-06T14:00:00","49.0833333","32.6666666","124.0","CHYHYRYN, UP","FM-12","4","","27","54","","","+0.03","7","35","","30.53","30.08","12.43","43","070","","11","","","","","","","","","","","","","","","","","","","","","","","","","","","","","","","","","","","","","","","","","","","","","","","","","","","","","","","","","","","","","","","","","","","","","","","","","","","","","","","","","","","","","","","","","","","SYN05833605 32998 00705 10123 21029 30187 40339 57009 555 1/023=","","","","","","","","","",""
"33605099999","2021-10-06T17:00:00","49.0833333","32.6666666","124.0","CHYHYRYN, UP","FM-12","4","","23","52","","","0.00","4","33","","30.53","30.08","12.43","40","080","","9","","","","","","","","","","","","","","","","","","","","","","","","","","","","","","","","","","","","","","","","","","","","","","","","","","","","","","","","","","","","","","","","","","","","","","","","","","","","","","","","","","","","","","","","","","","SYN05833605 42998 00804 10109 21050 30187 40340 54000 555 1/010=","","","","","","","","","",""
"33605099999","2021-10-06T23:00:00","49.0833333","32.6666666","124.0","CHYHYRYN, UP","FM-12","4","","25","42","","","0.00","4","53","","30.57","30.11","31.07","35","110","","4","","","","","","","","","","","","","","","","","","","","","","","","","","","","","","","","","","","","","","","","","","","","","","","","","","","","","","","","","","","","","","","","","","","","","","","","","","","","","","","","","","","","","","","","","","","SYN05833605 42999 01102 10053 21037 30196 40352 54000 555 1/002=","","","","","","","","","",""
"33605099999","2021-10-07T02:00:00","49.0833333","32.6666666","124.0","CHYHYRYN, UP","FM-12","4","","26","37","","","-0.01","3","64","","30.58","30.12","31.07","33","060","","2","","","","","","","","","","","","","","","","","","","","","","","","","","","","","","","","","","","","","","","","","","","","","","","","","","","","","","","","","","","","","","","","","","","","","","","","","","","","","","","","","","","","","","","","","","","SYN05833605 32999 00601 10029 21034 30199 40356 53003 555 1/101=","","","","","","","","","",""
"33605099999","2021-10-07T08:00:00","49.0833333","32.6666666","124.0","CHYHYRYN, UP","FM-12","4","","29","40","","","-0.02","2","65","","30.61","30.15","12.43","36","070","","9","","","","","","","","","","","","","","","","","","","","","","","","","","","","","","","","","","","","","","","","","","","","","","","","","","","","","","","","","","","","","","","","","","","","","","","","","","","","","","","","","","","","","","","","","","","SYN08633605 32998 40704 10047 21014 30211 40367 52008 80004 333 20015 555 10007 30102 52102=","","","","","","","","","",""
"33605099999","2021-10-07T23:00:00","49.0833333","32.6666666","124.0","CHYHYRYN, UP","FM-12","4","","32","43","","","+0.01","8","66","","30.58","30.12","12.43","38","080","","7","","","","","","","","","","","","","","","","","","","","","","","","","","","","","","","","","","","","","","","","","","","","","","","","","","","","","","","","","","","","","","","","","","","","","","","","","","","","","","","","","","","","","","","","","","","SYN05833605 42998 00803 10061 20001 30199 40354 58004 555 1/003=","","","","","","","","","",""
"33605099999","2021-10-08T02:00:00","49.0833333","32.6666666","124.0","CHYHYRYN, UP","FM-12","4","","33","41","","","+0.01","7","73","","30.56","30.10","12.43","38","090","","4","","","","","","","","","","","","","","","","","","","","","","","","","","","","","","","","","","","","","","","","","","","","","","","","","","","","","","","","","","","","","","","","","","","","","","","","","","","","","","","","","","","","","","","","","","","SYN05833605 32998 00902 10049 20004 30194 40350 57005 555 1/001=","","","","","","","","","",""
"33605099999","2021-10-08T08:00:00","49.0833333","32.6666666","124.0","CHYHYRYN, UP","FM-12","4","","31","43","","","-0.02","2","62","BKN:05 22","30.58","30.13","12.43","38","050","","9","","","","","","","","","","","","","","","","","","","","","","","","","","","","","","","","","","","","","","","","","","","","","","","","","","","","","","","","","","","","","","","","","","","","","","","","","","","","","","","","","","","","","","","","","","","SYN09233605 32598 60504 10059 21008 30202 40357 52006 85349 333 20035 85922 555 10006 30101 52101=","","","","","","","","","",""
"33605099999","2021-10-09T02:00:00","49.0833333","32.6666666","124.0","CHYHYRYN, UP","FM-12","4","","27","42","","","+0.01","8","57","","30.52","30.06","31.07","36","050","","4","","","","","","","","","","","","","","","","","","","","","","","","","","","","","","","","","","","","","","","","","","","","","","","","","","","","","","","","","","","","","","","","","","","","","","","","","","","","","","","","","","","","","","","","","","","SYN05833605 32999 00502 10054 21025 30179 40334 58002 555 1/002=","","","","","","","","","",""
"33605099999","2021-10-09T05:00:00","49.0833333","32.6666666","124.0","CHYHYRYN, UP","FM-12","4","","28","38","","","0.00","4","68","","30.52","30.06","12.43","34","060","","2","","","","","","","","","","","","","","","","","","","","","","","","","","","","","","","","","","","","","","","","","","","","","","","","","","","","","","","","","","","","","","","","","","","","","","","","","","","","","","","","","","","","","","","","","","","SYN05833605 42998 00601 10033 21021 30179 40336 54000 555 1/100=","","","","","","","","","",""
"33605099999","2021-10-09T08:00:00","49.0833333","32.6666666","124.0","CHYHYRYN, UP","FM-12","4","","26","41","","","-0.01","3","55","FEW:02","30.53","30.07","12.43","35","070","","7","","","","","","","","","","","","","","","","","","","","","","","","","","","","","","","","","","","","","","","","","","","","","","","","","","","","","","","","","","","","","","","","","","","","","","","","","","","","","","","","","","","","","","","","","","","SYN08633605 32998 20703 10052 21031 30184 40340 53005 82040 333 20025 555 10008 30101 52101=","","","","","","","","","",""
"33605099999","2021-10-10T08:00:00","49.0833333","32.6666666","124.0","CHYHYRYN, UP","FM-12","4","","32","45","","","-0.01","3","61","SCT:04","30.47","30.01","12.43","40","060","","4","","","","","","","","","","","","","","","","","","","","","","","","","","","","","","","","","","","","","","","","","","","","","","","","","","","","","","","","","","","","","","","","","","","","","","","","","","","","","","","","","","","","","","","","","","","SYN08633605 32998 60602 10072 21000 30163 40317 53004 84039 333 20066 555 10006 30004 52005=","","","","","","","","","",""
"33605099999","2021-10-10T23:00:00","49.0833333","32.6666666","124.0","CHYHYRYN, UP","FM-12","4","","37","44","","","+0.02","7","78","","30.40","29.94","12.43","41","320","","4","","","","","","","","","","","","","","","","","","","","","","","","","","","","","","","","","","","","","","","","","","","","","","","","","","","","","","","","","","","","","","","","","","","","","","","","","","","","","","","","","","","","","","","","","","","SYN05833605 42998 03202 10065 20029 30139 40293 57008 555 1/001=","","","","","","","","","",""
"33605099999","2021-10-11T02:00:00","49.0833333","32.6666666","124.0","CHYHYRYN, UP","FM-12","4","","31","35","","","+0.02","7","86","","30.38","29.92","12.43","33","300","","2","","","","","","","","","","","","","","","","","","","","","","","","","","","","","","","","","","","","","","","","","","","","","","","","","","","","","","","","","","","","","","","","","","","","","","","","","","","","","","","","","","","","","","","","","","","SYN05833605 32998 03001 10018 21004 30131 40288 57008 555 1/000=","","","","","","","","","",""
"33605099999","2021-10-11T05:00:00","49.0833333","32.6666666","124.0","CHYHYRYN, UP","FM-12","4","","28","31","","","+0.04","7","90","","30.34","29.88","6.21","30","310","","2","","","","","","","","","","","","","","","","","","","","","","","","","","","","","","","","","","","","","","","","","","","","","","","","","","","","","","","","","","","","","","","","","","","","","","","","","","","","","","","","","","","","","","","","","","","SYN05833605 42997 03101 11006 21021 30117 40275 57014 555 1/101=","","","","","","","","","",""
"33605099999","2021-10-11T08:00:00","49.0833333","32.6666666","124.0","CHYHYRYN, UP","FM-12","4","","37","40","","","+0.02","7","89","","30.31","29.85","3.11","39","020","","2","","","","","","","","","","","","","","","","","","","","","","","","","","","","","","","","","","","","","","","","","","","","","","","","","","","","","","","","","","","","","","","","","","","","","","","","","","","","","","","","","","","","","","","","","","","SYN08633605 31950 00201 10044 20027 30109 40264 57008 71000 333 21013 555 10007 30102 52103=","","","","","","","","","",""
"33605099999","2021-10-11T11:00:00","49.0833333","32.6666666","124.0","CHYHYRYN, UP","FM-12","4","","37","55","","","+0.04","7","50","","30.25","29.81","12.43","47","040","","7","","","","","","","","","","","","","","","","","","","","","","","","","","","","","","","","","","","","","","","","","","","","","","","","","","","","","","","","","","","","","","","","","","","","","","","","","","","","","","","","","","","","","","","","","","","SYN05833605 42998 00403 10129 20026 30095 40245 57014 555 1/023=","","","","","","","","","",""
"33605099999","2021-10-12T02:00:00","49.0833333","32.6666666","124.0","CHYHYRYN, UP","FM-12","4","","35","39","","","+0.03","7","87","","30.07","29.62","6.21","37","210","","2","","","","","","","","","","","","","","","","","","","","","","","","","","","","","","","","","","","","","","","","","","","","","","","","","","","","","","","","","","","","","","","","","","","","","","","","","","","","","","","","","","","","","","","","","","","SYN05833605 32997 02101 10038 20018 30029 40183 57011 555 1/002=","","","","","","","","","",""
"33605099999","2021-10-12T08:00:00","49.0833333","32.6666666","124.0","CHYHYRYN, UP","FM-12","4","","39","41","","","+0.02","7","91","BKN:05 22","30.00","29.55","1.86","40","200","","2","","","","","","","","","","","","","","","","","","","","","","","","","","","","","","","","","","","","","","","","","","","","","","","","","","","","","","","","","","","","","","","","","","","","","","","","","","","","","","","","","","","","","","","","","","","SYN09833605 31530 62001 10052 20038 30007 40160 57007 71011 85505 333 20012 85622 555 10011 30001 52001=","","","","","","","","","",""
"33605099999","2021-10-13T08:00:00","49.0833333","32.6666666","124.0","CHYHYRYN, UP","FM-12","4","","47","47","","||SHRA","-0.01","3","100","","29.84","29.40","0.50","47","010","","7","","","","","","","","","","","","","","","","","","","","","","","","","","","","","","","","","","","","","","","","","","","","","","","","","","","","","","","","","","","","","","","","","","","","","","","","","","","","","","","","","","","","","","","","","","","SYN08633605 11/08 90103 10085 20085 39956 40106 53002 60082 78084 333 20075 96045 555 12009=","","","","","","","","","",""
"33605099999","2021-10-15T08:00:00","49.0833333","32.6666666","124.0","CHYHYRYN, UP","FM-12","4","","36","39","","","-0.03","3","90","","30.29","29.83","4.97","38","230","","7","","","","","","","","","","","","","","","","","","","","","","","","","","","","","","","","","","","","","","","","","","","","","","","","","","","","","","","","","","","","","","","","","","","","","","","","","","","","","","","","","","","","","","","","","","","SYN08633605 31958 02303 10038 20023 30103 40258 53009 71000 333 20018 555 12006 32000 52001=","","","","","","","","","",""
"33605099999","2021-10-16T08:00:00","49.0833333","32.6666666","124.0","CHYHYRYN, UP","FM-12","4","","40","46","","","+0.01","8","78","OVC:08","30.12","29.67","6.84","43","220","","4","","","","","","","","","","","","","","","","","","","","","","","","","","","","","","","","","","","","","","","","","","","","","","","","","","","","","","","","","","","","","","","","","","","","","","","","","","","","","","","","","","","","","","","","","","","SYN08633605 32961 82202 10079 20042 30047 40199 58004 8807/ 333 20029 555 11008 31003 52002=","","","","","","","","","",""
"33605099999","2021-10-16T20:00:00","49.0833333","32.6666666","124.0","CHYHYRYN, UP","FM-12","4","","44","49","","","-0.01","3","83","BKN:07 25","30.09","29.64","6.21","47","330","","2","","","","","","","","","","","","","","","","","","","","","","","","","","","","","","","","","","","","","","","","","","","","","","","","","","","","","","","","","","","","","","","","","","","","","","","","","","","","","","","","","","","","","","","","","","","SYN08633605 12597 73301 10097 20069 30037 40188 53004 69902 87500 333 10122 87625 555 1/009=","","","","","","","","","",""
"33605099999","2021-10-17T08:00:00","49.0833333","32.6666666","124.0","CHYHYRYN, UP","FM-12","4","","42","45","","","-0.02","3","90","BKN:06 16","30.10","29.65","2.11","44","340","","7","","","","","","","","","","","","","","","","","","","","","","","","","","","","","","","","","","","","","","","","","","","","","","","","","","","","","","","","","","","","","","","","","","","","","","","","","","","","","","","","","","","","","","","","","","","SYN08633605 31434 83403 10073 20057 30042 40194 53008 71022 8655/ 333 20073 86716 555 11008=","","","","","","","","","",""
"33605099999","2021-10-18T08:00:00","49.0833333","32.6666666","124.0","CHYHYRYN, UP","FM-12","4","","34","43","","","-0.02","3","69","BKN:07 21","30.14","29.69","14.91","39","230","","4","","","","","","","","","","","","","","","","","","","","","","","","","","","","","","","","","","","","","","","","","","","","","","","","","","","","","","","","","","","","","","","","","","","","","","","","","","","","","","","","","","","","","","","","","","","SYN09233605 32574 72302 10063 20010 30053 40206 53007 87500 333 20056 87621 555 11007 31002 52002=","","","","","","","","","",""
"33605099999","2021-10-19T08:00:00","49.0833333","32.6666666","124.0","CHYHYRYN, UP","FM-12","4","","37","41","","","-0.06","2","87","FEW:02 26","30.23","29.78","6.84","39","320","","7","","","","","","","","","","","","","","","","","","","","","","","","","","","","","","","","","","","","","","","","","","","","","","","","","","","","","","","","","","","","","","","","","","","","","","","","","","","","","","","","","","","","","","","","","","","SYN08633605 32561 23203 10050 20030 30083 40237 52019 82300 333 20037 555 11005 31002 52003=","","","","","","","","","",""
"33605099999","2021-10-19T17:00:00","49.0833333","32.6666666","124.0","CHYHYRYN, UP","FM-12","4","","29","47","","","-0.01","3","49","","30.27","29.82","12.43","40","290","","4","","","","","","","","","","","","","","","","","","","","","","","","","","","","","","","","","","","","","","","","","","","","","","","","","","","","","","","","","","","","","","","","","","","","","","","","","","","","","","","","","","","","","","","","","","","SYN05833605 42998 02902 10082 21019 30097 40250 53005 555 1/007=","","","","","","","","","",""
"33605099999","2021-10-19T23:00:00","49.0833333","32.6666666","124.0","CHYHYRYN, UP","FM-12","4","","27","35","","","-0.03","2","72","","30.34","29.88","12.43","32","230","","4","","","","","","","","","","","","","","","","","","","","","","","","","","","","","","","","","","","","","","","","","","","","","","","","","","","","","","","","","","","","","","","","","","","","","","","","","","","","","","","","","","","","","","","","","","","SYN05833605 42998 02302 10016 21029 30117 40274 52010 555 1/001=","","","","","","","","","",""
"33605099999","2021-10-20T02:00:00","49.0833333","32.6666666","124.0","CHYHYRYN, UP","FM-12","4","","27","32","","","-0.00","3","82","","30.34","29.88","12.43","30","220","","7","","","","","","","","","","","","","","","","","","","","","","","","","","","","","","","","","","","","","","","","","","","","","","","","","","","","","","","","","","","","","","","","","","","","","","","","","","","","","","","","","","","","","","","","","","","SYN05833605 32998 02203 10001 21026 30118 40275 53001 555 1/101=","","","","","","","","","",""
"33605099999","2021-10-20T05:00:00","49.0833333","32.6666666","124.0","CHYHYRYN, UP","FM-12","4","","27","32","","","-0.00","3","82","","30.35","29.88","12.43","30","230","","9","","","","","","","","","","","","","","","","","","","","","","","","","","","","","","","","","","","","","","","","","","","","","","","","","","","","","","","","","","","","","","","","","","","","","","","","","","","","","","","","","","","","","","","","","","","SYN05833605 42998 02304 10000 21027 30119 40277 53001 555 1/101=","","","","","","","","","",""
"33605099999","2021-10-20T08:00:00","49.0833333","32.6666666","124.0","CHYHYRYN, UP","FM-12","4","","28","35","","","-0.04","2","78","FEW:02","30.38","29.92","12.43","32","230","","7","","","","","","","","","","","","","","","","","","","","","","","","","","","","","","","","","","","","","","","","","","","","","","","","","","","","","","","","","","","","","","","","","","","","","","","","","","","","","","","","","","","","","","","","","","","SYN08633605 32998 22303 10014 21021 30131 40288 52012 82031 333 21010 555 10001 30102 52103=","","","","","","","","","",""
"33605099999","2021-10-23T23:00:00","49.0833333","32.6666666","124.0","CHYHYRYN, UP","FM-12","4","","29","39","","","-0.04","2","66","","30.19","29.73","12.43","35","280","","7","","","","","","","","","","","","","","","","","","","","","","","","","","","","","","","","","","","","","","","","","","","","","","","","","","","","","","","","","","","","","","","","","","","","","","","","","","","","","","","","","","","","","","","","","","","SYN05833605 42998 02803 10041 21018 30068 40222 52013 555 1/002=","","","","","","","","","",""
"33605099999","2021-10-24T08:00:00","49.0833333","32.6666666","124.0","CHYHYRYN, UP","FM-12","4","","32","40","","","-0.03","2","71","BKN:07 23","30.25","29.79","12.43","37","260","","7","","","","","","","","","","","","","","","","","","","","","","","","","","","","","","","","","","","","","","","","","","","","","","","","","","","","","","","","","","","","","","","","","","","","","","","","","","","","","","","","","","","","","","","","","","","SYN09233605 32598 72603 10047 21001 30089 40243 52011 87500 333 20012 87623 555 10005 30000 52100=","","","","","","","","","",""
"33605099999","2021-10-25T08:00:00","49.0833333","32.6666666","124.0","CHYHYRYN, UP","FM-12","4","","30","40","","","-0.05","2","67","FEW:02","30.52","30.06","12.43","36","360","","7","","","","","","","","","","","","","","","","","","","","","","","","","","","","","","","","","","","","","","","","","","","","","","","","","","","","","","","","","","","","","","","","","","","","","","","","","","","","","","","","","","","","","","","","","","","SYN08633605 32998 33603 10047 21010 30180 40336 52017 82051 333 20035 555 10006 30003 52003=","","","","","","","","","",""
"33605099999","2021-10-25T17:00:00","49.0833333","32.6666666","124.0","CHYHYRYN, UP","FM-12","4","","26","42","","","+0.01","8","54","","30.53","30.07","12.43","36","360","","2","","","","","","","","","","","","","","","","","","","","","","","","","","","","","","","","","","","","","","","","","","","","","","","","","","","","","","","","","","","","","","","","","","","","","","","","","","","","","","","","","","","","","","","","","","","SYN05833605 42998 03601 10055 21031 30183 40338 58003 555 1/004=","","","","","","","","","",""
"33605099999","2021-10-25T23:00:00","49.0833333","32.6666666","124.0","CHYHYRYN, UP","FM-12","4","","24","31","","","+0.01","8","75","","30.54","30.07","31.07","29","230","","7","","","","","","","","","","","","","","","","","","","","","","","","","","","","","","","","","","","","","","","","","","","","","","","","","","","","","","","","","","","","","","","","","","","","","","","","","","","","","","","","","","","","","","","","","","","SYN05833605 42999 02303 11008 21047 30183 40342 58002 555 1/101=","","","","","","","","","",""
"33605099999","2021-10-26T02:00:00","49.0833333","32.6666666","124.0","CHYHYRYN, UP","FM-12","4","","25","30","","","0.00","4","81","","30.54","30.07","31.07","28","230","","7","","","","","","","","","","","","","","","","","","","","","","","","","","","","","","","","","","","","","","","","","","","","","","","","","","","","","","","","","","","","","","","","","","","","","","","","","","","","","","","","","","","","","","","","","","","SYN05833605 32999 02303 11010 21039 30183 40342 54000 555 1/102=","","","","","","","","","",""
"33605099999","2021-10-26T05:00:00","49.0833333","32.6666666","124.0","CHYHYRYN, UP","FM-12","4","","25","30","","","+0.02","8","83","","30.52","30.05","31.07","28","220","","7","","","","","","","","","","","","","","","","","","","","","","","","","","","","","","","","","","","","","","","","","","","","","","","","","","","","","","","","","","","","","","","","","","","","","","","","","","","","","","","","","","","","","","","","","","","SYN05833605 42999 02203 11013 21039 30177 40336 58006 555 1/102=","","","","","","","","","",""
"33605099999","2021-10-26T11:00:00","49.0833333","32.6666666","124.0","CHYHYRYN, UP","FM-12","4","","26","48","","","+0.02","8","42","","30.49","30.04","12.43","39","210","","9","","","","","","","","","","","","","","","","","","","","","","","","","","","","","","","","","","","","","","","","","","","","","","","","","","","","","","","","","","","","","","","","","","","","","","","","","","","","","","","","","","","","","","","","","","","SYN05833605 42998 02104 10087 21035 30173 40326 58006 555 1/016=","","","","","","","","","",""
"33605099999","2021-10-26T14:00:00","49.0833333","32.6666666","124.0","CHYHYRYN, UP","FM-12","4","","26","50","","","+0.07","7","39","","30.42","29.97","12.43","40","210","","9","","","","","","","","","","","","","","","","","","","","","","","","","","","","","","","","","","","","","","","","","","","","","","","","","","","","","","","","","","","","","","","","","","","","","","","","","","","","","","","","","","","","","","","","","","","SYN05833605 32998 02104 10102 21033 30150 40302 57023 555 1/017=","","","","","","","","","",""
"33605099999","2021-10-26T17:00:00","49.0833333","32.6666666","124.0","CHYHYRYN, UP","FM-12","4","","29","45","","","+0.02","7","52","","30.41","29.95","12.43","38","200","","4","","","","","","","","","","","","","","","","","","","","","","","","","","","","","","","","","","","","","","","","","","","","","","","","","","","","","","","","","","","","","","","","","","","","","","","","","","","","","","","","","","","","","","","","","","","SYN05833605 42998 02002 10073 21019 30143 40297 57007 555 1/004=","","","","","","","","","",""
"33605099999","2021-10-26T23:00:00","49.0833333","32.6666666","124.0","CHYHYRYN, UP","FM-12","4","","23","37","","","+0.03","7","56","","30.37","29.91","31.07","32","210","","4","","","","","","","","","","","","","","","","","","","","","","","","","","","","","","","","","","","","","","","","","","","","","","","","","","","","","","","","","","","","","","","","","","","","","","","","","","","","","","","","","","","","","","","","","","","SYN05833605 42999 02102 10030 21051 30129 40285 57010 555 1/101=","","","","","","","","","",""
"33605099999","2021-10-27T02:00:00","49.0833333","32.6666666","124.0","CHYHYRYN, UP","FM-12","4","","28","37","","","+0.00","8","72","","30.37","29.91","31.07","34","210","","4","","","","","","","","","","","","","","","","","","","","","","","","","","","","","","","","","","","","","","","","","","","","","","","","","","","","","","","","","","","","","","","","","","","","","","","","","","","","","","","","","","","","","","","","","","","SYN05833605 32999 02102 10026 21020 30128 40284 58001 555 1/101=","","","","","","","","","",""
"33605099999","2021-10-27T05:00:00","49.0833333","32.6666666","124.0","CHYHYRYN, UP","FM-12","4","","29","34","","","+0.02","7","83","","30.35","29.89","12.43","32","210","","7","","","","","","","","","","","","","","","","","","","","","","","","","","","","","","","","","","","","","","","","","","","","","","","","","","","","","","","","","","","","","","","","","","","","","","","","","","","","","","","","","","","","","","","","","","","SYN05833605 42998 02103 10011 21015 30121 40278 57007 555 1/101=","","","","","","","","","",""
"33605099999","2021-10-27T08:00:00","49.0833333","32.6666666","124.0","CHYHYRYN, UP","FM-12","4","","31","35","","","+0.00","8","86","BKN:06 24","30.35","29.88","15.53","33","210","","11","","","","","","","","","","","","","","","","","","","","","","","","","","","","","","","","","","","","","","","","","","","","","","","","","","","","","","","","","","","","","","","","","","","","","","","","","","","","","","","","","","","","","","","","","","","SYN09233605 32575 62105 10019 21003 30120 40276 58001 86500 333 20001 86624 555 10001 30102 52102=","","","","","","","","","",""
"33605099999","2021-10-28T08:00:00","49.0833333","32.6666666","124.0","CHYHYRYN, UP","FM-12","4","","37","40","","","-0.01","3","90","FEW:02","30.30","29.84","3.11","39","220","","7","","","","","","","","","","","","","","","","","","","","","","","","","","","","","","","","","","","","","","","","","","","","","","","","","","","","","","","","","","","","","","","","","","","","","","","","","","","","","","","","","","","","","","","","","","","SYN09233605 31950 22203 10042 20027 30105 40260 53004 71000 82030 333 20014 555 11005 31000 52000=","","","","","","","","","",""
"33605099999","2021-10-29T08:00:00","49.0833333","32.6666666","124.0","CHYHYRYN, UP","FM-12","4","","48","48","","||DZ","-0.04","2","100","","30.38","29.93","0.06","48","010","","2","","","","","","","","","","","","","","","","","","","","","","","","","","","","","","","","","","","","","","","","","","","","","","","","","","","","","","","","","","","","","","","","","","","","","","","","","","","","","","","","","","","","","","","","","","","SYN09833605 11/01 90101 10087 20087 30134 40287 52015 69902 75154 333 20084 96047 555 11009 31004 52004=","","","","","","","","","",""
"33605099999","2021-10-30T08:00:00","49.0833333","32.6666666","124.0","CHYHYRYN, UP","FM-12","4","","38","38","","||FG","-0.03","2","100","","30.50","30.04","0.06","38","160","","2","","","","","","","","","","","","","","","","","","","","","","","","","","","","","","","","","","","","","","","","","","","","","","","","","","","","","","","","","","","","","","","","","","","","","","","","","","","","","","","","","","","","","","","","","","","SYN08633605 31/01 91601 10035 20035 30173 40329 52010 74554 333 20031 555 11006 31004 52005=","","","","","","","","","",""
"33605099999","2021-10-31T08:00:00","49.0833333","32.6666666","124.0","CHYHYRYN, UP","FM-12","4","","35","37","","","+0.01","8","91","","30.41","29.95","1.43","36","220","","2","","","","","","","","","","","","","","","","","","","","","","","","","","","","","","","","","","","","","","","","","","","","","","","","","","","","","","","","","","","","","","","","","","","","","","","","","","","","","","","","","","","","","","","","","","","SYN08633605 31923 02201 10030 20017 30142 40298 58003 71000 333 21006 555 11002 31101 52101=","","","","","","","","","",""
"33605099999","2021-10-31T11:00:00","49.0833333","32.6666666","124.0","CHYHYRYN, UP","FM-12","4","","38","53","","","+0.02","7","57","","30.37","29.93","12.43","46","150","","7","","","","","","","","","","","","","","","","","","","","","","","","","","","","","","","","","","","","","","","","","","","","","","","","","","","","","","","","","","","","","","","","","","","","","","","","","","","","","","","","","","","","","","","","","","","SYN05833605 42998 01503 10114 20031 30134 40285 57008 555 1/017=","","","","","","","","","",""
"33605099999","2021-10-31T23:00:00","49.0833333","32.6666666","124.0","CHYHYRYN, UP","FM-12","4","","36","41","","","+0.03","7","82","","30.26","29.80","6.21","39","180","","2","","","","","","","","","","","","","","","","","","","","","","","","","","","","","","","","","","","","","","","","","","","","","","","","","","","","","","","","","","","","","","","","","","","","","","","","","","","","","","","","","","","","","","","","","","","SYN05833605 42997 01801 10049 20021 30093 40247 57010 555 1/001=","","","","","","","","","",""
"33605099999","2021-11-01T08:00:00","49.0833333","32.6666666","124.0","CHYHYRYN, UP","FM-12","4","","31","33","","","+0.01","8","94","","30.20","29.74","0.87","32","290","","2","","","","","","","","","","","","","","","","","","","","","","","","","","","","","","","","","","","","","","","","","","","","","","","","","","","","","","","","","","","","","","","","","","","","","","","","","","","","","","","","","","","","","","","","","","","SYN08633605 31914 02901 10004 21004 30070 40226 58004 71000 333 21015 555 14100 34102 52103=","","","","","","","","","",""
"33605099999","2021-11-04T08:00:00","49.0833333","32.6666666","124.0","CHYHYRYN, UP","FM-12","4","","42","42","","||FG","-0.03","2","100","","30.23","29.78","0.12","42","210","","4","","","","","","","","","","","","","","","","","","","","","","","","","","","","","","","","","","","","","","","","","","","","","","","","","","","","","","","","","","","","","","","","","","","","","","","","","","","","","","","","","","","","","","","","","","","SYN09233605 11/02 92102 10053 20053 30084 40238 52010 69902 74744 333 20035 555 11005 31003 52003=","","","","","","","","","",""
"33605099999","2021-11-04T20:00:00","49.0833333","32.6666666","124.0","CHYHYRYN, UP","FM-12","4","","48","51","","","+0.00","8","90","OVC:08 21","30.19","29.74","2.49","49","180","","7","","","","","","","","","","","","","","","","","","","","","","","","","","","","","","","","","","","","","","","","","","","","","","","","","","","","","","","","","","","","","","","","","","","","","","","","","","","","","","","","","","","","","","","","","","","SYN08633605 31596 81803 10105 20089 30071 40222 58001 71022 885// 333 10125 88621 555 1/009=","","","","","","","","","",""
"33605099999","2021-11-06T23:00:00","49.0833333","32.6666666","124.0","CHYHYRYN, UP","FM-12","4","","35","40","","","-0.01","3","81","","30.31","29.85","31.07","38","250","","7","","","","","","","","","","","","","","","","","","","","","","","","","","","","","","","","","","","","","","","","","","","","","","","","","","","","","","","","","","","","","","","","","","","","","","","","","","","","","","","","","","","","","","","","","","","SYN05833605 42999 02503 10047 20017 30108 40263 53002 555 1/002=","","","","","","","","","",""
"33605099999","2021-11-07T02:00:00","49.0833333","32.6666666","124.0","CHYHYRYN, UP","FM-12","4","","34","39","","","+0.01","8","82","","30.30","29.84","31.07","37","260","","9","","","","","","","","","","","","","","","","","","","","","","","","","","","","","","","","","","","","","","","","","","","","","","","","","","","","","","","","","","","","","","","","","","","","","","","","","","","","","","","","","","","","","","","","","","","SYN05833605 32999 02604 10041 20013 30106 40261 58002 555 1/001=","","","","","","","","","",""
"33605099999","2021-11-07T05:00:00","49.0833333","32.6666666","124.0","CHYHYRYN, UP","FM-12","4","","33","37","","","+0.02","7","83","","30.28","29.83","31.07","35","230","","9","","","","","","","","","","","","","","","","","","","","","","","","","","","","","","","","","","","","","","","","","","","","","","","","","","","","","","","","","","","","","","","","","","","","","","","","","","","","","","","","","","","","","","","","","","","SYN05833605 42999 02304 10030 20003 30100 40255 57006 555 1/001=","","","","","","","","","",""
"33605099999","2021-11-09T08:00:00","49.0833333","32.6666666","124.0","CHYHYRYN, UP","FM-12","4","","37","45","","","-0.04","2","74","SCT:03 26","30.14","29.70","12.43","41","320","","7","","","","","","","","","","","","","","","","","","","","","","","","","","","","","","","","","","","","","","","","","","","","","","","","","","","","","","","","","","","","","","","","","","","","","","","","","","","","","","","","","","","","","","","","","","","SYN08633605 32598 63203 10072 20029 30056 40208 52012 83543 333 20070 555 11006 31005 52004=","","","","","","","","","",""
"33605099999","2021-11-10T05:00:00","49.0833333","32.6666666","124.0","CHYHYRYN, UP","FM-12","4","","24","30","","","-0.05","2","79","","30.63","30.15","31.07","28","350","","4","","","","","","","","","","","","","","","","","","","","","","","","","","","","","","","","","","","","","","","","","","","","","","","","","","","","","","","","","","","","","","","","","","","","","","","","","","","","","","","","","","","","","","","","","","","SYN05833605 42999 03502 11013 21046 30211 40371 52018 555 1/102=","","","","","","","","","",""
"33605099999","2021-11-15T23:00:00","49.0833333","32.6666666","124.0","CHYHYRYN, UP","FM-12","4","","24","33","","","-0.05","2","69","","30.68","30.22","12.43","30","080","","4","","","","","","","","","","","","","","","","","","","","","","","","","","","","","","","","","","","","","","","","","","","","","","","","","","","","","","","","","","","","","","","","","","","","","","","","","","","","","","","","","","","","","","","","","","","SYN05833605 42998 00802 10005 21046 30232 40391 52017 555 1/101=","","","","","","","","","",""
"33605099999","2021-11-16T02:00:00","49.0833333","32.6666666","124.0","CHYHYRYN, UP","FM-12","4","","22","29","","","-0.01","3","74","","30.70","30.23","12.43","27","110","","2","","","","","","","","","","","","","","","","","","","","","","","","","","","","","","","","","","","","","","","","","","","","","","","","","","","","","","","","","","","","","","","","","","","","","","","","","","","","","","","","","","","","","","","","","","","SYN05833605 32998 01101 11017 21058 30236 40396 53004 555 1/103=","","","","","","","","","",""
"33605099999","2021-11-16T05:00:00","49.0833333","32.6666666","124.0","CHYHYRYN, UP","FM-12","4","","20","27","","","+0.01","8","77","","30.69","30.22","12.43","25","110","","2","","","","","","","","","","","","","","","","","","","","","","","","","","","","","","","","","","","","","","","","","","","","","","","","","","","","","","","","","","","","","","","","","","","","","","","","","","","","","","","","","","","","","","","","","","","SYN05833605 42998 01101 11029 21064 30232 40393 58004 555 1/104=","","","","","","","","","",""
"33605099999","2021-11-16T17:00:00","49.0833333","32.6666666","124.0","CHYHYRYN, UP","FM-12","4","","19","33","","","+0.04","7","56","","30.57","30.11","12.43","28","180","","2","","","","","","","","","","","","","","","","","","","","","","","","","","","","","","","","","","","","","","","","","","","","","","","","","","","","","","","","","","","","","","","","","","","","","","","","","","","","","","","","","","","","","","","","","","","SYN05833605 42998 01801 10008 21070 30195 40353 57014 555 1/103=","","","","","","","","","",""
"33605099999","2021-11-16T23:00:00","49.0833333","32.6666666","124.0","CHYHYRYN, UP","FM-12","4","","19","25","","","+0.03","7","77","","30.52","30.04","12.43","23","220","","4","","","","","","","","","","","","","","","","","","","","","","","","","","","","","","","","","","","","","","","","","","","","","","","","","","","","","","","","","","","","","","","","","","","","","","","","","","","","","","","","","","","","","","","","","","","SYN05833605 42998 02202 11040 21074 30173 40334 57009 555 1/107=","","","","","","","","","",""
"33605099999","2021-11-17T02:00:00","49.0833333","32.6666666","124.0","CHYHYRYN, UP","FM-12","4","","17","21","","","+0.03","7","84","","30.49","30.01","6.21","20","230","","4","","","","","","","","","","","","","","","","","","","","","","","","","","","","","","","","","","","","","","","","","","","","","","","","","","","","","","","","","","","","","","","","","","","","","","","","","","","","","","","","","","","","","","","","","","","SYN05833605 32997 02302 11061 21084 30164 40326 57009 555 1/108=","","","","","","","","","",""
"33605099999","2021-11-17T05:00:00","49.0833333","32.6666666","124.0","CHYHYRYN, UP","FM-12","4","","16","20","","","+0.04","7","83","","30.46","29.98","6.21","19","230","","4","","","","","","","","","","","","","","","","","","","","","","","","","","","","","","","","","","","","","","","","","","","","","","","","","","","","","","","","","","","","","","","","","","","","","","","","","","","","","","","","","","","","","","","","","","","SYN05833605 42997 02302 11065 21089 30152 40314 57012 555 1/109=","","","","","","","","","",""
"33605099999","2021-11-20T23:00:00","49.0833333","32.6666666","124.0","CHYHYRYN, UP","FM-12","4","","34","43","","","-0.06","2","69","","29.86","29.41","12.43","39","300","","7","","","","","","","","","","","","","","","","","","","","","","","","","","","","","","","","","","","","","","","","","","","","","","","","","","","","","","","","","","","","","","","","","","","","","","","","","","","","","","","","","","","","","","","","","","","SYN05833605 42998 03003 10062 20009 39960 40112 52021 555 1/001=","","","","","","","","","",""
"33605099999","2021-11-21T02:00:00","49.0833333","32.6666666","124.0","CHYHYRYN, UP","FM-12","4","","31","39","","","-0.02","2","74","","29.88","29.43","12.43","36","270","","9","","","","","","","","","","","","","","","","","","","","","","","","","","","","","","","","","","","","","","","","","","","","","","","","","","","","","","","","","","","","","","","","","","","","","","","","","","","","","","","","","","","","","","","","","","","SYN05833605 32998 02704 10038 21005 39966 40119 52006 555 1/100=","","","","","","","","","",""
"33605099999","2021-11-25T08:00:00","49.0833333","32.6666666","124.0","CHYHYRYN, UP","FM-12","4","","27","33","","","-0.00","3","79","BKN:07 25","30.29","29.83","12.43","31","230","","7","","","","","","","","","","","","","","","","","","","","","","","","","","","","","","","","","","","","","","","","","","","","","","","","","","","","","","","","","","","","","","","","","","","","","","","","","","","","","","","","","","","","","","","","","","","SYN08633605 32598 72303 10005 21028 30102 40259 53001 87500 333 21010 42002 87625 555 12101=","","","","","","","","","",""
"33605099999","2021-11-30T02:00:00","49.0833333","32.6666666","124.0","CHYHYRYN, UP","FM-12","4","","31","39","","","-0.12","2","73","","29.37","28.93","12.43","36","270","","13","","","","","","","","","","","","","","","","","","","","","","","","","","","","","","","","","","","","","","","","","","","","","","","","","","","","","","","","","","","","","","","","","","","","","","","","","","","","","","","","","","","","","","","","","","","SYN05833605 32998 02706 10039 21006 39797 49947 52042 555 1/002=","","","","","","","","","",""
"33605099999","2021-12-01T02:00:00","49.0833333","32.6666666","124.0","CHYHYRYN, UP","FM-12","4","","25","31","","","-0.01","3","78","","29.51","29.05","12.43","29","230","","2","","","","","","","","","","","","","","","","","","","","","","","","","","","","","","","","","","","","","","","","","","","","","","","","","","","","","","","","","","","","","","","","","","","","","","","","","","","","","","","","","","","","","","","","","","","SYN05833605 32998 02301 11004 21038 39839 49992 53004 555 1/101=","","","","","","","","","",""
"33605099999","2021-12-01T23:00:00","49.0833333","32.6666666","124.0","CHYHYRYN, UP","FM-12","4","","20","29","","","-0.07","2","68","","29.75","29.29","31.07","26","270","","4","","","","","","","","","","","","","","","","","","","","","","","","","","","","","","","","","","","","","","","","","","","","","","","","","","","","","","","","","","","","","","","","","","","","","","","","","","","","","","","","","","","","","","","","","","","SYN05833605 42999 02702 11015 21067 39920 40075 52025 555 1/103=","","","","","","","","","",""
"33605099999","2021-12-02T02:00:00","49.0833333","32.6666666","124.0","CHYHYRYN, UP","FM-12","4","","20","26","","","-0.03","2","75","","29.79","29.33","31.07","24","220","","7","","","","","","","","","","","","","","","","","","","","","","","","","","","","","","","","","","","","","","","","","","","","","","","","","","","","","","","","","","","","","","","","","","","","","","","","","","","","","","","","","","","","","","","","","","","SYN05833605 32999 02203 11031 21069 39931 40087 52011 555 1/105=","","","","","","","","","",""
"33605099999","2021-12-03T08:00:00","49.0833333","32.6666666","124.0","CHYHYRYN, UP","FM-12","4","","39","41","","","+0.02","7","92","BKN:06 19","29.66","29.22","4.35","40","180","","9","","","","","","","","","","","","","","","","","","","","","","","","","","","","","","","","","","","","","","","","","","","","","","","","","","","","","","","","","","","","","","","","","","","","","","","","","","","","","","","","","","","","","","","","","","","SYN08633605 31457 71804 10052 20040 39894 40045 57006 71011 86330 333 20030 86919 555 11004=","","","","","","","","","",""
"33605099999","2021-12-04T05:00:00","49.0833333","32.6666666","124.0","CHYHYRYN, UP","FM-12","4","","26","31","","","-0.04","2","80","","29.97","29.51","12.43","29","290","","4","","","","","","","","","","","","","","","","","","","","","","","","","","","","","","","","","","","","","","","","","","","","","","","","","","","","","","","","","","","","","","","","","","","","","","","","","","","","","","","","","","","","","","","","","","","SYN05833605 42998 02902 11004 21035 39992 40148 52012 555 1/101=","","","","","","","","","",""
"33605099999","2021-12-04T17:00:00","49.0833333","32.6666666","124.0","CHYHYRYN, UP","FM-12","4","","26","31","","","+0.00","8","83","","29.95","29.49","12.43","29","120","","2","","","","","","","","","","","","","","","","","","","","","","","","","","","","","","","","","","","","","","","","","","","","","","","","","","","","","","","","","","","","","","","","","","","","","","","","","","","","","","","","","","","","","","","","","","","SYN05833605 42998 01201 11008 21033 39986 40142 58001 555 1/103=","","","","","","","","","",""
"33605099999","2021-12-05T20:00:00","49.0833333","32.6666666","124.0","CHYHYRYN, UP","FM-12","4","","30","31","","","-0.01","3","94","OVC:08 8","29.98","29.52","2.49","31","130","","4","","","","","","","","","","","","","","","","","","","","","","","","","","","","","","","","","","","","","","","","","","","","","","","","","","","","","","","","","","","","","","","","","","","","","","","","","","","","","","","","","","","","","","","","","","","SYN08633605 31396 81302 11003 21012 39996 40152 53003 71022 886// 333 11003 88708 555 1/100=","","","","","","","","","",""
"33605099999","2021-12-09T08:00:00","49.0833333","32.6666666","124.0","CHYHYRYN, UP","FM-12","4","","41","41","","||DZ","-0.05","2","100","","29.86","29.41","0.12","41","070","","7","","","","","","","","","","","","","","","","","","","","","","","","","","","","","","","","","","","","","","","","","","","","","","","","","","","","","","","","","","","","","","","","","","","","","","","","","","","","","","","","","","","","","","","","","","","SYN08633605 11/02 90703 10052 20052 39961 40113 52016 60012 75154 333 20052 96045 555 12005=","","","","","","","","","",""
"33605099999","2021-12-09T20:00:00","49.0833333","32.6666666","124.0","CHYHYRYN, UP","FM-12","4","","43","43","","||DZ","-0.03","2","100","","29.99","29.54","0.12","43","200","","2","","","","","","","","","","","","","","","","","","","","","","","","","","","","","","","","","","","","","","","","","","","","","","","","","","","","","","","","","","","","","","","","","","","","","","","","","","","","","","","","","","","","","","","","","","","SYN08633605 11/92 92001 10061 20061 30004 40156 52009 69992 75154 333 10061 96045 555 1/006=","","","","","","","","","",""
"33605099999","2021-12-12T08:00:00","49.0833333","32.6666666","124.0","CHYHYRYN, UP","FM-12","4","","36","36","","||DZ","-0.02","2","100","","30.28","29.82","0.50","36","140","","7","","","","","","","","","","","","","","","","","","","","","","","","","","","","","","","","","","","","","","","","","","","","","","","","","","","","","","","","","","","","","","","","","","","","","","","","","","","","","","","","","","","","","","","","","","","SYN08633605 11/08 91403 10024 20024 30097 40253 52007 69942 75154 333 20024 96045 555 12003=","","","","","","","","","",""
"33605099999","2021-12-14T08:00:00","49.0833333","32.6666666","124.0","CHYHYRYN, UP","FM-12","4","","33","33","","||DZ","-0.02","2","100","","30.19","29.73","0.31","33","040","","4","","","","","","","","","","","","","","","","","","","","","","","","","","","","","","","","","","","","","","","","","","","","","","","","","","","","","","","","","","","","","","","","","","","","","","","","","","","","","","","","","","","","","","","","","","","SYN08633605 11/05 90402 10008 20008 30068 40224 52008 60032 75165 333 20003 96045 555 12001=","","","","","","","","","",""
"33605099999","2021-12-15T20:00:00","49.0833333","32.6666666","124.0","CHYHYRYN, UP","FM-12","4","","31","33","","","-0.04","2","90","OVC:08 11","30.28","29.81","6.21","32","030","","11","","","","","","","","","","","","","","","","","","","","","","","","","","","","","","","","","","","","","","","","","","","","","","","","","","","","","","","","","","","","","","","","","","","","","","","","","","","","","","","","","","","","","","","","","","","SYN08633605 12497 80305 10006 21008 30096 40253 52012 69902 886// 333 10007 88711 555 1/000=","","","","","","","","","",""
"33605099999","2021-12-17T20:00:00","49.0833333","32.6666666","124.0","CHYHYRYN, UP","FM-12","4","","32","36","","","-0.01","3","86","OVC:08 16","29.94","29.48","31.07","34","350","","7","","","","","","","","","","","","","","","","","","","","","","","","","","","","","","","","","","","","","","","","","","","","","","","","","","","","","","","","","","","","","","","","","","","","","","","","","","","","","","","","","","","","","","","","","","","SYN08633605 12499 83503 10023 20001 39984 40138 53004 69982 883// 333 10045 88916 555 1/002=","","","","","","","","","",""
"33605099999","2021-12-20T08:00:00","49.0833333","32.6666666","124.0","CHYHYRYN, UP","FM-12","4","","29","33","","","-0.04","2","87","BKN:07 23","29.54","29.09","14.91","31","290","","7","","","","","","","","","","","","","","","","","","","","","","","","","","","","","","","","","","","","","","","","","","","","","","","","","","","","","","","","","","","","","","","","","","","","","","","","","","","","","","","","","","","","","","","","","","","SYN08633605 12574 72903 10004 21016 39850 40003 52014 69932 87500 333 20002 87623 555 14101=","","","","","","","","","",""
"33605099999","2021-12-23T11:00:00","49.0833333","32.6666666","124.0","CHYHYRYN, UP","FM-12","4","","7","14","","","-0.04","2","75","15","30.32","29.84","16.16","12","330","","4","","","","","","","","","","","","","","","","","","","","","","","","","","","","","","","","","","","","","","","","","","","","","","","","","","","","","","","","","","","","","","","","","","","","","","","","","","","","","","","","","","","","","","","","","","","SYN05433605 11476 83302 11102 21138 30105 40269 52014 60012=","","","","","","","","","",""
"33605099999","2021-12-23T17:00:00","49.0833333","32.6666666","124.0","CHYHYRYN, UP","FM-12","4","","4","11","","","+0.01","8","72","","30.30","29.81","31.07","9","220","","2","","","","","","","","","","","","","","","","","","","","","","","","","","","","","","","","","","","","","","","","","","","","","","","","","","","","","","","","","","","","","","","","","","","","","","","","","","","","","","","","","","","","","","","","","","","SYN05833605 42999 02201 11118 21158 30096 40261 58002 555 1/119=","","","","","","","","","",""
"33605099999","2021-12-23T23:00:00","49.0833333","32.6666666","124.0","CHYHYRYN, UP","FM-12","4","","1","6","","","+0.04","7","80","","30.24","29.75","31.07","5","160","","2","","","","","","","","","","","","","","","","","","","","","","","","","","","","","","","","","","","","","","","","","","","","","","","","","","","","","","","","","","","","","","","","","","","","","","","","","","","","","","","","","","","","","","","","","","","SYN05833605 42999 01601 11146 21173 30075 40241 57012 555 1/118=","","","","","","","","","",""
"33605099999","2021-12-24T02:00:00","49.0833333","32.6666666","124.0","CHYHYRYN, UP","FM-12","4","","3","8","","","+0.05","7","78","","30.19","29.70","12.43","7","210","","7","","","","","","","","","","","","","","","","","","","","","","","","","","","","","","","","","","","","","","","","","","","","","","","","","","","","","","","","","","","","","","","","","","","","","","","","","","","","","","","","","","","","","","","","","","","SYN05833605 32998 02103 11132 21162 30058 40223 57017 555 1/115=","","","","","","","","","",""
"33605099999","2021-12-26T08:00:00","49.0833333","32.6666666","124.0","CHYHYRYN, UP","FM-12","4","","15","25","","","-0.06","2","66","SCT:04 26","29.99","29.52","12.43","22","310","","4","","","","","","","","","","","","","","","","","","","","","","","","","","","","","","","","","","","","","","","","","","","","","","","","","","","","","","","","","","","","","","","","","","","","","","","","","","","","","","","","","","","","","","","","","","","SYN08633605 12598 53102 11040 21094 39998 40156 52019 69972 84501 333 21040 47002 555 17105=","","","","","","","","","",""
"33605099999","2021-12-26T23:00:00","49.0833333","32.6666666","124.0","CHYHYRYN, UP","FM-12","4","","14","20","","","-0.03","2","76","","30.11","29.63","12.43","18","230","","7","","","","","","","","","","","","","","","","","","","","","","","","","","","","","","","","","","","","","","","","","","","","","","","","","","","","","","","","","","","","","","","","","","","","","","","","","","","","","","","","","","","","","","","","","","","SYN05833605 42998 02303 11065 21101 30035 40195 52010 555 1/108=","","","","","","","","","",""
"33605099999","2021-12-27T02:00:00","49.0833333","32.6666666","124.0","CHYHYRYN, UP","FM-12","4","","12","17","","","-0.03","2","80","","30.14","29.67","12.43","16","290","","4","","","","","","","","","","","","","","","","","","","","","","","","","","","","","","","","","","","","","","","","","","","","","","","","","","","","","","","","","","","","","","","","","","","","","","","","","","","","","","","","","","","","","","","","","","","SYN05833605 32998 02902 11084 21112 30046 40208 52011 555 1/110=","","","","","","","","","",""
"33605099999","2021-12-27T05:00:00","49.0833333","32.6666666","124.0","CHYHYRYN, UP","FM-12","4","","7","12","","","-0.03","2","82","","30.18","29.70","6.21","11","250","","4","","","","","","","","","","","","","","","","","","","","","","","","","","","","","","","","","","","","","","","","","","","","","","","","","","","","","","","","","","","","","","","","","","","","","","","","","","","","","","","","","","","","","","","","","","","SYN05833605 42997 02502 11113 21138 30056 40220 52010 555 1/112=","","","","","","","","","",""
"33605099999","2021-12-27T08:00:00","49.0833333","32.6666666","124.0","CHYHYRYN, UP","FM-12","4","","8","10","","","-0.04","2","90","FEW:02","30.22","29.74","4.97","10","320","","2","","","","","","","","","","","","","","","","","","","","","","","","","","","","","","","","","","","","","","","","","","","","","","","","","","","","","","","","","","","","","","","","","","","","","","","","","","","","","","","","","","","","","","","","","","","SYN08633605 31958 23201 11120 21133 30070 40234 52014 71000 82041 333 21120 43002 555 13113=","","","","","","","","","",""
"33605099999","2021-12-28T20:00:00","49.0833333","32.6666666","124.0","CHYHYRYN, UP","FM-12","4","","19","22","","","+0.04","7","90","","29.92","29.45","0.62","21","060","","11","","","","","","","","","","","","","","","","","","","","","","","","","","","","","","","","","","","","","","","","","","","","","","","","","","","","","","","","","","","","","","","","","","","","","","","","","","","","","","","","","","","","","","","","","","","SYN08633605 11/94 90605 11056 21070 39972 40131 57014 60062 77373 333 11056 92982 555 1/106=","","","","","","","","","",""
"33605099999","2021-12-29T20:00:00","49.0833333","32.6666666","124.0","CHYHYRYN, UP","FM-12","4","","21","23","","","-0.02","2","93","OVC:08 13","30.00","29.53","2.49","22","310","","2","","","","","","","","","","","","","","","","","","","","","","","","","","","","","","","","","","","","","","","","","","","","","","","","","","","","","","","","","","","","","","","","","","","","","","","","","","","","","","","","","","","","","","","","","","","SYN08633605 31496 83101 11052 21062 39999 40158 52007 71022 886// 333 11051 88713 555 1/106=","","","","","","","","","",""
"33605099999","2021-12-30T08:00:00","49.0833333","32.6666666","124.0","CHYHYRYN, UP","FM-12","4","","20","23","","","-0.05","2","88","OVC:08 11","30.12","29.65","3.11","22","290","","4","","","","","","","","","","","","","","","","","","","","","","","","","","","","","","","","","","","","","","","","","","","","","","","","","","","","","","","","","","","","","","","","","","","","","","","","","","","","","","","","","","","","","","","","","","","SYN09233605 31450 82902 11052 21069 30042 40201 52017 71022 886// 333 21053 48005 88711 555 18105=","","","","","","","","","",""
"33605099999","2021-12-30T20:00:00","49.0833333","32.6666666","124.0","CHYHYRYN, UP","FM-12","4","","22","26","","","-0.01","3","86","OVC:08 14","30.16","29.69","2.49","25","220","","2","","","","","","","","","","","","","","","","","","","","","","","","","","","","","","","","","","","","","","","","","","","","","","","","","","","","","","","","","","","","","","","","","","","","","","","","","","","","","","","","","","","","","","","","","","","SYN08633605 31496 82201 11035 21056 30053 40212 53004 71022 886// 333 11029 88714 555 1/104=","","","","","","","","","",""
"33605099999","2021-12-31T08:00:00","49.0833333","32.6666666","124.0","CHYHYRYN, UP","FM-12","4","","20","23","","","+0.02","7","86","OVC:08 15","30.05","29.58","5.59","22","210","","11","","","","","","","","","","","","","","","","","","","","","","","","","","","","","","","","","","","","","","","","","","","","","","","","","","","","","","","","","","","","","","","","","","","","","","","","","","","","","","","","","","","","","","","","","","","SYN09233605 31459 82105 11048 21068 30017 40176 57007 71022 885// 333 21054 48004 88715 555 18105=","","","","","","","","","",""
