"STATION","DATE","LATITUDE","LONGITUDE","ELEVATION","NAME","REPORT_TYPE","SOURCE","HourlyAltimeterSetting","HourlyDewPointTemperature","HourlyDryBulbTemperature","HourlyPrecipitation","HourlyPresentWeatherType","HourlyPressureChange","HourlyPressureTendency","HourlyRelativeHumidity","HourlySkyConditions","HourlySeaLevelPressure","HourlyStationPressure","HourlyVisibility","HourlyWetBulbTemperature","HourlyWindDirection","HourlyWindGustSpeed","HourlyWindSpeed","Sunrise","Sunset","DailyAverageDewPointTemperature","DailyAverageDryBulbTemperature","DailyAverageRelativeHumidity","DailyAverageSeaLevelPressure","DailyAverageStationPressure","DailyAverageWetBulbTemperature","DailyAverageWindSpeed","DailyCoolingDegreeDays","DailyDepartureFromNormalAverageTemperature","DailyHeatingDegreeDays","DailyMaximumDryBulbTemperature","DailyMinimumDryBulbTemperature","DailyPeakWindDirection","DailyPeakWindSpeed","DailyPrecipitation","DailySnowDepth","DailySnowfall","DailySustainedWindDirection","DailySustainedWindSpeed","DailyWeather","MonthlyAverageRH","MonthlyDaysWithGT001Precip","MonthlyDaysWithGT010Precip","MonthlyDaysWithGT32Temp","MonthlyDaysWithGT90Temp","MonthlyDaysWithLT0Temp","MonthlyDaysWithLT32Temp","MonthlyDepartureFromNormalAverageTemperature","MonthlyDepartureFromNormalCoolingDegreeDays","MonthlyDepartureFromNormalHeatingDegreeDays","MonthlyDepartureFromNormalMaximumTemperature","MonthlyDepartureFromNormalMinimumTemperature","MonthlyDepartureFromNormalPrecipitation","MonthlyDewpointTemperature","MonthlyGreatestPrecip","MonthlyGreatestPrecipDate","MonthlyGreatestSnowDepth","MonthlyGreatestSnowDepthDate","MonthlyGreatestSnowfall","MonthlyGreatestSnowfallDate","MonthlyMaxSeaLevelPressureValue","MonthlyMaxSeaLevelPressureValueDate","MonthlyMaxSeaLevelPressureValueTime","MonthlyMaximumTemperature","MonthlyMeanTemperature","MonthlyMinSeaLevelPressureValue","MonthlyMinSeaLevelPressureValueDate","MonthlyMinSeaLevelPressureValueTime","MonthlyMinimumTemperature","MonthlySeaLevelPressure","MonthlyStationPressure","MonthlyTotalLiquidPrecipitation","MonthlyTotalSnowfall","MonthlyWetBulb","AWND","CDSD","CLDD","DSNW","HDSD","HTDD","DYTS","DYHF","NormalsCoolingDegreeDay","NormalsHeatingDegreeDay","ShortDurationEndDate005","ShortDurationEndDate010","ShortDurationEndDate015","ShortDurationEndDate020","ShortDurationEndDate030","ShortDurationEndDate045","ShortDurationEndDate060","ShortDurationEndDate080","ShortDurationEndDate100","ShortDurationEndDate120","ShortDurationEndDate150","ShortDurationEndDate180","ShortDurationPrecipitationValue005","ShortDurationPrecipitationValue010","ShortDurationPrecipitationValue015","ShortDurationPrecipitationValue020","ShortDurationPrecipitationValue030","ShortDurationPrecipitationValue045","ShortDurationPrecipitationValue060","ShortDurationPrecipitationValue080","ShortDurationPrecipitationValue100","ShortDurationPrecipitationValue120","ShortDurationPrecipitationValue150","ShortDurationPrecipitationValue180","REM","BackupDirection","BackupDistance","BackupDistanceUnit","BackupElements","BackupElevation","BackupEquipment","BackupLatitude","BackupLongitude","BackupName","WindEquipmentChangeDate"
"41936099999","2021-01-01T00:00:00","23.1838","89.160833","6.09","JESSORE, BG","FM-12","4","","54","55","","||HZ","","9","96","","29.99","29.97","1.24","54","000","","0","","","","","","","","","","","","","","","","","","","","","","","","","","","","","","","","","","","","","","","","","","","","","","","","","","","","","","","","","","","","","","","","","","","","","","","","","","","","","","","","","","","","","","","","","","","SYN06441936 31920 00000 10126 20120 30148 40156 70500 333 59003 70000=","","","","","","","","","",""
"41936099999","2021-01-01T03:00:00","23.1838","89.160833","6.09","JESSORE, BG","FM-12","4","","50","53","","||HZ","","9","91","","29.96","29.93","0.99","51","000","","0","","","","","","","","","","","","","","","","","","","","","","","","","","","","","","","","","","","","","","","","","","","","","","","","","","","","","","","","","","","","","","","","","","","","","","","","","","","","","","","","","","","","","","","","","","","SYN06441936 31916 00000 10114 20100 30137 40144 70500 333 59005 70000=","","","","","","","","","",""
"41936099999","2021-01-01T06:00:00","23.1838","89.160833","6.09","JESSORE, BG","FM-12","4","","50","52","","||HZ","","9","92","","29.99","29.96","0.62","51","000","","0","","","","","","","","","","","","","","","","","","","","","","","","","","","","","","","","","","","","","","","","","","","","","","","","","","","","","","","","","","","","","","","","","","","","","","","","","","","","","","","","","","","","","","","","","","","SYN06441936 31910 00000 10112 20100 30147 40155 70500 333 58003 70000=","","","","","","","","","",""
"41936099999","2021-01-01T09:00:00","23.1838","89.160833","6.09","JESSORE, BG","FM-12","4","","54","58","","||HZ","","","85","","30.05","30.03","0.75","56","000","","0","","","","","","","","","","","","","","","","","","","","","","","","","","","","","","","","","","","","","","","","","","","","","","","","","","","","","","","","","","","","","","","","","","","","","","","","","","","","","","","","","","","","","","","","","","","SYN07641936 31912 00000 10146 20120 30168 40175 70500 333 20102 56000 58005 70000=","","","","","","","","","",""
"41936099999","2021-01-01T12:00:00","23.1838","89.160833","6.09","JESSORE, BG","FM-12","4","","52","75","","||HZ","","","44","","30.02","30.00","1.55","62","000","","0","","","","","","","","","","","","","","","","","","","","","","","","","","","","","","","","","","","","","","","","","","","","","","","","","","","","","","","","","","","","","","","","","","","","","","","","","","","","","","","","","","","","","","","","","","","SYN07041936 31925 00000 10240 20110 30159 40166 70500 333 56000 58004 70000=","","","","","","","","","",""
"41936099999","2021-01-01T15:00:00","23.1838","89.160833","6.09","JESSORE, BG","FM-12","4","","52","79","","||HZ","","9","39","","29.94","29.92","2.49","63","000","","0","","","","","","","","","","","","","","","","","","","","","","","","","","","","","","","","","","","","","","","","","","","","","","","","","","","","","","","","","","","","","","","","","","","","","","","","","","","","","","","","","","","","","","","","","","","SYN06441936 31940 00000 10260 20110 30133 40140 70500 333 58007 70000=","","","","","","","","","",""
"41936099999","2021-01-01T18:00:00","23.1838","89.160833","6.09","JESSORE, BG","FM-12","4","","57","70","","||HZ","","9","64","","29.93","29.91","2.49","62","000","","0","","","","","","","","","","","","","","","","","","","","","","","","","","","","","","","","","","","","","","","","","","","","","","","","","","","","","","","","","","","","","","","","","","","","","","","","","","","","","","","","","","","","","","","","","","","SYN07041936 31940 00000 10210 20140 30129 40136 70500 333 10264 59001 70000=","","","","","","","","","",""
"41936099999","2021-01-01T21:00:00","23.1838","89.160833","6.09","JESSORE, BG","FM-12","4","","55","64","","||HZ","","9","73","","29.97","29.95","1.86","59","000","","0","","","","","","","","","","","","","","","","","","","","","","","","","","","","","","","","","","","","","","","","","","","","","","","","","","","","","","","","","","","","","","","","","","","","","","","","","","","","","","","","","","","","","","","","","","","SYN06441936 31930 00000 10180 20130 30142 40149 70500 333 59005 70000=","","","","","","","","","",""
"41936099999","2021-01-02T00:00:00","23.1838","89.160833","6.09","JESSORE, BG","FM-12","4","","54","59","","||HZ","","9","81","","29.98","29.96","1.24","56","000","","0","","","","","","","","","","","","","","","","","","","","","","","","","","","","","","","","","","","","","","","","","","","","","","","","","","","","","","","","","","","","","","","","","","","","","","","","","","","","","","","","","","","","","","","","","","","SYN06441936 31920 00000 10152 20120 30145 40152 70500 333 59004 70000=","","","","","","","","","",""
"41936099999","2021-01-02T03:00:00","23.1838","89.160833","6.09","JESSORE, BG","FM-12","4","","52","55","","||HZ","","9","89","","29.95","29.92","0.62","53","000","","0","","","","","","","","","","","","","","","","","","","","","","","","","","","","","","","","","","","","","","","","","","","","","","","","","","","","","","","","","","","","","","","","","","","","","","","","","","","","","","","","","","","","","","","","","","","SYN06441936 31910 00000 10128 20110 30133 40141 70500 333 59003 70000=","","","","","","","","","",""
"41936099999","2021-01-02T06:00:00","23.1838","89.160833","6.09","JESSORE, BG","FM-12","4","","48","51","","||FG","","9","91","","29.98","29.96","0.37","49","000","","0","","","","","","","","","","","","","","","","","","","","","","","","","","","","","","","","","","","","","","","","","","","","","","","","","","","","","","","","","","","","","","","","","","","","","","","","","","","","","","","","","","","","","","","","","","","SYN06441936 31906 00000 10104 20090 30144 40152 74600 333 59003 70000=","","","","","","","","","",""
"41936099999","2021-01-02T09:00:00","23.1838","89.160833","6.09","JESSORE, BG","FM-12","4","","54","59","","||FG","","9","83","","30.04","30.02","0.56","56","000","","0","","","","","","","","","","","","","","","","","","","","","","","","","","","","","","","","","","","","","","","","","","","","","","","","","","","","","","","","","","","","","","","","","","","","","","","","","","","","","","","","","","","","","","","","","","","SYN07041936 31909 00000 10148 20120 30167 40174 74200 333 20092 59001 70000=","","","","","","","","","",""
"41936099999","2021-01-02T12:00:00","23.1838","89.160833","6.09","JESSORE, BG","FM-12","4","","55","77","","||HZ","","9","48","","30.01","29.99","0.99","64","000","","0","","","","","","","","","","","","","","","","","","","","","","","","","","","","","","","","","","","","","","","","","","","","","","","","","","","","","","","","","","","","","","","","","","","","","","","","","","","","","","","","","","","","","","","","","","","SYN06441936 31916 00000 10248 20130 30156 40163 70500 333 59003 70000=","","","","","","","","","",""
"41936099999","2021-01-02T15:00:00","23.1838","89.160833","6.09","JESSORE, BG","FM-12","4","","52","79","","||HZ","","9","39","","29.93","29.91","1.86","63","000","","0","","","","","","","","","","","","","","","","","","","","","","","","","","","","","","","","","","","","","","","","","","","","","","","","","","","","","","","","","","","","","","","","","","","","","","","","","","","","","","","","","","","","","","","","","","","SYN06441936 31930 00000 10260 20110 30130 40137 70500 333 59003 70000=","","","","","","","","","",""
"41936099999","2021-01-02T18:00:00","23.1838","89.160833","6.09","JESSORE, BG","FM-12","4","","57","68","","||HZ","","9","69","","29.93","29.91","1.86","62","000","","0","","","","","","","","","","","","","","","","","","","","","","","","","","","","","","","","","","","","","","","","","","","","","","","","","","","","","","","","","","","","","","","","","","","","","","","","","","","","","","","","","","","","","","","","","","","SYN07041936 31930 00000 10200 20140 30129 40136 70500 333 10264 58000 70000=","","","","","","","","","",""
"41936099999","2021-01-02T21:00:00","23.1838","89.160833","6.09","JESSORE, BG","FM-12","4","","59","63","","||HZ","","9","87","","29.96","29.93","1.55","61","000","","0","","","","","","","","","","","","","","","","","","","","","","","","","","","","","","","","","","","","","","","","","","","","","","","","","","","","","","","","","","","","","","","","","","","","","","","","","","","","","","","","","","","","","","","","","","","SYN06441936 31925 00000 10172 20150 30137 40144 70500 333 59005 70000=","","","","","","","","","",""
"41936099999","2021-01-03T00:00:00","23.1838","89.160833","6.09","JESSORE, BG","FM-12","4","","55","59","","||HZ","","9","88","","29.95","29.93","0.99","57","000","","0","","","","","","","","","","","","","","","","","","","","","","","","","","","","","","","","","","","","","","","","","","","","","","","","","","","","","","","","","","","","","","","","","","","","","","","","","","","","","","","","","","","","","","","","","","","SYN06441936 31916 00000 10150 20130 30135 40142 70500 333 59010 70000=","","","","","","","","","",""
"41936099999","2021-01-03T03:00:00","23.1838","89.160833","6.09","JESSORE, BG","FM-12","4","","54","56","","||HZ","","9","93","","29.90","29.88","0.99","55","000","","0","","","","","","","","","","","","","","","","","","","","","","","","","","","","","","","","","","","","","","","","","","","","","","","","","","","","","","","","","","","","","","","","","","","","","","","","","","","","","","","","","","","","","","","","","","","SYN06441936 31916 00000 10132 20120 30119 40126 70500 333 59015 70000=","","","","","","","","","",""
"41936099999","2021-01-03T06:00:00","23.1838","89.160833","6.09","JESSORE, BG","FM-12","4","","50","52","","||FG","","9","92","","29.95","29.93","0.25","51","000","","0","","","","","","","","","","","","","","","","","","","","","","","","","","","","","","","","","","","","","","","","","","","","","","","","","","","","","","","","","","","","","","","","","","","","","","","","","","","","","","","","","","","","","","","","","","","SYN07041936 31904 00000 10112 20100 30134 40142 74640 333 20108 59010 70000=","","","","","","","","","",""
"41936099999","2021-01-03T09:00:00","23.1838","89.160833","6.09","JESSORE, BG","FM-12","4","","55","59","","||FG","","9","88","","30.01","29.99","0.56","57","000","","0","","","","","","","","","","","","","","","","","","","","","","","","","","","","","","","","","","","","","","","","","","","","","","","","","","","","","","","","","","","","","","","","","","","","","","","","","","","","","","","","","","","","","","","","","","","SYN07041936 31909 00000 10150 20130 30156 40163 74240 333 20108 59011 70000=","","","","","","","","","",""
"41936099999","2021-01-03T12:00:00","23.1838","89.160833","6.09","JESSORE, BG","FM-12","4","","55","77","","||HZ","","9","47","","29.97","29.95","1.24","64","000","","0","","","","","","","","","","","","","","","","","","","","","","","","","","","","","","","","","","","","","","","","","","","","","","","","","","","","","","","","","","","","","","","","","","","","","","","","","","","","","","","","","","","","","","","","","","","SYN06441936 31920 00000 10250 20130 30141 40148 70540 333 59015 70000=","","","","","","","","","",""
"41936099999","2021-01-03T15:00:00","23.1838","89.160833","6.09","JESSORE, BG","FM-12","4","","55","82","","||HZ","","9","41","","29.88","29.86","1.86","66","000","","0","","","","","","","","","","","","","","","","","","","","","","","","","","","","","","","","","","","","","","","","","","","","","","","","","","","","","","","","","","","","","","","","","","","","","","","","","","","","","","","","","","","","","","","","","","","SYN06441936 31930 00000 10276 20130 30111 40119 70500 333 59018 70000=","","","","","","","","","",""
"41936099999","2021-01-03T18:00:00","23.1838","89.160833","6.09","JESSORE, BG","FM-12","4","","57","72","","||HZ","","9","61","","29.88","29.86","1.55","63","000","","0","","","","","","","","","","","","","","","","","","","","","","","","","","","","","","","","","","","","","","","","","","","","","","","","","","","","","","","","","","","","","","","","","","","","","","","","","","","","","","","","","","","","","","","","","","","SYN07041936 31925 00000 10220 20140 30112 40119 70500 333 10278 59017 70000=","","","","","","","","","",""
"41936099999","2021-01-03T21:00:00","23.1838","89.160833","6.09","JESSORE, BG","FM-12","4","","57","64","","||HZ","","9","80","","29.92","29.90","1.55","60","000","","0","","","","","","","","","","","","","","","","","","","","","","","","","","","","","","","","","","","","","","","","","","","","","","","","","","","","","","","","","","","","","","","","","","","","","","","","","","","","","","","","","","","","","","","","","","","SYN06441936 31925 00000 10176 20140 30126 40133 70500 333 59011 70000=","","","","","","","","","",""
"41936099999","2021-01-04T00:00:00","23.1838","89.160833","6.09","JESSORE, BG","FM-12","4","","55","59","","||HZ","","9","88","","29.95","29.93","0.99","57","000","","0","","","","","","","","","","","","","","","","","","","","","","","","","","","","","","","","","","","","","","","","","","","","","","","","","","","","","","","","","","","","","","","","","","","","","","","","","","","","","","","","","","","","","","","","","","","SYN06441936 31916 00000 10150 20130 30135 40142 70500 333 58000 70000=","","","","","","","","","",""
"41936099999","2021-01-04T03:00:00","23.1838","89.160833","6.09","JESSORE, BG","FM-12","4","","54","55","","||HZ","","9","95","","29.92","29.90","0.75","54","000","","0","","","","","","","","","","","","","","","","","","","","","","","","","","","","","","","","","","","","","","","","","","","","","","","","","","","","","","","","","","","","","","","","","","","","","","","","","","","","","","","","","","","","","","","","","","","SYN06441936 31912 00000 10128 20120 30125 40132 70500 333 58006 70000=","","","","","","","","","",""
"41936099999","2021-01-04T06:00:00","23.1838","89.160833","6.09","JESSORE, BG","FM-12","4","","52","54","","||FG","","9","91","","29.96","29.93","0.37","53","000","","0","","","","","","","","","","","","","","","","","","","","","","","","","","","","","","","","","","","","","","","","","","","","","","","","","","","","","","","","","","","","","","","","","","","","","","","","","","","","","","","","","","","","","","","","","","","SYN06441936 31906 00000 10124 20110 30137 40144 74140 333 58002 70000=","","","","","","","","","",""
"41936099999","2021-01-04T09:00:00","23.1838","89.160833","6.09","JESSORE, BG","FM-12","4","","57","61","","||FG","","9","88","","30.02","30.00","0.56","59","000","","0","","","","","","","","","","","","","","","","","","","","","","","","","","","","","","","","","","","","","","","","","","","","","","","","","","","","","","","","","","","","","","","","","","","","","","","","","","","","","","","","","","","","","","","","","","","SYN07041936 31909 00000 10160 20140 30160 40167 74240 333 20116 58004 70000=","","","","","","","","","",""
"41936099999","2021-01-04T12:00:00","23.1838","89.160833","6.09","JESSORE, BG","FM-12","4","","59","80","","||HZ","","9","48","","29.99","29.97","1.55","67","360","","3","","","","","","","","","","","","","","","","","","","","","","","","","","","","","","","","","","","","","","","","","","","","","","","","","","","","","","","","","","","","","","","","","","","","","","","","","","","","","","","","","","","","","","","","","","","SYN06441936 31925 03603 10268 20150 30149 40156 70500 333 58008 70000=","","","","","","","","","",""
"41936099999","2021-01-04T15:00:00","23.1838","89.160833","6.09","JESSORE, BG","FM-12","4","","","81","","||RA","","","","SCT:04 7 SCT:03 15 BKN:06 118","","","1.86","","210","","7","","","","","","","","","","","","","","","","","","","","","","","","","","","","","","","","","","","","","","","","","","","","","","","","","","","","","","","","","","","","","","","","","","","","","","","","","","","","","","","","","","","","","","","","","","","SYN10041936 21330 72106 10270 20260 30026 40033 76166 85730 333 56990 58032 6003/ 70240 84707 83615 86362=","","","","","","","","","",""
"41936099999","2021-01-04T18:00:00","23.1838","89.160833","6.09","JESSORE, BG","FM-12","4","","59","71","","||HZ","","9","67","","29.91","29.89","1.86","64","000","","0","","","","","","","","","","","","","","","","","","","","","","","","","","","","","","","","","","","","","","","","","","","","","","","","","","","","","","","","","","","","","","","","","","","","","","","","","","","","","","","","","","","","","","","","","","","SYN07041936 31930 00000 10214 20150 30121 40129 70500 333 10292 58010 70000=","","","","","","","","","",""
"41936099999","2021-01-04T21:00:00","23.1838","89.160833","6.09","JESSORE, BG","FM-12","4","","59","64","","||HZ","","9","83","","29.96","29.94","1.55","61","000","","0","","","","","","","","","","","","","","","","","","","","","","","","","","","","","","","","","","","","","","","","","","","","","","","","","","","","","","","","","","","","","","","","","","","","","","","","","","","","","","","","","","","","","","","","","","","SYN06441936 31925 00000 10180 20150 30138 40145 70500 333 58014 70000=","","","","","","","","","",""
"41936099999","2021-01-05T00:00:00","23.1838","89.160833","6.09","JESSORE, BG","FM-12","4","","59","62","","||HZ","","9","90","","29.97","29.95","1.24","60","000","","0","","","","","","","","","","","","","","","","","","","","","","","","","","","","","","","","","","","","","","","","","","","","","","","","","","","","","","","","","","","","","","","","","","","","","","","","","","","","","","","","","","","","","","","","","","","SYN06441936 31920 00000 10166 20150 30142 40149 70500 333 58007 70000=","","","","","","","","","",""
"41936099999","2021-01-05T03:00:00","23.1838","89.160833","6.09","JESSORE, BG","FM-12","4","","54","57","","||HZ","","9","88","","29.94","29.91","0.99","55","000","","0","","","","","","","","","","","","","","","","","","","","","","","","","","","","","","","","","","","","","","","","","","","","","","","","","","","","","","","","","","","","","","","","","","","","","","","","","","","","","","","","","","","","","","","","","","","SYN06441936 31916 00000 10140 20120 30130 40138 70500 333 58006 70000=","","","","","","","","","",""
"41936099999","2021-01-05T06:00:00","23.1838","89.160833","6.09","JESSORE, BG","FM-12","4","","54","56","","||HZ","","9","91","","29.96","29.94","0.62","55","000","","0","","","","","","","","","","","","","","","","","","","","","","","","","","","","","","","","","","","","","","","","","","","","","","","","","","","","","","","","","","","","","","","","","","","","","","","","","","","","","","","","","","","","","","","","","","","SYN06441936 31910 00000 10134 20120 30138 40146 70500 333 58002 70000=","","","","","","","","","",""
"41936099999","2021-01-05T09:00:00","23.1838","89.160833","6.09","JESSORE, BG","FM-12","4","","59","63","","||HZ","","9","87","","30.02","30.00","0.75","61","000","","0","","","","","","","","","","","","","","","","","","","","","","","","","","","","","","","","","","","","","","","","","","","","","","","","","","","","","","","","","","","","","","","","","","","","","","","","","","","","","","","","","","","","","","","","","","","SYN07041936 31912 00000 10172 20150 30159 40166 70540 333 20122 59001 70000=","","","","","","","","","",""
"41936099999","2021-01-05T12:00:00","23.1838","89.160833","6.09","JESSORE, BG","FM-12","4","","59","81","","||HZ","","9","47","","29.99","29.96","2.49","67","200","","3","","","","","","","","","","","","","","","","","","","","","","","","","","","","","","","","","","","","","","","","","","","","","","","","","","","","","","","","","","","","","","","","","","","","","","","","","","","","","","","","","","","","","","","","","","","SYN06441936 31940 02003 10274 20150 30147 40155 70500 333 59001 70000=","","","","","","","","","",""
"41936099999","2021-01-05T15:00:00","23.1838","89.160833","6.09","JESSORE, BG","FM-12","4","","54","86","","||HZ","","9","33","","29.91","29.88","3.11","66","000","","0","","","","","","","","","","","","","","","","","","","","","","","","","","","","","","","","","","","","","","","","","","","","","","","","","","","","","","","","","","","","","","","","","","","","","","","","","","","","","","","","","","","","","","","","","","","SYN06441936 31950 00000 10300 20120 30120 40127 70500 333 59002 70000=","","","","","","","","","",""
"41936099999","2021-01-05T18:00:00","23.1838","89.160833","6.09","JESSORE, BG","FM-12","4","","64","74","","||HZ","","9","71","","29.91","29.89","3.11","68","000","","0","","","","","","","","","","","","","","","","","","","","","","","","","","","","","","","","","","","","","","","","","","","","","","","","","","","","","","","","","","","","","","","","","","","","","","","","","","","","","","","","","","","","","","","","","","","SYN07041936 31950 00000 10236 20180 30122 40129 70500 333 10304 58000 70000=","","","","","","","","","",""
"41936099999","2021-01-05T21:00:00","23.1838","89.160833","6.09","JESSORE, BG","FM-12","4","","61","65","","||HZ","","9","87","","29.94","29.92","1.86","63","000","","0","","","","","","","","","","","","","","","","","","","","","","","","","","","","","","","","","","","","","","","","","","","","","","","","","","","","","","","","","","","","","","","","","","","","","","","","","","","","","","","","","","","","","","","","","","","SYN06441936 31930 00000 10182 20160 30131 40139 70500 333 59006 70000=","","","","","","","","","",""
"41936099999","2021-01-06T00:00:00","23.1838","89.160833","6.09","JESSORE, BG","FM-12","4","","59","62","","||HZ","","9","93","","29.94","29.92","1.24","60","000","","0","","","","","","","","","","","","","","","","","","","","","","","","","","","","","","","","","","","","","","","","","","","","","","","","","","","","","","","","","","","","","","","","","","","","","","","","","","","","","","","","","","","","","","","","","","","SYN06441936 31920 00000 10164 20152 30131 40138 70500 333 59011 70000=","","","","","","","","","",""
"41936099999","2021-01-06T03:00:00","23.1838","89.160833","6.09","JESSORE, BG","FM-12","4","","58","59","","||HZ","","9","95","","29.89","29.87","1.24","58","000","","0","","","","","","","","","","","","","","","","","","","","","","","","","","","","","","","","","","","","","","","","","","","","","","","","","","","","","","","","","","","","","","","","","","","","","","","","","","","","","","","","","","","","","","","","","","","SYN06441936 31920 00000 10152 20144 30115 40122 70500 333 59016 70000=","","","","","","","","","",""
"41936099999","2021-01-06T06:00:00","23.1838","89.160833","6.09","JESSORE, BG","FM-12","4","","55","56","","||FG","","9","96","","29.93","29.91","0.43","55","000","","0","","","","","","","","","","","","","","","","","","","","","","","","","","","","","","","","","","","","","","","","","","","","","","","","","","","","","","","","","","","","","","","","","","","","","","","","","","","","","","","","","","","","","","","","","","","SYN06441936 31907 00000 10136 20130 30127 40134 74000 333 59012 70000=","","","","","","","","","",""
"41936099999","2021-01-06T09:00:00","23.1838","89.160833","6.09","JESSORE, BG","FM-12","4","","61","65","","","","9","87","","29.98","29.96","0.62","63","000","","0","","","","","","","","","","","","","","","","","","","","","","","","","","","","","","","","","","","","","","","","","","","","","","","","","","","","","","","","","","","","","","","","","","","","","","","","","","","","","","","","","","","","","","","","","","","SYN07041936 31910 00000 10182 20160 30145 40152 72840 333 20134 58014 70000=","","","","","","","","","",""
"41936099999","2021-01-06T12:00:00","23.1838","89.160833","6.09","JESSORE, BG","FM-12","4","","59","82","","||HZ","","9","46","","29.91","29.89","1.86","68","000","","0","","","","","","","","","","","","","","","","","","","","","","","","","","","","","","","","","","","","","","","","","","","","","","","","","","","","","","","","","","","","","","","","","","","","","","","","","","","","","","","","","","","","","","","","","","","SYN06441936 31930 00000 10278 20150 30121 40129 70540 333 59026 70000=","","","","","","","","","",""
"41936099999","2021-01-06T15:00:00","23.1838","89.160833","6.09","JESSORE, BG","FM-12","4","","57","87","","||HZ","","9","37","","29.83","29.80","1.86","68","000","","0","","","","","","","","","","","","","","","","","","","","","","","","","","","","","","","","","","","","","","","","","","","","","","","","","","","","","","","","","","","","","","","","","","","","","","","","","","","","","","","","","","","","","","","","","","","SYN06441936 31930 00000 10304 20140 30093 40100 70500 333 59027 70000=","","","","","","","","","",""
"41936099999","2021-01-06T18:00:00","23.1838","89.160833","6.09","JESSORE, BG","FM-12","4","","63","75","","||HZ","","9","65","","29.82","29.80","1.86","67","000","","0","","","","","","","","","","","","","","","","","","","","","","","","","","","","","","","","","","","","","","","","","","","","","","","","","","","","","","","","","","","","","","","","","","","","","","","","","","","","","","","","","","","","","","","","","","","SYN07041936 31930 00000 10240 20170 30092 40099 70500 333 10308 59030 70000=","","","","","","","","","",""
"41936099999","2021-01-07T00:00:00","23.1838","89.160833","6.09","JESSORE, BG","FM-12","4","","59","64","","||HZ","","9","83","","29.88","29.86","1.24","61","000","","0","","","","","","","","","","","","","","","","","","","","","","","","","","","","","","","","","","","","","","","","","","","","","","","","","","","","","","","","","","","","","","","","","","","","","","","","","","","","","","","","","","","","","","","","","","","SYN06441936 31920 00000 10180 20150 30111 40119 70500 333 59019 70000=","","","","","","","","","",""
"41936099999","2021-01-07T03:00:00","23.1838","89.160833","6.09","JESSORE, BG","FM-12","4","","55","59","","||HZ","","9","88","","29.84","29.82","0.99","57","000","","0","","","","","","","","","","","","","","","","","","","","","","","","","","","","","","","","","","","","","","","","","","","","","","","","","","","","","","","","","","","","","","","","","","","","","","","","","","","","","","","","","","","","","","","","","","","SYN06441936 31916 00000 10150 20130 30099 40106 70500 333 59016 70000=","","","","","","","","","",""
"41936099999","2021-01-07T06:00:00","23.1838","89.160833","6.09","JESSORE, BG","FM-12","4","","55","59","","||FG","","9","89","","29.86","29.84","0.43","57","000","","0","","","","","","","","","","","","","","","","","","","","","","","","","","","","","","","","","","","","","","","","","","","","","","","","","","","","","","","","","","","","","","","","","","","","","","","","","","","","","","","","","","","","","","","","","","","SYN06441936 31907 00000 10148 20130 30106 40113 74000 333 59021 70000=","","","","","","","","","",""
"41936099999","2021-01-07T09:00:00","23.1838","89.160833","6.09","JESSORE, BG","FM-12","4","","63","67","","||FG","","9","86","","29.94","29.92","0.56","65","000","","0","","","","","","","","","","","","","","","","","","","","","","","","","","","","","","","","","","","","","","","","","","","","","","","","","","","","","","","","","","","","","","","","","","","","","","","","","","","","","","","","","","","","","","","","","","","SYN07041936 31909 00000 10194 20170 30131 40138 74240 333 20124 59014 70000=","","","","","","","","","",""
"41936099999","2021-01-07T12:00:00","23.1838","89.160833","6.09","JESSORE, BG","FM-12","4","","59","84","","||HZ","","9","43","","29.90","29.88","1.12","68","000","","0","","","","","","","","","","","","","","","","","","","","","","","","","","","","","","","","","","","","","","","","","","","","","","","","","","","","","","","","","","","","","","","","","","","","","","","","","","","","","","","","","","","","","","","","","","","SYN06441936 31918 00000 10290 20150 30118 40125 70500 333 59004 70000=","","","","","","","","","",""
"41936099999","2021-01-07T15:00:00","23.1838","89.160833","6.09","JESSORE, BG","FM-12","4","","59","87","","||HZ","","9","39","","29.81","29.79","1.24","69","000","","0","","","","","","","","","","","","","","","","","","","","","","","","","","","","","","","","","","","","","","","","","","","","","","","","","","","","","","","","","","","","","","","","","","","","","","","","","","","","","","","","","","","","","","","","","","","SYN06441936 31920 00000 10306 20150 30089 40096 70500 333 59004 70000=","","","","","","","","","",""
"41936099999","2021-01-07T18:00:00","23.1838","89.160833","6.09","JESSORE, BG","FM-12","4","","","90s","","||HZ","","","","FEW:02 15","","","3.11","","000","","0","","","","","","","","","","","","","","","","","","","","","","","","","","","","","","","","","","","","","","","","","","","","","","","","","","","","","","","","","","","","","","","","","","","","","","","","","","","","","","","","","","","","","","","","","","","SYN08841936 31450 20000 10320 20290 39974 49980 70511 82500 333 10360 56900 59032 70110 82615=","","","","","","","","","",""
"41936099999","2021-01-07T21:00:00","23.1838","89.160833","6.09","JESSORE, BG","FM-12","4","","63","68s","","||HZ","","9","84","","29.86","29.84","1.24","65","000","","0","","","","","","","","","","","","","","","","","","","","","","","","","","","","","","","","","","","","","","","","","","","","","","","","","","","","","","","","","","","","","","","","","","","","","","","","","","","","","","","","","","","","","","","","","","","SYN06441936 31920 00000 10198 20170 30105 40113 70500 333 59003 70000=","","","","","","","","","",""
"41936099999","2021-01-08T00:00:00","23.1838","89.160833","6.09","JESSORE, BG","FM-12","4","","62","64","","||HZ","","9","93","","29.85","29.82","1.24","63","000","","0","","","","","","","","","","","","","","","","","","","","","","","","","","","","","","","","","","","","","","","","","","","","","","","","","","","","","","","","","","","","","","","","","","","","","","","","","","","","","","","","","","","","","","","","","","","SYN06441936 31920 00000 10180 20168 30099 40107 70500 333 59012 70000=","","","","","","","","","",""
"41936099999","2021-01-08T03:00:00","23.1838","89.160833","6.09","JESSORE, BG","FM-12","4","","61","62","","||HZ","","9","95","","29.80","29.78","0.99","61","000","","0","","","","","","","","","","","","","","","","","","","","","","","","","","","","","","","","","","","","","","","","","","","","","","","","","","","","","","","","","","","","","","","","","","","","","","","","","","","","","","","","","","","","","","","","","","","SYN06441936 31916 00000 10168 20160 30086 40093 70500 333 59013 70000=","","","","","","","","","",""
"41936099999","2021-01-08T06:00:00","23.1838","89.160833","6.09","JESSORE, BG","FM-12","4","","59","62","","||HZ","","9","92","","29.84","29.82","0.31","60","000","","0","","","","","","","","","","","","","","","","","","","","","","","","","","","","","","","","","","","","","","","","","","","","","","","","","","","","","","","","","","","","","","","","","","","","","","","","","","","","","","","","","","","","","","","","","","","SYN06441936 31905 00000 10164 20150 30097 40104 70500 333 59009 70000=","","","","","","","","","",""
"41936099999","2021-01-08T09:00:00","23.1838","89.160833","6.09","JESSORE, BG","FM-12","4","","64","65","","||FG","","9","96","","29.92","29.90","0.43","64","000","","0","","","","","","","","","","","","","","","","","","","","","","","","","","","","","","","","","","","","","","","","","","","","","","","","","","","","","","","","","","","","","","","","","","","","","","","","","","","","","","","","","","","","","","","","","","","SYN07041936 31907 00000 10186 20180 30126 40133 74240 333 20160 59005 70000=","","","","","","","","","",""
"41936099999","2021-01-08T12:00:00","23.1838","89.160833","6.09","JESSORE, BG","FM-12","4","","59","83","","||HZ","","9","45","","29.90","29.88","1.24","68","100","","7","","","","","","","","","","","","","","","","","","","","","","","","","","","","","","","","","","","","","","","","","","","","","","","","","","","","","","","","","","","","","","","","","","","","","","","","","","","","","","","","","","","","","","","","","","","SYN06441936 31920 01006 10282 20150 30118 40125 70540 333 58000 70000=","","","","","","","","","",""
"41936099999","2021-01-08T15:00:00","23.1838","89.160833","6.09","JESSORE, BG","FM-12","4","","59","84","","||HZ","","9","43","","29.83","29.81","1.86","68","000","","0","","","","","","","","","","","","","","","","","","","","","","","","","","","","","","","","","","","","","","","","","","","","","","","","","","","","","","","","","","","","","","","","","","","","","","","","","","","","","","","","","","","","","","","","","","","SYN06441936 31930 00000 10290 20150 30096 40103 70500 333 59005 70000=","","","","","","","","","",""
"41936099999","2021-01-08T18:00:00","23.1838","89.160833","6.09","JESSORE, BG","FM-12","4","","63","75","","||HZ","","9","66","","29.84","29.82","1.86","67","000","","0","","","","","","","","","","","","","","","","","","","","","","","","","","","","","","","","","","","","","","","","","","","","","","","","","","","","","","","","","","","","","","","","","","","","","","","","","","","","","","","","","","","","","","","","","","","SYN07041936 31930 00000 10238 20170 30098 40105 70510 333 10310 58007 70000=","","","","","","","","","",""
"41936099999","2021-01-08T21:00:00","23.1838","89.160833","6.09","JESSORE, BG","FM-12","4","","63","66","","||HZ","","9","89","","29.88","29.86","1.55","64","000","","0","","","","","","","","","","","","","","","","","","","","","","","","","","","","","","","","","","","","","","","","","","","","","","","","","","","","","","","","","","","","","","","","","","","","","","","","","","","","","","","","","","","","","","","","","","","SYN06441936 31925 00000 10188 20170 30113 40120 70500 333 59007 70000=","","","","","","","","","",""
"41936099999","2021-01-09T00:00:00","23.1838","89.160833","6.09","JESSORE, BG","FM-12","4","","61","64","","||HZ","","9","90","","29.90","29.88","1.24","62","000","","0","","","","","","","","","","","","","","","","","","","","","","","","","","","","","","","","","","","","","","","","","","","","","","","","","","","","","","","","","","","","","","","","","","","","","","","","","","","","","","","","","","","","","","","","","","","SYN06441936 31920 00000 10176 20160 30118 40126 70500 333 59019 70000=","","","","","","","","","",""
"41936099999","2021-01-09T03:00:00","23.1838","89.160833","6.09","JESSORE, BG","FM-12","4","","59","62","","||HZ","","9","92","","29.87","29.85","0.99","60","000","","0","","","","","","","","","","","","","","","","","","","","","","","","","","","","","","","","","","","","","","","","","","","","","","","","","","","","","","","","","","","","","","","","","","","","","","","","","","","","","","","","","","","","","","","","","","","SYN06441936 31916 00000 10164 20150 30108 40115 70500 333 59022 70000=","","","","","","","","","",""
"41936099999","2021-01-09T06:00:00","23.1838","89.160833","6.09","JESSORE, BG","FM-12","4","","59","62","","||HZ","","9","92","","29.89","29.87","0.62","60","000","","0","","","","","","","","","","","","","","","","","","","","","","","","","","","","","","","","","","","","","","","","","","","","","","","","","","","","","","","","","","","","","","","","","","","","","","","","","","","","","","","","","","","","","","","","","","","SYN06441936 31910 00000 10164 20150 30115 40123 70500 333 59019 70000=","","","","","","","","","",""
"41936099999","2021-01-09T09:00:00","23.1838","89.160833","6.09","JESSORE, BG","FM-12","4","","59","68","","||FG","","9","73","","29.94","29.92","0.56","63","000","","0","","","","","","","","","","","","","","","","","","","","","","","","","","","","","","","","","","","","","","","","","","","","","","","","","","","","","","","","","","","","","","","","","","","","","","","","","","","","","","","","","","","","","","","","","","","SYN07041936 31909 00000 10200 20150 30131 40139 74240 333 20160 58006 70000=","","","","","","","","","",""
"41936099999","2021-01-09T12:00:00","23.1838","89.160833","6.09","JESSORE, BG","FM-12","4","","57","81","","||HZ","","9","45","","29.91","29.89","1.24","66","000","","0","","","","","","","","","","","","","","","","","","","","","","","","","","","","","","","","","","","","","","","","","","","","","","","","","","","","","","","","","","","","","","","","","","","","","","","","","","","","","","","","","","","","","","","","","","","SYN06441936 31920 00000 10270 20140 30121 40128 70500 333 59002 70000=","","","","","","","","","",""
"41936099999","2021-01-09T15:00:00","23.1838","89.160833","6.09","JESSORE, BG","FM-12","4","","57","84","","||HZ","","9","40","","29.82","29.80","1.86","67","000","","0","","","","","","","","","","","","","","","","","","","","","","","","","","","","","","","","","","","","","","","","","","","","","","","","","","","","","","","","","","","","","","","","","","","","","","","","","","","","","","","","","","","","","","","","","","","SYN06441936 31930 00000 10290 20140 30090 40097 70500 333 59006 70000=","","","","","","","","","",""
"41936099999","2021-01-09T18:00:00","23.1838","89.160833","6.09","JESSORE, BG","FM-12","4","","64","73","","||HZ","","9","74","","29.82","29.80","1.86","67","000","","0","","","","","","","","","","","","","","","","","","","","","","","","","","","","","","","","","","","","","","","","","","","","","","","","","","","","","","","","","","","","","","","","","","","","","","","","","","","","","","","","","","","","","","","","","","","SYN07041936 31930 00000 10230 20180 30090 40098 70500 333 10296 59007 70000=","","","","","","","","","",""
"41936099999","2021-01-09T21:00:00","23.1838","89.160833","6.09","JESSORE, BG","FM-12","4","","63","68","","||HZ","","9","83","","29.88","29.86","1.24","65","000","","0","","","","","","","","","","","","","","","","","","","","","","","","","","","","","","","","","","","","","","","","","","","","","","","","","","","","","","","","","","","","","","","","","","","","","","","","","","","","","","","","","","","","","","","","","","","SYN06441936 31920 00000 10200 20170 30111 40118 70500 333 59002 70000=","","","","","","","","","",""
"41936099999","2021-01-10T00:00:00","23.1838","89.160833","6.09","JESSORE, BG","FM-12","4","","61","66","","||HZ","","9","84","","29.88","29.85","0.99","63","000","","0","","","","","","","","","","","","","","","","","","","","","","","","","","","","","","","","","","","","","","","","","","","","","","","","","","","","","","","","","","","","","","","","","","","","","","","","","","","","","","","","","","","","","","","","","","","SYN06441936 31916 00000 10188 20160 30110 40117 70500 333 59009 70000=","","","","","","","","","",""
"41936099999","2021-01-10T03:00:00","23.1838","89.160833","6.09","JESSORE, BG","FM-12","4","","59","63","","||HZ","","9","86","","29.84","29.82","0.87","61","000","","0","","","","","","","","","","","","","","","","","","","","","","","","","","","","","","","","","","","","","","","","","","","","","","","","","","","","","","","","","","","","","","","","","","","","","","","","","","","","","","","","","","","","","","","","","","","SYN06441936 31914 00000 10174 20150 30098 40105 70500 333 59010 70000=","","","","","","","","","",""
"41936099999","2021-01-10T06:00:00","23.1838","89.160833","6.09","JESSORE, BG","FM-12","4","","59","62","","||FG","","9","92","","29.88","29.86","0.31","60","000","","0","","","","","","","","","","","","","","","","","","","","","","","","","","","","","","","","","","","","","","","","","","","","","","","","","","","","","","","","","","","","","","","","","","","","","","","","","","","","","","","","","","","","","","","","","","","SYN06441936 31905 00000 10164 20150 30111 40118 74240 333 59005 70000=","","","","","","","","","",""
"41936099999","2021-01-10T09:00:00","23.1838","89.160833","6.09","JESSORE, BG","FM-12","4","","64","69","","||FG","","9","86","","29.93","29.91","0.31","66","000","","0","","","","","","","","","","","","","","","","","","","","","","","","","","","","","","","","","","","","","","","","","","","","","","","","","","","","","","","","","","","","","","","","","","","","","","","","","","","","","","","","","","","","","","","","","","","SYN07041936 31905 00000 10204 20180 30129 40137 74440 333 20160 59002 70000=","","","","","","","","","",""
"41936099999","2021-01-10T12:00:00","23.1838","89.160833","6.09","JESSORE, BG","FM-12","4","","55","82","","||HZ","","9","40","","29.90","29.88","1.24","66","270","","3","","","","","","","","","","","","","","","","","","","","","","","","","","","","","","","","","","","","","","","","","","","","","","","","","","","","","","","","","","","","","","","","","","","","","","","","","","","","","","","","","","","","","","","","","","","SYN06441936 31920 02703 10280 20130 30119 40126 70500 333 59002 70000=","","","","","","","","","",""
"41936099999","2021-01-10T15:00:00","23.1838","89.160833","6.09","JESSORE, BG","FM-12","4","","55","85","","||HZ","","9","36","","29.80","29.78","1.86","67","270","","3","","","","","","","","","","","","","","","","","","","","","","","","","","","","","","","","","","","","","","","","","","","","","","","","","","","","","","","","","","","","","","","","","","","","","","","","","","","","","","","","","","","","","","","","","","","SYN06441936 31930 02703 10294 20130 30086 40093 70500 333 59004 70000=","","","","","","","","","",""
"41936099999","2021-01-10T18:00:00","23.1838","89.160833","6.09","JESSORE, BG","FM-12","4","","63","76","","||HZ","","9","63","","29.80","29.78","1.24","68","000","","0","","","","","","","","","","","","","","","","","","","","","","","","","","","","","","","","","","","","","","","","","","","","","","","","","","","","","","","","","","","","","","","","","","","","","","","","","","","","","","","","","","","","","","","","","","","SYN07041936 31920 00000 10244 20170 30084 40091 70500 333 10300 59007 70000=","","","","","","","","","",""
"41936099999","2021-01-10T21:00:00","23.1838","89.160833","6.09","JESSORE, BG","FM-12","4","","63","68","","||HZ","","9","84","","29.86","29.83","1.24","65","000","","0","","","","","","","","","","","","","","","","","","","","","","","","","","","","","","","","","","","","","","","","","","","","","","","","","","","","","","","","","","","","","","","","","","","","","","","","","","","","","","","","","","","","","","","","","","","SYN06441936 31920 00000 10198 20170 30103 40111 70500 333 59007 70000=","","","","","","","","","",""
"41936099999","2021-01-11T00:00:00","23.1838","89.160833","6.09","JESSORE, BG","FM-12","4","","61","64","","||HZ","","9","88","","29.83","29.80","1.24","62","000","","0","","","","","","","","","","","","","","","","","","","","","","","","","","","","","","","","","","","","","","","","","","","","","","","","","","","","","","","","","","","","","","","","","","","","","","","","","","","","","","","","","","","","","","","","","","","SYN06441936 31920 00000 10180 20160 30093 40101 70500 333 59012 70000=","","","","","","","","","",""
"41936099999","2021-01-11T03:00:00","23.1838","89.160833","6.09","JESSORE, BG","FM-12","4","","61","63","","||HZ","","9","94","","29.80","29.78","1.24","62","000","","0","","","","","","","","","","","","","","","","","","","","","","","","","","","","","","","","","","","","","","","","","","","","","","","","","","","","","","","","","","","","","","","","","","","","","","","","","","","","","","","","","","","","","","","","","","","SYN06441936 31920 00000 10170 20160 30085 40093 70500 333 59012 70000=","","","","","","","","","",""
"41936099999","2021-01-11T06:00:00","23.1838","89.160833","6.09","JESSORE, BG","FM-12","4","","64","66","","||FG","","9","94","","29.88","29.86","0.43","65","000","","0","","","","","","","","","","","","","","","","","","","","","","","","","","","","","","","","","","","","","","","","","","","","","","","","","","","","","","","","","","","","","","","","","","","","","","","","","","","","","","","","","","","","","","","","","","","SYN07041936 31907 00000 10190 20180 30113 40120 74640 333 20180 58002 70000=","","","","","","","","","",""
"41936099999","2021-01-11T09:00:00","23.1838","89.160833","6.09","JESSORE, BG","FM-12","4","","66","70","","||FG","","9","88","","29.97","29.95","0.43","67","000","","0","","","","","","","","","","","","","","","","","","","","","","","","","","","","","","","","","","","","","","","","","","","","","","","","","","","","","","","","","","","","","","","","","","","","","","","","","","","","","","","","","","","","","","","","","","","SYN07041936 31907 00000 10210 20190 30141 40149 74240 333 20180 58012 70000=","","","","","","","","","",""
"41936099999","2021-01-11T12:00:00","23.1838","89.160833","6.09","JESSORE, BG","FM-12","4","","61","83","","||HZ","","9","47","","29.96","29.94","0.87","69","000","","0","","","","","","","","","","","","","","","","","","","","","","","","","","","","","","","","","","","","","","","","","","","","","","","","","","","","","","","","","","","","","","","","","","","","","","","","","","","","","","","","","","","","","","","","","","","SYN06441936 31914 00000 10284 20160 30139 40146 70540 333 58020 70000=","","","","","","","","","",""
"41936099999","2021-01-11T15:00:00","23.1838","89.160833","6.09","JESSORE, BG","FM-12","4","","63","84","","||HZ","","9","49","","29.87","29.85","1.12","70","000","","0","","","","","","","","","","","","","","","","","","","","","","","","","","","","","","","","","","","","","","","","","","","","","","","","","","","","","","","","","","","","","","","","","","","","","","","","","","","","","","","","","","","","","","","","","","","SYN06441936 31918 00000 10288 20170 30108 40115 70500 333 58022 70000=","","","","","","","","","",""
"41936099999","2021-01-11T18:00:00","23.1838","89.160833","6.09","JESSORE, BG","FM-12","4","","66","75","","||HZ","","9","74","","29.88","29.86","1.12","69","000","","0","","","","","","","","","","","","","","","","","","","","","","","","","","","","","","","","","","","","","","","","","","","","","","","","","","","","","","","","","","","","","","","","","","","","","","","","","","","","","","","","","","","","","","","","","","","SYN07041936 31918 00000 10240 20190 30112 40119 70500 333 10300 58028 70000=","","","","","","","","","",""
"41936099999","2021-01-11T21:00:00","23.1838","89.160833","6.09","JESSORE, BG","FM-12","4","","64","72","","||HZ","","9","78","","29.93","29.91","1.12","67","000","","0","","","","","","","","","","","","","","","","","","","","","","","","","","","","","","","","","","","","","","","","","","","","","","","","","","","","","","","","","","","","","","","","","","","","","","","","","","","","","","","","","","","","","","","","","","","SYN06441936 31918 00000 10220 20180 30128 40135 70500 333 58024 70000=","","","","","","","","","",""
"41936099999","2021-01-12T00:00:00","23.1838","89.160833","6.09","JESSORE, BG","FM-12","4","","66","69","","||HZ","","9","91","","29.95","29.92","0.99","67","000","","0","","","","","","","","","","","","","","","","","","","","","","","","","","","","","","","","","","","","","","","","","","","","","","","","","","","","","","","","","","","","","","","","","","","","","","","","","","","","","","","","","","","","","","","","","","","SYN06441936 31916 00000 10206 20190 30133 40141 70500 333 58035 70000=","","","","","","","","","",""
"41936099999","2021-01-12T03:00:00","23.1838","89.160833","6.09","JESSORE, BG","FM-12","4","","64","68","","||HZ","","9","88","","29.91","29.89","0.75","66","000","","0","","","","","","","","","","","","","","","","","","","","","","","","","","","","","","","","","","","","","","","","","","","","","","","","","","","","","","","","","","","","","","","","","","","","","","","","","","","","","","","","","","","","","","","","","","","SYN06441936 31912 00000 10200 20180 30123 40130 70500 333 58037 70000=","","","","","","","","","",""
"41936099999","2021-01-12T06:00:00","23.1838","89.160833","6.09","JESSORE, BG","FM-12","4","","59","60","","||FG","","9","95","","29.94","29.92","0.25","59","000","","0","","","","","","","","","","","","","","","","","","","","","","","","","","","","","","","","","","","","","","","","","","","","","","","","","","","","","","","","","","","","","","","","","","","","","","","","","","","","","","","","","","","","","","","","","","","SYN06441936 31904 00000 10158 20150 30133 40140 74640 333 58020 70000=","","","","","","","","","",""
"41936099999","2021-01-12T09:00:00","23.1838","89.160833","6.09","JESSORE, BG","FM-12","4","","63","64","","||FG","","9","96","","30.00","29.98","0.37","63","000","","0","","","","","","","","","","","","","","","","","","","","","","","","","","","","","","","","","","","","","","","","","","","","","","","","","","","","","","","","","","","","","","","","","","","","","","","","","","","","","","","","","","","","","","","","","","","SYN07041936 31906 00000 10176 20170 30152 40159 74240 333 10150 58010 70000=","","","","","","","","","",""
"41936099999","2021-01-12T12:00:00","23.1838","89.160833","6.09","JESSORE, BG","FM-12","4","","57","77","","||HZ","","9","51","","29.98","29.96","1.24","65","000","","0","","","","","","","","","","","","","","","","","","","","","","","","","","","","","","","","","","","","","","","","","","","","","","","","","","","","","","","","","","","","","","","","","","","","","","","","","","","","","","","","","","","","","","","","","","","SYN06441936 31920 00000 10248 20140 30145 40153 70540 333 58007 70000=","","","","","","","","","",""
"41936099999","2021-01-12T15:00:00","23.1838","89.160833","6.09","JESSORE, BG","FM-12","4","","55","78","","||HZ","","9","46","","29.90","29.88","1.55","64","000","","0","","","","","","","","","","","","","","","","","","","","","","","","","","","","","","","","","","","","","","","","","","","","","","","","","","","","","","","","","","","","","","","","","","","","","","","","","","","","","","","","","","","","","","","","","","","SYN06441936 31925 00000 10256 20130 30117 40125 70500 333 58011 70000=","","","","","","","","","",""
"41936099999","2021-01-12T18:00:00","23.1838","89.160833","6.09","JESSORE, BG","FM-12","4","","63","69","","||HZ","","9","80","","29.89","29.86","0.75","65","000","","0","","","","","","","","","","","","","","","","","","","","","","","","","","","","","","","","","","","","","","","","","","","","","","","","","","","","","","","","","","","","","","","","","","","","","","","","","","","","","","","","","","","","","","","","","","","SYN07041936 31912 00000 10206 20170 30113 40121 70500 333 10260 58002 70000=","","","","","","","","","",""
"41936099999","2021-01-12T21:00:00","23.1838","89.160833","6.09","JESSORE, BG","FM-12","4","","61","65","","||HZ","","9","86","","29.93","29.91","0.99","63","000","","0","","","","","","","","","","","","","","","","","","","","","","","","","","","","","","","","","","","","","","","","","","","","","","","","","","","","","","","","","","","","","","","","","","","","","","","","","","","","","","","","","","","","","","","","","","","SYN06441936 31916 00000 10184 20160 30128 40135 70500 333 58000 70000=","","","","","","","","","",""
"41936099999","2021-01-13T00:00:00","23.1838","89.160833","6.09","JESSORE, BG","FM-12","4","","59","63","","||HZ","","9","87","","29.92","29.90","0.99","61","000","","0","","","","","","","","","","","","","","","","","","","","","","","","","","","","","","","","","","","","","","","","","","","","","","","","","","","","","","","","","","","","","","","","","","","","","","","","","","","","","","","","","","","","","","","","","","","SYN06441936 31916 00000 10172 20150 30126 40133 70500 333 59007 70000=","","","","","","","","","",""
"41936099999","2021-01-13T03:00:00","23.1838","89.160833","6.09","JESSORE, BG","FM-12","4","","57","59","","||HZ","","9","94","","29.95","29.93","0.62","58","000","","0","","","","","","","","","","","","","","","","","","","","","","","","","","","","","","","","","","","","","","","","","","","","","","","","","","","","","","","","","","","","","","","","","","","","","","","","","","","","","","","","","","","","","","","","","","","SYN06441936 31910 00000 10150 20140 30135 40142 70500 333 58002 70000=","","","","","","","","","",""
"41936099999","2021-01-13T06:00:00","23.1838","89.160833","6.09","JESSORE, BG","FM-12","4","","57","59","","||HZ","","9","94","","29.95","29.93","0.62","58","000","","0","","","","","","","","","","","","","","","","","","","","","","","","","","","","","","","","","","","","","","","","","","","","","","","","","","","","","","","","","","","","","","","","","","","","","","","","","","","","","","","","","","","","","","","","","","","SYN06441936 31910 00000 10150 20140 30135 40142 70500 333 58002 70000=","","","","","","","","","",""
"41936099999","2021-01-13T09:00:00","23.1838","89.160833","6.09","JESSORE, BG","FM-12","4","","55","61","","||FG","","","81","SCT:03 0","30.02","30.00","0.56","58","000","","0","","","","","","","","","","","","","","","","","","","","","","","","","","","","","","","","","","","","","","","","","","","","","","","","","","","","","","","","","","","","","","","","","","","","","","","","","","","","","","","","","","","","","","","","","","","SYN08841936 31409 30000 10162 20130 30159 40167 74240 333 83500 20148 56900 58008 70000 83620=","","","","","","","","","",""
"41936099999","2021-01-13T12:00:00","23.1838","89.160833","6.09","JESSORE, BG","FM-12","4","","50","69","","||HZ","","9","51","","29.99","29.97","0.99","58","000","","0","","","","","","","","","","","","","","","","","","","","","","","","","","","","","","","","","","","","","","","","","","","","","","","","","","","","","","","","","","","","","","","","","","","","","","","","","","","","","","","","","","","","","","","","","","","SYN06441936 31916 00000 10206 20100 30149 40156 70540 333 58003 70000=","","","","","","","","","",""
"41936099999","2021-01-13T15:00:00","23.1838","89.160833","6.09","JESSORE, BG","FM-12","4","","50","72","","||HZ","","9","47","","29.88","29.86","0.99","60","000","","0","","","","","","","","","","","","","","","","","","","","","","","","","","","","","","","","","","","","","","","","","","","","","","","","","","","","","","","","","","","","","","","","","","","","","","","","","","","","","","","","","","","","","","","","","","","SYN06441936 31916 00000 10220 20100 30111 40118 70500 333 59007 70000=","","","","","","","","","",""
"41936099999","2021-01-13T18:00:00","23.1838","89.160833","6.09","JESSORE, BG","FM-12","4","","57","64","","||HZ","","9","78","","29.87","29.85","0.99","60","000","","0","","","","","","","","","","","","","","","","","","","","","","","","","","","","","","","","","","","","","","","","","","","","","","","","","","","","","","","","","","","","","","","","","","","","","","","","","","","","","","","","","","","","","","","","","","","SYN07041936 31916 00000 10180 20140 30109 40116 70500 333 10224 59005 70000=","","","","","","","","","",""
"41936099999","2021-01-13T21:00:00","23.1838","89.160833","6.09","JESSORE, BG","FM-12","4","","55","59","","||HZ","","9","87","","29.91","29.89","0.99","57","000","","0","","","","","","","","","","","","","","","","","","","","","","","","","","","","","","","","","","","","","","","","","","","","","","","","","","","","","","","","","","","","","","","","","","","","","","","","","","","","","","","","","","","","","","","","","","","SYN06441936 31916 00000 10152 20130 30122 40129 70500 333 59006 70000=","","","","","","","","","",""
"41936099999","2021-01-14T00:00:00","23.1838","89.160833","6.09","JESSORE, BG","FM-12","4","","55","58","","||HZ","","9","90","","29.89","29.87","0.99","56","000","","0","","","","","","","","","","","","","","","","","","","","","","","","","","","","","","","","","","","","","","","","","","","","","","","","","","","","","","","","","","","","","","","","","","","","","","","","","","","","","","","","","","","","","","","","","","","SYN06441936 31916 00000 10146 20130 30115 40122 70500 333 59011 70000=","","","","","","","","","",""
"41936099999","2021-01-14T03:00:00","23.1838","89.160833","6.09","JESSORE, BG","FM-12","4","","51","59","","||HZ","","9","77","","29.85","29.83","0.99","55","000","","0","","","","","","","","","","","","","","","","","","","","","","","","","","","","","","","","","","","","","","","","","","","","","","","","","","","","","","","","","","","","","","","","","","","","","","","","","","","","","","","","","","","","","","","","","","","SYN06441936 31916 00000 10148 20107 30103 40110 70500 333 59012 70000=","","","","","","","","","",""
"41936099999","2021-01-14T06:00:00","23.1838","89.160833","6.09","JESSORE, BG","FM-12","4","","57","59","","||HZ","","9","94","","29.96","29.94","0.62","58","000","","0","","","","","","","","","","","","","","","","","","","","","","","","","","","","","","","","","","","","","","","","","","","","","","","","","","","","","","","","","","","","","","","","","","","","","","","","","","","","","","","","","","","","","","","","","","","SYN06441936 31910 00000 10150 20140 30138 40146 70500 333 58004 70000=","","","","","","","","","",""
"41936099999","2021-01-14T09:00:00","23.1838","89.160833","6.09","JESSORE, BG","FM-12","4","","55","62","","||FG","","","79","SCT:03 20","30.03","30.01","0.56","58","000","","0","","","","","","","","","","","","","","","","","","","","","","","","","","","","","","","","","","","","","","","","","","","","","","","","","","","","","","","","","","","","","","","","","","","","","","","","","","","","","","","","","","","","","","","","","","","SYN08841936 31409 30000 10166 20130 30161 40169 74240 83500 333 20140 56900 58002 70000 83620=","","","","","","","","","",""
"41936099999","2021-01-14T12:00:00","23.1838","89.160833","6.09","JESSORE, BG","FM-12","4","","54","72","","||HZ","","","53","FEW:02 69","29.99","29.97","0.87","62","000","","0","","","","","","","","","","","","","","","","","","","","","","","","","","","","","","","","","","","","","","","","","","","","","","","","","","","","","","","","","","","","","","","","","","","","","","","","","","","","","","","","","","","","","","","","","","","SYN08241936 31814 20000 10220 20120 30148 40155 70540 82030 333 56090 59001 70000 82357=","","","","","","","","","",""
"41936099999","2021-01-14T15:00:00","23.1838","89.160833","6.09","JESSORE, BG","FM-12","4","","55","73","","||HZ","","","54","SCT:04 20","29.90","29.88","1.12","62","000","","0","","","","","","","","","","","","","","","","","","","","","","","","","","","","","","","","","","","","","","","","","","","","","","","","","","","","","","","","","","","","","","","","","","","","","","","","","","","","","","","","","","","","","","","","","","","SYN08241936 31418 40000 10228 20130 30118 40125 70522 84030 333 56990 58000 70000 84620=","","","","","","","","","",""
"41936099999","2021-01-14T18:00:00","23.1838","89.160833","6.09","JESSORE, BG","FM-12","4","","59","65","","||HZ","","9","81","","29.91","29.89","0.99","61","000","","0","","","","","","","","","","","","","","","","","","","","","","","","","","","","","","","","","","","","","","","","","","","","","","","","","","","","","","","","","","","","","","","","","","","","","","","","","","","","","","","","","","","","","","","","","","","SYN07041936 31916 00000 10184 20150 30123 40130 70500 333 10228 58014 70000=","","","","","","","","","",""
"41936099999","2021-01-14T21:00:00","23.1838","89.160833","6.09","JESSORE, BG","FM-12","4","","59","63","","||HZ","","9","88","","29.92","29.90","0.99","61","000","","0","","","","","","","","","","","","","","","","","","","","","","","","","","","","","","","","","","","","","","","","","","","","","","","","","","","","","","","","","","","","","","","","","","","","","","","","","","","","","","","","","","","","","","","","","","","SYN06441936 31916 00000 10170 20150 30124 40132 70500 333 58003 70000=","","","","","","","","","",""
"41936099999","2021-01-15T00:00:00","23.1838","89.160833","6.09","JESSORE, BG","FM-12","4","","59","61","","||HZ","","9","94","","29.93","29.91","0.99","60","000","","0","","","","","","","","","","","","","","","","","","","","","","","","","","","","","","","","","","","","","","","","","","","","","","","","","","","","","","","","","","","","","","","","","","","","","","","","","","","","","","","","","","","","","","","","","","","SYN06441936 31916 00000 10160 20150 30128 40136 70500 333 58014 70000=","","","","","","","","","",""
"41936099999","2021-01-15T03:00:00","23.1838","89.160833","6.09","JESSORE, BG","FM-12","4","","59","61","","||HZ","","9","94","","29.91","29.88","0.62","60","000","","0","","","","","","","","","","","","","","","","","","","","","","","","","","","","","","","","","","","","","","","","","","","","","","","","","","","","","","","","","","","","","","","","","","","","","","","","","","","","","","","","","","","","","","","","","","","SYN06441936 31910 00000 10160 20150 30119 40127 70500 333 58017 70000=","","","","","","","","","",""
"41936099999","2021-01-15T06:00:00","23.1838","89.160833","6.09","JESSORE, BG","FM-12","4","","57","60","","||FG","","9","91","","29.89","29.87","0.31","58","000","","0","","","","","","","","","","","","","","","","","","","","","","","","","","","","","","","","","","","","","","","","","","","","","","","","","","","","","","","","","","","","","","","","","","","","","","","","","","","","","","","","","","","","","","","","","","","SYN06441936 31905 00000 10154 20140 30116 40123 74640 333 59023 70000=","","","","","","","","","",""
"41936099999","2021-01-15T09:00:00","23.1838","89.160833","6.09","JESSORE, BG","FM-12","4","","52","57","","||FG","","9","82","","29.95","29.93","0.43","54","000","","0","","","","","","","","","","","","","","","","","","","","","","","","","","","","","","","","","","","","","","","","","","","","","","","","","","","","","","","","","","","","","","","","","","","","","","","","","","","","","","","","","","","","","","","","","","","SYN07041936 31907 00000 10140 20110 30136 40143 74240 333 20100 59026 70000=","","","","","","","","","",""
"41936099999","2021-01-15T12:00:00","23.1838","89.160833","6.09","JESSORE, BG","FM-12","4","","48","72","","||HZ","","9","44","","29.94","29.91","0.99","59","000","","0","","","","","","","","","","","","","","","","","","","","","","","","","","","","","","","","","","","","","","","","","","","","","","","","","","","","","","","","","","","","","","","","","","","","","","","","","","","","","","","","","","","","","","","","","","","SYN06441936 31916 00000 10220 20090 30130 40138 70540 333 59017 70000=","","","","","","","","","",""
"41936099999","2021-01-15T15:00:00","23.1838","89.160833","6.09","JESSORE, BG","FM-12","4","","52","75","","||HZ","","9","44","","29.86","29.84","1.12","62","000","","0","","","","","","","","","","","","","","","","","","","","","","","","","","","","","","","","","","","","","","","","","","","","","","","","","","","","","","","","","","","","","","","","","","","","","","","","","","","","","","","","","","","","","","","","","","","SYN06441936 31918 00000 10240 20110 30104 40112 70500 333 59013 70000=","","","","","","","","","",""
"41936099999","2021-01-15T18:00:00","23.1838","89.160833","6.09","JESSORE, BG","FM-12","4","","61","66","","||HZ","","9","84","","29.86","29.84","0.99","63","000","","0","","","","","","","","","","","","","","","","","","","","","","","","","","","","","","","","","","","","","","","","","","","","","","","","","","","","","","","","","","","","","","","","","","","","","","","","","","","","","","","","","","","","","","","","","","","SYN07041936 31916 00000 10188 20160 30104 40111 70500 333 10242 59019 70000=","","","","","","","","","",""
"41936099999","2021-01-15T21:00:00","23.1838","89.160833","6.09","JESSORE, BG","FM-12","4","","57","62","","||HZ","","9","85","","29.90","29.88","0.99","59","000","","0","","","","","","","","","","","","","","","","","","","","","","","","","","","","","","","","","","","","","","","","","","","","","","","","","","","","","","","","","","","","","","","","","","","","","","","","","","","","","","","","","","","","","","","","","","","SYN06441936 31916 00000 10166 20140 30117 40124 70500 333 59008 70000=","","","","","","","","","",""
"41936099999","2021-01-16T00:00:00","23.1838","89.160833","6.09","JESSORE, BG","FM-12","4","","54","57","","||HZ","","9","88","","29.91","29.89","0.87","55","000","","0","","","","","","","","","","","","","","","","","","","","","","","","","","","","","","","","","","","","","","","","","","","","","","","","","","","","","","","","","","","","","","","","","","","","","","","","","","","","","","","","","","","","","","","","","","","SYN06441936 31914 00000 10140 20120 30122 40130 70500 333 59006 70000=","","","","","","","","","",""
"41936099999","2021-01-16T03:00:00","23.1838","89.160833","6.09","JESSORE, BG","FM-12","4","","50","51","","||HZ","","9","96","","29.89","29.86","0.62","50","000","","0","","","","","","","","","","","","","","","","","","","","","","","","","","","","","","","","","","","","","","","","","","","","","","","","","","","","","","","","","","","","","","","","","","","","","","","","","","","","","","","","","","","","","","","","","","","SYN06441936 31910 00000 10106 20100 30112 40123 70500 333 59004 70000=","","","","","","","","","",""
"41936099999","2021-01-16T06:00:00","23.1838","89.160833","6.09","JESSORE, BG","FM-12","4","","48","51","","||FG","","9","91","","29.89","29.87","0.31","49","000","","0","","","","","","","","","","","","","","","","","","","","","","","","","","","","","","","","","","","","","","","","","","","","","","","","","","","","","","","","","","","","","","","","","","","","","","","","","","","","","","","","","","","","","","","","","","","SYN06441936 31905 00000 10104 20090 30116 40123 74640 333 58000 70000=","","","","","","","","","",""
"41936099999","2021-01-16T09:00:00","23.1838","89.160833","6.09","JESSORE, BG","FM-12","4","","54","56","","||FG","","9","90","","29.93","29.91","0.31","55","000","","0","","","","","","","","","","","","","","","","","","","","","","","","","","","","","","","","","","","","","","","","","","","","","","","","","","","","","","","","","","","","","","","","","","","","","","","","","","","","","","","","","","","","","","","","","","","SYN07041936 31905 00000 10136 20120 30130 40137 74240 333 20102 59006 70000=","","","","","","","","","",""
"41936099999","2021-01-16T12:00:00","23.1838","89.160833","6.09","JESSORE, BG","FM-12","4","","54","69","","","","9","58","","29.91","29.89","0.62","60","030","","7","","","","","","","","","","","","","","","","","","","","","","","","","","","","","","","","","","","","","","","","","","","","","","","","","","","","","","","","","","","","","","","","","","","","","","","","","","","","","","","","","","","","","","","","","","","SYN06441936 31910 00306 10206 20120 30123 40130 72840 333 59008 70000=","","","","","","","","","",""
"41936099999","2021-01-16T15:00:00","23.1838","89.160833","6.09","JESSORE, BG","FM-12","4","","55","73","","||HZ","","9","54","","29.83","29.81","0.62","62","010","","3","","","","","","","","","","","","","","","","","","","","","","","","","","","","","","","","","","","","","","","","","","","","","","","","","","","","","","","","","","","","","","","","","","","","","","","","","","","","","","","","","","","","","","","","","","","SYN06441936 31910 00103 10228 20130 30095 40102 70500 333 59010 70000=","","","","","","","","","",""
"41936099999","2021-01-16T18:00:00","23.1838","89.160833","6.09","JESSORE, BG","FM-12","4","","61","65","","||HZ","","9","85","","29.83","29.81","0.62","63","000","","0","","","","","","","","","","","","","","","","","","","","","","","","","","","","","","","","","","","","","","","","","","","","","","","","","","","","","","","","","","","","","","","","","","","","","","","","","","","","","","","","","","","","","","","","","","","SYN07041936 31910 00000 10186 20160 30095 40102 70500 333 10230 59009 70000=","","","","","","","","","",""
"41936099999","2021-01-16T21:00:00","23.1838","89.160833","6.09","JESSORE, BG","FM-12","4","","57","59","","||HZ","","9","93","","29.90","29.88","0.62","58","000","","0","","","","","","","","","","","","","","","","","","","","","","","","","","","","","","","","","","","","","","","","","","","","","","","","","","","","","","","","","","","","","","","","","","","","","","","","","","","","","","","","","","","","","","","","","","","SYN06441936 31910 00000 10152 20140 30117 40125 70500 333 58001 70000=","","","","","","","","","",""
"41936099999","2021-01-17T00:00:00","23.1838","89.160833","6.09","JESSORE, BG","FM-12","4","","56","57","","||HZ","","9","95","","29.90","29.87","0.62","56","000","","0","","","","","","","","","","","","","","","","","","","","","","","","","","","","","","","","","","","","","","","","","","","","","","","","","","","","","","","","","","","","","","","","","","","","","","","","","","","","","","","","","","","","","","","","","","","SYN06441936 31910 00000 10140 20132 30116 40124 70500 333 59006 70000=","","","","","","","","","",""
"41936099999","2021-01-17T03:00:00","23.1838","89.160833","6.09","JESSORE, BG","FM-12","4","","53","54","","||HZ","","9","96","","29.85","29.83","0.62","53","000","","0","","","","","","","","","","","","","","","","","","","","","","","","","","","","","","","","","","","","","","","","","","","","","","","","","","","","","","","","","","","","","","","","","","","","","","","","","","","","","","","","","","","","","","","","","","","SYN06441936 31910 00000 10124 20118 30102 40110 70500 333 59013 70000=","","","","","","","","","",""
"41936099999","2021-01-17T06:00:00","23.1838","89.160833","6.09","JESSORE, BG","FM-12","4","","52","54","","||FG","","9","92","","29.97","29.94","0.31","53","000","","0","","","","","","","","","","","","","","","","","","","","","","","","","","","","","","","","","","","","","","","","","","","","","","","","","","","","","","","","","","","","","","","","","","","","","","","","","","","","","","","","","","","","","","","","","","","SYN06441936 31905 00000 10122 20110 30140 40148 74640 333 58025 70000=","","","","","","","","","",""
"41936099999","2021-01-17T09:00:00","23.1838","89.160833","6.09","JESSORE, BG","FM-12","4","","54","58","","||FG","","9","86","","30.02","30.00","0.31","56","000","","0","","","","","","","","","","","","","","","","","","","","","","","","","","","","","","","","","","","","","","","","","","","","","","","","","","","","","","","","","","","","","","","","","","","","","","","","","","","","","","","","","","","","","","","","","","","SYN07041936 31905 00000 10144 20120 30160 40167 74240 333 20114 58030 70000=","","","","","","","","","",""
"41936099999","2021-01-17T12:00:00","23.1838","89.160833","6.09","JESSORE, BG","FM-12","4","","55","70","","||FG","","9","60","","30.01","29.98","0.56","61","000","","0","","","","","","","","","","","","","","","","","","","","","","","","","","","","","","","","","","","","","","","","","","","","","","","","","","","","","","","","","","","","","","","","","","","","","","","","","","","","","","","","","","","","","","","","","","","SYN06441936 31909 00000 10212 20130 30153 40161 74240 333 58031 70000=","","","","","","","","","",""
"41936099999","2021-01-17T15:00:00","23.1838","89.160833","6.09","JESSORE, BG","FM-12","4","","57","73","","||HZ","","9","57","","29.92","29.90","0.62","63","000","","0","","","","","","","","","","","","","","","","","","","","","","","","","","","","","","","","","","","","","","","","","","","","","","","","","","","","","","","","","","","","","","","","","","","","","","","","","","","","","","","","","","","","","","","","","","","SYN06441936 31910 00000 10230 20140 30126 40133 70540 333 58031 70000=","","","","","","","","","",""
"41936099999","2021-01-17T18:00:00","23.1838","89.160833","6.09","JESSORE, BG","FM-12","4","","61","69","","||HZ","","9","76","","29.95","29.93","0.62","64","000","","0","","","","","","","","","","","","","","","","","","","","","","","","","","","","","","","","","","","","","","","","","","","","","","","","","","","","","","","","","","","","","","","","","","","","","","","","","","","","","","","","","","","","","","","","","","","SYN07041936 31910 00000 10204 20160 30134 40141 70540 333 10234 58039 70000=","","","","","","","","","",""
"41936099999","2021-01-17T21:00:00","23.1838","89.160833","6.09","JESSORE, BG","FM-12","4","","59","64","","||HZ","","9","85","","29.99","29.97","0.62","61","000","","0","","","","","","","","","","","","","","","","","","","","","","","","","","","","","","","","","","","","","","","","","","","","","","","","","","","","","","","","","","","","","","","","","","","","","","","","","","","","","","","","","","","","","","","","","","","SYN06441936 31910 00000 10176 20150 30148 40155 70500 333 58030 70000=","","","","","","","","","",""
"41936099999","2021-01-18T00:00:00","23.1838","89.160833","6.09","JESSORE, BG","FM-12","4","","57","61","","||HZ","","9","88","","29.98","29.96","0.62","59","000","","0","","","","","","","","","","","","","","","","","","","","","","","","","","","","","","","","","","","","","","","","","","","","","","","","","","","","","","","","","","","","","","","","","","","","","","","","","","","","","","","","","","","","","","","","","","","SYN06441936 31910 00000 10160 20140 30145 40152 70500 333 58028 70000=","","","","","","","","","",""
"41936099999","2021-01-18T03:00:00","23.1838","89.160833","6.09","JESSORE, BG","FM-12","4","","54","57","","||HZ","","9","88","","29.95","29.93","0.62","55","000","","0","","","","","","","","","","","","","","","","","","","","","","","","","","","","","","","","","","","","","","","","","","","","","","","","","","","","","","","","","","","","","","","","","","","","","","","","","","","","","","","","","","","","","","","","","","","SYN06441936 31910 00000 10140 20120 30134 40141 70500 333 58031 70000=","","","","","","","","","",""
"41936099999","2021-01-18T06:00:00","23.1838","89.160833","6.09","JESSORE, BG","FM-12","4","","54","54","","||FG","","9","100","","29.98","29.96","0.06","54","000","","0","","","","","","","","","","","","","","","","","","","","","","","","","","","","","","","","","","","","","","","","","","","","","","","","","","","","","","","","","","","","","","","","","","","","","","","","","","","","","","","","","","","","","","","","","","","SYN06441936 31901 00000 10120 20120 30147 40154 74640 333 58006 70000=","","","","","","","","","",""
"41936099999","2021-01-18T09:00:00","23.1838","89.160833","6.09","JESSORE, BG","FM-12","4","","55","57","","||FG","","9","94","","30.02","30.00","0.00","56","000","","0","","","","","","","","","","","","","","","","","","","","","","","","","","","","","","","","","","","","","","","","","","","","","","","","","","","","","","","","","","","","","","","","","","","","","","","","","","","","","","","","","","","","","","","","","","","SYN07041936 31900 00000 10140 20130 30159 40166 74540 333 20112 59001 70000=","","","","","","","","","",""
"41936099999","2021-01-18T12:00:00","23.1838","89.160833","6.09","JESSORE, BG","FM-12","4","","57","63","","||FG","","9","83","","30.01","29.99","0.43","60","000","","0","","","","","","","","","","","","","","","","","","","","","","","","","","","","","","","","","","","","","","","","","","","","","","","","","","","","","","","","","","","","","","","","","","","","","","","","","","","","","","","","","","","","","","","","","","","SYN06441936 31907 00000 10170 20140 30155 40163 74240 333 58002 70000=","","","","","","","","","",""
"41936099999","2021-01-18T15:00:00","23.1838","89.160833","6.09","JESSORE, BG","FM-12","4","","59","71","","||HZ","","9","65","","29.91","29.88","0.62","64","000","","0","","","","","","","","","","","","","","","","","","","","","","","","","","","","","","","","","","","","","","","","","","","","","","","","","","","","","","","","","","","","","","","","","","","","","","","","","","","","","","","","","","","","","","","","","","","SYN06441936 31910 00000 10218 20150 30120 40127 70540 333 59006 70000=","","","","","","","","","",""
"41936099999","2021-01-18T18:00:00","23.1838","89.160833","6.09","JESSORE, BG","FM-12","4","","64","65","","||HZ","","9","95","","29.90","29.88","0.62","64","000","","0","","","","","","","","","","","","","","","","","","","","","","","","","","","","","","","","","","","","","","","","","","","","","","","","","","","","","","","","","","","","","","","","","","","","","","","","","","","","","","","","","","","","","","","","","","","SYN07041936 31910 00000 10184 20176 30117 40124 70500 333 10220 59017 70000=","","","","","","","","","",""
"41936099999","2021-02-22T12:00:00","23.1838","89.160833","6.09","JESSORE, BG","FM-12","4","","52","85","","||HZ","","9","32","","29.97","29.95","1.55","65","340","","7","","","","","","","","","","","","","","","","","","","","","","","","","","","","","","","","","","","","","","","","","","","","","","","","","","","","","","","","","","","","","","","","","","","","","","","","","","","","","","","","","","","","","","","","","","","SYN06441936 31925 03406 10294 20110 30142 40149 70544 333 59017 70000=","","","","","","","","","",""
"41936099999","2021-02-22T15:00:00","23.1838","89.160833","6.09","JESSORE, BG","FM-12","4","","54","87","","||HZ","","9","31","","29.91","29.85","3.11","67","360","","3","","","","","","","","","","","","","","","","","","","","","","","","","","","","","","","","","","","","","","","","","","","","","","","","","","","","","","","","","","","","","","","","","","","","","","","","","","","","","","","","","","","","","","","","","","","SYN06441936 31950 03603 10308 20120 30110 40127 70500 333 59016 70000=","","","","","","","","","",""
"41936099999","2021-02-22T18:00:00","23.1838","89.160833","6.09","JESSORE, BG","FM-12","4","","59","78","","||HZ","","9","52","","29.87","29.85","3.11","66","000","","0","","","","","","","","","","","","","","","","","","","","","","","","","","","","","","","","","","","","","","","","","","","","","","","","","","","","","","","","","","","","","","","","","","","","","","","","","","","","","","","","","","","","","","","","","","","SYN07041936 31950 00000 10256 20150 30107 40114 70500 333 10310 59019 70000=","","","","","","","","","",""
"41936099999","2021-02-22T21:00:00","23.1838","89.160833","6.09","JESSORE, BG","FM-12","4","","55","67","","||HZ","","9","67","","29.92","29.90","2.49","60","000","","0","","","","","","","","","","","","","","","","","","","","","","","","","","","","","","","","","","","","","","","","","","","","","","","","","","","","","","","","","","","","","","","","","","","","","","","","","","","","","","","","","","","","","","","","","","","SYN06441936 31940 00000 10194 20130 30126 40133 70500 333 59014 70000=","","","","","","","","","",""
"41936099999","2021-02-23T00:00:00","23.1838","89.160833","6.09","JESSORE, BG","FM-12","4","","57","65","","||HZ","","9","77","","29.93","29.91","1.86","60","000","","0","","","","","","","","","","","","","","","","","","","","","","","","","","","","","","","","","","","","","","","","","","","","","","","","","","","","","","","","","","","","","","","","","","","","","","","","","","","","","","","","","","","","","","","","","","","SYN06441936 31930 00000 10182 20140 30129 40137 70500 333 59012 70000=","","","","","","","","","",""
"41936099999","2021-02-23T03:00:00","23.1838","89.160833","6.09","JESSORE, BG","FM-12","4","","55","61","","||HZ","","9","83","","29.91","29.88","1.24","58","000","","0","","","","","","","","","","","","","","","","","","","","","","","","","","","","","","","","","","","","","","","","","","","","","","","","","","","","","","","","","","","","","","","","","","","","","","","","","","","","","","","","","","","","","","","","","","","SYN06441936 31920 00000 10160 20130 30119 40127 70500 333 59011 70000=","","","","","","","","","",""
"41936099999","2021-02-23T06:00:00","23.1838","89.160833","6.09","JESSORE, BG","FM-12","4","","59","60","","||HZ","","9","96","","29.90","29.87","0.62","59","000","","0","","","","","","","","","","","","","","","","","","","","","","","","","","","","","","","","","","","","","","","","","","","","","","","","","","","","","","","","","","","","","","","","","","","","","","","","","","","","","","","","","","","","","","","","","","","SYN06441936 31910 00000 10156 20150 30116 40124 70500 333 59020 70000=","","","","","","","","","",""
"41936099999","2021-02-23T09:00:00","23.1838","89.160833","6.09","JESSORE, BG","FM-12","4","","59","70","","||HZ","","9","69","","29.95","29.93","0.93","63","000","","0","","","","","","","","","","","","","","","","","","","","","","","","","","","","","","","","","","","","","","","","","","","","","","","","","","","","","","","","","","","","","","","","","","","","","","","","","","","","","","","","","","","","","","","","","","","SYN07041936 31915 00000 10210 20150 30135 40143 70540 333 20148 59019 70000=","","","","","","","","","",""
"41936099999","2021-02-23T12:00:00","23.1838","89.160833","6.09","JESSORE, BG","FM-12","4","","54","85","","||HZ","","9","34","","29.92","29.90","1.86","66","290","","3","","","","","","","","","","","","","","","","","","","","","","","","","","","","","","","","","","","","","","","","","","","","","","","","","","","","","","","","","","","","","","","","","","","","","","","","","","","","","","","","","","","","","","","","","","","SYN06441936 31930 02903 10294 20120 30126 40133 70500 333 59016 70000=","","","","","","","","","",""
"41936099999","2021-02-23T15:00:00","23.1838","89.160833","6.09","JESSORE, BG","FM-12","4","","55","88","","||HZ","","9","33","","29.82","29.80","2.17","68","230","","3","","","","","","","","","","","","","","","","","","","","","","","","","","","","","","","","","","","","","","","","","","","","","","","","","","","","","","","","","","","","","","","","","","","","","","","","","","","","","","","","","","","","","","","","","","","SYN06441936 31935 02303 10312 20130 30092 40099 70500 333 59018 70000=","","","","","","","","","",""
"41936099999","2021-02-23T18:00:00","23.1838","89.160833","6.09","JESSORE, BG","FM-12","4","","63","82","","||HZ","","9","52","","29.81","29.79","1.86","70","000","","0","","","","","","","","","","","","","","","","","","","","","","","","","","","","","","","","","","","","","","","","","","","","","","","","","","","","","","","","","","","","","","","","","","","","","","","","","","","","","","","","","","","","","","","","","","","SYN07041936 31930 00000 10276 20170 30088 40095 70500 333 10316 59019 70000=","","","","","","","","","",""
"41936099999","2021-02-23T21:00:00","23.1838","89.160833","6.09","JESSORE, BG","FM-12","4","","64","72","","||HZ","","9","78","","29.85","29.83","1.86","67","000","","0","","","","","","","","","","","","","","","","","","","","","","","","","","","","","","","","","","","","","","","","","","","","","","","","","","","","","","","","","","","","","","","","","","","","","","","","","","","","","","","","","","","","","","","","","","","SYN06441936 31930 00000 10220 20180 30100 40107 70500 333 59026 70000=","","","","","","","","","",""
"41936099999","2021-02-24T00:00:00","23.1838","89.160833","6.09","JESSORE, BG","FM-12","4","","63","69","","||HZ","","9","79","","29.85","29.83","1.86","65","000","","0","","","","","","","","","","","","","","","","","","","","","","","","","","","","","","","","","","","","","","","","","","","","","","","","","","","","","","","","","","","","","","","","","","","","","","","","","","","","","","","","","","","","","","","","","","","SYN06441936 31930 00000 10208 20170 30103 40110 70500 333 59027 70000=","","","","","","","","","",""
"41936099999","2021-02-24T03:00:00","23.1838","89.160833","6.09","JESSORE, BG","FM-12","4","","63","67","","||HZ","","9","85","","29.83","29.81","1.24","65","000","","0","","","","","","","","","","","","","","","","","","","","","","","","","","","","","","","","","","","","","","","","","","","","","","","","","","","","","","","","","","","","","","","","","","","","","","","","","","","","","","","","","","","","","","","","","","","SYN06441936 31920 00000 10196 20170 30095 40102 70500 333 59025 70000=","","","","","","","","","",""
"41936099999","2021-02-24T06:00:00","23.1838","89.160833","6.09","JESSORE, BG","FM-12","4","","63","65","","||FG","","9","92","","29.82","29.80","0.43","64","000","","0","","","","","","","","","","","","","","","","","","","","","","","","","","","","","","","","","","","","","","","","","","","","","","","","","","","","","","","","","","","","","","","","","","","","","","","","","","","","","","","","","","","","","","","","","","","SYN06441936 31907 00000 10184 20170 30090 40097 74000 333 59027 70000=","","","","","","","","","",""
"41936099999","2021-02-24T09:00:00","23.1838","89.160833","6.09","JESSORE, BG","FM-12","4","","66","69","","||FG","","9","92","","29.87","29.85","0.12","67","000","","0","","","","","","","","","","","","","","","","","","","","","","","","","","","","","","","","","","","","","","","","","","","","","","","","","","","","","","","","","","","","","","","","","","","","","","","","","","","","","","","","","","","","","","","","","","","SYN07041936 31902 00000 10204 20190 30109 40116 74240 333 20180 59027 70000=","","","","","","","","","",""
"41936099999","2021-02-24T12:00:00","23.1838","89.160833","6.09","JESSORE, BG","FM-12","4","","63","83","","||HZ","","9","50","","29.85","29.83","0.99","70","240","","7","","","","","","","","","","","","","","","","","","","","","","","","","","","","","","","","","","","","","","","","","","","","","","","","","","","","","","","","","","","","","","","","","","","","","","","","","","","","","","","","","","","","","","","","","","","SYN06441936 31916 02406 10284 20170 30102 40109 70544 333 59024 70000=","","","","","","","","","",""
"41936099999","2021-02-24T15:00:00","23.1838","89.160833","6.09","JESSORE, BG","FM-12","4","","59","89","","||HZ","","9","37","","29.76","29.74","1.24","70","240","","3","","","","","","","","","","","","","","","","","","","","","","","","","","","","","","","","","","","","","","","","","","","","","","","","","","","","","","","","","","","","","","","","","","","","","","","","","","","","","","","","","","","","","","","","","","","SYN06441936 31920 02403 10314 20150 30072 40079 70540 333 59020 70000=","","","","","","","","","",""
"41936099999","2021-02-24T18:00:00","23.1838","89.160833","6.09","JESSORE, BG","FM-12","4","","72","82","","||HZ","","9","71","","29.75","29.73","1.24","75","000","","0","","","","","","","","","","","","","","","","","","","","","","","","","","","","","","","","","","","","","","","","","","","","","","","","","","","","","","","","","","","","","","","","","","","","","","","","","","","","","","","","","","","","","","","","","","","SYN07041936 31920 00000 10278 20220 30068 40075 70500 333 10316 59020 70000=","","","","","","","","","",""
"41936099999","2021-02-24T21:00:00","23.1838","89.160833","6.09","JESSORE, BG","FM-12","4","","66","72","","||HZ","","9","82","","29.80","29.78","1.86","68","000","","0","","","","","","","","","","","","","","","","","","","","","","","","","","","","","","","","","","","","","","","","","","","","","","","","","","","","","","","","","","","","","","","","","","","","","","","","","","","","","","","","","","","","","","","","","","","SYN06441936 31930 00000 10222 20190 30085 40092 70500 333 59015 70000=","","","","","","","","","",""
"41936099999","2021-02-25T00:00:00","23.1838","89.160833","6.09","JESSORE, BG","FM-12","4","","64","71","","||HZ","","9","81","","29.80","29.78","1.24","67","000","","0","","","","","","","","","","","","","","","","","","","","","","","","","","","","","","","","","","","","","","","","","","","","","","","","","","","","","","","","","","","","","","","","","","","","","","","","","","","","","","","","","","","","","","","","","","","SYN06441936 31920 00000 10214 20180 30085 40093 70500 333 59017 70000=","","","","","","","","","",""
"41936099999","2021-02-25T03:00:00","23.1838","89.160833","6.09","JESSORE, BG","FM-12","4","","64","68","","||HZ","","9","88","","29.77","29.75","0.99","66","000","","0","","","","","","","","","","","","","","","","","","","","","","","","","","","","","","","","","","","","","","","","","","","","","","","","","","","","","","","","","","","","","","","","","","","","","","","","","","","","","","","","","","","","","","","","","","","SYN06441936 31916 00000 10200 20180 30074 40082 70500 333 59020 70000=","","","","","","","","","",""
"41936099999","2021-02-25T06:00:00","23.1838","89.160833","6.09","JESSORE, BG","FM-12","4","","61","63","","||FG","","9","94","","29.80","29.78","0.31","62","000","","0","","","","","","","","","","","","","","","","","","","","","","","","","","","","","","","","","","","","","","","","","","","","","","","","","","","","","","","","","","","","","","","","","","","","","","","","","","","","","","","","","","","","","","","","","","","SYN06441936 31905 00000 10170 20160 30084 40091 74240 333 59005 70000=","","","","","","","","","",""
"41936099999","2021-02-25T09:00:00","23.1838","89.160833","6.09","JESSORE, BG","FM-12","4","","68","73","","||FG","","9","83","","29.86","29.84","0.56","70","000","","0","","","","","","","","","","","","","","","","","","","","","","","","","","","","","","","","","","","","","","","","","","","","","","","","","","","","","","","","","","","","","","","","","","","","","","","","","","","","","","","","","","","","","","","","","","","SYN07041936 31909 00000 10230 20200 30105 40113 74244 333 20168 59003 70000=","","","","","","","","","",""
"41936099999","2021-02-25T12:00:00","23.1838","89.160833","6.09","JESSORE, BG","FM-12","4","","46s","90","","||HZ","","9","22","","29.85","29.83","3.11","64","000","","0","","","","","","","","","","","","","","","","","","","","","","","","","","","","","","","","","","","","","","","","","","","","","","","","","","","","","","","","","","","","","","","","","","","","","","","","","","","","","","","","","","","","","","","","","","","SYN06441936 31950 00000 10320 20080 30102 40109 70540 333 58000 70000=","","","","","","","","","",""
"41936099999","2021-02-25T15:00:00","23.1838","89.160833","6.09","JESSORE, BG","FM-12","4","","54","92","","||HZ","","9","27","","29.75","29.73","3.11","68","260","","3","","","","","","","","","","","","","","","","","","","","","","","","","","","","","","","","","","","","","","","","","","","","","","","","","","","","","","","","","","","","","","","","","","","","","","","","","","","","","","","","","","","","","","","","","","","SYN06441936 31950 02603 10336 20120 30067 40074 70504 333 59005 70000=","","","","","","","","","",""
"41936099999","2021-02-25T18:00:00","23.1838","89.160833","6.09","JESSORE, BG","FM-12","4","","63","84","","||HZ","","9","49","","29.71","29.69","3.11","70","000","","0","","","","","","","","","","","","","","","","","","","","","","","","","","","","","","","","","","","","","","","","","","","","","","","","","","","","","","","","","","","","","","","","","","","","","","","","","","","","","","","","","","","","","","","","","","","SYN07041936 31950 00000 10288 20170 30054 40061 70500 333 10338 59014 70000=","","","","","","","","","",""
"41936099999","2021-02-25T21:00:00","23.1838","89.160833","6.09","JESSORE, BG","FM-12","4","","64","72","","||HZ","","9","77","","29.74","29.72","2.49","67","000","","0","","","","","","","","","","","","","","","","","","","","","","","","","","","","","","","","","","","","","","","","","","","","","","","","","","","","","","","","","","","","","","","","","","","","","","","","","","","","","","","","","","","","","","","","","","","SYN06441936 31940 00000 10222 20180 30065 40072 70500 333 59020 70000=","","","","","","","","","",""
"41936099999","2021-02-26T00:00:00","23.1838","89.160833","6.09","JESSORE, BG","FM-12","4","","64","71","","||HZ","","9","81","","29.74","29.72","1.86","67","000","","0","","","","","","","","","","","","","","","","","","","","","","","","","","","","","","","","","","","","","","","","","","","","","","","","","","","","","","","","","","","","","","","","","","","","","","","","","","","","","","","","","","","","","","","","","","","SYN06441936 31930 00000 10214 20180 30065 40072 70500 333 59021 70000=","","","","","","","","","",""
"41936099999","2021-02-28T03:00:00","23.1838","89.160833","6.09","JESSORE, BG","FM-12","4","","70","71","","||HZ","","9","96","","29.72","29.70","1.86","70","000","","0","","","","","","","","","","","","","","","","","","","","","","","","","","","","","","","","","","","","","","","","","","","","","","","","","","","","","","","","","","","","","","","","","","","","","","","","","","","","","","","","","","","","","","","","","","","SYN06441936 31930 00000 10216 20210 30056 40063 70500 333 58005 70000=","","","","","","","","","",""
"41936099999","2021-02-28T06:00:00","23.1838","89.160833","6.09","JESSORE, BG","FM-12","4","","68","70","","||FG","","","94","FEW:02 118","29.74","29.72","0.43","69","000","","0","","","","","","","","","","","","","","","","","","","","","","","","","","","","","","","","","","","","","","","","","","","","","","","","","","","","","","","","","","","","","","","","","","","","","","","","","","","","","","","","","","","","","","","","","","","SYN08241936 31907 20000 10210 20200 30063 40070 74040 82030 333 56090 58004 70000 82362=","","","","","","","","","",""
"41936099999","2021-02-28T09:00:00","23.1838","89.160833","6.09","JESSORE, BG","FM-12","4","","70","75","","||FG","","9","83","","29.80","29.78","0.37","72","210","","3","","","","","","","","","","","","","","","","","","","","","","","","","","","","","","","","","","","","","","","","","","","","","","","","","","","","","","","","","","","","","","","","","","","","","","","","","","","","","","","","","","","","","","","","","","","SYN07041936 31906 02103 10240 20210 30084 40091 74240 333 20206 58012 70000=","","","","","","","","","",""
"41936099999","2021-02-28T12:00:00","23.1838","89.160833","6.09","JESSORE, BG","FM-12","4","","73","90","","||HZ","","9","59","","29.81","29.79","1.86","78","260","","9","","","","","","","","","","","","","","","","","","","","","","","","","","","","","","","","","","","","","","","","","","","","","","","","","","","","","","","","","","","","","","","","","","","","","","","","","","","","","","","","","","","","","","","","","","","SYN06441936 31930 02608 10320 20230 30087 40094 70504 333 58019 70000=","","","","","","","","","",""
"41936099999","2021-02-28T15:00:00","23.1838","89.160833","6.09","JESSORE, BG","FM-12","4","","57","95","","||HZ","","","28","SCT:03 10","29.74","29.72","3.73","71","250","","7","","","","","","","","","","","","","","","","","","","","","","","","","","","","","","","","","","","","","","","","","","","","","","","","","","","","","","","","","","","","","","","","","","","","","","","","","","","","","","","","","","","","","","","","","","","SYN08241936 31956 32506 10352 20140 30064 40071 70511 83030 333 56090 58016 70000 83610=","","","","","","","","","",""
"41936099999","2021-02-28T18:00:00","23.1838","89.160833","6.09","JESSORE, BG","FM-12","4","","63","88","","||HZ","","9","43","","29.72","29.70","3.73","72","000","","0","","","","","","","","","","","","","","","","","","","","","","","","","","","","","","","","","","","","","","","","","","","","","","","","","","","","","","","","","","","","","","","","","","","","","","","","","","","","","","","","","","","","","","","","","","","SYN07041936 31956 00000 10310 20170 30059 40066 70500 333 10354 58013 70000=","","","","","","","","","",""
"41936099999","2021-02-28T21:00:00","23.1838","89.160833","6.09","JESSORE, BG","FM-12","4","","66","77","","||HZ","","9","70","","29.78","29.76","3.11","70","000","","0","","","","","","","","","","","","","","","","","","","","","","","","","","","","","","","","","","","","","","","","","","","","","","","","","","","","","","","","","","","","","","","","","","","","","","","","","","","","","","","","","","","","","","","","","","","SYN06441936 31950 00000 10248 20190 30077 40084 70511 333 58012 70000=","","","","","","","","","",""
"41936099999","2021-03-01T00:00:00","23.1838","89.160833","6.09","JESSORE, BG","FM-12","4","","66","74","","||HZ","","9","77","","29.79","29.77","3.11","69","000","","0","","","","","","","","","","","","","","","","","","","","","","","","","","","","","","","","","","","","","","","","","","","","","","","","","","","","","","","","","","","","","","","","","","","","","","","","","","","","","","","","","","","","","","","","","","","SYN06441936 31950 00000 10232 20190 30082 40089 70500 333 58015 70000=","","","","","","","","","",""
"41936099999","2021-03-01T03:00:00","23.1838","89.160833","6.09","JESSORE, BG","FM-12","4","","66","72","","||HZ","","9","83","","29.75","29.73","1.24","68","000","","0","","","","","","","","","","","","","","","","","","","","","","","","","","","","","","","","","","","","","","","","","","","","","","","","","","","","","","","","","","","","","","","","","","","","","","","","","","","","","","","","","","","","","","","","","","","SYN06441936 31920 00000 10220 20190 30069 40076 70500 333 58013 70000=","","","","","","","","","",""
"41936099999","2021-03-01T06:00:00","23.1838","89.160833","6.09","JESSORE, BG","FM-12","4","","70","71","","||FG","","9","96","","29.80","29.78","0.37","70","000","","0","","","","","","","","","","","","","","","","","","","","","","","","","","","","","","","","","","","","","","","","","","","","","","","","","","","","","","","","","","","","","","","","","","","","","","","","","","","","","","","","","","","","","","","","","","","SYN06441936 31906 00000 10216 20210 30084 40091 74640 333 58021 70000=","","","","","","","","","",""
"41936099999","2021-03-01T09:00:00","23.1838","89.160833","6.09","JESSORE, BG","FM-12","4","","73","77","","||FG","","","89","FEW:02 15","29.89","29.87","0.56","74","250","","7","","","","","","","","","","","","","","","","","","","","","","","","","","","","","","","","","","","","","","","","","","","","","","","","","","","","","","","","","","","","","","","","","","","","","","","","","","","","","","","","","","","","","","","","","","","SYN08841936 31409 22506 10250 20230 30115 40122 74244 82500 333 20212 56900 58022 70000 82615=","","","","","","","","","",""
"41936099999","2021-03-01T12:00:00","23.1838","89.160833","6.09","JESSORE, BG","FM-12","4","","72","86","","||HZ","","9","62","","29.91","29.89","1.24","76","250","","7","","","","","","","","","","","","","","","","","","","","","","","","","","","","","","","","","","","","","","","","","","","","","","","","","","","","","","","","","","","","","","","","","","","","","","","","","","","","","","","","","","","","","","","","","","","SYN06441936 31920 02506 10300 20220 30123 40130 70510 333 58036 70000=","","","","","","","","","",""
"41936099999","2021-03-01T15:00:00","23.1838","89.160833","6.09","JESSORE, BG","FM-12","4","","55","95","","||HZ","","9","26","","29.83","29.80","2.49","70","340","","3","","","","","","","","","","","","","","","","","","","","","","","","","","","","","","","","","","","","","","","","","","","","","","","","","","","","","","","","","","","","","","","","","","","","","","","","","","","","","","","","","","","","","","","","","","","SYN06441936 31940 03403 10350 20130 30093 40100 70500 333 58029 70000=","","","","","","","","","",""
"41936099999","2021-03-01T18:00:00","23.1838","89.160833","6.09","JESSORE, BG","FM-12","4","","63","88","","||HZ","","9","43","","29.82","29.80","2.49","72","000","","0","","","","","","","","","","","","","","","","","","","","","","","","","","","","","","","","","","","","","","","","","","","","","","","","","","","","","","","","","","","","","","","","","","","","","","","","","","","","","","","","","","","","","","","","","","","SYN07041936 31940 00000 10310 20170 30091 40098 70500 333 10352 58032 70000=","","","","","","","","","",""
"41936099999","2021-03-01T21:00:00","23.1838","89.160833","6.09","JESSORE, BG","FM-12","4","","63","76","","||HZ","","9","63","","29.89","29.87","2.49","68","000","","0","","","","","","","","","","","","","","","","","","","","","","","","","","","","","","","","","","","","","","","","","","","","","","","","","","","","","","","","","","","","","","","","","","","","","","","","","","","","","","","","","","","","","","","","","","","SYN06441936 31940 00000 10244 20170 30115 40122 70500 333 58038 70000=","","","","","","","","","",""
"41936099999","2021-03-02T00:00:00","23.1838","89.160833","6.09","JESSORE, BG","FM-12","4","","68","74","","||HZ","","9","81","","29.91","29.89","2.49","70","000","","0","","","","","","","","","","","","","","","","","","","","","","","","","","","","","","","","","","","","","","","","","","","","","","","","","","","","","","","","","","","","","","","","","","","","","","","","","","","","","","","","","","","","","","","","","","","SYN06441936 31940 00000 10234 20200 30121 40128 70500 333 58039 70000=","","","","","","","","","",""
"41936099999","2021-03-02T03:00:00","23.1838","89.160833","6.09","JESSORE, BG","FM-12","4","","66","72","","||HZ","","9","81","","29.88","29.85","1.86","68","000","","0","","","","","","","","","","","","","","","","","","","","","","","","","","","","","","","","","","","","","","","","","","","","","","","","","","","","","","","","","","","","","","","","","","","","","","","","","","","","","","","","","","","","","","","","","","","SYN06441936 31930 00000 10224 20190 30110 40117 70500 333 58041 70000=","","","","","","","","","",""
"41936099999","2021-03-02T06:00:00","23.1838","89.160833","6.09","JESSORE, BG","FM-12","4","","66","68","","||FG","","9","94","","29.89","29.87","0.06","67","000","","0","","","","","","","","","","","","","","","","","","","","","","","","","","","","","","","","","","","","","","","","","","","","","","","","","","","","","","","","","","","","","","","","","","","","","","","","","","","","","","","","","","","","","","","","","","","SYN06441936 31/01 00000 10200 20190 30114 40122 74740 333 58031 70000=","","","","","","","","","",""
"41936099999","2021-11-30T18:00:00","23.1838","89.160833","6.09","JESSORE, BG","FM-12","4","","68","73","","||HZ","","9","85","","29.90","29.88","1.86","70","000","","0","","","","","","","","","","","","","","","","","","","","","","","","","","","","","","","","","","","","","","","","","","","","","","","","","","","","","","","","","","","","","","","","","","","","","","","","","","","","","","","","","","","","","","","","","","","SYN07041936 31930 00000 10226 20200 30119 40126 70500 333 10294 59002 70000=","","","","","","","","","",""
"41936099999","2021-11-30T21:00:00","23.1838","89.160833","6.09","JESSORE, BG","FM-12","4","","64","65","","||HZ","","9","96","","29.95","29.93","1.55","64","000","","0","","","","","","","","","","","","","","","","","","","","","","","","","","","","","","","","","","","","","","","","","","","","","","","","","","","","","","","","","","","","","","","","","","","","","","","","","","","","","","","","","","","","","","","","","","","SYN06441936 31925 00000 10186 20180 30135 40142 70500 333 59003 70000=","","","","","","","","","",""
"41936099999","2021-12-01T00:00:00","23.1838","89.160833","6.09","JESSORE, BG","FM-12","4","","63","65","","||HZ","","9","93","","29.95","29.93","1.12","64","000","","0","","","","","","","","","","","","","","","","","","","","","","","","","","","","","","","","","","","","","","","","","","","","","","","","","","","","","","","","","","","","","","","","","","","","","","","","","","","","","","","","","","","","","","","","","","","SYN06441936 31918 00000 10182 20170 30134 40142 70500 333 58003 70000=","","","","","","","","","",""
"41936099999","2021-12-01T03:00:00","23.1838","89.160833","6.09","JESSORE, BG","FM-12","4","","61","63","","||HZ","","9","94","","29.91","29.89","0.99","62","000","","0","","","","","","","","","","","","","","","","","","","","","","","","","","","","","","","","","","","","","","","","","","","","","","","","","","","","","","","","","","","","","","","","","","","","","","","","","","","","","","","","","","","","","","","","","","","SYN06441936 31916 00000 10170 20160 30122 40130 70500 333 58001 70000=","","","","","","","","","",""
"41936099999","2021-12-01T06:00:00","23.1838","89.160833","6.09","JESSORE, BG","FM-12","4","","59","61","","||HZ","","9","93","","29.94","29.92","0.62","60","000","","0","","","","","","","","","","","","","","","","","","","","","","","","","","","","","","","","","","","","","","","","","","","","","","","","","","","","","","","","","","","","","","","","","","","","","","","","","","","","","","","","","","","","","","","","","","","SYN06441936 31910 00000 10162 20150 30132 40140 70500 333 59003 70000=","","","","","","","","","",""
"41936099999","2021-12-01T09:00:00","23.1838","89.160833","6.09","JESSORE, BG","FM-12","4","","64","65","","||HZ","","9","96","","30.01","29.98","0.62","64","360","","3","","","","","","","","","","","","","","","","","","","","","","","","","","","","","","","","","","","","","","","","","","","","","","","","","","","","","","","","","","","","","","","","","","","","","","","","","","","","","","","","","","","","","","","","","","","SYN07041936 31910 03603 10186 20180 30154 40162 70540 333 20148 58000 70000=","","","","","","","","","",""
