"STATION","DATE","LATITUDE","LONGITUDE","ELEVATION","NAME","REPORT_TYPE","SOURCE","HourlyAltimeterSetting","HourlyDewPointTemperature","HourlyDryBulbTemperature","HourlyPrecipitation","HourlyPresentWeatherType","HourlyPressureChange","HourlyPressureTendency","HourlyRelativeHumidity","HourlySkyConditions","HourlySeaLevelPressure","HourlyStationPressure","HourlyVisibility","HourlyWetBulbTemperature","HourlyWindDirection","HourlyWindGustSpeed","HourlyWindSpeed","Sunrise","Sunset","DailyAverageDewPointTemperature","DailyAverageDryBulbTemperature","DailyAverageRelativeHumidity","DailyAverageSeaLevelPressure","DailyAverageStationPressure","DailyAverageWetBulbTemperature","DailyAverageWindSpeed","DailyCoolingDegreeDays","DailyDepartureFromNormalAverageTemperature","DailyHeatingDegreeDays","DailyMaximumDryBulbTemperature","DailyMinimumDryBulbTemperature","DailyPeakWindDirection","DailyPeakWindSpeed","DailyPrecipitation","DailySnowDepth","DailySnowfall","DailySustainedWindDirection","DailySustainedWindSpeed","DailyWeather","MonthlyAverageRH","MonthlyDaysWithGT001Precip","MonthlyDaysWithGT010Precip","MonthlyDaysWithGT32Temp","MonthlyDaysWithGT90Temp","MonthlyDaysWithLT0Temp","MonthlyDaysWithLT32Temp","MonthlyDepartureFromNormalAverageTemperature","MonthlyDepartureFromNormalCoolingDegreeDays","MonthlyDepartureFromNormalHeatingDegreeDays","MonthlyDepartureFromNormalMaximumTemperature","MonthlyDepartureFromNormalMinimumTemperature","MonthlyDepartureFromNormalPrecipitation","MonthlyDewpointTemperature","MonthlyGreatestPrecip","MonthlyGreatestPrecipDate","MonthlyGreatestSnowDepth","MonthlyGreatestSnowDepthDate","MonthlyGreatestSnowfall","MonthlyGreatestSnowfallDate","MonthlyMaxSeaLevelPressureValue","MonthlyMaxSeaLevelPressureValueDate","MonthlyMaxSeaLevelPressureValueTime","MonthlyMaximumTemperature","MonthlyMeanTemperature","MonthlyMinSeaLevelPressureValue","MonthlyMinSeaLevelPressureValueDate","MonthlyMinSeaLevelPressureValueTime","MonthlyMinimumTemperature","MonthlySeaLevelPressure","MonthlyStationPressure","MonthlyTotalLiquidPrecipitation","MonthlyTotalSnowfall","MonthlyWetBulb","AWND","CDSD","CLDD","DSNW","HDSD","HTDD","DYTS","DYHF","NormalsCoolingDegreeDay","NormalsHeatingDegreeDay","ShortDurationEndDate005","ShortDurationEndDate010","ShortDurationEndDate015","ShortDurationEndDate020","ShortDurationEndDate030","ShortDurationEndDate045","ShortDurationEndDate060","ShortDurationEndDate080","ShortDurationEndDate100","ShortDurationEndDate120","ShortDurationEndDate150","ShortDurationEndDate180","ShortDurationPrecipitationValue005","ShortDurationPrecipitationValue010","ShortDurationPrecipitationValue015","ShortDurationPrecipitationValue020","ShortDurationPrecipitationValue030","ShortDurationPrecipitationValue045","ShortDurationPrecipitationValue060","ShortDurationPrecipitationValue080","ShortDurationPrecipitationValue100","ShortDurationPrecipitationValue120","ShortDurationPrecipitationValue150","ShortDurationPrecipitationValue180","REM","BackupDirection","BackupDistance","BackupDistanceUnit","BackupElements","BackupElevation","BackupEquipment","BackupLatitude","BackupLongitude","BackupName","WindEquipmentChangeDate"
"61421099999","2021-01-01T09:00:00","20.506828","-13.043194","231.03","ATAR, MR","FM-15","4","30.12","23","63","","","","","22","","","","4.35","","040","","11","","","","","","","","","","","","","","","","","","","","","","","","","","","","","","","","","","","","","","","","","","","","","","","","","","","","","","","","","","","","","","","","","","","","","","","","","","","","","","","","","","","","","","","","","","","MET049METAR GQPA 010900Z 04010KT 7000 NSC 17/M05 Q1020=","","","","","","","","","",""
"61421099999","2021-01-01T15:00:00","20.506828","-13.043194","231.03","ATAR, MR","FM-15","4","30.03","25","75","","","","","15","","","","4.97","","040","","9","","","","","","","","","","","","","","","","","","","","","","","","","","","","","","","","","","","","","","","","","","","","","","","","","","","","","","","","","","","","","","","","","","","","","","","","","","","","","","","","","","","","","","","","","","","MET049METAR GQPA 011500Z 04008KT 8000 NSC 24/M04 Q1017=","","","","","","","","","",""
"61421099999","2021-01-02T09:00:00","20.506828","-13.043194","231.03","ATAR, MR","FM-15","4","30.03","19","61","","","","","20","","","","4.97","","020","","9","","","","","","","","","","","","","","","","","","","","","","","","","","","","","","","","","","","","","","","","","","","","","","","","","","","","","","","","","","","","","","","","","","","","","","","","","","","","","","","","","","","","","","","","","","","MET053METAR COR GQPA 020900Z 02008KT 8000 NSC 16/M07 Q1017=","","","","","","","","","",""
"61421099999","2021-01-03T12:00:00","20.506828","-13.043194","231.03","ATAR, MR","FM-15","4","30.00","39","73","","","","","29","","","","4.97","","020","","5","","","","","","","","","","","","","","","","","","","","","","","","","","","","","","","","","","","","","","","","","","","","","","","","","","","","","","","","","","","","","","","","","","","","","","","","","","","","","","","","","","","","","","","","","","","MET052METAR COR GQPA 031200Z 02004KT 8000 NSC 23/04 Q1016=","","","","","","","","","",""
"61421099999","2021-01-05T09:00:00","20.506828","-13.043194","231.03","ATAR, MR","FM-15","4","30.03","25","66","","","","","21","","","","4.97","","VRB","","2","","","","","","","","","","","","","","","","","","","","","","","","","","","","","","","","","","","","","","","","","","","","","","","","","","","","","","","","","","","","","","","","","","","","","","","","","","","","","","","","","","","","","","","","","","","MET049METAR GQPA 050900Z VRB02KT 8000 NSC 19/M04 Q1017=","","","","","","","","","",""
"61421099999","2021-01-05T12:00:00","20.506828","-13.043194","231.03","ATAR, MR","FM-15","4","30.03","27","73","","","","","17","","","","4.97","","VRB","","2","","","","","","","","","","","","","","","","","","","","","","","","","","","","","","","","","","","","","","","","","","","","","","","","","","","","","","","","","","","","","","","","","","","","","","","","","","","","","","","","","","","","","","","","","","","MET049METAR GQPA 051200Z VRB02KT 8000 NSC 23/M03 Q1017=","","","","","","","","","",""
"61421099999","2021-01-08T09:00:00","20.506828","-13.043194","231.03","ATAR, MR","FM-15","4","30.03","37","72","","","","","29","","","","4.35","","080","","9","","","","","","","","","","","","","","","","","","","","","","","","","","","","","","","","","","","","","","","","","","","","","","","","","","","","","","","","","","","","","","","","","","","","","","","","","","","","","","","","","","","","","","","","","","","MET048METAR GQPA 080900Z 08008KT 7000 NSC 22/03 Q1017=","","","","","","","","","",""
"61421099999","2021-01-08T12:00:00","20.506828","-13.043194","231.03","ATAR, MR","FM-15","4","30.00","39","79","","","","","24","","","","4.35","","060","","5","","","","","","","","","","","","","","","","","","","","","","","","","","","","","","","","","","","","","","","","","","","","","","","","","","","","","","","","","","","","","","","","","","","","","","","","","","","","","","","","","","","","","","","","","","","MET048METAR GQPA 081200Z 06004KT 7000 NSC 26/04 Q1016=","","","","","","","","","",""
"61421099999","2021-01-09T09:00:00","20.506828","-13.043194","231.03","ATAR, MR","FM-15","4","30.09","37","66","","","","","35","","","","4.97","","020","","11","","","","","","","","","","","","","","","","","","","","","","","","","","","","","","","","","","","","","","","","","","","","","","","","","","","","","","","","","","","","","","","","","","","","","","","","","","","","","","","","","","","","","","","","","","","MET048METAR GQPA 090900Z 02010KT 8000 NSC 19/03 Q1019=","","","","","","","","","",""
"61421099999","2021-01-10T09:00:00","20.506828","-13.043194","231.03","ATAR, MR","FM-15","4","30.18","21","59","","","","","23","","","","4.97","","040","","18","","","","","","","","","","","","","","","","","","","","","","","","","","","","","","","","","","","","","","","","","","","","","","","","","","","","","","","","","","","","","","","","","","","","","","","","","","","","","","","","","","","","","","","","","","","MET049METAR GQPA 100900Z 04016KT 8000 NSC 15/M06 Q1022=","","","","","","","","","",""
"61421099999","2021-01-10T18:00:00","20.506828","-13.043194","231.03","ATAR, MR","FM-15","4","30.06","21","70","","||DU","","","16","","","","4.35","","360","","18","","","","","","","","","","","","","","","","","","","","","","","","","","","","","","","","","","","","","","","","","","","","","","","","","","","","","","","","","","","","","","","","","","","","","","","","","","","","","","","","","","","","","","","","","","","MET054METAR GQPA 101800Z 36016KT 7000 BLSA NSC 21/M06 Q1018=","","","","","","","","","",""
"61421099999","2021-01-11T09:00:00","20.506828","-13.043194","231.03","ATAR, MR","FM-15","4","30.18","30","59","","","","","34","","","","4.35","","040","","11","","","","","","","","","","","","","","","","","","","","","","","","","","","","","","","","","","","","","","","","","","","","","","","","","","","","","","","","","","","","","","","","","","","","","","","","","","","","","","","","","","","","","","","","","","","MET049METAR GQPA 110900Z 04010KT 7000 NSC 15/M01 Q1022=","","","","","","","","","",""
"61421099999","2021-01-11T12:00:00","20.506828","-13.043194","231.03","ATAR, MR","FM-15","4","30.18","18","64","","||DU","","","16","","","","3.11","","080","","21","","","","","","","","","","","","","","","","","","","","","","","","","","","","","","","","","","","","","","","","","","","","","","","","","","","","","","","","","","","","","","","","","","","","","","","","","","","","","","","","","","","","","","","","","","","MET054METAR GQPA 111200Z 08018KT 5000 BLSA NSC 18/M08 Q1022=","","","","","","","","","",""
"61421099999","2021-01-11T18:00:00","20.506828","-13.043194","231.03","ATAR, MR","FM-15","4","30.36s","18","68","","||DU","","","14","","","","3.11","","070","","21","","","","","","","","","","","","","","","","","","","","","","","","","","","","","","","","","","","","","","","","","","","","","","","","","","","","","","","","","","","","","","","","","","","","","","","","","","","","","","","","","","","","","","","","","","","MET054METAR GQPA 111800Z 07018KT 5000 BLDU NSC 20/M08 Q1028=","","","","","","","","","",""
"61421099999","2021-01-12T12:00:00","20.506828","-13.043194","231.03","ATAR, MR","FM-15","4","30.18","18","59","","","","","20","","","","4.97","","070","","17","","","","","","","","","","","","","","","","","","","","","","","","","","","","","","","","","","","","","","","","","","","","","","","","","","","","","","","","","","","","","","","","","","","","","","","","","","","","","","","","","","","","","","","","","","","MET049METAR GQPA 121200Z 07015KT 8000 NSC 15/M08 Q1022=","","","","","","","","","",""
"61421099999","2021-01-12T18:00:00","20.506828","-13.043194","231.03","ATAR, MR","FM-15","4","30.12","37","72","","","","","29","BKN:07 100","","","4.97","","060","","11","","","","","","","","","","","","","","","","","","","","","","","","","","","","","","","","","","","","","","","","","","","","","","","","","","","","","","","","","","","","","","","","","","","","","","","","","","","","","","","","","","","","","","","","","","","MET051METAR GQPA 121800Z 06010KT 8000 BKN100 22/03 Q1020=","","","","","","","","","",""
"61421099999","2021-01-13T09:00:00","20.506828","-13.043194","231.03","ATAR, MR","FM-15","4","30.18","37","57","","","","","48","","","","4.97","","020","","17","","","","","","","","","","","","","","","","","","","","","","","","","","","","","","","","","","","","","","","","","","","","","","","","","","","","","","","","","","","","","","","","","","","","","","","","","","","","","","","","","","","","","","","","","","","MET048METAR GQPA 130900Z 02015KT 8000 NSC 14/03 Q1022=","","","","","","","","","",""
"61421099999","2021-01-13T12:00:00","20.506828","-13.043194","231.03","ATAR, MR","FM-15","4","30.18","25","64","","","","","22","","","","4.97","","060","","11","","","","","","","","","","","","","","","","","","","","","","","","","","","","","","","","","","","","","","","","","","","","","","","","","","","","","","","","","","","","","","","","","","","","","","","","","","","","","","","","","","","","","","","","","","","MET053METAR COR GQPA 131200Z 06010KT 8000 NSC 18/M04 Q1022=","","","","","","","","","",""
"61421099999","2021-01-13T15:00:00","20.506828","-13.043194","231.03","ATAR, MR","FM-15","4","30.09","27","79","","","","","15","","","","4.35","","020","","14","","","","","","","","","","","","","","","","","","","","","","","","","","","","","","","","","","","","","","","","","","","","","","","","","","","","","","","","","","","","","","","","","","","","","","","","","","","","","","","","","","","","","","","","","","","MET049METAR GQPA 131500Z 02012KT 7000 NSC 26/M03 Q1019=","","","","","","","","","",""
"61421099999","2021-01-14T09:00:00","20.506828","-13.043194","231.03","ATAR, MR","FM-15","4","30.18","25","61","","","","","25","","","","4.97","","040","","11","","","","","","","","","","","","","","","","","","","","","","","","","","","","","","","","","","","","","","","","","","","","","","","","","","","","","","","","","","","","","","","","","","","","","","","","","","","","","","","","","","","","","","","","","","","MET049METAR GQPA 140900Z 04010KT 8000 NSC 16/M04 Q1022=","","","","","","","","","",""
"61421099999","2021-01-14T12:00:00","20.506828","-13.043194","231.03","ATAR, MR","FM-15","4","30.15","18","75","","","","","11","","","","4.97","","080","","11","","","","","","","","","","","","","","","","","","","","","","","","","","","","","","","","","","","","","","","","","","","","","","","","","","","","","","","","","","","","","","","","","","","","","","","","","","","","","","","","","","","","","","","","","","","MET049METAR GQPA 141200Z 08010KT 8000 NSC 24/M08 Q1021=","","","","","","","","","",""
"61421099999","2021-01-15T09:00:00","20.506828","-13.043194","231.03","ATAR, MR","FM-15","4","30.18","32","57","","","","","39","","","","4.97","","360","","11","","","","","","","","","","","","","","","","","","","","","","","","","","","","","","","","","","","","","","","","","","","","","","","","","","","","","","","","","","","","","","","","","","","","","","","","","","","","","","","","","","","","","","","","","","","MET049METAR GQPA 150900Z 36010KT 8000 NSC 14/M00 Q1022=","","","","","","","","","",""
"61421099999","2021-01-16T12:00:00","20.506828","-13.043194","231.03","ATAR, MR","FM-15","4","30.15","43","72","","||DU","","","36","","","","3.73","","360","","17","","","","","","","","","","","","","","","","","","","","","","","","","","","","","","","","","","","","","","","","","","","","","","","","","","","","","","","","","","","","","","","","","","","","","","","","","","","","","","","","","","","","","","","","","","","MET053METAR GQPA 161200Z 36015KT 6000 BLSA NSC 22/06 Q1021=","","","","","","","","","",""
"61421099999","2021-01-17T09:00:00","20.506828","-13.043194","231.03","ATAR, MR","FM-15","4","30.12","19","59","","","","","21","","","","4.97","","020","","9","","","","","","","","","","","","","","","","","","","","","","","","","","","","","","","","","","","","","","","","","","","","","","","","","","","","","","","","","","","","","","","","","","","","","","","","","","","","","","","","","","","","","","","","","","","MET049METAR GQPA 170900Z 02008KT 8000 NSC 15/M07 Q1020=","","","","","","","","","",""
"61421099999","2021-01-17T12:00:00","20.506828","-13.043194","231.03","ATAR, MR","FM-15","4","30.12","32","72","","||DU","","","23","","","","3.73","","100","","22","","","","","","","","","","","","","","","","","","","","","","","","","","","","","","","","","","","","","","","","","","","","","","","","","","","","","","","","","","","","","","","","","","","","","","","","","","","","","","","","","","","","","","","","","","","MET054METAR GQPA 171200Z 10019KT 6000 BLSA NSC 22/M00 Q1020=","","","","","","","","","",""
"61421099999","2021-01-17T15:00:00","20.506828","-13.043194","231.03","ATAR, MR","FM-15","4","30.06","37","79","","||DU","","","23","","","","2.49","","060","","16","","","","","","","","","","","","","","","","","","","","","","","","","","","","","","","","","","","","","","","","","","","","","","","","","","","","","","","","","","","","","","","","","","","","","","","","","","","","","","","","","","","","","","","","","","","MET053METAR GQPA 171500Z 06014KT 4000 BLSA NSC 26/03 Q1018=","","","","","","","","","",""
"61421099999","2021-01-18T09:00:00","20.506828","-13.043194","231.03","ATAR, MR","FM-15","4","30.18","25","63","","||DU","","","24","","","","3.11","","020","","7","","","","","","","","","","","","","","","","","","","","","","","","","","","","","","","","","","","","","","","","","","","","","","","","","","","","","","","","","","","","","","","","","","","","","","","","","","","","","","","","","","","","","","","","","","","MET052METAR GQPA 180900Z 02006KT 5000 DU NSC 17/M04 Q1022=","","","","","","","","","",""
"61421099999","2021-01-18T12:00:00","20.506828","-13.043194","231.03","ATAR, MR","FM-15","4","30.18","23","72","","","","","16","","","","4.97","","060","","14","","","","","","","","","","","","","","","","","","","","","","","","","","","","","","","","","","","","","","","","","","","","","","","","","","","","","","","","","","","","","","","","","","","","","","","","","","","","","","","","","","","","","","","","","","","MET049METAR GQPA 181200Z 06012KT 8000 NSC 22/M05 Q1022=","","","","","","","","","",""
"61421099999","2021-01-18T18:00:00","20.506828","-13.043194","231.03","ATAR, MR","FM-15","4","30.09","27","75","","||DU","","","16","","","","3.11","","","","","","","","","","","","","","","","","","","","","","","","","","","","","","","","","","","","","","","","","","","","","","","","","","","","","","","","","","","","","","","","","","","","","","","","","","","","","","","","","","","","","","","","","","","","","","","MET052METAR GQPA 181800Z /////KT 5000 DU NSC 24/M03 Q1019=","","","","","","","","","",""
"61421099999","2021-01-19T09:00:00","20.506828","-13.043194","231.03","ATAR, MR","FM-15","4","30.18","25","57","","","","","29","","","","4.97","","020","","14","","","","","","","","","","","","","","","","","","","","","","","","","","","","","","","","","","","","","","","","","","","","","","","","","","","","","","","","","","","","","","","","","","","","","","","","","","","","","","","","","","","","","","","","","","","MET053METAR COR GQPA 190900Z 02012KT 8000 NSC 14/M04 Q1022=","","","","","","","","","",""
"61421099999","2021-01-19T15:00:00","20.506828","-13.043194","231.03","ATAR, MR","FM-15","4","30.06","39","82","","||DU","","","21","","","","3.73","","040","","9","","","","","","","","","","","","","","","","","","","","","","","","","","","","","","","","","","","","","","","","","","","","","","","","","","","","","","","","","","","","","","","","","","","","","","","","","","","","","","","","","","","","","","","","","","","MET051METAR GQPA 191500Z 04008KT 6000 DU NSC 28/04 Q1018=","","","","","","","","","",""
"61421099999","2021-01-20T12:00:00","20.506828","-13.043194","231.03","ATAR, MR","FM-15","4","30.15","32","75","","||DU","","","21","","","","3.73","","360","","21","","","","","","","","","","","","","","","","","","","","","","","","","","","","","","","","","","","","","","","","","","","","","","","","","","","","","","","","","","","","","","","","","","","","","","","","","","","","","","","","","","","","","","","","","","","MET054METAR GQPA 201200Z 36018KT 6000 BLSA NSC 24/M00 Q1021=","","","","","","","","","",""
"61421099999","2021-01-22T09:00:00","20.506828","-13.043194","231.03","ATAR, MR","FM-15","4","30.18","21","64","","","","","19","","","","4.97","","360","","11","","","","","","","","","","","","","","","","","","","","","","","","","","","","","","","","","","","","","","","","","","","","","","","","","","","","","","","","","","","","","","","","","","","","","","","","","","","","","","","","","","","","","","","","","","","MET049METAR GQPA 220900Z 36010KT 8000 NSC 18/M06 Q1022=","","","","","","","","","",""
"61421099999","2021-01-22T12:00:00","20.506828","-13.043194","231.03","ATAR, MR","FM-15","4","30.18","27","72","","","","","19","","","","4.97","","360","","7","","","","","","","","","","","","","","","","","","","","","","","","","","","","","","","","","","","","","","","","","","","","","","","","","","","","","","","","","","","","","","","","","","","","","","","","","","","","","","","","","","","","","","","","","","","MET049METAR GQPA 221200Z 36006KT 8000 NSC 22/M03 Q1022=","","","","","","","","","",""
"61421099999","2021-01-23T09:00:00","20.506828","-13.043194","231.03","ATAR, MR","FM-15","4","30.15","18","64","","","","","16","","","","4.97","","VRB","","2","","","","","","","","","","","","","","","","","","","","","","","","","","","","","","","","","","","","","","","","","","","","","","","","","","","","","","","","","","","","","","","","","","","","","","","","","","","","","","","","","","","","","","","","","","","MET049METAR GQPA 230900Z VRB02KT 8000 NSC 18/M08 Q1021=","","","","","","","","","",""
"61421099999","2021-01-23T12:00:00","20.506828","-13.043194","231.03","ATAR, MR","FM-15","4","30.15","25","84s","","","","","11","","","","4.97","","080","","16","","","","","","","","","","","","","","","","","","","","","","","","","","","","","","","","","","","","","","","","","","","","","","","","","","","","","","","","","","","","","","","","","","","","","","","","","","","","","","","","","","","","","","","","","","","MET049METAR GQPA 231200Z 08014KT 8000 NSC 29/M04 Q1021=","","","","","","","","","",""
"61421099999","2021-01-23T15:00:00","20.506828","-13.043194","231.03","ATAR, MR","FM-15","4","30.06","39","86","","","","","19","","","","4.35","","060","","11","","","","","","","","","","","","","","","","","","","","","","","","","","","","","","","","","","","","","","","","","","","","","","","","","","","","","","","","","","","","","","","","","","","","","","","","","","","","","","","","","","","","","","","","","","","MET048METAR GQPA 231500Z 06010KT 7000 NSC 30/04 Q1018=","","","","","","","","","",""
"61421099999","2021-01-24T12:00:00","20.506828","-13.043194","231.03","ATAR, MR","FM-15","4","30.18","30","84","","","","","14","","","","6.15","","020","","14","","","","","","","","","","","","","","","","","","","","","","","","","","","","","","","","","","","","","","","","","","","","","","","","","","","","","","","","","","","","","","","","","","","","","","","","","","","","","","","","","","","","","","","","","","","MET050METAR GQPA 241200Z 02012KT CAVOK NSC 29/M01 Q1022=","","","","","","","","","",""
"61421099999","2021-01-24T18:00:00","20.506828","-13.043194","231.03","ATAR, MR","FM-15","4","30.09","41","88","","","","","19","","","","4.97","","080","","7","","","","","","","","","","","","","","","","","","","","","","","","","","","","","","","","","","","","","","","","","","","","","","","","","","","","","","","","","","","","","","","","","","","","","","","","","","","","","","","","","","","","","","","","","","","MET052METAR COR GQPA 241800Z 08006KT 8000 NSC 31/05 Q1019=","","","","","","","","","",""
"61421099999","2021-01-25T09:00:00","20.506828","-13.043194","231.03","ATAR, MR","FM-15","4","30.09","36","68","","","","","30","","","","4.97","","360","","9","","","","","","","","","","","","","","","","","","","","","","","","","","","","","","","","","","","","","","","","","","","","","","","","","","","","","","","","","","","","","","","","","","","","","","","","","","","","","","","","","","","","","","","","","","","MET048METAR GQPA 250900Z 36008KT 8000 NSC 20/02 Q1019=","","","","","","","","","",""
"61421099999","2021-01-26T12:00:00","20.506828","-13.043194","231.03","ATAR, MR","FM-15","4","30.12","23","77","","","","","13","","","","6.15","","360","","11","","","","","","","","","","","","","","","","","","","","","","","","","","","","","","","","","","","","","","","","","","","","","","","","","","","","","","","","","","","","","","","","","","","","","","","","","","","","","","","","","","","","","","","","","","","MET046METAR GQPA 261200Z 36010KT CAVOK 25/M05 Q1020=","","","","","","","","","",""
"61421099999","2021-01-26T18:00:00","20.506828","-13.043194","231.03","ATAR, MR","FM-15","4","30.06","43","90","","","","","20","","","","4.97","","080","","9","","","","","","","","","","","","","","","","","","","","","","","","","","","","","","","","","","","","","","","","","","","","","","","","","","","","","","","","","","","","","","","","","","","","","","","","","","","","","","","","","","","","","","","","","","","MET048METAR GQPA 261800Z 08008KT 8000 NSC 32/06 Q1018=","","","","","","","","","",""
"61421099999","2021-01-27T09:00:00","20.506828","-13.043194","231.03","ATAR, MR","FM-15","4","30.12","27","64","","","","","24","","","","4.97","","VRB","","2","","","","","","","","","","","","","","","","","","","","","","","","","","","","","","","","","","","","","","","","","","","","","","","","","","","","","","","","","","","","","","","","","","","","","","","","","","","","","","","","","","","","","","","","","","","MET049METAR GQPA 270900Z VRB02KT 8000 NSC 18/M03 Q1020=","","","","","","","","","",""
"61421099999","2021-01-27T15:00:00","20.506828","-13.043194","231.03","ATAR, MR","FM-15","4","30.03","45","93","","","","","19","","","","4.97","","100","","14","","","","","","","","","","","","","","","","","","","","","","","","","","","","","","","","","","","","","","","","","","","","","","","","","","","","","","","","","","","","","","","","","","","","","","","","","","","","","","","","","","","","","","","","","","","MET048METAR GQPA 271500Z 10012KT 8000 NSC 34/07 Q1017=","","","","","","","","","",""
"61421099999","2021-01-28T09:00:00","20.506828","-13.043194","231.03","ATAR, MR","FM-15","4","30.12","18","72","","","","","13","","","","4.97","","020","","14","","","","","","","","","","","","","","","","","","","","","","","","","","","","","","","","","","","","","","","","","","","","","","","","","","","","","","","","","","","","","","","","","","","","","","","","","","","","","","","","","","","","","","","","","","","MET049METAR GQPA 280900Z 02012KT 8000 NSC 22/M08 Q1020=","","","","","","","","","",""
"61421099999","2021-01-28T12:00:00","20.506828","-13.043194","231.03","ATAR, MR","FM-15","4","30.15","25","82","","","","","12","","","","4.97","","020","","11","","","","","","","","","","","","","","","","","","","","","","","","","","","","","","","","","","","","","","","","","","","","","","","","","","","","","","","","","","","","","","","","","","","","","","","","","","","","","","","","","","","","","","","","","","","MET049METAR GQPA 281200Z 02010KT 8000 NSC 28/M04 Q1021=","","","","","","","","","",""
"61421099999","2021-01-29T12:00:00","20.506828","-13.043194","231.03","ATAR, MR","FM-15","4","30.12","39","77","","","","","26","","","","4.35","","040","","9","","","","","","","","","","","","","","","","","","","","","","","","","","","","","","","","","","","","","","","","","","","","","","","","","","","","","","","","","","","","","","","","","","","","","","","","","","","","","","","","","","","","","","","","","","","MET048METAR GQPA 291200Z 04008KT 7000 NSC 25/04 Q1020=","","","","","","","","","",""
"61421099999","2021-01-29T15:00:00","20.506828","-13.043194","231.03","ATAR, MR","FM-15","4","30.03","46","88","","","","","24","","","","4.35","","080","","14","","","","","","","","","","","","","","","","","","","","","","","","","","","","","","","","","","","","","","","","","","","","","","","","","","","","","","","","","","","","","","","","","","","","","","","","","","","","","","","","","","","","","","","","","","","MET048METAR GQPA 291500Z 08012KT 7000 NSC 31/08 Q1017=","","","","","","","","","",""
"61421099999","2021-01-30T12:00:00","20.506828","-13.043194","231.03","ATAR, MR","FM-15","4","30.15","32","72","","","","","23","","","","4.97","","060","","11","","","","","","","","","","","","","","","","","","","","","","","","","","","","","","","","","","","","","","","","","","","","","","","","","","","","","","","","","","","","","","","","","","","","","","","","","","","","","","","","","","","","","","","","","","","MET049METAR GQPA 301200Z 06010KT 8000 NSC 22/M00 Q1021=","","","","","","","","","",""
"61421099999","2021-01-30T15:00:00","20.506828","-13.043194","231.03","ATAR, MR","FM-15","4","30.06","46","91s","","","","","21","","","","4.97","","040","","14","","","","","","","","","","","","","","","","","","","","","","","","","","","","","","","","","","","","","","","","","","","","","","","","","","","","","","","","","","","","","","","","","","","","","","","","","","","","","","","","","","","","","","","","","","","MET048METAR GQPA 301500Z 04012KT 8000 NSC 33/08 Q1018=","","","","","","","","","",""
"61421099999","2021-01-30T18:00:00","20.506828","-13.043194","231.03","ATAR, MR","FM-15","4","30.00","30","88","","","","","13","","","","4.97","","060","","14","","","","","","","","","","","","","","","","","","","","","","","","","","","","","","","","","","","","","","","","","","","","","","","","","","","","","","","","","","","","","","","","","","","","","","","","","","","","","","","","","","","","","","","","","","","MET049METAR GQPA 301800Z 06012KT 8000 NSC 31/M01 Q1016=","","","","","","","","","",""
"61421099999","2021-01-31T09:00:00","20.506828","-13.043194","231.03","ATAR, MR","FM-15","4","30.15","18","70","","","","","13","","","","4.97","","020","","7","","","","","","","","","","","","","","","","","","","","","","","","","","","","","","","","","","","","","","","","","","","","","","","","","","","","","","","","","","","","","","","","","","","","","","","","","","","","","","","","","","","","","","","","","","","MET049METAR GQPA 310900Z 02006KT 8000 NSC 21/M08 Q1021=","","","","","","","","","",""
"61421099999","2021-01-31T12:00:00","20.506828","-13.043194","231.03","ATAR, MR","FM-15","4","30.12","32","79","","","","","18","","","","4.97","","060","","11","","","","","","","","","","","","","","","","","","","","","","","","","","","","","","","","","","","","","","","","","","","","","","","","","","","","","","","","","","","","","","","","","","","","","","","","","","","","","","","","","","","","","","","","","","","MET049METAR GQPA 311200Z 06010KT 8000 NSC 26/M00 Q1020=","","","","","","","","","",""
"61421099999","2021-01-31T15:00:00","20.506828","-13.043194","231.03","ATAR, MR","FM-15","4","30.00","45","90","","","","","21","","","","4.97","","060","","16","","","","","","","","","","","","","","","","","","","","","","","","","","","","","","","","","","","","","","","","","","","","","","","","","","","","","","","","","","","","","","","","","","","","","","","","","","","","","","","","","","","","","","","","","","","MET048METAR GQPA 311500Z 06014KT 8000 NSC 32/07 Q1016=","","","","","","","","","",""
"61421099999","2021-02-01T09:00:00","20.506828","-13.043194","231.03","ATAR, MR","FM-15","4","30.15","18","72","","","","","13","","","","4.97","","VRB","","2","","","","","","","","","","","","","","","","","","","","","","","","","","","","","","","","","","","","","","","","","","","","","","","","","","","","","","","","","","","","","","","","","","","","","","","","","","","","","","","","","","","","","","","","","","","MET049METAR GQPA 010900Z VRB02KT 8000 NSC 22/M08 Q1021=","","","","","","","","","",""
"61421099999","2021-02-01T12:00:00","20.506828","-13.043194","231.03","ATAR, MR","FM-15","4","30.15","25","79","","","","","13","","","","","","060","","7","","","","","","","","","","","","","","","","","","","","","","","","","","","","","","","","","","","","","","","","","","","","","","","","","","","","","","","","","","","","","","","","","","","","","","","","","","","","","","","","","","","","","","","","","","","MET044METAR GQPA 011200Z 06006KT NSC 26/M04 Q1021=","","","","","","","","","",""
"61421099999","2021-02-01T15:00:00","20.506828","-13.043194","231.03","ATAR, MR","FM-15","4","30.00","46s","91","","","","","21","","","","6.15","","080","","5","","","","","","","","","","","","","","","","","","","","","","","","","","","","","","","","","","","","","","","","","","","","","","","","","","","","","","","","","","","","","","","","","","","","","","","","","","","","","","","","","","","","","","","","","","","MET045METAR GQPA 011500Z 08004KT CAVOK 33/08 Q1016=","","","","","","","","","",""
"61421099999","2021-02-02T09:00:00","20.506828","-13.043194","231.03","ATAR, MR","FM-15","4","30.09","25","64","","","","","22","","","","4.97","","VRB","","2","","","","","","","","","","","","","","","","","","","","","","","","","","","","","","","","","","","","","","","","","","","","","","","","","","","","","","","","","","","","","","","","","","","","","","","","","","","","","","","","","","","","","","","","","","","MET049METAR GQPA 020900Z VRB02KT 8000 NSC 18/M04 Q1019=","","","","","","","","","",""
"61421099999","2021-02-03T12:00:00","20.506828","-13.043194","231.03","ATAR, MR","FM-15","4","30.09","25","88","","","","","10","","","","4.97","","000","","0","","","","","","","","","","","","","","","","","","","","","","","","","","","","","","","","","","","","","","","","","","","","","","","","","","","","","","","","","","","","","","","","","","","","","","","","","","","","","","","","","","","","","","","","","","","MET049METAR GQPA 031200Z 00000KT 8000 NSC 31/M04 Q1019=","","","","","","","","","",""
"61421099999","2021-02-04T09:00:00","20.506828","-13.043194","231.03","ATAR, MR","FM-15","4","30.06","27","70","","","","","20","","","","4.97","","060","","9","","","","","","","","","","","","","","","","","","","","","","","","","","","","","","","","","","","","","","","","","","","","","","","","","","","","","","","","","","","","","","","","","","","","","","","","","","","","","","","","","","","","","","","","","","","MET049METAR GQPA 040900Z 06008KT 8000 NSC 21/M03 Q1018=","","","","","","","","","",""
"61421099999","2021-02-04T12:00:00","20.506828","-13.043194","231.03","ATAR, MR","FM-15","4","29.97","21","86","","","","","9","","","","4.35","","VRB","","2","","","","","","","","","","","","","","","","","","","","","","","","","","","","","","","","","","","","","","","","","","","","","","","","","","","","","","","","","","","","","","","","","","","","","","","","","","","","","","","","","","","","","","","","","","","MET049METAR GQPA 041200Z VRB02KT 7000 NSC 30/M06 Q1015=","","","","","","","","","",""
"61421099999","2021-02-04T15:00:00","20.506828","-13.043194","231.03","ATAR, MR","FM-15","4","29.88","32","90","","","","","13","","","","4.35","","280","","14","","","","","","","","","","","","","","","","","","","","","","","","","","","","","","","","","","","","","","","","","","","","","","","","","","","","","","","","","","","","","","","","","","","","","","","","","","","","","","","","","","","","","","","","","","","MET049METAR GQPA 041500Z 28012KT 7000 NSC 32/M00 Q1012=","","","","","","","","","",""
"61421099999","2021-02-04T18:00:00","20.506828","-13.043194","231.03","ATAR, MR","FM-15","4","29.88","19","90","","","","","7","","","","4.35","","280","","11","","","","","","","","","","","","","","","","","","","","","","","","","","","","","","","","","","","","","","","","","","","","","","","","","","","","","","","","","","","","","","","","","","","","","","","","","","","","","","","","","","","","","","","","","","","MET049METAR GQPA 041800Z 28010KT 7000 NSC 32/M07 Q1012=","","","","","","","","","",""
"61421099999","2021-02-05T09:00:00","20.506828","-13.043194","231.03","ATAR, MR","FM-15","4","30.00","21","63","","","","","20","","","","4.97","","360","","14","","","","","","","","","","","","","","","","","","","","","","","","","","","","","","","","","","","","","","","","","","","","","","","","","","","","","","","","","","","","","","","","","","","","","","","","","","","","","","","","","","","","","","","","","","","MET049METAR GQPA 050900Z 36012KT 8000 NSC 17/M06 Q1016=","","","","","","","","","",""
"61421099999","2021-02-06T09:00:00","20.506828","-13.043194","231.03","ATAR, MR","FM-15","4","30.15","18","57","","","","","21","","","","6.15","","360","","7","","","","","","","","","","","","","","","","","","","","","","","","","","","","","","","","","","","","","","","","","","","","","","","","","","","","","","","","","","","","","","","","","","","","","","","","","","","","","","","","","","","","","","","","","","","MET046METAR GQPA 060900Z 36006KT CAVOK 14/M08 Q1021=","","","","","","","","","",""
"61421099999","2021-02-06T12:00:00","20.506828","-13.043194","231.03","ATAR, MR","FM-15","4","30.15","25","64","","","","","22","","","","4.97","","060","","14","","","","","","","","","","","","","","","","","","","","","","","","","","","","","","","","","","","","","","","","","","","","","","","","","","","","","","","","","","","","","","","","","","","","","","","","","","","","","","","","","","","","","","","","","","","MET049METAR GQPA 061200Z 06012KT 8000 NSC 18/M04 Q1021=","","","","","","","","","",""
"61421099999","2021-02-06T18:00:00","20.506828","-13.043194","231.03","ATAR, MR","FM-15","4","30.03","19","73","","","","","13","","","","4.97","","360","","17","","","","","","","","","","","","","","","","","","","","","","","","","","","","","","","","","","","","","","","","","","","","","","","","","","","","","","","","","","","","","","","","","","","","","","","","","","","","","","","","","","","","","","","","","","","MET049METAR GQPA 061800Z 36015KT 8000 NSC 23/M07 Q1017=","","","","","","","","","",""
"61421099999","2021-02-07T09:00:00","20.506828","-13.043194","231.03","ATAR, MR","FM-15","4","30.15","21","59","","","","","23","","","","4.97","","360","","17","","","","","","","","","","","","","","","","","","","","","","","","","","","","","","","","","","","","","","","","","","","","","","","","","","","","","","","","","","","","","","","","","","","","","","","","","","","","","","","","","","","","","","","","","","","MET049METAR GQPA 070900Z 36015KT 8000 NSC 15/M06 Q1021=","","","","","","","","","",""
"61421099999","2021-02-08T09:00:00","20.506828","-13.043194","231.03","ATAR, MR","FM-15","4","30.15","19","57","","","","","23","","","","4.97","","VRB","","2","","","","","","","","","","","","","","","","","","","","","","","","","","","","","","","","","","","","","","","","","","","","","","","","","","","","","","","","","","","","","","","","","","","","","","","","","","","","","","","","","","","","","","","","","","","MET049METAR GQPA 080900Z VRB02KT 8000 NSC 14/M07 Q1021=","","","","","","","","","",""
"61421099999","2021-02-08T12:00:00","20.506828","-13.043194","231.03","ATAR, MR","FM-15","4","30.12","18","70","","","","","13","","","","4.97","","360","","11","","","","","","","","","","","","","","","","","","","","","","","","","","","","","","","","","","","","","","","","","","","","","","","","","","","","","","","","","","","","","","","","","","","","","","","","","","","","","","","","","","","","","","","","","","","MET049METAR GQPA 081200Z 36010KT 8000 NSC 21/M08 Q1020=","","","","","","","","","",""
"61421099999","2021-02-08T18:00:00","20.506828","-13.043194","231.03","ATAR, MR","FM-15","4","30.00","23","81","","","","","12","","","","4.97","","360","","7","","","","","","","","","","","","","","","","","","","","","","","","","","","","","","","","","","","","","","","","","","","","","","","","","","","","","","","","","","","","","","","","","","","","","","","","","","","","","","","","","","","","","","","","","","","MET049METAR GQPA 081800Z 36006KT 8000 NSC 27/M05 Q1016=","","","","","","","","","",""
"61421099999","2021-02-09T18:00:00","20.506828","-13.043194","231.03","ATAR, MR","FM-15","4","30.00","19","84","","","","","9","","","","4.97","","040","","7","","","","","","","","","","","","","","","","","","","","","","","","","","","","","","","","","","","","","","","","","","","","","","","","","","","","","","","","","","","","","","","","","","","","","","","","","","","","","","","","","","","","","","","","","","","MET049METAR GQPA 091800Z 04006KT 8000 NSC 29/M07 Q1016=","","","","","","","","","",""
"61421099999","2021-02-10T09:00:00","20.506828","-13.043194","231.03","ATAR, MR","FM-15","4","30.12","21","59","","","","","23","","","","4.97","","VRB","","2","","","","","","","","","","","","","","","","","","","","","","","","","","","","","","","","","","","","","","","","","","","","","","","","","","","","","","","","","","","","","","","","","","","","","","","","","","","","","","","","","","","","","","","","","","","MET049METAR GQPA 100900Z VRB02KT 8000 NSC 15/M06 Q1020=","","","","","","","","","",""
"61421099999","2021-02-14T12:00:00","20.506828","-13.043194","231.03","ATAR, MR","FM-15","4","30.06","32","84","","","","","15","","","","4.35","","","","","","","","","","","","","","","","","","","","","","","","","","","","","","","","","","","","","","","","","","","","","","","","","","","","","","","","","","","","","","","","","","","","","","","","","","","","","","","","","","","","","","","","","","","","","","","MET049METAR GQPA 141200Z 0612/KT 7000 NSC 29/M00 Q1018=","","","","","","","","","",""
"61421099999","2021-02-15T09:00:00","20.506828","-13.043194","231.03","ATAR, MR","FM-15","4","30.03","18","72","","||DU","","","13","","","","1.24","","080","","14","","","","","","","","","","","","","","","","","","","","","","","","","","","","","","","","","","","","","","","","","","","","","","","","","","","","","","","","","","","","","","","","","","","","","","","","","","","","","","","","","","","","","","","","","","","MET054METAR GQPA 150900Z 08012KT 2000 BLDU NSC 22/M08 Q1017=","","","","","","","","","",""
"61421099999","2021-02-15T12:00:00","20.506828","-13.043194","231.03","ATAR, MR","FM-15","4","30.06","21","84","","||DU","","","10","","","","1.24","","080","","24","","","","","","","","","","","","","","","","","","","","","","","","","","","","","","","","","","","","","","","","","","","","","","","","","","","","","","","","","","","","","","","","","","","","","","","","","","","","","","","","","","","","","","","","","","","MET054METAR GQPA 151200Z 08021KT 2000 BLSA NSC 29/M06 Q1018=","","","","","","","","","",""
"61421099999","2021-02-16T09:00:00","20.506828","-13.043194","231.03","ATAR, MR","FM-15","4","30.06","21","70","","||DU","","","16","","","","0.31","","060","","14","","","","","","","","","","","","","","","","","","","","","","","","","","","","","","","","","","","","","","","","","","","","","","","","","","","","","","","","","","","","","","","","","","","","","","","","","","","","","","","","","","","","","","","","","","","MET052METAR GQPA 160900Z 06012KT 0500 SS NSC 21/M06 Q1018=","","","","","","","","","",""
"61421099999","2021-02-16T12:00:00","20.506828","-13.043194","231.03","ATAR, MR","FM-15","4","29.97","18","75","","||DU","","","11","","","","0.12","","080","","24","","","","","","","","","","","","","","","","","","","","","","","","","","","","","","","","","","","","","","","","","","","","","","","","","","","","","","","","","","","","","","","","","","","","","","","","","","","","","","","","","","","","","","","","","","","MET052METAR GQPA 161200Z 08021KT 0200 SS NSC 24/M08 Q1015=","","","","","","","","","",""
"61421099999","2021-02-17T09:00:00","20.506828","-13.043194","231.03","ATAR, MR","FM-15","4","30.03","18","70","","||DU","","","13","","","","0.50","","040","","20","","","","","","","","","","","","","","","","","","","","","","","","","","","","","","","","","","","","","","","","","","","","","","","","","","","","","","","","","","","","","","","","","","","","","","","","","","","","","","","","","","","","","","","","","","","MET052METAR GQPA 170900Z 04017KT 0800 SS NSC 21/M08 Q1017=","","","","","","","","","",""
"61421099999","2021-02-17T18:00:00","20.506828","-13.043194","231.03","ATAR, MR","FM-15","4","29.94","23","84","","","","","10","","","","","","350","","11","","","","","","","","","","","","","","","","","","","","","","","","","","","","","","","","","","","","","","","","","","","","","","","","","","","","","","","","","","","","","","","","","","","","","","","","","","","","","","","","","","","","","","","","","","","MET051METAR GQPA 171800Z 35010KT 0800SS NSC 29/M05 Q1014=","","","","","","","","","",""
"61421099999","2021-02-18T12:00:00","20.506828","-13.043194","231.03","ATAR, MR","FM-15","4","30.00","25","86","","||DU","","","11","","","","0.50","","020","","7","","","","","","","","","","","","","","","","","","","","","","","","","","","","","","","","","","","","","","","","","","","","","","","","","","","","","","","","","","","","","","","","","","","","","","","","","","","","","","","","","","","","","","","","","","","MET052METAR GQPA 181200Z 02006KT 0800 SS NSC 30/M04 Q1016=","","","","","","","","","",""
"61421099999","2021-02-19T09:00:00","20.506828","-13.043194","231.03","ATAR, MR","FM-15","4","30.12","18","68","","||DU","","","14","","","","0.50","","360","","9","","","","","","","","","","","","","","","","","","","","","","","","","","","","","","","","","","","","","","","","","","","","","","","","","","","","","","","","","","","","","","","","","","","","","","","","","","","","","","","","","","","","","","","","","","","MET052METAR GQPA 190900Z 36008KT 0800 SS NSC 20/M08 Q1020=","","","","","","","","","",""
"61421099999","2021-02-22T12:00:00","20.506828","-13.043194","231.03","ATAR, MR","FM-15","4","30.09","25","97","","||DU","","","7","","","","3.73","","360","","18","","","","","","","","","","","","","","","","","","","","","","","","","","","","","","","","","","","","","","","","","","","","","","","","","","","","","","","","","","","","","","","","","","","","","","","","","","","","","","","","","","","","","","","","","","","MET054METAR GQPA 221200Z 36016KT 6000 BLSA NSC 36/M04 Q1019=","","","","","","","","","",""
"61421099999","2021-02-22T18:00:00","20.506828","-13.043194","231.03","ATAR, MR","FM-15","4","29.94","23","88","","","","","9","","","","4.35","","360","","14","","","","","","","","","","","","","","","","","","","","","","","","","","","","","","","","","","","","","","","","","","","","","","","","","","","","","","","","","","","","","","","","","","","","","","","","","","","","","","","","","","","","","","","","","","","MET049METAR GQPA 221800Z 36012KT 7000 NSC 31/M05 Q1014=","","","","","","","","","",""
"61421099999","2021-02-23T12:00:00","20.506828","-13.043194","231.03","ATAR, MR","FM-15","4","30.09","19","86","","","","","8","","","","4.97","","070","","11","","","","","","","","","","","","","","","","","","","","","","","","","","","","","","","","","","","","","","","","","","","","","","","","","","","","","","","","","","","","","","","","","","","","","","","","","","","","","","","","","","","","","","","","","","","MET049METAR GQPA 231200Z 07010KT 8000 NSC 30/M07 Q1019=","","","","","","","","","",""
"61421099999","2021-02-23T18:00:00","20.506828","-13.043194","231.03","ATAR, MR","FM-15","4","29.94","25","90","","","","","9","","","","4.97","","060","","7","","","","","","","","","","","","","","","","","","","","","","","","","","","","","","","","","","","","","","","","","","","","","","","","","","","","","","","","","","","","","","","","","","","","","","","","","","","","","","","","","","","","","","","","","","","MET049METAR GQPA 231800Z 06006KT 8000 NSC 32/M04 Q1014=","","","","","","","","","",""
"61421099999","2021-02-24T09:00:00","20.506828","-13.043194","231.03","ATAR, MR","FM-15","4","30.12","25","68","","","","","20","","","","4.35","","020","","7","","","","","","","","","","","","","","","","","","","","","","","","","","","","","","","","","","","","","","","","","","","","","","","","","","","","","","","","","","","","","","","","","","","","","","","","","","","","","","","","","","","","","","","","","","","MET049METAR GQPA 240900Z 02006KT 7000 NSC 20/M04 Q1020=","","","","","","","","","",""
"61421099999","2021-02-24T18:00:00","20.506828","-13.043194","231.03","ATAR, MR","FM-15","4","30.00","27","93","","||DU","","","9","","","","3.73","","060","","11","","","","","","","","","","","","","","","","","","","","","","","","","","","","","","","","","","","","","","","","","","","","","","","","","","","","","","","","","","","","","","","","","","","","","","","","","","","","","","","","","","","","","","","","","","","MET054METAR GQPA 241800Z 06010KT 6000 BLDU NSC 34/M03 Q1016=","","","","","","","","","",""
"61421099999","2021-02-25T09:00:00","20.506828","-13.043194","231.03","ATAR, MR","FM-15","4","30.15","23","77","","||DU","","","13","","","","1.86","","080","","24","","","","","","","","","","","","","","","","","","","","","","","","","","","","","","","","","","","","","","","","","","","","","","","","","","","","","","","","","","","","","","","","","","","","","","","","","","","","","","","","","","","","","","","","","","","MET054METAR GQPA 250900Z 08021KT 3000 BLDU NSC 25/M05 Q1021=","","","","","","","","","",""
"61421099999","2021-02-25T12:00:00","20.506828","-13.043194","231.03","ATAR, MR","FM-15","4","29.97s","28","86","","||DU","","","12","","","","3.11","","080","","21","","","","","","","","","","","","","","","","","","","","","","","","","","","","","","","","","","","","","","","","","","","","","","","","","","","","","","","","","","","","","","","","","","","","","","","","","","","","","","","","","","","","","","","","","","","MET054METAR GQPA 251200Z 08018KT 5000 BLSA NSC 30/M02 Q1015=","","","","","","","","","",""
"61421099999","2021-02-25T18:00:00","20.506828","-13.043194","231.03","ATAR, MR","FM-15","4","30.03","28","95","","||DU","","","9","","","","3.11","","090","","16","","","","","","","","","","","","","","","","","","","","","","","","","","","","","","","","","","","","","","","","","","","","","","","","","","","","","","","","","","","","","","","","","","","","","","","","","","","","","","","","","","","","","","","","","","","MET054METAR GQPA 251800Z 09014KT 5000 BLDU NSC 35/M02 Q1017=","","","","","","","","","",""
"61421099999","2021-02-26T09:00:00","20.506828","-13.043194","231.03","ATAR, MR","FM-15","4","30.15","18","68","","||DU","","","14","","","","1.55","","020","","11","","","","","","","","","","","","","","","","","","","","","","","","","","","","","","","","","","","","","","","","","","","","","","","","","","","","","","","","","","","","","","","","","","","","","","","","","","","","","","","","","","","","","","","","","","","MET054METAR GQPA 260900Z 02010KT 2500 BLDU NSC 20/M08 Q1021=","","","","","","","","","",""
"61421099999","2021-02-27T09:00:00","20.506828","-13.043194","231.03","ATAR, MR","FM-15","4","30.12","18","59","","","","","20","","","","4.35","","360","","9","","","","","","","","","","","","","","","","","","","","","","","","","","","","","","","","","","","","","","","","","","","","","","","","","","","","","","","","","","","","","","","","","","","","","","","","","","","","","","","","","","","","","","","","","","","MET049METAR GQPA 270900Z 36008KT 7000 NSC 15/M08 Q1020=","","","","","","","","","",""
"61421099999","2021-02-28T09:00:00","20.506828","-13.043194","231.03","ATAR, MR","FM-15","4","30.12","18","57","","","","","21","","","","4.97","","360","","9","","","","","","","","","","","","","","","","","","","","","","","","","","","","","","","","","","","","","","","","","","","","","","","","","","","","","","","","","","","","","","","","","","","","","","","","","","","","","","","","","","","","","","","","","","","MET049METAR GQPA 280900Z 36008KT 8000 NSC 14/M08 Q1020=","","","","","","","","","",""
"61421099999","2021-03-01T09:00:00","20.506828","-13.043194","231.03","ATAR, MR","FM-15","4","30.03","27","63","","","","","25","","","","6.15","","360","","11","","","","","","","","","","","","","","","","","","","","","","","","","","","","","","","","","","","","","","","","","","","","","","","","","","","","","","","","","","","","","","","","","","","","","","","","","","","","","","","","","","","","","","","","","","","MET046METAR GQPA 010900Z 36010KT CAVOK 17/M03 Q1017=","","","","","","","","","",""
"61421099999","2021-03-01T12:00:00","20.506828","-13.043194","231.03","ATAR, MR","FM-15","4","30.03","21","73","","","","","14","","","","6.15","","060","","11","","","","","","","","","","","","","","","","","","","","","","","","","","","","","","","","","","","","","","","","","","","","","","","","","","","","","","","","","","","","","","","","","","","","","","","","","","","","","","","","","","","","","","","","","","","MET050METAR GQPA 011200Z 06010KT CAVOK NSC 23/M06 Q1017=","","","","","","","","","",""
"61421099999","2021-03-01T18:00:00","20.506828","-13.043194","231.03","ATAR, MR","FM-15","4","29.94","23","81","","","","","12","","","","6.15","","360","","11","","","","","","","","","","","","","","","","","","","","","","","","","","","","","","","","","","","","","","","","","","","","","","","","","","","","","","","","","","","","","","","","","","","","","","","","","","","","","","","","","","","","","","","","","","","MET046METAR GQPA 011800Z 36010KT CAVOK 27/M05 Q1014=","","","","","","","","","",""
"61421099999","2021-03-04T09:00:00","20.506828","-13.043194","231.03","ATAR, MR","FM-15","4","30.03","23","68","","","","","18","","","","4.97","","360","","11","","","","","","","","","","","","","","","","","","","","","","","","","","","","","","","","","","","","","","","","","","","","","","","","","","","","","","","","","","","","","","","","","","","","","","","","","","","","","","","","","","","","","","","","","","","MET049METAR GQPA 040900Z 36010KT 8000 NSC 20/M05 Q1017=","","","","","","","","","",""
"61421099999","2021-03-04T12:00:00","20.506828","-13.043194","231.03","ATAR, MR","FM-15","4","30.03","27","82","","","","","13","","","","4.97","","020","","11","","","","","","","","","","","","","","","","","","","","","","","","","","","","","","","","","","","","","","","","","","","","","","","","","","","","","","","","","","","","","","","","","","","","","","","","","","","","","","","","","","","","","","","","","","","MET053METAR COR GQPA 041200Z 02010KT 8000 NSC 28/M03 Q1017=","","","","","","","","","",""
"61421099999","2021-03-05T09:00:00","20.506828","-13.043194","231.03","ATAR, MR","FM-15","4","30.12","21","66","","","","","18","","","","4.35","","070","","16","","","","","","","","","","","","","","","","","","","","","","","","","","","","","","","","","","","","","","","","","","","","","","","","","","","","","","","","","","","","","","","","","","","","","","","","","","","","","","","","","","","","","","","","","","","MET049METAR GQPA 050900Z 07014KT 7000 NSC 19/M06 Q1020=","","","","","","","","","",""
"61421099999","2021-03-06T09:00:00","20.506828","-13.043194","231.03","ATAR, MR","FM-15","4","30.09","18","68","","","","","14","","","","4.35","","080","","18","","","","","","","","","","","","","","","","","","","","","","","","","","","","","","","","","","","","","","","","","","","","","","","","","","","","","","","","","","","","","","","","","","","","","","","","","","","","","","","","","","","","","","","","","","","MET049METAR GQPA 060900Z 08016KT 7000 NSC 20/M08 Q1019=","","","","","","","","","",""
"61421099999","2021-03-06T18:00:00","20.506828","-13.043194","231.03","ATAR, MR","FM-15","4","30.00","25","81","","","","","13","","","","4.35","","360","","14","","","","","","","","","","","","","","","","","","","","","","","","","","","","","","","","","","","","","","","","","","","","","","","","","","","","","","","","","","","","","","","","","","","","","","","","","","","","","","","","","","","","","","","","","","","MET049METAR GQPA 061800Z 36012KT 7000 NSC 27/M04 Q1016=","","","","","","","","","",""
"61421099999","2021-03-07T09:00:00","20.506828","-13.043194","231.03","ATAR, MR","FM-15","4","30.12","18","70","","","","","13","","","","4.97","","070","","11","","","","","","","","","","","","","","","","","","","","","","","","","","","","","","","","","","","","","","","","","","","","","","","","","","","","","","","","","","","","","","","","","","","","","","","","","","","","","","","","","","","","","","","","","","","MET049METAR GQPA 070900Z 07010KT 8000 NSC 21/M08 Q1020=","","","","","","","","","",""
"61421099999","2021-03-07T12:00:00","20.506828","-13.043194","231.03","ATAR, MR","FM-15","4","30.12","25","79","","","","","13","","","","4.35","","080","","21","","","","","","","","","","","","","","","","","","","","","","","","","","","","","","","","","","","","","","","","","","","","","","","","","","","","","","","","","","","","","","","","","","","","","","","","","","","","","","","","","","","","","","","","","","","MET049METAR GQPA 071200Z 08018KT 7000 NSC 26/M04 Q1020=","","","","","","","","","",""
"61421099999","2021-03-08T09:00:00","20.506828","-13.043194","231.03","ATAR, MR","FM-15","4","30.12","18","63","","","","","17","","","","4.35","","060","","21","","","","","","","","","","","","","","","","","","","","","","","","","","","","","","","","","","","","","","","","","","","","","","","","","","","","","","","","","","","","","","","","","","","","","","","","","","","","","","","","","","","","","","","","","","","MET049METAR GQPA 080900Z 06018KT 7000 NSC 17/M08 Q1020=","","","","","","","","","",""
"61421099999","2021-03-08T12:00:00","20.506828","-13.043194","231.03","ATAR, MR","FM-15","4","30.09","23","73","","","","","15","","","","4.35","","070","","20","","","","","","","","","","","","","","","","","","","","","","","","","","","","","","","","","","","","","","","","","","","","","","","","","","","","","","","","","","","","","","","","","","","","","","","","","","","","","","","","","","","","","","","","","","","MET049METAR GQPA 081200Z 07017KT 7000 NSC 23/M05 Q1019=","","","","","","","","","",""
"61421099999","2021-03-08T18:00:00","20.506828","-13.043194","231.03","ATAR, MR","FM-15","4","29.97","25","79","","","","","13","","","","4.97","","360","","11","","","","","","","","","","","","","","","","","","","","","","","","","","","","","","","","","","","","","","","","","","","","","","","","","","","","","","","","","","","","","","","","","","","","","","","","","","","","","","","","","","","","","","","","","","","MET049METAR GQPA 081800Z 36010KT 8000 NSC 26/M04 Q1015=","","","","","","","","","",""
"61421099999","2021-03-09T09:00:00","20.506828","-13.043194","231.03","ATAR, MR","FM-15","4","30.12","18","63","","||DU","","","17","","","","3.73","","080","","23","","","","","","","","","","","","","","","","","","","","","","","","","","","","","","","","","","","","","","","","","","","","","","","","","","","","","","","","","","","","","","","","","","","","","","","","","","","","","","","","","","","","","","","","","","","MET054METAR GQPA 090900Z 08020KT 6000 BLSA NSC 17/M08 Q1020=","","","","","","","","","",""
"61421099999","2021-03-09T12:00:00","20.506828","-13.043194","231.03","ATAR, MR","FM-15","4","30.06","18","72","","","","","13","","","","4.97","","","","11","","","","","","","","","","","","","","","","","","","","","","","","","","","","","","","","","","","","","","","","","","","","","","","","","","","","","","","","","","","","","","","","","","","","","","","","","","","","","","","","","","","","","","","","","","","MET049METAR GQPA 091200Z 36210KT 8000 NSC 22/M08 Q1018=","","","","","","","","","",""
"61421099999","2021-03-09T18:00:00","20.506828","-13.043194","231.03","ATAR, MR","FM-15","4","29.94","27","79","","","","","15","","","","4.97","","020","","11","","","","","","","","","","","","","","","","","","","","","","","","","","","","","","","","","","","","","","","","","","","","","","","","","","","","","","","","","","","","","","","","","","","","","","","","","","","","","","","","","","","","","","","","","","","MET049METAR GQPA 091800Z 02010KT 8000 NSC 26/M03 Q1014=","","","","","","","","","",""
"61421099999","2021-03-10T09:00:00","20.506828","-13.043194","231.03","ATAR, MR","FM-15","4","30.06","18","57","","||DU","","","21","","","","1.86","","060","","24","","","","","","","","","","","","","","","","","","","","","","","","","","","","","","","","","","","","","","","","","","","","","","","","","","","","","","","","","","","","","","","","","","","","","","","","","","","","","","","","","","","","","","","","","","","MET050METAR GQPA 100900Z 06021KT 3000 BLSA 14/M08 Q1018=","","","","","","","","","",""
"61421099999","2021-03-10T18:00:00","20.506828","-13.043194","231.03","ATAR, MR","FM-15","4","29.94","27","81","","","","","14","","","","4.97","","060","","14","","","","","","","","","","","","","","","","","","","","","","","","","","","","","","","","","","","","","","","","","","","","","","","","","","","","","","","","","","","","","","","","","","","","","","","","","","","","","","","","","","","","","","","","","","","MET049METAR GQPA 101800Z 06012KT 8000 NSC 27/M03 Q1014=","","","","","","","","","",""
"61421099999","2021-03-11T09:00:00","20.506828","-13.043194","231.03","ATAR, MR","FM-15","4","30.06","18","66","","||DU","","","15","","","","0.93","","360","","22","","","","","","","","","","","","","","","","","","","","","","","","","","","","","","","","","","","","","","","","","","","","","","","","","","","","","","","","","","","","","","","","","","","","","","","","","","","","","","","","","","","","","","","","","","","MET052METAR GQPA 110900Z 36019KT 1500 SS NSC 19/M08 Q1018=","","","","","","","","","",""
"61421099999","2021-03-12T09:00:00","20.506828","-13.043194","231.03","ATAR, MR","FM-15","4","30.06","23","66","","||DU","","","19","","","","0.93","","060","","11","","","","","","","","","","","","","","","","","","","","","","","","","","","","","","","","","","","","","","","","","","","","","","","","","","","","","","","","","","","","","","","","","","","","","","","","","","","","","","","","","","","","","","","","","","","MET054METAR GQPA 120900Z 06010KT 1500 BLDU NSC 19/M05 Q1018=","","","","","","","","","",""
"61421099999","2021-03-13T09:00:00","20.506828","-13.043194","231.03","ATAR, MR","FM-15","4","29.97","32","64","","||DU","","","30","","","","3.73","","VRB","","2","","","","","","","","","","","","","","","","","","","","","","","","","","","","","","","","","","","","","","","","","","","","","","","","","","","","","","","","","","","","","","","","","","","","","","","","","","","","","","","","","","","","","","","","","","","MET054METAR GQPA 130900Z VRB02KT 6000 BLDU NSC 18/M00 Q1015=","","","","","","","","","",""
"61421099999","2021-03-13T12:00:00","20.506828","-13.043194","231.03","ATAR, MR","FM-15","4","29.97","28","68","","||DU","","","23","","","","4.35","","020","","11","","","","","","","","","","","","","","","","","","","","","","","","","","","","","","","","","","","","","","","","","","","","","","","","","","","","","","","","","","","","","","","","","","","","","","","","","","","","","","","","","","","","","","","","","","","MET054METAR GQPA 131200Z 02010KT 7000 BLDU NSC 20/M02 Q1015=","","","","","","","","","",""
"61421099999","2021-03-13T18:00:00","20.506828","-13.043194","231.03","ATAR, MR","FM-15","4","30.00","23","88","","","","","9","","","","4.97","","020","","9","","","","","","","","","","","","","","","","","","","","","","","","","","","","","","","","","","","","","","","","","","","","","","","","","","","","","","","","","","","","","","","","","","","","","","","","","","","","","","","","","","","","","","","","","","","MET049METAR GQPA 131800Z 02008KT 8000 NSC 31/M05 Q1016=","","","","","","","","","",""
"61421099999","2021-03-14T09:00:00","20.506828","-13.043194","231.03","ATAR, MR","FM-15","4","29.97","23","68","","","","","18","","","","4.35","","360","","7","","","","","","","","","","","","","","","","","","","","","","","","","","","","","","","","","","","","","","","","","","","","","","","","","","","","","","","","","","","","","","","","","","","","","","","","","","","","","","","","","","","","","","","","","","","MET049METAR GQPA 140900Z 36006KT 7000 NSC 20/M05 Q1015=","","","","","","","","","",""
"61421099999","2021-03-14T12:00:00","20.506828","-13.043194","231.03","ATAR, MR","FM-15","4","30.03","28","86","","||DU","","","12","","","","3.11","","060","","16","","","","","","","","","","","","","","","","","","","","","","","","","","","","","","","","","","","","","","","","","","","","","","","","","","","","","","","","","","","","","","","","","","","","","","","","","","","","","","","","","","","","","","","","","","","MET054METAR GQPA 141200Z 06014KT 5000 BLSA NSC 30/M02 Q1017=","","","","","","","","","",""
"61421099999","2021-03-15T09:00:00","20.506828","-13.043194","231.03","ATAR, MR","FM-15","4","30.06","27","68","","||DU","","","21","","","","3.73","","VRB","","2","","","","","","","","","","","","","","","","","","","","","","","","","","","","","","","","","","","","","","","","","","","","","","","","","","","","","","","","","","","","","","","","","","","","","","","","","","","","","","","","","","","","","","","","","","","MET054METAR GQPA 150900Z VRB02KT 6000 BLDU NSC 20/M03 Q1018=","","","","","","","","","",""
"61421099999","2021-03-15T12:00:00","20.506828","-13.043194","231.03","ATAR, MR","FM-15","4","29.97","21","90s","","||DU","","","8","","","","4.35","","070","","21","","","","","","","","","","","","","","","","","","","","","","","","","","","","","","","","","","","","","","","","","","","","","","","","","","","","","","","","","","","","","","","","","","","","","","","","","","","","","","","","","","","","","","","","","","","MET054METAR GQPA 151200Z 07018KT 7000 BLDU NSC 32/M06 Q1015=","","","","","","","","","",""
"61421099999","2021-03-15T18:00:00","20.506828","-13.043194","231.03","ATAR, MR","FM-15","4","29.91","28","93","","","","","10","","","","4.97","","060","","7","","","","","","","","","","","","","","","","","","","","","","","","","","","","","","","","","","","","","","","","","","","","","","","","","","","","","","","","","","","","","","","","","","","","","","","","","","","","","","","","","","","","","","","","","","","MET049METAR GQPA 151800Z 06006KT 8000 NSC 34/M02 Q1013=","","","","","","","","","",""
"61421099999","2021-03-16T09:00:00","20.506828","-13.043194","231.03","ATAR, MR","FM-15","4","29.97","30","77","","","","","18","","","","4.97","","000","","0","","","","","","","","","","","","","","","","","","","","","","","","","","","","","","","","","","","","","","","","","","","","","","","","","","","","","","","","","","","","","","","","","","","","","","","","","","","","","","","","","","","","","","","","","","","MET049METAR GQPA 160900Z 00000KT 8000 NSC 25/M01 Q1015=","","","","","","","","","",""
"61421099999","2021-03-16T12:00:00","20.506828","-13.043194","231.03","ATAR, MR","FM-15","4","29.97","37","88","","","","","17","","","","4.97","","000","","0","","","","","","","","","","","","","","","","","","","","","","","","","","","","","","","","","","","","","","","","","","","","","","","","","","","","","","","","","","","","","","","","","","","","","","","","","","","","","","","","","","","","","","","","","","","MET048METAR GQPA 161200Z 00000KT 8000 NSC 31/03 Q1015=","","","","","","","","","",""
"61421099999","2021-03-16T18:00:00","20.506828","-13.043194","231.03","ATAR, MR","FM-15","4","29.83","14","93","","","","","5","","","","4.97","","000","","0","","","","","","","","","","","","","","","","","","","","","","","","","","","","","","","","","","","","","","","","","","","","","","","","","","","","","","","","","","","","","","","","","","","","","","","","","","","","","","","","","","","","","","","","","","","MET049METAR GQPA 161800Z 00000KT 8000 NSC 34/M10 Q1010=","","","","","","","","","",""
"61421099999","2021-03-17T09:00:00","20.506828","-13.043194","231.03","ATAR, MR","FM-15","4","29.94","27","75","","","","","16","","","","4.97","","360","","7","","","","","","","","","","","","","","","","","","","","","","","","","","","","","","","","","","","","","","","","","","","","","","","","","","","","","","","","","","","","","","","","","","","","","","","","","","","","","","","","","","","","","","","","","","","MET049METAR GQPA 170900Z 36006KT 8000 NSC 24/M03 Q1014=","","","","","","","","","",""
"61421099999","2021-03-18T09:00:00","20.506828","-13.043194","231.03","ATAR, MR","FM-15","4","29.94","28","73","","","","","19","","","","4.35","","000","","0","","","","","","","","","","","","","","","","","","","","","","","","","","","","","","","","","","","","","","","","","","","","","","","","","","","","","","","","","","","","","","","","","","","","","","","","","","","","","","","","","","","","","","","","","","","MET049METAR GQPA 180900Z 00000KT 7000 NSC 23/M02 Q1014=","","","","","","","","","",""
"61421099999","2021-03-18T12:00:00","20.506828","-13.043194","231.03","ATAR, MR","FM-15","4","29.94","25","93s","","","","","8","","","","4.97","","000","","0","","","","","","","","","","","","","","","","","","","","","","","","","","","","","","","","","","","","","","","","","","","","","","","","","","","","","","","","","","","","","","","","","","","","","","","","","","","","","","","","","","","","","","","","","","","MET049METAR GQPA 181200Z 00000KT 8000 NSC 34/M04 Q1014=","","","","","","","","","",""
"61421099999","2021-03-19T12:00:00","20.506828","-13.043194","231.03","ATAR, MR","FM-15","4","29.94","57","86","","","","","38","","","","4.97","","020","","14","","","","","","","","","","","","","","","","","","","","","","","","","","","","","","","","","","","","","","","","","","","","","","","","","","","","","","","","","","","","","","","","","","","","","","","","","","","","","","","","","","","","","","","","","","","MET048METAR GQPA 191200Z 02012KT 8000 NSC 30/14 Q1014=","","","","","","","","","",""
"61421099999","2021-03-21T12:00:00","20.506828","-13.043194","231.03","ATAR, MR","FM-15","4","30.00","41","77","","","","","28","","","","4.97","","040","","17","","","","","","","","","","","","","","","","","","","","","","","","","","","","","","","","","","","","","","","","","","","","","","","","","","","","","","","","","","","","","","","","","","","","","","","","","","","","","","","","","","","","","","","","","","","MET048METAR GQPA 211200Z 04015KT 8000 NSC 25/05 Q1016=","","","","","","","","","",""
"61421099999","2021-03-21T18:00:00","20.506828","-13.043194","231.03","ATAR, MR","FM-15","4","29.88","36","86","","","","","17","","","","4.97","","360","","7","","","","","","","","","","","","","","","","","","","","","","","","","","","","","","","","","","","","","","","","","","","","","","","","","","","","","","","","","","","","","","","","","","","","","","","","","","","","","","","","","","","","","","","","","","","MET048METAR GQPA 211800Z 36006KT 8000 NSC 30/02 Q1012=","","","","","","","","","",""
"61421099999","2021-03-22T09:00:00","20.506828","-13.043194","231.03","ATAR, MR","FM-15","4","29.88","30","70","","","","","23","","","","4.97","","060","","7","","","","","","","","","","","","","","","","","","","","","","","","","","","","","","","","","","","","","","","","","","","","","","","","","","","","","","","","","","","","","","","","","","","","","","","","","","","","","","","","","","","","","","","","","","","MET049METAR GQPA 220900Z 06006KT 8000 NSC 21/M01 Q1012=","","","","","","","","","",""
"61421099999","2021-03-22T12:00:00","20.506828","-13.043194","231.03","ATAR, MR","FM-15","4","29.94","25","79","","","","","13","","","","4.97","","060","","11","","","","","","","","","","","","","","","","","","","","","","","","","","","","","","","","","","","","","","","","","","","","","","","","","","","","","","","","","","","","","","","","","","","","","","","","","","","","","","","","","","","","","","","","","","","MET049METAR GQPA 221200Z 06010KT 8000 NSC 26/M04 Q1014=","","","","","","","","","",""
"61421099999","2021-03-22T15:00:00","20.506828","-13.043194","231.03","ATAR, MR","FM-15","4","29.88","","91","","","","","","","","","4.97","","VRB","","2","","","","","","","","","","","","","","","","","","","","","","","","","","","","","","","","","","","","","","","","","","","","","","","","","","","","","","","","","","","","","","","","","","","","","","","","","","","","","","","","","","","","","","","","","","","MET048METAR GQPA 221500Z VRB02KT 8000 NSC 33/09 Q1012=","","","","","","","","","",""
"61421099999","2021-03-22T18:00:00","20.506828","-13.043194","231.03","ATAR, MR","FM-15","4","29.85","28","91","","","","","10","","","","","","320","","11","","","","","","","","","","","","","","","","","","","","","","","","","","","","","","","","","","","","","","","","","","","","","","","","","","","","","","","","","","","","","","","","","","","","","","","","","","","","","","","","","","","","","","","","","","","MET047METAR GQPA 221800Z 32010KT CAVOKC 33/M02 Q1011=","","","","","","","","","",""
"61421099999","2021-03-23T09:00:00","20.506828","-13.043194","231.03","ATAR, MR","FM-15","4","29.91","18","72","","","","","13","","","","4.97","","020","","9","","","","","","","","","","","","","","","","","","","","","","","","","","","","","","","","","","","","","","","","","","","","","","","","","","","","","","","","","","","","","","","","","","","","","","","","","","","","","","","","","","","","","","","","","","","MET049METAR GQPA 230900Z 02008KT 8000 NSC 22/M08 Q1013=","","","","","","","","","",""
"61421099999","2021-03-24T09:00:00","20.506828","-13.043194","231.03","ATAR, MR","FM-15","4","29.94","39","77","","||DU","","","26","","","","3.73","","090","","20","","","","","","","","","","","","","","","","","","","","","","","","","","","","","","","","","","","","","","","","","","","","","","","","","","","","","","","","","","","","","","","","","","","","","","","","","","","","","","","","","","","","","","","","","","","MET057METAR COR GQPA 240900Z 09017KT 6000 BLSA NSC 25/04 Q1014=","","","","","","","","","",""
"61421099999","2021-03-24T15:00:00","20.506828","-13.043194","231.03","ATAR, MR","FM-15","4","29.97","54","99","","","","","22","","","","3.73","","080","","8","","","","","","","","","","","","","","","","","","","","","","","","","","","","","","","","","","","","","","","","","","","","","","","","","","","","","","","","","","","","","","","","","","","","","","","","","","","","","","","","","","","","","","","","","","","MET048METAR GQPA 241500Z 08007KT 6000 NSC 37/12 Q1015=","","","","","","","","","",""
"61421099999","2021-03-25T18:00:00","20.506828","-13.043194","231.03","ATAR, MR","FM-15","4","29.94","52","95","","||DU","","","23","","","","3.11","","010","","11","","","","","","","","","","","","","","","","","","","","","","","","","","","","","","","","","","","","","","","","","","","","","","","","","","","","","","","","","","","","","","","","","","","","","","","","","","","","","","","","","","","","","","","","","","","MET051METAR GQPA 251800Z 01010KT 5000 DU NSC 35/11 Q1014=","","","","","","","","","",""
"61421099999","2021-03-26T09:00:00","20.506828","-13.043194","231.03","ATAR, MR","FM-15","4","30.06","34","86","","||DU","","","15","","","","1.86","","090","","21","","","","","","","","","","","","","","","","","","","","","","","","","","","","","","","","","","","","","","","","","","","","","","","","","","","","","","","","","","","","","","","","","","","","","","","","","","","","","","","","","","","","","","","","","","","MET053METAR GQPA 260900Z 09018KT 3000 BLSA NSC 30/01 Q1018=","","","","","","","","","",""
"61421099999","2021-03-26T12:00:00","20.506828","-13.043194","231.03","ATAR, MR","FM-15","4","30.03","39","93","","||DU","","","15","","","","1.24","","080","","29","","","","","","","","","","","","","","","","","","","","","","","","","","","","","","","","","","","","","","","","","","","","","","","","","","","","","","","","","","","","","","","","","","","","","","","","","","","","","","","","","","","","","","","","","","","MET053METAR GQPA 261200Z 08025KT 2000 BLSA NSC 34/04 Q1017=","","","","","","","","","",""
"61421099999","2021-03-26T15:00:00","20.506828","-13.043194","231.03","ATAR, MR","FM-15","4","29.94","54","99","","","","","22","","","","3.73","","020","","7","","","","","","","","","","","","","","","","","","","","","","","","","","","","","","","","","","","","","","","","","","","","","","","","","","","","","","","","","","","","","","","","","","","","","","","","","","","","","","","","","","","","","","","","","","","MET048METAR GQPA 261500Z 02006KT 6000 NSC 37/12 Q1014=","","","","","","","","","",""
"61421099999","2021-03-27T09:00:00","20.506828","-13.043194","231.03","ATAR, MR","FM-15","4","30.00","32","","","","","","","","","","3.73","","VRB","","2","","","","","","","","","","","","","","","","","","","","","","","","","","","","","","","","","","","","","","","","","","","","","","","","","","","","","","","","","","","","","","","","","","","","","","","","","","","","","","","","","","","","","","","","","","","MET049METAR GQPA 270900Z VRB02KT 6000 NSC 77/M00 Q1016=","","","","","","","","","",""
"61421099999","2021-03-27T18:00:00","20.506828","-13.043194","231.03","ATAR, MR","FM-15","4","29.85","55","99","","","","","24","","","","3.73","","VRB","","5","","","","","","","","","","","","","","","","","","","","","","","","","","","","","","","","","","","","","","","","","","","","","","","","","","","","","","","","","","","","","","","","","","","","","","","","","","","","","","","","","","","","","","","","","","","MET048METAR GQPA 271800Z VRB04KT 6000 NSC 37/13 Q1011=","","","","","","","","","",""
"61421099999","2021-03-28T09:00:00","20.506828","-13.043194","231.03","ATAR, MR","FM-15","4","30.03","18","79","","","","","10","","","","3.73","","070","","18","","","","","","","","","","","","","","","","","","","","","","","","","","","","","","","","","","","","","","","","","","","","","","","","","","","","","","","","","","","","","","","","","","","","","","","","","","","","","","","","","","","","","","","","","","","MET049METAR GQPA 280900Z 07016KT 6000 NSC 26/M08 Q1017=","","","","","","","","","",""
"61421099999","2021-03-28T15:00:00","20.506828","-13.043194","231.03","ATAR, MR","FM-15","4","29.91","54s","99","","","","","22","","","","4.35","","VRB","","5","","","","","","","","","","","","","","","","","","","","","","","","","","","","","","","","","","","","","","","","","","","","","","","","","","","","","","","","","","","","","","","","","","","","","","","","","","","","","","","","","","","","","","","","","","","MET048METAR GQPA 281500Z VRB04KT 7000 NSC 37/12 Q1013=","","","","","","","","","",""
"61421099999","2021-03-29T09:00:00","20.506828","-13.043194","231.03","ATAR, MR","FM-15","4","30.00","25","75","","","","","15","","","","4.35","","360","","17","","","","","","","","","","","","","","","","","","","","","","","","","","","","","","","","","","","","","","","","","","","","","","","","","","","","","","","","","","","","","","","","","","","","","","","","","","","","","","","","","","","","","","","","","","","MET049METAR GQPA 290900Z 36015KT 7000 NSC 24/M04 Q1016=","","","","","","","","","",""
"61421099999","2021-03-29T18:00:00","20.506828","-13.043194","231.03","ATAR, MR","FM-15","4","29.85","52","99","","","","","21","","","","3.73","","VRB","","2","","","","","","","","","","","","","","","","","","","","","","","","","","","","","","","","","","","","","","","","","","","","","","","","","","","","","","","","","","","","","","","","","","","","","","","","","","","","","","","","","","","","","","","","","","","MET048METAR GQPA 291800Z VRB02KT 6000 NSC 37/11 Q1011=","","","","","","","","","",""
"61421099999","2021-03-30T12:00:00","20.506828","-13.043194","231.03","ATAR, MR","FM-15","4","29.97","30","86","","","","","13","","","","4.35","","080","","11","","","","","","","","","","","","","","","","","","","","","","","","","","","","","","","","","","","","","","","","","","","","","","","","","","","","","","","","","","","","","","","","","","","","","","","","","","","","","","","","","","","","","","","","","","","MET049METAR GQPA 301200Z 08010KT 7000 NSC 30/M01 Q1015=","","","","","","","","","",""
"61421099999","2021-03-30T18:00:00","20.506828","-13.043194","231.03","ATAR, MR","FM-15","4","29.83","57","100","","","","","24","","","","3.73","","VRB","","3","","","","","","","","","","","","","","","","","","","","","","","","","","","","","","","","","","","","","","","","","","","","","","","","","","","","","","","","","","","","","","","","","","","","","","","","","","","","","","","","","","","","","","","","","","","MET048METAR GQPA 301800Z VRB03KT 6000 NSC 38/14 Q1010=","","","","","","","","","",""
"61421099999","2021-04-01T09:00:00","20.506828","-13.043194","231.03","ATAR, MR","FM-15","4","29.97","34","82","","","","","17","","","","4.97","","360","","7","","","","","","","","","","","","","","","","","","","","","","","","","","","","","","","","","","","","","","","","","","","","","","","","","","","","","","","","","","","","","","","","","","","","","","","","","","","","","","","","","","","","","","","","","","","MET048METAR GQPA 010900Z 36006KT 8000 NSC 28/01 Q1015=","","","","","","","","","",""
"61421099999","2021-04-01T12:00:00","20.506828","-13.043194","231.03","ATAR, MR","FM-15","4","29.97","43","93","","","","","17","","","","4.97","","020","","7","","","","","","","","","","","","","","","","","","","","","","","","","","","","","","","","","","","","","","","","","","","","","","","","","","","","","","","","","","","","","","","","","","","","","","","","","","","","","","","","","","","","","","","","","","","MET048METAR GQPA 011200Z 02006KT 8000 NSC 34/06 Q1015=","","","","","","","","","",""
"61421099999","2021-04-02T09:00:00","20.506828","-13.043194","231.03","ATAR, MR","FM-15","4","30.00","27","82","","","","","13","","","","4.97","","360","","7","","","","","","","","","","","","","","","","","","","","","","","","","","","","","","","","","","","","","","","","","","","","","","","","","","","","","","","","","","","","","","","","","","","","","","","","","","","","","","","","","","","","","","","","","","","MET049METAR GQPA 020900Z 36006KT 8000 NSC 28/M03 Q1016=","","","","","","","","","",""
"61421099999","2021-04-02T12:00:00","20.506828","-13.043194","231.03","ATAR, MR","FM-15","4","29.97","41","90","","","","","18","","","","4.97","","000","","0","","","","","","","","","","","","","","","","","","","","","","","","","","","","","","","","","","","","","","","","","","","","","","","","","","","","","","","","","","","","","","","","","","","","","","","","","","","","","","","","","","","","","","","","","","","MET048METAR GQPA 021200Z 00000KT 8000 NSC 32/05 Q1015=","","","","","","","","","",""
"61421099999","2021-04-02T18:00:00","20.506828","-13.043194","231.03","ATAR, MR","FM-15","4","29.88","50","106","","","","","15","","","","3.73","","VRB","","2","","","","","","","","","","","","","","","","","","","","","","","","","","","","","","","","","","","","","","","","","","","","","","","","","","","","","","","","","","","","","","","","","","","","","","","","","","","","","","","","","","","","","","","","","","","MET048METAR GQPA 021800Z VRB02KT 6000 NSC 41/10 Q1012=","","","","","","","","","",""
"61421099999","2021-04-03T09:00:00","20.506828","-13.043194","231.03","ATAR, MR","FM-15","4","29.97","41","88","","","","","19","","","","4.35","","020","","9","","","","","","","","","","","","","","","","","","","","","","","","","","","","","","","","","","","","","","","","","","","","","","","","","","","","","","","","","","","","","","","","","","","","","","","","","","","","","","","","","","","","","","","","","","","MET048METAR GQPA 030900Z 02008KT 7000 NSC 31/05 Q1015=","","","","","","","","","",""
"61421099999","2021-04-03T12:00:00","20.506828","-13.043194","231.03","ATAR, MR","FM-15","4","29.97","46","95","","","","","19","","","","4.35","","060","","16","","","","","","","","","","","","","","","","","","","","","","","","","","","","","","","","","","","","","","","","","","","","","","","","","","","","","","","","","","","","","","","","","","","","","","","","","","","","","","","","","","","","","","","","","","","MET048METAR GQPA 031200Z 06014KT 7000 NSC 35/08 Q1015=","","","","","","","","","",""
"61421099999","2021-04-03T18:00:00","20.506828","-13.043194","231.03","ATAR, MR","FM-15","4","29.85","46","106","","","","","13","","","","4.35","","360","","9","","","","","","","","","","","","","","","","","","","","","","","","","","","","","","","","","","","","","","","","","","","","","","","","","","","","","","","","","","","","","","","","","","","","","","","","","","","","","","","","","","","","","","","","","","","MET048METAR GQPA 031800Z 36008KT 7000 NSC 41/08 Q1011=","","","","","","","","","",""
"61421099999","2021-04-04T12:00:00","20.506828","-13.043194","231.03","ATAR, MR","FM-15","4","29.94","46","91","","","","","21","","","","4.97","","360","","11","","","","","","","","","","","","","","","","","","","","","","","","","","","","","","","","","","","","","","","","","","","","","","","","","","","","","","","","","","","","","","","","","","","","","","","","","","","","","","","","","","","","","","","","","","","MET048METAR GQPA 041200Z 36010KT 8000 NSC 33/08 Q1014=","","","","","","","","","",""
"61421099999","2021-04-04T15:00:00","20.506828","-13.043194","231.03","ATAR, MR","FM-15","4","29.88","52","99","","","","","21","","","","4.97","","060","","9","","","","","","","","","","","","","","","","","","","","","","","","","","","","","","","","","","","","","","","","","","","","","","","","","","","","","","","","","","","","","","","","","","","","","","","","","","","","","","","","","","","","","","","","","","","MET048METAR GQPA 041500Z 06008KT 8000 NSC 37/11 Q1012=","","","","","","","","","",""
"61421099999","2021-04-04T18:00:00","20.506828","-13.043194","231.03","ATAR, MR","FM-15","4","29.85","52","100","","","","","20","","","","4.97","","VRB","","7","","","","","","","","","","","","","","","","","","","","","","","","","","","","","","","","","","","","","","","","","","","","","","","","","","","","","","","","","","","","","","","","","","","","","","","","","","","","","","","","","","","","","","","","","","","MET048METAR GQPA 041800Z VRB06KT 8000 NSC 38/11 Q1011=","","","","","","","","","",""
"61421099999","2021-04-05T09:00:00","20.506828","-13.043194","231.03","ATAR, MR","FM-15","4","30.00","45","81","","","","","28","","","","4.97","","020","","11","","","","","","","","","","","","","","","","","","","","","","","","","","","","","","","","","","","","","","","","","","","","","","","","","","","","","","","","","","","","","","","","","","","","","","","","","","","","","","","","","","","","","","","","","","","MET048METAR GQPA 050900Z 02010KT 8000 NSC 27/07 Q1016=","","","","","","","","","",""
"61421099999","2021-04-06T12:00:00","20.506828","-13.043194","231.03","ATAR, MR","FM-15","4","29.77","37","106","","","","","9","","","","4.97","","040","","17","","","","","","","","","","","","","","","","","","","","","","","","","","","","","","","","","","","","","","","","","","","","","","","","","","","","","","","","","","","","","","","","","","","","","","","","","","","","","","","","","","","","","","","","","","","MET052METAR COR GQPA 061200Z 04015KT 8000 NSC 41/03 Q1008=","","","","","","","","","",""
"61421099999","2021-04-06T18:00:00","20.506828","-13.043194","231.03","ATAR, MR","FM-15","4","29.85","61","97","","","","","30","","","","4.35","","020","","9","","","","","","","","","","","","","","","","","","","","","","","","","","","","","","","","","","","","","","","","","","","","","","","","","","","","","","","","","","","","","","","","","","","","","","","","","","","","","","","","","","","","","","","","","","","MET048METAR GQPA 061800Z 02008KT 7000 NSC 36/16 Q1011=","","","","","","","","","",""
"61421099999","2021-04-07T09:00:00","20.506828","-13.043194","231.03","ATAR, MR","FM-15","4","30.03","46","84","","","","","27","","","","4.97","","020","","14","","","","","","","","","","","","","","","","","","","","","","","","","","","","","","","","","","","","","","","","","","","","","","","","","","","","","","","","","","","","","","","","","","","","","","","","","","","","","","","","","","","","","","","","","","","MET048METAR GQPA 070900Z 02012KT 8000 NSC 29/08 Q1017=","","","","","","","","","",""
"61421099999","2021-04-07T12:00:00","20.506828","-13.043194","231.03","ATAR, MR","FM-15","4","30.00","52","93","","","","","24","","","","4.97","","360","","9","","","","","","","","","","","","","","","","","","","","","","","","","","","","","","","","","","","","","","","","","","","","","","","","","","","","","","","","","","","","","","","","","","","","","","","","","","","","","","","","","","","","","","","","","","","MET048METAR GQPA 071200Z 36008KT 8000 NSC 34/11 Q1016=","","","","","","","","","",""
"61421099999","2021-04-07T18:00:00","20.506828","-13.043194","231.03","ATAR, MR","FM-15","4","29.88","61","99","","","","","29","","","","4.97","","VRB","","7","","","","","","","","","","","","","","","","","","","","","","","","","","","","","","","","","","","","","","","","","","","","","","","","","","","","","","","","","","","","","","","","","","","","","","","","","","","","","","","","","","","","","","","","","","","MET048METAR GQPA 071800Z VRB06KT 8000 NSC 37/16 Q1012=","","","","","","","","","",""
"61421099999","2021-04-08T12:00:00","20.506828","-13.043194","231.03","ATAR, MR","FM-15","4","30.00","46","91","","","","","21","","","","4.97","","020","","11","","","","","","","","","","","","","","","","","","","","","","","","","","","","","","","","","","","","","","","","","","","","","","","","","","","","","","","","","","","","","","","","","","","","","","","","","","","","","","","","","","","","","","","","","","","MET048METAR GQPA 081200Z 02010KT 8000 NSC 33/08 Q1016=","","","","","","","","","",""
"61421099999","2021-04-08T18:00:00","20.506828","-13.043194","231.03","ATAR, MR","FM-15","4","29.88","46","99","","","","","17","","","","4.97","","040","","7","","","","","","","","","","","","","","","","","","","","","","","","","","","","","","","","","","","","","","","","","","","","","","","","","","","","","","","","","","","","","","","","","","","","","","","","","","","","","","","","","","","","","","","","","","","MET048METAR GQPA 081800Z 04006KT 8000 NSC 37/08 Q1012=","","","","","","","","","",""
"61421099999","2021-04-09T09:00:00","20.506828","-13.043194","231.03","ATAR, MR","FM-15","4","29.97","48","81","","","","","32","","","","4.97","","360","","11","","","","","","","","","","","","","","","","","","","","","","","","","","","","","","","","","","","","","","","","","","","","","","","","","","","","","","","","","","","","","","","","","","","","","","","","","","","","","","","","","","","","","","","","","","","MET048METAR GQPA 090900Z 36010KT 8000 NSC 27/09 Q1015=","","","","","","","","","",""
"61421099999","2021-04-09T12:00:00","20.506828","-13.043194","231.03","ATAR, MR","FM-15","4","29.94","48","72","","","","","44","","","","4.97","","360","","11","","","","","","","","","","","","","","","","","","","","","","","","","","","","","","","","","","","","","","","","","","","","","","","","","","","","","","","","","","","","","","","","","","","","","","","","","","","","","","","","","","","","","","","","","","","MET048METAR GQPA 091200Z 36010KT 8000 NSC 22/09 Q1014=","","","","","","","","","",""
"61421099999","2021-04-10T18:00:00","20.506828","-13.043194","231.03","ATAR, MR","FM-15","4","29.80","27","99","","","","","8","","","","4.97","","020","","11","","","","","","","","","","","","","","","","","","","","","","","","","","","","","","","","","","","","","","","","","","","","","","","","","","","","","","","","","","","","","","","","","","","","","","","","","","","","","","","","","","","","","","","","","","","MET049METAR GQPA 101800Z 02010KT 8000 NSC 37/M03 Q1009=","","","","","","","","","",""
"61421099999","2021-04-11T12:00:00","20.506828","-13.043194","231.03","ATAR, MR","FM-15","4","29.94","43","86","","||DU","","","22","","","","3.73","","040","","21","","","","","","","","","","","","","","","","","","","","","","","","","","","","","","","","","","","","","","","","","","","","","","","","","","","","","","","","","","","","","","","","","","","","","","","","","","","","","","","","","","","","","","","","","","","MET053METAR GQPA 111200Z 04018KT 6000 BLSA NSC 30/06 Q1014=","","","","","","","","","",""
"61421099999","2021-04-12T09:00:00","20.506828","-13.043194","231.03","ATAR, MR","FM-15","4","30.00","37","75","","","","","25","","","","4.35","","360","","11","","","","","","","","","","","","","","","","","","","","","","","","","","","","","","","","","","","","","","","","","","","","","","","","","","","","","","","","","","","","","","","","","","","","","","","","","","","","","","","","","","","","","","","","","","","MET048METAR GQPA 120900Z 36010KT 7000 NSC 24/03 Q1016=","","","","","","","","","",""
"61421099999","2021-04-12T18:00:00","20.506828","-13.043194","231.03","ATAR, MR","FM-15","4","29.88","41","97","","","","","14","","","","4.97","","020","","5","","","","","","","","","","","","","","","","","","","","","","","","","","","","","","","","","","","","","","","","","","","","","","","","","","","","","","","","","","","","","","","","","","","","","","","","","","","","","","","","","","","","","","","","","","","MET048METAR GQPA 121800Z 02004KT 8000 NSC 36/05 Q1012=","","","","","","","","","",""
"61421099999","2021-04-14T18:00:00","20.506828","-13.043194","231.03","ATAR, MR","FM-15","4","29.94","41","95","","","","","15","","","","4.97","","320","","11","","","","","","","","","","","","","","","","","","","","","","","","","","","","","","","","","","","","","","","","","","","","","","","","","","","","","","","","","","","","","","","","","","","","","","","","","","","","","","","","","","","","","","","","","","","MET052METAR COR GQPA 141800Z 32010KT 8000 NSC 35/05 Q1014=","","","","","","","","","",""
"61421099999","2021-04-15T09:00:00","20.506828","-13.043194","231.03","ATAR, MR","FM-15","4","30.00","36","75","","||DU","","","24","","","","3.73","","060","","21","","","","","","","","","","","","","","","","","","","","","","","","","","","","","","","","","","","","","","","","","","","","","","","","","","","","","","","","","","","","","","","","","","","","","","","","","","","","","","","","","","","","","","","","","","","MET053METAR GQPA 150900Z 06018KT 6000 BLSA NSC 24/02 Q1016=","","","","","","","","","",""
"61421099999","2021-04-15T12:00:00","20.506828","-13.043194","231.03","ATAR, MR","FM-15","4","30.00","34","84","","","","","16","","","","3.73","","080","","21","","","","","","","","","","","","","","","","","","","","","","","","","","","","","","","","","","","","","","","","","","","","","","","","","","","","","","","","","","","","","","","","","","","","","","","","","","","","","","","","","","","","","","","","","","","MET048METAR GQPA 151200Z 08018KT 6000 NSC 29/01 Q1016=","","","","","","","","","",""
"61421099999","2021-04-15T18:00:00","20.506828","-13.043194","231.03","ATAR, MR","FM-15","4","29.91","43","97","","","","","16","","","","4.97","","360","","11","","","","","","","","","","","","","","","","","","","","","","","","","","","","","","","","","","","","","","","","","","","","","","","","","","","","","","","","","","","","","","","","","","","","","","","","","","","","","","","","","","","","","","","","","","","MET048METAR GQPA 151800Z 36010KT 8000 NSC 36/06 Q1013=","","","","","","","","","",""
"61421099999","2021-04-16T12:00:00","20.506828","-13.043194","231.03","ATAR, MR","FM-15","4","29.94","41","82","","","","","23","","","","4.97","","360","","11","","","","","","","","","","","","","","","","","","","","","","","","","","","","","","","","","","","","","","","","","","","","","","","","","","","","","","","","","","","","","","","","","","","","","","","","","","","","","","","","","","","","","","","","","","","MET048METAR GQPA 161200Z 36010KT 8000 NSC 28/05 Q1014=","","","","","","","","","",""
"61421099999","2021-04-16T18:00:00","20.506828","-13.043194","231.03","ATAR, MR","FM-15","4","29.85","41","91","","","","","17","","","","4.97","","360","","11","","","","","","","","","","","","","","","","","","","","","","","","","","","","","","","","","","","","","","","","","","","","","","","","","","","","","","","","","","","","","","","","","","","","","","","","","","","","","","","","","","","","","","","","","","","MET048METAR GQPA 161800Z 36010KT 8000 NSC 33/05 Q1011=","","","","","","","","","",""
"61421099999","2021-04-17T09:00:00","20.506828","-13.043194","231.03","ATAR, MR","FM-15","4","29.97","41","73","","","","","31","","","","4.97","","360","","21","","","","","","","","","","","","","","","","","","","","","","","","","","","","","","","","","","","","","","","","","","","","","","","","","","","","","","","","","","","","","","","","","","","","","","","","","","","","","","","","","","","","","","","","","","","MET048METAR GQPA 170900Z 36018KT 8000 NSC 23/05 Q1015=","","","","","","","","","",""
"61421099999","2021-04-17T12:00:00","20.506828","-13.043194","231.03","ATAR, MR","FM-15","4","29.94","46","81","","","","","30","","","","4.97","","360","","11","","","","","","","","","","","","","","","","","","","","","","","","","","","","","","","","","","","","","","","","","","","","","","","","","","","","","","","","","","","","","","","","","","","","","","","","","","","","","","","","","","","","","","","","","","","MET048METAR GQPA 171200Z 36010KT 8000 NSC 27/08 Q1014=","","","","","","","","","",""
"61421099999","2021-04-17T18:00:00","20.506828","-13.043194","231.03","ATAR, MR","FM-15","4","29.85","34","91","","","","","13","","","","4.97","","360","","11","","","","","","","","","","","","","","","","","","","","","","","","","","","","","","","","","","","","","","","","","","","","","","","","","","","","","","","","","","","","","","","","","","","","","","","","","","","","","","","","","","","","","","","","","","","MET048METAR GQPA 171800Z 36010KT 8000 NSC 33/01 Q1011=","","","","","","","","","",""
"61421099999","2021-04-18T09:00:00","20.506828","-13.043194","231.03","ATAR, MR","FM-15","4","30.00","37","77","","","","","24","","","","4.97","","360","","11","","","","","","","","","","","","","","","","","","","","","","","","","","","","","","","","","","","","","","","","","","","","","","","","","","","","","","","","","","","","","","","","","","","","","","","","","","","","","","","","","","","","","","","","","","","MET052METAR COR GQPA 180900Z 36010KT 8000 NSC 25/03 Q1016=","","","","","","","","","",""
"61421099999","2021-04-18T12:00:00","20.506828","-13.043194","231.03","ATAR, MR","FM-15","4","30.00","41","88","","","","","19","","","","4.97","","360","","14","","","","","","","","","","","","","","","","","","","","","","","","","","","","","","","","","","","","","","","","","","","","","","","","","","","","","","","","","","","","","","","","","","","","","","","","","","","","","","","","","","","","","","","","","","","MET048METAR GQPA 181200Z 36012KT 8000 NSC 31/05 Q1016=","","","","","","","","","",""
"61421099999","2021-04-18T15:00:00","20.506828","-13.043194","231.03","ATAR, MR","FM-15","4","29.91","34","93","","","","","12","","","","4.97","","350","","9","","","","","","","","","","","","","","","","","","","","","","","","","","","","","","","","","","","","","","","","","","","","","","","","","","","","","","","","","","","","","","","","","","","","","","","","","","","","","","","","","","","","","","","","","","","MET048METAR GQPA 181500Z 35008KT 8000 NSC 34/01 Q1013=","","","","","","","","","",""
"61421099999","2021-04-18T18:00:00","20.506828","-13.043194","231.03","ATAR, MR","FM-15","4","29.91","43","97","","","","","16","","","","4.97","","020","","9","","","","","","","","","","","","","","","","","","","","","","","","","","","","","","","","","","","","","","","","","","","","","","","","","","","","","","","","","","","","","","","","","","","","","","","","","","","","","","","","","","","","","","","","","","","MET048METAR GQPA 181800Z 02008KT 8000 NSC 36/06 Q1013=","","","","","","","","","",""
"61421099999","2021-04-19T09:00:00","20.506828","-13.043194","231.03","ATAR, MR","FM-15","4","29.91","43","79","","","","","28","","","","4.97","","360","","11","","","","","","","","","","","","","","","","","","","","","","","","","","","","","","","","","","","","","","","","","","","","","","","","","","","","","","","","","","","","","","","","","","","","","","","","","","","","","","","","","","","","","","","","","","","MET048METAR GQPA 190900Z 36010KT 8000 NSC 26/06 Q1013=","","","","","","","","","",""
"61421099999","2021-04-19T15:00:00","20.506828","-13.043194","231.03","ATAR, MR","FM-15","4","29.83","37","102","","","","","11","","","","4.97","","360","","7","","","","","","","","","","","","","","","","","","","","","","","","","","","","","","","","","","","","","","","","","","","","","","","","","","","","","","","","","","","","","","","","","","","","","","","","","","","","","","","","","","","","","","","","","","","MET048METAR GQPA 191500Z 36006KT 8000 NSC 39/03 Q1010=","","","","","","","","","",""
"61421099999","2021-04-19T18:00:00","20.506828","-13.043194","231.03","ATAR, MR","FM-15","4","29.83","37","102","","","","","11","","","","4.97","","320","","7","","","","","","","","","","","","","","","","","","","","","","","","","","","","","","","","","","","","","","","","","","","","","","","","","","","","","","","","","","","","","","","","","","","","","","","","","","","","","","","","","","","","","","","","","","","MET048METAR GQPA 191800Z 32006KT 8000 NSC 39/03 Q1010=","","","","","","","","","",""
"61421099999","2021-04-20T12:00:00","20.506828","-13.043194","231.03","ATAR, MR","FM-15","4","29.88","41","81","","","","","24","","","","4.97","","360","","14","","","","","","","","","","","","","","","","","","","","","","","","","","","","","","","","","","","","","","","","","","","","","","","","","","","","","","","","","","","","","","","","","","","","","","","","","","","","","","","","","","","","","","","","","","","MET048METAR GQPA 201200Z 36012KT 8000 NSC 27/05 Q1012=","","","","","","","","","",""
"61421099999","2021-04-21T09:00:00","20.506828","-13.043194","231.03","ATAR, MR","FM-15","4","29.94","43","79","","||DU","","","28","","","","2.49","","100","","24","","","","","","","","","","","","","","","","","","","","","","","","","","","","","","","","","","","","","","","","","","","","","","","","","","","","","","","","","","","","","","","","","","","","","","","","","","","","","","","","","","","","","","","","","","","MET053METAR GQPA 210900Z 10021KT 4000 BLSA NSC 26/06 Q1014=","","","","","","","","","",""
"61421099999","2021-04-21T18:00:00","20.506828","-13.043194","231.03","ATAR, MR","FM-15","4","29.83","54","99","","","","","22","","","","4.97","","360","","11","","","","","","","","","","","","","","","","","","","","","","","","","","","","","","","","","","","","","","","","","","","","","","","","","","","","","","","","","","","","","","","","","","","","","","","","","","","","","","","","","","","","","","","","","","","MET048METAR GQPA 211800Z 36010KT 8000 NSC 37/12 Q1010=","","","","","","","","","",""
"61421099999","2021-04-22T18:00:00","20.506828","-13.043194","231.03","ATAR, MR","FM-15","4","29.83","54","97","","","","","23","","","","4.97","","VRB","","2","","","","","","","","","","","","","","","","","","","","","","","","","","","","","","","","","","","","","","","","","","","","","","","","","","","","","","","","","","","","","","","","","","","","","","","","","","","","","","","","","","","","","","","","","","","MET048METAR GQPA 221800Z VRB02KT 8000 NSC 36/12 Q1010=","","","","","","","","","",""
"61421099999","2021-04-23T18:00:00","20.506828","-13.043194","231.03","ATAR, MR","FM-15","4","29.83","50","97","","","","","20","","","","4.97","","280","","14","","","","","","","","","","","","","","","","","","","","","","","","","","","","","","","","","","","","","","","","","","","","","","","","","","","","","","","","","","","","","","","","","","","","","","","","","","","","","","","","","","","","","","","","","","","MET048METAR GQPA 231800Z 28012KT 8000 NSC 36/10 Q1010=","","","","","","","","","",""
"61421099999","2021-04-24T08:30:00","20.506828","-13.043194","231.03","ATAR, MR","FM-15","4","29.91","43","79","","","","","28","","","","4.97","","360","","14","","","","","","","","","","","","","","","","","","","","","","","","","","","","","","","","","","","","","","","","","","","","","","","","","","","","","","","","","","","","","","","","","","","","","","","","","","","","","","","","","","","","","","","","","","","MET048METAR GQPA 240830Z 36012KT 8000 NSC 26/06 Q1013=","","","","","","","","","",""
"61421099999","2021-04-24T12:00:00","20.506828","-13.043194","231.03","ATAR, MR","FM-15","4","29.91","46","91","","","","","21","","","","4.97","","360","","9","","","","","","","","","","","","","","","","","","","","","","","","","","","","","","","","","","","","","","","","","","","","","","","","","","","","","","","","","","","","","","","","","","","","","","","","","","","","","","","","","","","","","","","","","","","MET048METAR GQPA 241200Z 36008KT 8000 NSC 33/08 Q1013=","","","","","","","","","",""
"61421099999","2021-04-25T09:00:00","20.506828","-13.043194","231.03","ATAR, MR","FM-15","4","30.00","41","77","","","","","28","","","","4.97","","340","","14","","","","","","","","","","","","","","","","","","","","","","","","","","","","","","","","","","","","","","","","","","","","","","","","","","","","","","","","","","","","","","","","","","","","","","","","","","","","","","","","","","","","","","","","","","","MET048METAR GQPA 250900Z 34012KT 8000 NSC 25/05 Q1016=","","","","","","","","","",""
"61421099999","2021-04-25T15:00:00","20.506828","-13.043194","231.03","ATAR, MR","FM-15","4","29.83","48","95","","","","","20","","","","4.97","","340","","7","","","","","","","","","","","","","","","","","","","","","","","","","","","","","","","","","","","","","","","","","","","","","","","","","","","","","","","","","","","","","","","","","","","","","","","","","","","","","","","","","","","","","","","","","","","MET048METAR GQPA 251500Z 34006KT 8000 NSC 35/09 Q1010=","","","","","","","","","",""
"61421099999","2021-04-26T09:00:00","20.506828","-13.043194","231.03","ATAR, MR","FM-15","4","29.94","37","79","","","","","23","","","","4.97","","020","","11","","","","","","","","","","","","","","","","","","","","","","","","","","","","","","","","","","","","","","","","","","","","","","","","","","","","","","","","","","","","","","","","","","","","","","","","","","","","","","","","","","","","","","","","","","","MET048METAR GQPA 260900Z 02010KT 8000 NSC 26/03 Q1014=","","","","","","","","","",""
"61421099999","2021-04-26T12:00:00","20.506828","-13.043194","231.03","ATAR, MR","FM-15","4","29.94","39","93","","","","","15","","","","4.97","","020","","7","","","","","","","","","","","","","","","","","","","","","","","","","","","","","","","","","","","","","","","","","","","","","","","","","","","","","","","","","","","","","","","","","","","","","","","","","","","","","","","","","","","","","","","","","","","MET048METAR GQPA 261200Z 02006KT 8000 NSC 34/04 Q1014=","","","","","","","","","",""
"61421099999","2021-04-26T18:00:00","20.506828","-13.043194","231.03","ATAR, MR","FM-15","4","29.80","41","100","","","","","13","","","","4.97","","320","","11","","","","","","","","","","","","","","","","","","","","","","","","","","","","","","","","","","","","","","","","","","","","","","","","","","","","","","","","","","","","","","","","","","","","","","","","","","","","","","","","","","","","","","","","","","","MET048METAR GQPA 261800Z 32010KT 8000 NSC 38/05 Q1009=","","","","","","","","","",""
"61421099999","2021-04-27T09:00:00","20.506828","-13.043194","231.03","ATAR, MR","FM-15","4","29.91","43","81","","","","","26","","","","4.97","","360","","11","","","","","","","","","","","","","","","","","","","","","","","","","","","","","","","","","","","","","","","","","","","","","","","","","","","","","","","","","","","","","","","","","","","","","","","","","","","","","","","","","","","","","","","","","","","MET048METAR GQPA 270900Z 36010KT 8000 NSC 27/06 Q1013=","","","","","","","","","",""
"61421099999","2021-04-27T12:00:00","20.506828","-13.043194","231.03","ATAR, MR","FM-15","4","29.91","46","95","","","","","19","","","","4.97","","360","","11","","","","","","","","","","","","","","","","","","","","","","","","","","","","","","","","","","","","","","","","","","","","","","","","","","","","","","","","","","","","","","","","","","","","","","","","","","","","","","","","","","","","","","","","","","","MET048METAR GQPA 271200Z 36010KT 8000 NSC 35/08 Q1013=","","","","","","","","","",""
"61421099999","2021-04-27T18:00:00","20.506828","-13.043194","231.03","ATAR, MR","FM-15","4","29.80","36","99","","","","","11","","","","4.97","","320","","11","","","","","","","","","","","","","","","","","","","","","","","","","","","","","","","","","","","","","","","","","","","","","","","","","","","","","","","","","","","","","","","","","","","","","","","","","","","","","","","","","","","","","","","","","","","MET048METAR GQPA 271800Z 32010KT 8000 NSC 37/02 Q1009=","","","","","","","","","",""
"61421099999","2021-04-28T18:00:00","20.506828","-13.043194","231.03","ATAR, MR","FM-15","4","29.80","36","99","","","","","11","","","","4.97","","320","","9","","","","","","","","","","","","","","","","","","","","","","","","","","","","","","","","","","","","","","","","","","","","","","","","","","","","","","","","","","","","","","","","","","","","","","","","","","","","","","","","","","","","","","","","","","","MET048METAR GQPA 281800Z 32008KT 8000 NSC 37/02 Q1009=","","","","","","","","","",""
"61421099999","2021-04-29T09:00:00","20.506828","-13.043194","231.03","ATAR, MR","FM-15","4","29.88","39","88","","","","","18","","","","4.97","","020","","18","","","","","","","","","","","","","","","","","","","","","","","","","","","","","","","","","","","","","","","","","","","","","","","","","","","","","","","","","","","","","","","","","","","","","","","","","","","","","","","","","","","","","","","","","","","MET048METAR GQPA 290900Z 02016KT 8000 NSC 31/04 Q1012=","","","","","","","","","",""
"61421099999","2021-04-29T12:00:00","20.506828","-13.043194","231.03","ATAR, MR","FM-15","4","29.91","45","97","","","","","17","","","","4.97","","060","","14","","","","","","","","","","","","","","","","","","","","","","","","","","","","","","","","","","","","","","","","","","","","","","","","","","","","","","","","","","","","","","","","","","","","","","","","","","","","","","","","","","","","","","","","","","","MET048METAR GQPA 291200Z 06012KT 8000 NSC 36/07 Q1013=","","","","","","","","","",""
"61421099999","2021-04-29T18:00:00","20.506828","-13.043194","231.03","ATAR, MR","FM-15","4","29.83","43","102","","","","","13","","","","4.97","","280","","16","","","","","","","","","","","","","","","","","","","","","","","","","","","","","","","","","","","","","","","","","","","","","","","","","","","","","","","","","","","","","","","","","","","","","","","","","","","","","","","","","","","","","","","","","","","MET048METAR GQPA 291800Z 28014KT 8000 NSC 39/06 Q1010=","","","","","","","","","",""
"61421099999","2021-04-30T12:00:00","20.506828","-13.043194","231.03","ATAR, MR","FM-15","4","29.97","77","82","","||RA","","","84","SCT:04 30","","","4.97","","360","","5","","","","","","","","","","","","","","","","","","","","","","","","","","","","","","","","","","","","","","","","","","","","","","","","","","","","","","","","","","","","","","","","","","","","","","","","","","","","","","","","","","","","","","","","","","","MET062METAR COR GQPA 301200Z 36004KT 8000 -RA SCT030TCU 28/25 Q1015=","","","","","","","","","",""
"61421099999","2021-04-30T18:00:00","20.506828","-13.043194","231.03","ATAR, MR","FM-15","4","29.85","63","88","","","","","43","","","","4.97","","000","","0","","","","","","","","","","","","","","","","","","","","","","","","","","","","","","","","","","","","","","","","","","","","","","","","","","","","","","","","","","","","","","","","","","","","","","","","","","","","","","","","","","","","","","","","","","","MET048METAR GQPA 301800Z 00000KT 8000 NSC 31/17 Q1011=","","","","","","","","","",""
"61421099999","2021-05-01T12:00:00","20.506828","-13.043194","231.03","ATAR, MR","FM-15","4","29.94","50","86","","","","","29","","","","4.97","","360","","16","","","","","","","","","","","","","","","","","","","","","","","","","","","","","","","","","","","","","","","","","","","","","","","","","","","","","","","","","","","","","","","","","","","","","","","","","","","","","","","","","","","","","","","","","","","MET048METAR GQPA 011200Z 36014KT 8000 NSC 30/10 Q1014=","","","","","","","","","",""
"61421099999","2021-05-01T15:00:00","20.506828","-13.043194","231.03","ATAR, MR","FM-15","4","29.83","48","97","","","","","19","","","","4.97","","280","","16","","","","","","","","","","","","","","","","","","","","","","","","","","","","","","","","","","","","","","","","","","","","","","","","","","","","","","","","","","","","","","","","","","","","","","","","","","","","","","","","","","","","","","","","","","","MET048METAR GQPA 011500Z 28014KT 8000 NSC 36/09 Q1010=","","","","","","","","","",""
"61421099999","2021-05-03T09:00:00","20.506828","-13.043194","231.03","ATAR, MR","FM-15","4","29.94","39","79","","","","","24","","","","4.97","","040","","11","","","","","","","","","","","","","","","","","","","","","","","","","","","","","","","","","","","","","","","","","","","","","","","","","","","","","","","","","","","","","","","","","","","","","","","","","","","","","","","","","","","","","","","","","","","MET048METAR GQPA 030900Z 04010KT 8000 NSC 26/04 Q1014=","","","","","","","","","",""
"61421099999","2021-05-03T12:00:00","20.506828","-13.043194","231.03","ATAR, MR","FM-15","4","29.91","41","90","","","","","18","","","","4.35","","020","","11","","","","","","","","","","","","","","","","","","","","","","","","","","","","","","","","","","","","","","","","","","","","","","","","","","","","","","","","","","","","","","","","","","","","","","","","","","","","","","","","","","","","","","","","","","","MET048METAR GQPA 031200Z 02010KT 7000 NSC 32/05 Q1013=","","","","","","","","","",""
"61421099999","2021-05-04T09:00:00","20.506828","-13.043194","231.03","ATAR, MR","FM-15","4","29.97","34","79","","","","","20","","","","4.97","","040","","16","","","","","","","","","","","","","","","","","","","","","","","","","","","","","","","","","","","","","","","","","","","","","","","","","","","","","","","","","","","","","","","","","","","","","","","","","","","","","","","","","","","","","","","","","","","MET048METAR GQPA 040900Z 04014KT 8000 NSC 26/01 Q1015=","","","","","","","","","",""
"61421099999","2021-05-05T09:00:00","20.506828","-13.043194","231.03","ATAR, MR","FM-15","4","30.00","34","77","","","","","21","","","","4.97","","360","","16","","","","","","","","","","","","","","","","","","","","","","","","","","","","","","","","","","","","","","","","","","","","","","","","","","","","","","","","","","","","","","","","","","","","","","","","","","","","","","","","","","","","","","","","","","","MET048METAR GQPA 050900Z 36014KT 8000 NSC 25/01 Q1016=","","","","","","","","","",""
"61421099999","2021-05-06T09:00:00","20.506828","-13.043194","231.03","ATAR, MR","FM-15","4","29.97","28","75","","","","","18","","","","4.97","","020","","16","","","","","","","","","","","","","","","","","","","","","","","","","","","","","","","","","","","","","","","","","","","","","","","","","","","","","","","","","","","","","","","","","","","","","","","","","","","","","","","","","","","","","","","","","","","MET049METAR GQPA 060900Z 02014KT 8000 NSC 24/M02 Q1015=","","","","","","","","","",""
"61421099999","2021-05-06T12:00:00","20.506828","-13.043194","231.03","ATAR, MR","FM-15","4","29.94","36","86","","","","","17","","","","4.97","","020","","14","","","","","","","","","","","","","","","","","","","","","","","","","","","","","","","","","","","","","","","","","","","","","","","","","","","","","","","","","","","","","","","","","","","","","","","","","","","","","","","","","","","","","","","","","","","MET048METAR GQPA 061200Z 02012KT 8000 NSC 30/02 Q1014=","","","","","","","","","",""
"61421099999","2021-05-08T09:00:00","20.506828","-13.043194","231.03","ATAR, MR","FM-15","4","30.00","37","82","","","","","20","","","","4.97","","040","","7","","","","","","","","","","","","","","","","","","","","","","","","","","","","","","","","","","","","","","","","","","","","","","","","","","","","","","","","","","","","","","","","","","","","","","","","","","","","","","","","","","","","","","","","","","","MET048METAR GQPA 080900Z 04006KT 8000 NSC 28/03 Q1016=","","","","","","","","","",""
"61421099999","2021-05-09T09:00:00","20.506828","-13.043194","231.03","ATAR, MR","FM-15","4","30.00","34","82","","","","","17","","","","4.97","","040","","16","","","","","","","","","","","","","","","","","","","","","","","","","","","","","","","","","","","","","","","","","","","","","","","","","","","","","","","","","","","","","","","","","","","","","","","","","","","","","","","","","","","","","","","","","","","MET048METAR GQPA 090900Z 04014KT 8000 NSC 28/01 Q1016=","","","","","","","","","",""
"61421099999","2021-05-09T12:00:00","20.506828","-13.043194","231.03","ATAR, MR","FM-15","4","29.97","36","90","","","","","15","","","","4.97","","040","","9","","","","","","","","","","","","","","","","","","","","","","","","","","","","","","","","","","","","","","","","","","","","","","","","","","","","","","","","","","","","","","","","","","","","","","","","","","","","","","","","","","","","","","","","","","","MET048METAR GQPA 091200Z 04008KT 8000 NSC 32/02 Q1015=","","","","","","","","","",""
"61421099999","2021-05-10T09:00:00","20.506828","-13.043194","231.03","ATAR, MR","FM-15","4","30.00","32","79","","","","","18","","","","4.97","","360","","18","","","","","","","","","","","","","","","","","","","","","","","","","","","","","","","","","","","","","","","","","","","","","","","","","","","","","","","","","","","","","","","","","","","","","","","","","","","","","","","","","","","","","","","","","","","MET048METAR GQPA 100900Z 36016KT 8000 NSC 26/00 Q1016=","","","","","","","","","",""
"61421099999","2021-05-10T12:00:00","20.506828","-13.043194","231.03","ATAR, MR","FM-15","4","29.97","36","90","","","","","15","","","","4.35","","080","","16","","","","","","","","","","","","","","","","","","","","","","","","","","","","","","","","","","","","","","","","","","","","","","","","","","","","","","","","","","","","","","","","","","","","","","","","","","","","","","","","","","","","","","","","","","","MET048METAR GQPA 101200Z 08014KT 7000 NSC 32/02 Q1015=","","","","","","","","","",""
"61421099999","2021-05-11T09:00:00","20.506828","-13.043194","231.03","ATAR, MR","FM-15","4","30.03","36","81","","","","","20","","","","4.97","","020","","18","","","","","","","","","","","","","","","","","","","","","","","","","","","","","","","","","","","","","","","","","","","","","","","","","","","","","","","","","","","","","","","","","","","","","","","","","","","","","","","","","","","","","","","","","","","MET048METAR GQPA 110900Z 02016KT 8000 NSC 27/02 Q1017=","","","","","","","","","",""
"61421099999","2021-05-11T12:00:00","20.506828","-13.043194","231.03","ATAR, MR","FM-15","4","30.00","39","93","","","","","15","","","","4.97","","360","","11","","","","","","","","","","","","","","","","","","","","","","","","","","","","","","","","","","","","","","","","","","","","","","","","","","","","","","","","","","","","","","","","","","","","","","","","","","","","","","","","","","","","","","","","","","","MET048METAR GQPA 111200Z 36010KT 8000 NSC 34/04 Q1016=","","","","","","","","","",""
"61421099999","2021-05-12T09:00:00","20.506828","-13.043194","231.03","ATAR, MR","FM-15","4","30.06","37","81","","","","","21","","","","4.97","","020","","14","","","","","","","","","","","","","","","","","","","","","","","","","","","","","","","","","","","","","","","","","","","","","","","","","","","","","","","","","","","","","","","","","","","","","","","","","","","","","","","","","","","","","","","","","","","MET048METAR GQPA 120900Z 02012KT 8000 NSC 27/03 Q1018=","","","","","","","","","",""
"61421099999","2021-05-12T12:00:00","20.506828","-13.043194","231.03","ATAR, MR","FM-15","4","30.03","39","93","","","","","15","","","","4.97","","040","","11","","","","","","","","","","","","","","","","","","","","","","","","","","","","","","","","","","","","","","","","","","","","","","","","","","","","","","","","","","","","","","","","","","","","","","","","","","","","","","","","","","","","","","","","","","","MET048METAR GQPA 121200Z 04010KT 8000 NSC 34/04 Q1017=","","","","","","","","","",""
"61421099999","2021-05-13T09:00:00","20.506828","-13.043194","231.03","ATAR, MR","FM-15","4","30.03","41","84","","","","","22","","","","4.97","","020","","11","","","","","","","","","","","","","","","","","","","","","","","","","","","","","","","","","","","","","","","","","","","","","","","","","","","","","","","","","","","","","","","","","","","","","","","","","","","","","","","","","","","","","","","","","","","MET048METAR GQPA 130900Z 02010KT 8000 NSC 29/05 Q1017=","","","","","","","","","",""
"61421099999","2021-05-13T12:00:00","20.506828","-13.043194","231.03","ATAR, MR","FM-15","4","30.00","43","95","","","","","16","","","","4.97","","360","","9","","","","","","","","","","","","","","","","","","","","","","","","","","","","","","","","","","","","","","","","","","","","","","","","","","","","","","","","","","","","","","","","","","","","","","","","","","","","","","","","","","","","","","","","","","","MET048METAR GQPA 131200Z 36008KT 8000 NSC 35/06 Q1016=","","","","","","","","","",""
"61421099999","2021-05-14T12:00:00","20.506828","-13.043194","231.03","ATAR, MR","FM-15","4","29.97","43","91","","","","","18","","","","4.97","","040","","11","","","","","","","","","","","","","","","","","","","","","","","","","","","","","","","","","","","","","","","","","","","","","","","","","","","","","","","","","","","","","","","","","","","","","","","","","","","","","","","","","","","","","","","","","","","MET048METAR GQPA 141200Z 04010KT 8000 NSC 33/06 Q1015=","","","","","","","","","",""
"61421099999","2021-05-17T09:00:00","20.506828","-13.043194","231.03","ATAR, MR","FM-15","4","29.97","39","88","","","","","18","","","","4.97","","020","","14","","","","","","","","","","","","","","","","","","","","","","","","","","","","","","","","","","","","","","","","","","","","","","","","","","","","","","","","","","","","","","","","","","","","","","","","","","","","","","","","","","","","","","","","","","","MET048METAR GQPA 170900Z 02012KT 8000 NSC 31/04 Q1015=","","","","","","","","","",""
"61421099999","2021-05-17T12:00:00","20.506828","-13.043194","231.03","ATAR, MR","FM-15","4","29.97","41","93","","","","","16","","","","4.97","","040","","11","","","","","","","","","","","","","","","","","","","","","","","","","","","","","","","","","","","","","","","","","","","","","","","","","","","","","","","","","","","","","","","","","","","","","","","","","","","","","","","","","","","","","","","","","","","MET048METAR GQPA 171200Z 04010KT 8000 NSC 34/05 Q1015=","","","","","","","","","",""
"61421099999","2021-05-18T09:00:00","20.506828","-13.043194","231.03","ATAR, MR","FM-15","4","30.00","36","88","","","","","16","","","","4.97","","040","","7","","","","","","","","","","","","","","","","","","","","","","","","","","","","","","","","","","","","","","","","","","","","","","","","","","","","","","","","","","","","","","","","","","","","","","","","","","","","","","","","","","","","","","","","","","","MET048METAR GQPA 180900Z 04006KT 8000 NSC 31/02 Q1016=","","","","","","","","","",""
"61421099999","2021-05-19T12:00:00","20.506828","-13.043194","231.03","ATAR, MR","FM-15","4","29.91","50","99","","","","","19","","","","4.35","","000","","0","","","","","","","","","","","","","","","","","","","","","","","","","","","","","","","","","","","","","","","","","","","","","","","","","","","","","","","","","","","","","","","","","","","","","","","","","","","","","","","","","","","","","","","","","","","MET048METAR GQPA 191200Z 00000KT 7000 NSC 37/10 Q1013=","","","","","","","","","",""
"61421099999","2021-05-19T15:00:00","20.506828","-13.043194","231.03","ATAR, MR","FM-15","4","29.85","55","111","","","","","16","","","","4.35","","VRB","","7","","","","","","","","","","","","","","","","","","","","","","","","","","","","","","","","","","","","","","","","","","","","","","","","","","","","","","","","","","","","","","","","","","","","","","","","","","","","","","","","","","","","","","","","","","","MET048METAR GQPA 191500Z VRB06KT 7000 NSC 44/13 Q1011=","","","","","","","","","",""
"61421099999","2021-05-21T09:00:00","20.506828","-13.043194","231.03","ATAR, MR","FM-15","4","29.91","46","86","","","","","25","","","","4.97","","VRB","","5","","","","","","","","","","","","","","","","","","","","","","","","","","","","","","","","","","","","","","","","","","","","","","","","","","","","","","","","","","","","","","","","","","","","","","","","","","","","","","","","","","","","","","","","","","","MET048METAR GQPA 210900Z VRB04KT 8000 NSC 30/08 Q1013=","","","","","","","","","",""
"61421099999","2021-05-21T12:00:00","20.506828","-13.043194","231.03","ATAR, MR","FM-15","4","29.91","50","95","","","","","22","","","","4.97","","040","","9","","","","","","","","","","","","","","","","","","","","","","","","","","","","","","","","","","","","","","","","","","","","","","","","","","","","","","","","","","","","","","","","","","","","","","","","","","","","","","","","","","","","","","","","","","","MET048METAR GQPA 211200Z 04008KT 8000 NSC 35/10 Q1013=","","","","","","","","","",""
"61421099999","2021-05-22T09:00:00","20.506828","-13.043194","231.03","ATAR, MR","FM-15","4","29.94","46","86","","","","","25","","","","4.97","","000","","0","","","","","","","","","","","","","","","","","","","","","","","","","","","","","","","","","","","","","","","","","","","","","","","","","","","","","","","","","","","","","","","","","","","","","","","","","","","","","","","","","","","","","","","","","","","MET048METAR GQPA 220900Z 00000KT 8000 NSC 30/08 Q1014=","","","","","","","","","",""
"61421099999","2021-05-22T12:00:00","20.506828","-13.043194","231.03","ATAR, MR","FM-15","4","29.91","45","99","","","","","16","","","","4.97","","000","","0","","","","","","","","","","","","","","","","","","","","","","","","","","","","","","","","","","","","","","","","","","","","","","","","","","","","","","","","","","","","","","","","","","","","","","","","","","","","","","","","","","","","","","","","","","","MET048METAR GQPA 221200Z 00000KT 8000 NSC 37/07 Q1013=","","","","","","","","","",""
"61421099999","2021-05-22T18:00:00","20.506828","-13.043194","231.03","ATAR, MR","FM-15","4","29.83","52","106","","","","","17","","","","4.35","","VRB","","9","","","","","","","","","","","","","","","","","","","","","","","","","","","","","","","","","","","","","","","","","","","","","","","","","","","","","","","","","","","","","","","","","","","","","","","","","","","","","","","","","","","","","","","","","","","MET048METAR GQPA 221800Z VRB08KT 7000 NSC 41/11 Q1010=","","","","","","","","","",""
"61421099999","2021-05-23T12:00:00","20.506828","-13.043194","231.03","ATAR, MR","FM-15","4","29.94","54","102","","","","","20","","","","4.97","","360","","16","","","","","","","","","","","","","","","","","","","","","","","","","","","","","","","","","","","","","","","","","","","","","","","","","","","","","","","","","","","","","","","","","","","","","","","","","","","","","","","","","","","","","","","","","","","MET048METAR GQPA 231200Z 36014KT 8000 NSC 39/12 Q1014=","","","","","","","","","",""
"61421099999","2021-05-24T09:00:00","20.506828","-13.043194","231.03","ATAR, MR","FM-15","4","29.97","52","88","","||DU","","","29","","","","2.49","","360","","21","","","","","","","","","","","","","","","","","","","","","","","","","","","","","","","","","","","","","","","","","","","","","","","","","","","","","","","","","","","","","","","","","","","","","","","","","","","","","","","","","","","","","","","","","","","MET053METAR GQPA 240900Z 36018KT 4000 BLSA NSC 31/11 Q1015=","","","","","","","","","",""
"61421099999","2021-05-24T12:00:00","20.506828","-13.043194","231.03","ATAR, MR","FM-15","4","29.97","54","97","","||DU","","","23","","","","2.49","","360","","23","","","","","","","","","","","","","","","","","","","","","","","","","","","","","","","","","","","","","","","","","","","","","","","","","","","","","","","","","","","","","","","","","","","","","","","","","","","","","","","","","","","","","","","","","","","MET053METAR GQPA 241200Z 36020KT 4000 BLSA NSC 36/12 Q1015=","","","","","","","","","",""
"61421099999","2021-05-24T18:00:00","20.506828","-13.043194","231.03","ATAR, MR","FM-15","4","29.85","55","104","","||DU","","","20","","","","3.11","","320","","14","","","","","","","","","","","","","","","","","","","","","","","","","","","","","","","","","","","","","","","","","","","","","","","","","","","","","","","","","","","","","","","","","","","","","","","","","","","","","","","","","","","","","","","","","","","MET051METAR GQPA 241800Z 32012KT 5000 DU NSC 40/13 Q1011=","","","","","","","","","",""
"61421099999","2021-05-25T09:00:00","20.506828","-13.043194","231.03","ATAR, MR","FM-15","4","30.00","54","84","","","","","35","","","","4.35","","360","","16","","","","","","","","","","","","","","","","","","","","","","","","","","","","","","","","","","","","","","","","","","","","","","","","","","","","","","","","","","","","","","","","","","","","","","","","","","","","","","","","","","","","","","","","","","","MET048METAR GQPA 250900Z 36014KT 7000 NSC 29/12 Q1016=","","","","","","","","","",""
"61421099999","2021-05-25T15:00:00","20.506828","-13.043194","231.03","ATAR, MR","FM-15","4","29.94","57","100","","","","","24","","","","3.73","","360","","14","","","","","","","","","","","","","","","","","","","","","","","","","","","","","","","","","","","","","","","","","","","","","","","","","","","","","","","","","","","","","","","","","","","","","","","","","","","","","","","","","","","","","","","","","","","MET048METAR GQPA 251500Z 36012KT 6000 NSC 38/14 Q1014=","","","","","","","","","",""
"61421099999","2021-05-26T09:00:00","20.506828","-13.043194","231.03","ATAR, MR","FM-15","4","30.00","54","82","","","","","37","","","","4.97","","360","","16","","","","","","","","","","","","","","","","","","","","","","","","","","","","","","","","","","","","","","","","","","","","","","","","","","","","","","","","","","","","","","","","","","","","","","","","","","","","","","","","","","","","","","","","","","","MET048METAR GQPA 260900Z 36014KT 8000 NSC 28/12 Q1016=","","","","","","","","","",""
"61421099999","2021-05-26T12:00:00","20.506828","-13.043194","231.03","ATAR, MR","FM-15","4","29.94","55","97","","","","","25","","","","4.97","","020","","14","","","","","","","","","","","","","","","","","","","","","","","","","","","","","","","","","","","","","","","","","","","","","","","","","","","","","","","","","","","","","","","","","","","","","","","","","","","","","","","","","","","","","","","","","","","MET048METAR GQPA 261200Z 02012KT 8000 NSC 36/13 Q1014=","","","","","","","","","",""
"61421099999","2021-05-26T18:00:00","20.506828","-13.043194","231.03","ATAR, MR","FM-15","4","29.83","57","104","","","","","21","","","","4.35","","020","","7","","","","","","","","","","","","","","","","","","","","","","","","","","","","","","","","","","","","","","","","","","","","","","","","","","","","","","","","","","","","","","","","","","","","","","","","","","","","","","","","","","","","","","","","","","","MET048METAR GQPA 261800Z 02006KT 7000 NSC 40/14 Q1010=","","","","","","","","","",""
"61421099999","2021-05-27T09:00:00","20.506828","-13.043194","231.03","ATAR, MR","FM-15","4","29.94","52","86","","","","","31","","","","4.97","","360","","14","","","","","","","","","","","","","","","","","","","","","","","","","","","","","","","","","","","","","","","","","","","","","","","","","","","","","","","","","","","","","","","","","","","","","","","","","","","","","","","","","","","","","","","","","","","MET052METAR COR GQPA 270900Z 36012KT 8000 NSC 30/11 Q1014=","","","","","","","","","",""
"61421099999","2021-05-27T12:00:00","20.506828","-13.043194","231.03","ATAR, MR","FM-15","4","29.91","59","99","","","","","27","","","","4.97","","020","","11","","","","","","","","","","","","","","","","","","","","","","","","","","","","","","","","","","","","","","","","","","","","","","","","","","","","","","","","","","","","","","","","","","","","","","","","","","","","","","","","","","","","","","","","","","","MET048METAR GQPA 271200Z 02010KT 8000 NSC 37/15 Q1013=","","","","","","","","","",""
"61421099999","2021-05-29T09:00:00","20.506828","-13.043194","231.03","ATAR, MR","FM-15","4","29.88","50","91","","","","","24","","","","4.35","","040","","9","","","","","","","","","","","","","","","","","","","","","","","","","","","","","","","","","","","","","","","","","","","","","","","","","","","","","","","","","","","","","","","","","","","","","","","","","","","","","","","","","","","","","","","","","","","MET052METAR COR GQPA 290900Z 04008KT 7000 NSC 33/10 Q1012=","","","","","","","","","",""
"61421099999","2021-05-29T12:00:00","20.506828","-13.043194","231.03","ATAR, MR","FM-15","4","29.88","52","95","","","","","23","","","","3.73","","080","","11","","","","","","","","","","","","","","","","","","","","","","","","","","","","","","","","","","","","","","","","","","","","","","","","","","","","","","","","","","","","","","","","","","","","","","","","","","","","","","","","","","","","","","","","","","","MET048METAR GQPA 291200Z 08010KT 6000 NSC 35/11 Q1012=","","","","","","","","","",""
"61421099999","2021-05-30T09:00:00","20.506828","-13.043194","231.03","ATAR, MR","FM-15","4","29.88","52","93","","||DU","","","24","","","","3.11","","040","","18","","","","","","","","","","","","","","","","","","","","","","","","","","","","","","","","","","","","","","","","","","","","","","","","","","","","","","","","","","","","","","","","","","","","","","","","","","","","","","","","","","","","","","","","","","","MET051METAR GQPA 300900Z 04016KT 5000 DU NSC 34/11 Q1012=","","","","","","","","","",""
"61421099999","2021-05-30T12:00:00","20.506828","-13.043194","231.03","ATAR, MR","FM-15","4","29.88","55","97","","||DU","","","25","","","","3.11","","280","","21","","","","","","","","","","","","","","","","","","","","","","","","","","","","","","","","","","","","","","","","","","","","","","","","","","","","","","","","","","","","","","","","","","","","","","","","","","","","","","","","","","","","","","","","","","","MET053METAR GQPA 301200Z 28018KT 5000 BLSA NSC 36/13 Q1012=","","","","","","","","","",""
"61421099999","2021-05-31T09:00:00","20.506828","-13.043194","231.03","ATAR, MR","FM-15","4","29.88","48","88","","","","","25","","","","4.97","","360","","9","","","","","","","","","","","","","","","","","","","","","","","","","","","","","","","","","","","","","","","","","","","","","","","","","","","","","","","","","","","","","","","","","","","","","","","","","","","","","","","","","","","","","","","","","","","MET048METAR GQPA 310900Z 36008KT 8000 NSC 31/09 Q1012=","","","","","","","","","",""
"61421099999","2021-06-01T09:00:00","20.506828","-13.043194","231.03","ATAR, MR","FM-15","4","29.85","72","97","","||DU","","","44","","","","3.73","","000","","0","","","","","","","","","","","","","","","","","","","","","","","","","","","","","","","","","","","","","","","","","","","","","","","","","","","","","","","","","","","","","","","","","","","","","","","","","","","","","","","","","","","","","","","","","","","MET053METAR GQPA 010900Z 00000KT 6000 BLDU NSC 36/22 Q1011=","","","","","","","","","",""
"61421099999","2021-06-01T12:00:00","20.506828","-13.043194","231.03","ATAR, MR","FM-15","4","29.85","48s","106","","||DU","","","14","","","","3.73","","340","","11","","","","","","","","","","","","","","","","","","","","","","","","","","","","","","","","","","","","","","","","","","","","","","","","","","","","","","","","","","","","","","","","","","","","","","","","","","","","","","","","","","","","","","","","","","","MET053METAR GQPA 011200Z 34010KT 6000 BLDU NSC 41/09 Q1011=","","","","","","","","","",""
"61421099999","2021-06-02T09:00:00","20.506828","-13.043194","231.03","ATAR, MR","FM-15","4","29.91","57","93","","","","","30","","","","4.35","","360","","14","","","","","","","","","","","","","","","","","","","","","","","","","","","","","","","","","","","","","","","","","","","","","","","","","","","","","","","","","","","","","","","","","","","","","","","","","","","","","","","","","","","","","","","","","","","MET048METAR GQPA 020900Z 36012KT 7000 NSC 34/14 Q1013=","","","","","","","","","",""
"61421099999","2021-06-02T12:00:00","20.506828","-13.043194","231.03","ATAR, MR","FM-15","4","29.88","55","100","","","","","22","","","","4.35","","360","","14","","","","","","","","","","","","","","","","","","","","","","","","","","","","","","","","","","","","","","","","","","","","","","","","","","","","","","","","","","","","","","","","","","","","","","","","","","","","","","","","","","","","","","","","","","","MET048METAR GQPA 021200Z 36012KT 7000 NSC 38/13 Q1012=","","","","","","","","","",""
"61421099999","2021-06-02T18:00:00","20.506828","-13.043194","231.03","ATAR, MR","FM-15","4","29.83","63","108","","","","","23","SCT:04 40","","","4.35","","360","","11","","","","","","","","","","","","","","","","","","","","","","","","","","","","","","","","","","","","","","","","","","","","","","","","","","","","","","","","","","","","","","","","","","","","","","","","","","","","","","","","","","","","","","","","","","","MET053METAR GQPA 021800Z 36010KT 7000 SCT040CB 42/17 Q1010=","","","","","","","","","",""
"61421099999","2021-06-03T09:00:00","20.506828","-13.043194","231.03","ATAR, MR","FM-15","4","29.97","55","93","","","","","28","","","","4.35","","360","","16","","","","","","","","","","","","","","","","","","","","","","","","","","","","","","","","","","","","","","","","","","","","","","","","","","","","","","","","","","","","","","","","","","","","","","","","","","","","","","","","","","","","","","","","","","","MET048METAR GQPA 030900Z 36014KT 7000 NSC 34/13 Q1015=","","","","","","","","","",""
"61421099999","2021-06-03T12:00:00","20.506828","-13.043194","231.03","ATAR, MR","FM-15","4","30.00","54","99","","","","","22","","","","4.35","","360","","16","","","","","","","","","","","","","","","","","","","","","","","","","","","","","","","","","","","","","","","","","","","","","","","","","","","","","","","","","","","","","","","","","","","","","","","","","","","","","","","","","","","","","","","","","","","MET048METAR GQPA 031200Z 36014KT 7000 NSC 37/12 Q1016=","","","","","","","","","",""
"61421099999","2021-06-04T12:00:00","20.506828","-13.043194","231.03","ATAR, MR","FM-15","4","30.03","54","95","","||DU","","","25","","","","2.49","","060","","21","","","","","","","","","","","","","","","","","","","","","","","","","","","","","","","","","","","","","","","","","","","","","","","","","","","","","","","","","","","","","","","","","","","","","","","","","","","","","","","","","","","","","","","","","","","MET053METAR GQPA 041200Z 06018KT 4000 BLSA NSC 35/12 Q1017=","","","","","","","","","",""
"61421099999","2021-06-04T15:00:00","20.506828","-13.043194","231.03","ATAR, MR","FM-15","4","29.97","59","104","","||DU","","","23","","","","3.73","","020","","16","","","","","","","","","","","","","","","","","","","","","","","","","","","","","","","","","","","","","","","","","","","","","","","","","","","","","","","","","","","","","","","","","","","","","","","","","","","","","","","","","","","","","","","","","","","MET053METAR GQPA 041500Z 02014KT 6000 BLDU NSC 40/15 Q1015=","","","","","","","","","",""
"61421099999","2021-06-06T09:00:00","20.506828","-13.043194","231.03","ATAR, MR","FM-15","4","29.94","46","88","","","","","24","","","","4.97","","040","","14","","","","","","","","","","","","","","","","","","","","","","","","","","","","","","","","","","","","","","","","","","","","","","","","","","","","","","","","","","","","","","","","","","","","","","","","","","","","","","","","","","","","","","","","","","","MET048METAR GQPA 060900Z 04012KT 8000 NSC 31/08 Q1014=","","","","","","","","","",""
"61421099999","2021-06-06T18:00:00","20.506828","-13.043194","231.03","ATAR, MR","FM-15","4","29.85","55","104","","||DU","","","20","","","","1.86","","360","","24","","","","","","","","","","","","","","","","","","","","","","","","","","","","","","","","","","","","","","","","","","","","","","","","","","","","","","","","","","","","","","","","","","","","","","","","","","","","","","","","","","","","","","","","","","","MET053METAR GQPA 061800Z 36021KT 3000 BLSA NSC 40/13 Q1011=","","","","","","","","","",""
"61421099999","2021-06-07T09:00:00","20.506828","-13.043194","231.03","ATAR, MR","FM-15","4","29.91","48","90","","","","","24","","","","4.35","","040","","21","","","","","","","","","","","","","","","","","","","","","","","","","","","","","","","","","","","","","","","","","","","","","","","","","","","","","","","","","","","","","","","","","","","","","","","","","","","","","","","","","","","","","","","","","","","MET048METAR GQPA 070900Z 04018KT 7000 NSC 32/09 Q1013=","","","","","","","","","",""
"61421099999","2021-06-07T12:00:00","20.506828","-13.043194","231.03","ATAR, MR","FM-15","4","29.88","54","97","","||DU","","","23","","","","3.11","","020","","24","","","","","","","","","","","","","","","","","","","","","","","","","","","","","","","","","","","","","","","","","","","","","","","","","","","","","","","","","","","","","","","","","","","","","","","","","","","","","","","","","","","","","","","","","","","MET053METAR GQPA 071200Z 02021KT 5000 BLSA NSC 36/12 Q1012=","","","","","","","","","",""
"61421099999","2021-06-08T12:00:00","20.506828","-13.043194","231.03","ATAR, MR","FM-15","4","29.94","55","99","","","","","24","","","","4.97","","020","","5","","","","","","","","","","","","","","","","","","","","","","","","","","","","","","","","","","","","","","","","","","","","","","","","","","","","","","","","","","","","","","","","","","","","","","","","","","","","","","","","","","","","","","","","","","","MET048METAR GQPA 081200Z 02004KT 8000 NSC 37/13 Q1014=","","","","","","","","","",""
"61421099999","2021-06-10T09:00:00","20.506828","-13.043194","231.03","ATAR, MR","FM-15","4","29.85","54","95","","||DU","","","25","","","","3.11","","VRB","","7","","","","","","","","","","","","","","","","","","","","","","","","","","","","","","","","","","","","","","","","","","","","","","","","","","","","","","","","","","","","","","","","","","","","","","","","","","","","","","","","","","","","","","","","","","","MET051METAR GQPA 100900Z VRB06KT 5000 DU NSC 35/12 Q1011=","","","","","","","","","",""
"61421099999","2021-06-10T12:00:00","20.506828","-13.043194","231.03","ATAR, MR","FM-15","4","29.85","55","100","","||DU","","","22","","","","3.11","","VRB","","9","","","","","","","","","","","","","","","","","","","","","","","","","","","","","","","","","","","","","","","","","","","","","","","","","","","","","","","","","","","","","","","","","","","","","","","","","","","","","","","","","","","","","","","","","","","MET051METAR GQPA 101200Z VRB08KT 5000 DU NSC 38/13 Q1011=","","","","","","","","","",""
"61421099999","2021-06-12T12:00:00","20.506828","-13.043194","231.03","ATAR, MR","FM-15","4","29.91","54","99","","||DU","","","22","","","","2.49","","040","","11","","","","","","","","","","","","","","","","","","","","","","","","","","","","","","","","","","","","","","","","","","","","","","","","","","","","","","","","","","","","","","","","","","","","","","","","","","","","","","","","","","","","","","","","","","","MET051METAR GQPA 121200Z 04010KT 4000 DU NSC 37/12 Q1013=","","","","","","","","","",""
"61421099999","2021-06-15T09:00:00","20.506828","-13.043194","231.03","ATAR, MR","FM-15","4","29.94","50","93","","||DU","","","23","","","","3.73","","040","","11","","","","","","","","","","","","","","","","","","","","","","","","","","","","","","","","","","","","","","","","","","","","","","","","","","","","","","","","","","","","","","","","","","","","","","","","","","","","","","","","","","","","","","","","","","","MET051METAR GQPA 150900Z 04010KT 6000 DU NSC 34/10 Q1014=","","","","","","","","","",""
"61421099999","2021-06-15T15:00:00","20.506828","-13.043194","231.03","ATAR, MR","FM-15","4","29.88","54","104","","||DU","","","19","","","","3.73","","040","","18","","","","","","","","","","","","","","","","","","","","","","","","","","","","","","","","","","","","","","","","","","","","","","","","","","","","","","","","","","","","","","","","","","","","","","","","","","","","","","","","","","","","","","","","","","","MET053METAR GQPA 151500Z 04016KT 6000 BLSA NSC 40/12 Q1012=","","","","","","","","","",""
"61421099999","2021-06-16T09:00:00","20.506828","-13.043194","231.03","ATAR, MR","FM-15","4","30.09","48","91","","||DU","","","23","","","","3.73","","040","","9","","","","","","","","","","","","","","","","","","","","","","","","","","","","","","","","","","","","","","","","","","","","","","","","","","","","","","","","","","","","","","","","","","","","","","","","","","","","","","","","","","","","","","","","","","","MET055METAR COR GQPA 160900Z 04008KT 6000 DU NSC 33/09 Q1019=","","","","","","","","","",""
"61421099999","2021-06-16T15:00:00","20.506828","-13.043194","231.03","ATAR, MR","FM-15","4","29.88","55","113","","||DU","","","15","","","","3.11","","360","","11","","","","","","","","","","","","","","","","","","","","","","","","","","","","","","","","","","","","","","","","","","","","","","","","","","","","","","","","","","","","","","","","","","","","","","","","","","","","","","","","","","","","","","","","","","","MET051METAR GQPA 161500Z 36010KT 5000 DU NSC 45/13 Q1012=","","","","","","","","","",""
"61421099999","2021-06-18T09:00:00","20.506828","-13.043194","231.03","ATAR, MR","FM-15","4","30.00","32","84","","","","","15","","","","4.35","","020","","18","","","","","","","","","","","","","","","","","","","","","","","","","","","","","","","","","","","","","","","","","","","","","","","","","","","","","","","","","","","","","","","","","","","","","","","","","","","","","","","","","","","","","","","","","","","MET048METAR GQPA 180900Z 02016KT 7000 NSC 29/00 Q1016=","","","","","","","","","",""
"61421099999","2021-06-18T12:00:00","20.506828","-13.043194","231.03","ATAR, MR","FM-15","4","30.00","37","93","","","","","14","","","","4.35","","040","","7","","","","","","","","","","","","","","","","","","","","","","","","","","","","","","","","","","","","","","","","","","","","","","","","","","","","","","","","","","","","","","","","","","","","","","","","","","","","","","","","","","","","","","","","","","","MET048METAR GQPA 181200Z 04006KT 7000 NSC 34/03 Q1016=","","","","","","","","","",""
"61421099999","2021-06-19T09:00:00","20.506828","-13.043194","231.03","ATAR, MR","FM-15","4","30.03","39","79","","","","","24","","","","4.35","","040","","18","","","","","","","","","","","","","","","","","","","","","","","","","","","","","","","","","","","","","","","","","","","","","","","","","","","","","","","","","","","","","","","","","","","","","","","","","","","","","","","","","","","","","","","","","","","MET048METAR GQPA 190900Z 04016KT 7000 NSC 26/04 Q1017=","","","","","","","","","",""
"61421099999","2021-06-19T15:00:00","20.506828","-13.043194","231.03","ATAR, MR","FM-15","4","29.94","52","99","","","","","21","","","","4.35","","020","","9","","","","","","","","","","","","","","","","","","","","","","","","","","","","","","","","","","","","","","","","","","","","","","","","","","","","","","","","","","","","","","","","","","","","","","","","","","","","","","","","","","","","","","","","","","","MET048METAR GQPA 191500Z 02008KT 7000 NSC 37/11 Q1014=","","","","","","","","","",""
"61421099999","2021-06-22T09:00:00","20.506828","-13.043194","231.03","ATAR, MR","FM-15","4","29.97","46","88","","","","","24","","","","4.97","","020","","9","","","","","","","","","","","","","","","","","","","","","","","","","","","","","","","","","","","","","","","","","","","","","","","","","","","","","","","","","","","","","","","","","","","","","","","","","","","","","","","","","","","","","","","","","","","MET048METAR GQPA 220900Z 02008KT 8000 NSC 31/08 Q1015=","","","","","","","","","",""
"61421099999","2021-06-23T09:00:00","20.506828","-13.043194","231.03","ATAR, MR","FM-15","4","29.94","36","86","","","","","17","","","","4.97","","040","","9","","","","","","","","","","","","","","","","","","","","","","","","","","","","","","","","","","","","","","","","","","","","","","","","","","","","","","","","","","","","","","","","","","","","","","","","","","","","","","","","","","","","","","","","","","","MET048METAR GQPA 230900Z 04008KT 8000 NSC 30/02 Q1014=","","","","","","","","","",""
"61421099999","2021-06-23T12:00:00","20.506828","-13.043194","231.03","ATAR, MR","FM-15","4","29.94","41","95","","","","","15","","","","4.97","","020","","9","","","","","","","","","","","","","","","","","","","","","","","","","","","","","","","","","","","","","","","","","","","","","","","","","","","","","","","","","","","","","","","","","","","","","","","","","","","","","","","","","","","","","","","","","","","MET048METAR GQPA 231200Z 02008KT 8000 NSC 35/05 Q1014=","","","","","","","","","",""
"61421099999","2021-06-26T12:00:00","20.506828","-13.043194","231.03","ATAR, MR","FM-15","4","29.94","50","95","","","","","22","","","","4.97","","040","","11","","","","","","","","","","","","","","","","","","","","","","","","","","","","","","","","","","","","","","","","","","","","","","","","","","","","","","","","","","","","","","","","","","","","","","","","","","","","","","","","","","","","","","","","","","","MET048METAR GQPA 261200Z 04010KT 8000 NSC 35/10 Q1014=","","","","","","","","","",""
"61421099999","2021-06-27T09:00:00","20.506828","-13.043194","231.03","ATAR, MR","FM-15","4","29.94","45","93","","","","","19","","","","4.35","","020","","7","","","","","","","","","","","","","","","","","","","","","","","","","","","","","","","","","","","","","","","","","","","","","","","","","","","","","","","","","","","","","","","","","","","","","","","","","","","","","","","","","","","","","","","","","","","MET048METAR GQPA 270900Z 02006KT 7000 NSC 34/07 Q1014=","","","","","","","","","",""
"61421099999","2021-06-27T12:00:00","20.506828","-13.043194","231.03","ATAR, MR","FM-15","4","29.91","50","99","","","","","19","","","","4.35","","020","","9","","","","","","","","","","","","","","","","","","","","","","","","","","","","","","","","","","","","","","","","","","","","","","","","","","","","","","","","","","","","","","","","","","","","","","","","","","","","","","","","","","","","","","","","","","","MET048METAR GQPA 271200Z 02008KT 7000 NSC 37/10 Q1013=","","","","","","","","","",""
"61421099999","2021-06-28T09:00:00","20.506828","-13.043194","231.03","ATAR, MR","FM-15","4","29.94","54","95","","","","","25","","","","4.97","","010","","14","","","","","","","","","","","","","","","","","","","","","","","","","","","","","","","","","","","","","","","","","","","","","","","","","","","","","","","","","","","","","","","","","","","","","","","","","","","","","","","","","","","","","","","","","","","MET048METAR GQPA 280900Z 01012KT 8000 NSC 35/12 Q1014=","","","","","","","","","",""
"61421099999","2021-06-28T12:00:00","20.506828","-13.043194","231.03","ATAR, MR","FM-15","4","29.94","57","102","","","","","23","","","","4.35","","040","","16","","","","","","","","","","","","","","","","","","","","","","","","","","","","","","","","","","","","","","","","","","","","","","","","","","","","","","","","","","","","","","","","","","","","","","","","","","","","","","","","","","","","","","","","","","","MET048METAR GQPA 281200Z 04014KT 7000 NSC 39/14 Q1014=","","","","","","","","","",""
"61421099999","2021-06-30T09:00:00","20.506828","-13.043194","231.03","ATAR, MR","FM-15","4","29.97","43","88","","","","","21","","","","4.35","","020","","9","","","","","","","","","","","","","","","","","","","","","","","","","","","","","","","","","","","","","","","","","","","","","","","","","","","","","","","","","","","","","","","","","","","","","","","","","","","","","","","","","","","","","","","","","","","MET048METAR GQPA 300900Z 02008KT 7000 NSC 31/06 Q1015=","","","","","","","","","",""
"61421099999","2021-06-30T12:00:00","20.506828","-13.043194","231.03","ATAR, MR","FM-15","4","29.94","50","99","","","","","19","","","","4.35","","020","","9","","","","","","","","","","","","","","","","","","","","","","","","","","","","","","","","","","","","","","","","","","","","","","","","","","","","","","","","","","","","","","","","","","","","","","","","","","","","","","","","","","","","","","","","","","","MET048METAR GQPA 301200Z 02008KT 7000 NSC 37/10 Q1014=","","","","","","","","","",""
"61421099999","2021-07-01T09:00:00","20.506828","-13.043194","231.03","ATAR, MR","FM-15","4","29.94","46","90","","","","","22","","","","4.35","","020","","16","","","","","","","","","","","","","","","","","","","","","","","","","","","","","","","","","","","","","","","","","","","","","","","","","","","","","","","","","","","","","","","","","","","","","","","","","","","","","","","","","","","","","","","","","","","MET052METAR COR GQPA 010900Z 02014KT 7000 NSC 32/08 Q1014=","","","","","","","","","",""
"61421099999","2021-07-02T09:00:00","20.506828","-13.043194","231.03","ATAR, MR","FM-15","4","29.97","46","93","","","","","20","","","","4.97","","180","","7","","","","","","","","","","","","","","","","","","","","","","","","","","","","","","","","","","","","","","","","","","","","","","","","","","","","","","","","","","","","","","","","","","","","","","","","","","","","","","","","","","","","","","","","","","","MET048METAR GQPA 020900Z 18006KT 8000 NSC 34/08 Q1015=","","","","","","","","","",""
"61421099999","2021-07-02T12:00:00","20.506828","-13.043194","231.03","ATAR, MR","FM-15","4","29.94","52","99","","","","","21","","","","4.35","","060","","9","","","","","","","","","","","","","","","","","","","","","","","","","","","","","","","","","","","","","","","","","","","","","","","","","","","","","","","","","","","","","","","","","","","","","","","","","","","","","","","","","","","","","","","","","","","MET048METAR GQPA 021200Z 06008KT 7000 NSC 37/11 Q1014=","","","","","","","","","",""
"61421099999","2021-07-04T09:00:00","20.506828","-13.043194","231.03","ATAR, MR","FM-15","4","29.91","52","95","","||DU","","","23","","","","2.49","","360","","9","","","","","","","","","","","","","","","","","","","","","","","","","","","","","","","","","","","","","","","","","","","","","","","","","","","","","","","","","","","","","","","","","","","","","","","","","","","","","","","","","","","","","","","","","","","MET053METAR GQPA 040900Z 36008KT 4000 BLDU NSC 35/11 Q1013=","","","","","","","","","",""
"61421099999","2021-07-05T09:00:00","20.506828","-13.043194","231.03","ATAR, MR","FM-15","4","29.97","50","93","","||DU","","","23","","","","3.73","","VRB","","7","","","","","","","","","","","","","","","","","","","","","","","","","","","","","","","","","","","","","","","","","","","","","","","","","","","","","","","","","","","","","","","","","","","","","","","","","","","","","","","","","","","","","","","","","","","MET051METAR GQPA 050900Z VRB06KT 6000 DU NSC 34/10 Q1015=","","","","","","","","","",""
"61421099999","2021-07-06T12:00:00","20.506828","-13.043194","231.03","ATAR, MR","FM-15","4","30.00","54","95","","","","","25","","","","4.35","","VRB","","7","","","","","","","","","","","","","","","","","","","","","","","","","","","","","","","","","","","","","","","","","","","","","","","","","","","","","","","","","","","","","","","","","","","","","","","","","","","","","","","","","","","","","","","","","","","MET048METAR GQPA 061200Z VRB06KT 7000 NSC 35/12 Q1016=","","","","","","","","","",""
"61421099999","2021-07-08T09:00:00","20.506828","-13.043194","231.03","ATAR, MR","FM-15","4","29.91","","","","","","","","","","","4.35","","020","","11","","","","","","","","","","","","","","","","","","","","","","","","","","","","","","","","","","","","","","","","","","","","","","","","","","","","","","","","","","","","","","","","","","","","","","","","","","","","","","","","","","","","","","","","","","","MET048METAR GQPA 080900Z 02010KT 7000 NSC ///// Q1013=","","","","","","","","","",""
"61421099999","2021-07-08T12:00:00","20.506828","-13.043194","231.03","ATAR, MR","FM-15","4","29.88","54","100","","||DU","","","21","","","","3.11","","020","","16","","","","","","","","","","","","","","","","","","","","","","","","","","","","","","","","","","","","","","","","","","","","","","","","","","","","","","","","","","","","","","","","","","","","","","","","","","","","","","","","","","","","","","","","","","","MET053METAR GQPA 081200Z 02014KT 5000 BLDU NSC 38/12 Q1012=","","","","","","","","","",""
"61421099999","2021-07-09T09:00:00","20.506828","-13.043194","231.03","ATAR, MR","FM-15","4","29.85","46","82","","","","","28","","","","4.35","","040","","11","","","","","","","","","","","","","","","","","","","","","","","","","","","","","","","","","","","","","","","","","","","","","","","","","","","","","","","","","","","","","","","","","","","","","","","","","","","","","","","","","","","","","","","","","","","MET048METAR GQPA 090900Z 04010KT 7000 NSC 28/08 Q1011=","","","","","","","","","",""
"61421099999","2021-07-09T18:00:00","20.506828","-13.043194","231.03","ATAR, MR","FM-15","4","29.80","50","102","","","","","17","","","","4.35","","VRB","","5","","","","","","","","","","","","","","","","","","","","","","","","","","","","","","","","","","","","","","","","","","","","","","","","","","","","","","","","","","","","","","","","","","","","","","","","","","","","","","","","","","","","","","","","","","","MET048METAR GQPA 091800Z VRB04KT 7000 NSC 39/10 Q1009=","","","","","","","","","",""
"61421099999","2021-07-10T09:00:00","20.506828","-13.043194","231.03","ATAR, MR","FM-15","4","29.88","43","84","","","","","23","","","","4.97","","060","","9","","","","","","","","","","","","","","","","","","","","","","","","","","","","","","","","","","","","","","","","","","","","","","","","","","","","","","","","","","","","","","","","","","","","","","","","","","","","","","","","","","","","","","","","","","","MET048METAR GQPA 100900Z 06008KT 8000 NSC 29/06 Q1012=","","","","","","","","","",""
"61421099999","2021-07-12T12:00:00","20.506828","-13.043194","231.03","ATAR, MR","FM-15","4","30.03","52","99","","","","","21","","","","4.97","","020","","9","","","","","","","","","","","","","","","","","","","","","","","","","","","","","","","","","","","","","","","","","","","","","","","","","","","","","","","","","","","","","","","","","","","","","","","","","","","","","","","","","","","","","","","","","","","MET048METAR GQPA 121200Z 02008KT 8000 NSC 37/11 Q1017=","","","","","","","","","",""
"61421099999","2021-07-13T09:00:00","20.506828","-13.043194","231.03","ATAR, MR","FM-15","4","29.94","48","95","","","","","20","","","","4.35","","000","","0","","","","","","","","","","","","","","","","","","","","","","","","","","","","","","","","","","","","","","","","","","","","","","","","","","","","","","","","","","","","","","","","","","","","","","","","","","","","","","","","","","","","","","","","","","","MET048METAR GQPA 130900Z 00000KT 7000 NSC 35/09 Q1014=","","","","","","","","","",""
"61421099999","2021-07-14T09:00:00","20.506828","-13.043194","231.03","ATAR, MR","FM-15","4","29.83","54","97","","||DU","","","23","","","","1.24","","180","","7","","","","","","","","","","","","","","","","","","","","","","","","","","","","","","","","","","","","","","","","","","","","","","","","","","","","","","","","","","","","","","","","","","","","","","","","","","","","","","","","","","","","","","","","","","","MET053METAR GQPA 140900Z 18006KT 2000 DRDU NSC 36/12 Q1010=","","","","","","","","","",""
"61421099999","2021-07-14T12:00:00","20.506828","-13.043194","231.03","ATAR, MR","FM-15","4","29.83","57","100","","||DU","","","24","","","","2.49","","180","","9","","","","","","","","","","","","","","","","","","","","","","","","","","","","","","","","","","","","","","","","","","","","","","","","","","","","","","","","","","","","","","","","","","","","","","","","","","","","","","","","","","","","","","","","","","","MET053METAR GQPA 141200Z 18008KT 4000 DRDU NSC 38/14 Q1010=","","","","","","","","","",""
"61421099999","2021-07-16T09:00:00","20.506828","-13.043194","231.03","ATAR, MR","FM-15","4","29.91","46","82","","","","","28","","","","4.35","","VRB","","9","","","","","","","","","","","","","","","","","","","","","","","","","","","","","","","","","","","","","","","","","","","","","","","","","","","","","","","","","","","","","","","","","","","","","","","","","","","","","","","","","","","","","","","","","","","MET048METAR GQPA 160900Z VRB08KT 7000 NSC 28/08 Q1013=","","","","","","","","","",""
"61421099999","2021-07-16T15:00:00","20.506828","-13.043194","231.03","ATAR, MR","FM-15","4","29.85","55","100","","","","","22","","","","4.35","","VRB","","9","","","","","","","","","","","","","","","","","","","","","","","","","","","","","","","","","","","","","","","","","","","","","","","","","","","","","","","","","","","","","","","","","","","","","","","","","","","","","","","","","","","","","","","","","","","MET048METAR GQPA 161500Z VRB08KT 7000 NSC 38/13 Q1011=","","","","","","","","","",""
"61421099999","2021-07-17T09:00:00","20.506828","-13.043194","231.03","ATAR, MR","FM-15","4","29.97","50","88","","","","","27","","","","4.35","","000","","0","","","","","","","","","","","","","","","","","","","","","","","","","","","","","","","","","","","","","","","","","","","","","","","","","","","","","","","","","","","","","","","","","","","","","","","","","","","","","","","","","","","","","","","","","","","MET048METAR GQPA 170900Z 00000KT 7000 NSC 31/10 Q1015=","","","","","","","","","",""
"61421099999","2021-07-17T12:00:00","20.506828","-13.043194","231.03","ATAR, MR","FM-15","4","29.97","52","95","","","","","23","","","","4.35","","180","","9","","","","","","","","","","","","","","","","","","","","","","","","","","","","","","","","","","","","","","","","","","","","","","","","","","","","","","","","","","","","","","","","","","","","","","","","","","","","","","","","","","","","","","","","","","","MET048METAR GQPA 171200Z 18008KT 7000 NSC 35/11 Q1015=","","","","","","","","","",""
"61421099999","2021-07-18T09:00:00","20.506828","-13.043194","231.03","ATAR, MR","FM-15","4","29.97","57","95","","","","","28","","","","4.97","","280","","5","","","","","","","","","","","","","","","","","","","","","","","","","","","","","","","","","","","","","","","","","","","","","","","","","","","","","","","","","","","","","","","","","","","","","","","","","","","","","","","","","","","","","","","","","","","MET048METAR GQPA 180900Z 28004KT 8000 NSC 35/14 Q1015=","","","","","","","","","",""
"61421099999","2021-07-18T12:00:00","20.506828","-13.043194","231.03","ATAR, MR","FM-15","4","30.00","57","100","","","","","24","","","","4.97","","280","","7","","","","","","","","","","","","","","","","","","","","","","","","","","","","","","","","","","","","","","","","","","","","","","","","","","","","","","","","","","","","","","","","","","","","","","","","","","","","","","","","","","","","","","","","","","","MET048METAR GQPA 181200Z 28006KT 8000 NSC 38/14 Q1016=","","","","","","","","","",""
"61421099999","2021-07-18T15:00:00","20.506828","-13.043194","231.03","ATAR, MR","FM-15","4","29.85","64","111","","","","","22","","","","4.97","","320","","16","","","","","","","","","","","","","","","","","","","","","","","","","","","","","","","","","","","","","","","","","","","","","","","","","","","","","","","","","","","","","","","","","","","","","","","","","","","","","","","","","","","","","","","","","","","MET048METAR GQPA 181500Z 32014KT 8000 NSC 44/18 Q1011=","","","","","","","","","",""
"61421099999","2021-07-18T18:00:00","20.506828","-13.043194","231.03","ATAR, MR","FM-15","4","29.83","48","111","","","","","12","","","","4.97","","360","","21","","","","","","","","","","","","","","","","","","","","","","","","","","","","","","","","","","","","","","","","","","","","","","","","","","","","","","","","","","","","","","","","","","","","","","","","","","","","","","","","","","","","","","","","","","","MET048METAR GQPA 181800Z 36018KT 8000 NSC 44/09 Q1010=","","","","","","","","","",""
"61421099999","2021-07-19T09:00:00","20.506828","-13.043194","231.03","ATAR, MR","FM-15","4","29.97","50","99","","","","","19","","","","4.35","","360","","5","","","","","","","","","","","","","","","","","","","","","","","","","","","","","","","","","","","","","","","","","","","","","","","","","","","","","","","","","","","","","","","","","","","","","","","","","","","","","","","","","","","","","","","","","","","MET048METAR GQPA 190900Z 36004KT 7000 NSC 37/10 Q1015=","","","","","","","","","",""
"61421099999","2021-07-19T12:00:00","20.506828","-13.043194","231.03","ATAR, MR","FM-15","4","29.97","59","108","","||DU","","","20","","","","3.11","","360","","24","","","","","","","","","","","","","","","","","","","","","","","","","","","","","","","","","","","","","","","","","","","","","","","","","","","","","","","","","","","","","","","","","","","","","","","","","","","","","","","","","","","","","","","","","","","MET053METAR GQPA 191200Z 36021KT 5000 BLSA NSC 42/15 Q1015=","","","","","","","","","",""
"61421099999","2021-07-19T18:00:00","20.506828","-13.043194","231.03","ATAR, MR","FM-15","4","29.83","64","113","","||DU","","","21","","","","3.73","","360","","21","","","","","","","","","","","","","","","","","","","","","","","","","","","","","","","","","","","","","","","","","","","","","","","","","","","","","","","","","","","","","","","","","","","","","","","","","","","","","","","","","","","","","","","","","","","MET053METAR GQPA 191800Z 36018KT 6000 BLDU NSC 45/18 Q1010=","","","","","","","","","",""
"61421099999","2021-07-20T09:00:00","20.506828","-13.043194","231.03","ATAR, MR","FM-15","4","29.94","54","90","","","","","29","","","","4.35","","000","","0","","","","","","","","","","","","","","","","","","","","","","","","","","","","","","","","","","","","","","","","","","","","","","","","","","","","","","","","","","","","","","","","","","","","","","","","","","","","","","","","","","","","","","","","","","","MET048METAR GQPA 200900Z 00000KT 7000 NSC 32/12 Q1014=","","","","","","","","","",""
"61421099999","2021-07-20T12:00:00","20.506828","-13.043194","231.03","ATAR, MR","FM-15","4","29.94","54","90","","","","","29","","","","4.35","","360","","11","","","","","","","","","","","","","","","","","","","","","","","","","","","","","","","","","","","","","","","","","","","","","","","","","","","","","","","","","","","","","","","","","","","","","","","","","","","","","","","","","","","","","","","","","","","MET048METAR GQPA 201200Z 36010KT 7000 NSC 32/12 Q1014=","","","","","","","","","",""
"61421099999","2021-07-22T12:00:00","20.506828","-13.043194","231.03","ATAR, MR","FM-15","4","29.97","54","84","","","","","35","","","","4.97","","020","","11","","","","","","","","","","","","","","","","","","","","","","","","","","","","","","","","","","","","","","","","","","","","","","","","","","","","","","","","","","","","","","","","","","","","","","","","","","","","","","","","","","","","","","","","","","","MET048METAR GQPA 221200Z 02010KT 8000 NSC 29/12 Q1015=","","","","","","","","","",""
"61421099999","2021-07-22T15:00:00","20.506828","-13.043194","231.03","ATAR, MR","FM-15","4","29.88","72","100","","","","","40","","","","4.97","","350","","11","","","","","","","","","","","","","","","","","","","","","","","","","","","","","","","","","","","","","","","","","","","","","","","","","","","","","","","","","","","","","","","","","","","","","","","","","","","","","","","","","","","","","","","","","","","MET048METAR GQPA 221500Z 35010KT 8000 NSC 38/22 Q1012=","","","","","","","","","",""
"61421099999","2021-07-23T09:00:00","20.506828","-13.043194","231.03","ATAR, MR","FM-15","4","29.94","64","84","","","","","51","","","","4.97","","360","","7","","","","","","","","","","","","","","","","","","","","","","","","","","","","","","","","","","","","","","","","","","","","","","","","","","","","","","","","","","","","","","","","","","","","","","","","","","","","","","","","","","","","","","","","","","","MET048METAR GQPA 230900Z 36006KT 8000 NSC 29/18 Q1014=","","","","","","","","","",""
"61421099999","2021-07-24T09:00:00","20.506828","-13.043194","231.03","ATAR, MR","FM-15","4","29.97","57","82","","","","","42","","","","4.97","","100","","11","","","","","","","","","","","","","","","","","","","","","","","","","","","","","","","","","","","","","","","","","","","","","","","","","","","","","","","","","","","","","","","","","","","","","","","","","","","","","","","","","","","","","","","","","","","MET048METAR GQPA 240900Z 10010KT 8000 NSC 28/14 Q1015=","","","","","","","","","",""
"61421099999","2021-07-25T09:00:00","20.506828","-13.043194","231.03","ATAR, MR","FM-15","4","29.94","59","91","","","","","34","","","","4.97","","360","","9","","","","","","","","","","","","","","","","","","","","","","","","","","","","","","","","","","","","","","","","","","","","","","","","","","","","","","","","","","","","","","","","","","","","","","","","","","","","","","","","","","","","","","","","","","","MET048METAR GQPA 250900Z 36008KT 8000 NSC 33/15 Q1014=","","","","","","","","","",""
"61421099999","2021-07-25T12:00:00","20.506828","-13.043194","231.03","ATAR, MR","FM-15","4","29.91","52","104","","","","","17","","","","4.97","","360","","11","","","","","","","","","","","","","","","","","","","","","","","","","","","","","","","","","","","","","","","","","","","","","","","","","","","","","","","","","","","","","","","","","","","","","","","","","","","","","","","","","","","","","","","","","","","MET048METAR GQPA 251200Z 36010KT 8000 NSC 40/11 Q1013=","","","","","","","","","",""
"61421099999","2021-07-27T18:00:00","20.506828","-13.043194","231.03","ATAR, MR","FM-15","4","29.77","55","108","","","","","18","","","","4.35","","360","","7","","","","","","","","","","","","","","","","","","","","","","","","","","","","","","","","","","","","","","","","","","","","","","","","","","","","","","","","","","","","","","","","","","","","","","","","","","","","","","","","","","","","","","","","","","","MET048METAR GQPA 271800Z 36006KT 7000 NSC 42/13 Q1008=","","","","","","","","","",""
"61421099999","2021-07-28T12:00:00","20.506828","-13.043194","231.03","ATAR, MR","FM-15","4","29.85","57","104","","","","","21","","","","4.97","","360","","11","","","","","","","","","","","","","","","","","","","","","","","","","","","","","","","","","","","","","","","","","","","","","","","","","","","","","","","","","","","","","","","","","","","","","","","","","","","","","","","","","","","","","","","","","","","MET048METAR GQPA 281200Z 36010KT 8000 NSC 40/14 Q1011=","","","","","","","","","",""
"61421099999","2021-07-29T09:00:00","20.506828","-13.043194","231.03","ATAR, MR","FM-15","4","29.88","59","90","","","","","36","","","","4.97","","180","","9","","","","","","","","","","","","","","","","","","","","","","","","","","","","","","","","","","","","","","","","","","","","","","","","","","","","","","","","","","","","","","","","","","","","","","","","","","","","","","","","","","","","","","","","","","","MET048METAR GQPA 290900Z 18008KT 8000 NSC 32/15 Q1012=","","","","","","","","","",""
"61421099999","2021-07-30T12:00:00","20.506828","-13.043194","231.03","ATAR, MR","FM-15","4","29.94","39","100","","","","","12","","","","4.97","","220","","7","","","","","","","","","","","","","","","","","","","","","","","","","","","","","","","","","","","","","","","","","","","","","","","","","","","","","","","","","","","","","","","","","","","","","","","","","","","","","","","","","","","","","","","","","","","MET048METAR GQPA 301200Z 22006KT 8000 NSC 38/04 Q1014=","","","","","","","","","",""
"61421099999","2021-07-30T15:00:00","20.506828","-13.043194","231.03","ATAR, MR","FM-15","4","29.88","43","106","","","","","12","","","","4.97","","000","","0","","","","","","","","","","","","","","","","","","","","","","","","","","","","","","","","","","","","","","","","","","","","","","","","","","","","","","","","","","","","","","","","","","","","","","","","","","","","","","","","","","","","","","","","","","","MET048METAR GQPA 301500Z 00000KT 8000 NSC 41/06 Q1012=","","","","","","","","","",""
"61421099999","2021-08-01T09:00:00","20.506828","-13.043194","231.03","ATAR, MR","FM-15","4","29.91","59","91","","","","","34","","","","4.97","","220","","7","","","","","","","","","","","","","","","","","","","","","","","","","","","","","","","","","","","","","","","","","","","","","","","","","","","","","","","","","","","","","","","","","","","","","","","","","","","","","","","","","","","","","","","","","","","MET048METAR GQPA 010900Z 22006KT 8000 NSC 33/15 Q1013=","","","","","","","","","",""
"61421099999","2021-08-01T12:00:00","20.506828","-13.043194","231.03","ATAR, MR","FM-15","4","29.94","57","99","","","","","25","","","","4.97","","280","","11","","","","","","","","","","","","","","","","","","","","","","","","","","","","","","","","","","","","","","","","","","","","","","","","","","","","","","","","","","","","","","","","","","","","","","","","","","","","","","","","","","","","","","","","","","","MET048METAR GQPA 011200Z 28010KT 8000 NSC 37/14 Q1014=","","","","","","","","","",""
"61421099999","2021-08-02T09:00:00","20.506828","-13.043194","231.03","ATAR, MR","FM-15","4","29.91","59","90","","","","","36","","","","4.97","","320","","7","","","","","","","","","","","","","","","","","","","","","","","","","","","","","","","","","","","","","","","","","","","","","","","","","","","","","","","","","","","","","","","","","","","","","","","","","","","","","","","","","","","","","","","","","","","MET048METAR GQPA 020900Z 32006KT 8000 NSC 32/15 Q1013=","","","","","","","","","",""
"61421099999","2021-08-02T12:00:00","20.506828","-13.043194","231.03","ATAR, MR","FM-15","4","29.94","57","100","","","","","24","","","","4.97","","200","","17","","","","","","","","","","","","","","","","","","","","","","","","","","","","","","","","","","","","","","","","","","","","","","","","","","","","","","","","","","","","","","","","","","","","","","","","","","","","","","","","","","","","","","","","","","","MET048METAR GQPA 021200Z 20015KT 8000 NSC 38/14 Q1014=","","","","","","","","","",""
"61421099999","2021-08-03T09:00:00","20.506828","-13.043194","231.03","ATAR, MR","FM-15","4","30.00","57","90","","","","","33","","","","4.97","","280","","11","","","","","","","","","","","","","","","","","","","","","","","","","","","","","","","","","","","","","","","","","","","","","","","","","","","","","","","","","","","","","","","","","","","","","","","","","","","","","","","","","","","","","","","","","","","MET048METAR GQPA 030900Z 28010KT 8000 NSC 32/14 Q1016=","","","","","","","","","",""
"61421099999","2021-08-03T12:00:00","20.506828","-13.043194","231.03","ATAR, MR","FM-15","4","30.00","57","99","","","","","25","","","","4.97","","280","","14","","","","","","","","","","","","","","","","","","","","","","","","","","","","","","","","","","","","","","","","","","","","","","","","","","","","","","","","","","","","","","","","","","","","","","","","","","","","","","","","","","","","","","","","","","","MET048METAR GQPA 031200Z 28012KT 8000 NSC 37/14 Q1016=","","","","","","","","","",""
"61421099999","2021-08-04T09:00:00","20.506828","-13.043194","231.03","ATAR, MR","FM-15","4","30.00","59","90","","","","","36","","","","4.97","","180","","11","","","","","","","","","","","","","","","","","","","","","","","","","","","","","","","","","","","","","","","","","","","","","","","","","","","","","","","","","","","","","","","","","","","","","","","","","","","","","","","","","","","","","","","","","","","MET048METAR GQPA 040900Z 18010KT 8000 NSC 32/15 Q1016=","","","","","","","","","",""
"61421099999","2021-08-04T15:00:00","20.506828","-13.043194","231.03","ATAR, MR","FM-15","4","29.97","63","104","","","","","26","","","","3.73","","000","","0","","","","","","","","","","","","","","","","","","","","","","","","","","","","","","","","","","","","","","","","","","","","","","","","","","","","","","","","","","","","","","","","","","","","","","","","","","","","","","","","","","","","","","","","","","","MET048METAR GQPA 041500Z 00000KT 6000 NSC 40/17 Q1015=","","","","","","","","","",""
"61421099999","2021-08-05T18:00:00","20.506828","-13.043194","231.03","ATAR, MR","FM-15","4","29.91","61","100","","","","","27","","","","4.97","","360","","11","","","","","","","","","","","","","","","","","","","","","","","","","","","","","","","","","","","","","","","","","","","","","","","","","","","","","","","","","","","","","","","","","","","","","","","","","","","","","","","","","","","","","","","","","","","MET048METAR GQPA 051800Z 36010KT 8000 NSC 38/16 Q1013=","","","","","","","","","",""
"61421099999","2021-08-06T09:00:00","20.506828","-13.043194","231.03","ATAR, MR","FM-15","4","29.97","52","91","","","","","26","","","","4.97","","000","","0","","","","","","","","","","","","","","","","","","","","","","","","","","","","","","","","","","","","","","","","","","","","","","","","","","","","","","","","","","","","","","","","","","","","","","","","","","","","","","","","","","","","","","","","","","","MET048METAR GQPA 060900Z 00000KT 8000 NSC 33/11 Q1015=","","","","","","","","","",""
"61421099999","2021-08-06T12:00:00","20.506828","-13.043194","231.03","ATAR, MR","FM-15","4","29.94","54","99","","","","","22","","","","4.97","","180","","7","","","","","","","","","","","","","","","","","","","","","","","","","","","","","","","","","","","","","","","","","","","","","","","","","","","","","","","","","","","","","","","","","","","","","","","","","","","","","","","","","","","","","","","","","","","MET048METAR GQPA 061200Z 18006KT 8000 NSC 37/12 Q1014=","","","","","","","","","",""
"61421099999","2021-08-07T09:00:00","20.506828","-13.043194","231.03","ATAR, MR","FM-15","4","30.03","50","86","","","","","29","","","","4.35","","VRB","","11","","","","","","","","","","","","","","","","","","","","","","","","","","","","","","","","","","","","","","","","","","","","","","","","","","","","","","","","","","","","","","","","","","","","","","","","","","","","","","","","","","","","","","","","","","","MET048METAR GQPA 070900Z VRB10KT 7000 NSC 30/10 Q1017=","","","","","","","","","",""
"61421099999","2021-08-08T09:00:00","20.506828","-13.043194","231.03","ATAR, MR","FM-15","4","30.03","50","88","","","","","27","","","","4.97","","VRB","","7","","","","","","","","","","","","","","","","","","","","","","","","","","","","","","","","","","","","","","","","","","","","","","","","","","","","","","","","","","","","","","","","","","","","","","","","","","","","","","","","","","","","","","","","","","","MET048METAR GQPA 080900Z VRB06KT 8000 NSC 31/10 Q1017=","","","","","","","","","",""
"61421099999","2021-08-08T18:00:00","20.506828","-13.043194","231.03","ATAR, MR","FM-15","4","29.91","57","102","","","","","23","","","","4.97","","VRB","","5","","","","","","","","","","","","","","","","","","","","","","","","","","","","","","","","","","","","","","","","","","","","","","","","","","","","","","","","","","","","","","","","","","","","","","","","","","","","","","","","","","","","","","","","","","","MET048METAR GQPA 081800Z VRB04KT 8000 NSC 39/14 Q1013=","","","","","","","","","",""
"61421099999","2021-08-09T09:00:00","20.506828","-13.043194","231.03","ATAR, MR","FM-15","4","30.00","50","88","","","","","27","","","","4.97","","360","","9","","","","","","","","","","","","","","","","","","","","","","","","","","","","","","","","","","","","","","","","","","","","","","","","","","","","","","","","","","","","","","","","","","","","","","","","","","","","","","","","","","","","","","","","","","","MET052METAR COR GQPA 090900Z 36008KT 8000 NSC 31/10 Q1016=","","","","","","","","","",""
"61421099999","2021-08-09T12:00:00","20.506828","-13.043194","231.03","ATAR, MR","FM-15","4","29.97","52","97","","","","","22","","","","4.97","","360","","11","","","","","","","","","","","","","","","","","","","","","","","","","","","","","","","","","","","","","","","","","","","","","","","","","","","","","","","","","","","","","","","","","","","","","","","","","","","","","","","","","","","","","","","","","","","MET048METAR GQPA 091200Z 36010KT 8000 NSC 36/11 Q1015=","","","","","","","","","",""
"61421099999","2021-08-10T09:00:00","20.506828","-13.043194","231.03","ATAR, MR","FM-15","4","29.97","52","90","","","","","27","","","","4.97","","360","","9","","","","","","","","","","","","","","","","","","","","","","","","","","","","","","","","","","","","","","","","","","","","","","","","","","","","","","","","","","","","","","","","","","","","","","","","","","","","","","","","","","","","","","","","","","","MET048METAR GQPA 100900Z 36008KT 8000 NSC 32/11 Q1015=","","","","","","","","","",""
"61421099999","2021-08-10T18:00:00","20.506828","-13.043194","231.03","ATAR, MR","FM-15","4","29.91","57","100","","","","","24","","","","4.97","","360","","11","","","","","","","","","","","","","","","","","","","","","","","","","","","","","","","","","","","","","","","","","","","","","","","","","","","","","","","","","","","","","","","","","","","","","","","","","","","","","","","","","","","","","","","","","","","MET048METAR GQPA 101800Z 36010KT 8000 NSC 38/14 Q1013=","","","","","","","","","",""
"61421099999","2021-08-12T09:00:00","20.506828","-13.043194","231.03","ATAR, MR","FM-15","4","29.94","48","90","","","","","24","","","","4.97","","020","","7","","","","","","","","","","","","","","","","","","","","","","","","","","","","","","","","","","","","","","","","","","","","","","","","","","","","","","","","","","","","","","","","","","","","","","","","","","","","","","","","","","","","","","","","","","","MET048METAR GQPA 120900Z 02006KT 8000 NSC 32/09 Q1014=","","","","","","","","","",""
"61421099999","2021-08-12T12:00:00","20.506828","-13.043194","231.03","ATAR, MR","FM-15","4","29.91","52","97","","","","","22","","","","4.97","","020","","9","","","","","","","","","","","","","","","","","","","","","","","","","","","","","","","","","","","","","","","","","","","","","","","","","","","","","","","","","","","","","","","","","","","","","","","","","","","","","","","","","","","","","","","","","","","MET048METAR GQPA 121200Z 02008KT 8000 NSC 36/11 Q1013=","","","","","","","","","",""
"61421099999","2021-08-13T09:00:00","20.506828","-13.043194","231.03","ATAR, MR","FM-15","4","30.00","48","91","","","","","23","","","","4.97","","020","","9","","","","","","","","","","","","","","","","","","","","","","","","","","","","","","","","","","","","","","","","","","","","","","","","","","","","","","","","","","","","","","","","","","","","","","","","","","","","","","","","","","","","","","","","","","","MET048METAR GQPA 130900Z 02008KT 8000 NSC 33/09 Q1016=","","","","","","","","","",""
"61421099999","2021-08-14T09:00:00","20.506828","-13.043194","231.03","ATAR, MR","FM-15","4","29.97","50","95","","","","","22","","","","4.35","","000","","0","","","","","","","","","","","","","","","","","","","","","","","","","","","","","","","","","","","","","","","","","","","","","","","","","","","","","","","","","","","","","","","","","","","","","","","","","","","","","","","","","","","","","","","","","","","MET048METAR GQPA 140900Z 00000KT 7000 NSC 35/10 Q1015=","","","","","","","","","",""
"61421099999","2021-08-15T09:00:00","20.506828","-13.043194","231.03","ATAR, MR","FM-15","4","29.91","48","90","","||DU","","","24","","","","3.11","","280","","18","","","","","","","","","","","","","","","","","","","","","","","","","","","","","","","","","","","","","","","","","","","","","","","","","","","","","","","","","","","","","","","","","","","","","","","","","","","","","","","","","","","","","","","","","","","MET053METAR GQPA 150900Z 28016KT 5000 BLSA NSC 32/09 Q1013=","","","","","","","","","",""
"61421099999","2021-08-15T12:00:00","20.506828","-13.043194","231.03","ATAR, MR","FM-15","4","29.91","52","97","","||DU","","","22","","","","3.11","","280","","14","","","","","","","","","","","","","","","","","","","","","","","","","","","","","","","","","","","","","","","","","","","","","","","","","","","","","","","","","","","","","","","","","","","","","","","","","","","","","","","","","","","","","","","","","","","MET053METAR GQPA 151200Z 28012KT 5000 DRSA NSC 36/11 Q1013=","","","","","","","","","",""
"61421099999","2021-08-16T09:00:00","20.506828","-13.043194","231.03","ATAR, MR","FM-15","4","29.85","50","90","","||DU","","","26","","","","2.49","","VRB","","5","","","","","","","","","","","","","","","","","","","","","","","","","","","","","","","","","","","","","","","","","","","","","","","","","","","","","","","","","","","","","","","","","","","","","","","","","","","","","","","","","","","","","","","","","","","MET053METAR GQPA 160900Z VRB04KT 4000 DRDU NSC 32/10 Q1011=","","","","","","","","","",""
"61421099999","2021-08-16T12:00:00","20.506828","-13.043194","231.03","ATAR, MR","FM-15","4","","50","99","","||DU","","","19","","","","3.11","","VRB","","11","","","","","","","","","","","","","","","","","","","","","","","","","","","","","","","","","","","","","","","","","","","","","","","","","","","","","","","","","","","","","","","","","","","","","","","","","","","","","","","","","","","","","","","","","","","MET053METAR GQPA 161200Z VRB10KT 5000 DRDU NSC 37/10 Q2011=","","","","","","","","","",""
"61421099999","2021-08-18T09:00:00","20.506828","-13.043194","231.03","ATAR, MR","FM-15","4","29.97","48","86","","","","","27","","","","4.35","","180","","11","","","","","","","","","","","","","","","","","","","","","","","","","","","","","","","","","","","","","","","","","","","","","","","","","","","","","","","","","","","","","","","","","","","","","","","","","","","","","","","","","","","","","","","","","","","MET048METAR GQPA 180900Z 18010KT 7000 NSC 30/09 Q1015=","","","","","","","","","",""
"61421099999","2021-08-18T12:00:00","20.506828","-13.043194","231.03","ATAR, MR","FM-15","4","29.94","50","95","","","","","22","","","","4.35","","280","","14","","","","","","","","","","","","","","","","","","","","","","","","","","","","","","","","","","","","","","","","","","","","","","","","","","","","","","","","","","","","","","","","","","","","","","","","","","","","","","","","","","","","","","","","","","","MET048METAR GQPA 181200Z 28012KT 7000 NSC 35/10 Q1014=","","","","","","","","","",""
"61421099999","2021-08-19T09:00:00","20.506828","-13.043194","231.03","ATAR, MR","FM-15","4","29.88","52","91","","","","","26","","","","4.35","","000","","0","","","","","","","","","","","","","","","","","","","","","","","","","","","","","","","","","","","","","","","","","","","","","","","","","","","","","","","","","","","","","","","","","","","","","","","","","","","","","","","","","","","","","","","","","","","MET048METAR GQPA 190900Z 00000KT 7000 NSC 33/11 Q1012=","","","","","","","","","",""
"61421099999","2021-08-19T12:00:00","20.506828","-13.043194","231.03","ATAR, MR","FM-15","4","29.85","55","97","","","","","25","","","","4.35","","020","","9","","","","","","","","","","","","","","","","","","","","","","","","","","","","","","","","","","","","","","","","","","","","","","","","","","","","","","","","","","","","","","","","","","","","","","","","","","","","","","","","","","","","","","","","","","","MET052METAR COR GQPA 191200Z 02008KT 7000 NSC 36/13 Q1011=","","","","","","","","","",""
"61421099999","2021-08-20T09:00:00","20.506828","-13.043194","231.03","ATAR, MR","FM-15","4","29.94","46","91","","","","","21","","","","4.35","","140","","9","","","","","","","","","","","","","","","","","","","","","","","","","","","","","","","","","","","","","","","","","","","","","","","","","","","","","","","","","","","","","","","","","","","","","","","","","","","","","","","","","","","","","","","","","","","MET048METAR GQPA 200900Z 14008KT 7000 NSC 33/08 Q1014=","","","","","","","","","",""
"61421099999","2021-08-21T09:00:00","20.506828","-13.043194","231.03","ATAR, MR","FM-15","4","30.00","52","91","","","","","26","","","","4.35","","000","","0","","","","","","","","","","","","","","","","","","","","","","","","","","","","","","","","","","","","","","","","","","","","","","","","","","","","","","","","","","","","","","","","","","","","","","","","","","","","","","","","","","","","","","","","","","","MET052METAR COR GQPA 210900Z 00000KT 7000 NSC 33/11 Q1016=","","","","","","","","","",""
"61421099999","2021-08-21T15:00:00","20.506828","-13.043194","231.03","ATAR, MR","FM-15","4","29.94","55","100","","","","","22","","","","4.35","","020","","9","","","","","","","","","","","","","","","","","","","","","","","","","","","","","","","","","","","","","","","","","","","","","","","","","","","","","","","","","","","","","","","","","","","","","","","","","","","","","","","","","","","","","","","","","","","MET048METAR GQPA 211500Z 02008KT 7000 NSC 38/13 Q1014=","","","","","","","","","",""
"61421099999","2021-08-22T09:00:00","20.506828","-13.043194","231.03","ATAR, MR","FM-15","4","29.91","48","91","","||DU","","","23","","","","3.73","","040","","14","","","","","","","","","","","","","","","","","","","","","","","","","","","","","","","","","","","","","","","","","","","","","","","","","","","","","","","","","","","","","","","","","","","","","","","","","","","","","","","","","","","","","","","","","","","MET051METAR GQPA 220900Z 04012KT 6000 DU NSC 33/09 Q1013=","","","","","","","","","",""
"61421099999","2021-08-23T09:00:00","20.506828","-13.043194","231.03","ATAR, MR","FM-15","4","29.88","45","91","","","","","20","","","","4.35","","000","","0","","","","","","","","","","","","","","","","","","","","","","","","","","","","","","","","","","","","","","","","","","","","","","","","","","","","","","","","","","","","","","","","","","","","","","","","","","","","","","","","","","","","","","","","","","","MET048METAR GQPA 230900Z 00000KT 7000 NSC 33/07 Q1012=","","","","","","","","","",""
"61421099999","2021-08-23T12:00:00","20.506828","-13.043194","231.03","ATAR, MR","FM-15","4","29.85","50","97","","||DU","","","20","","","","3.73","","000","","0","","","","","","","","","","","","","","","","","","","","","","","","","","","","","","","","","","","","","","","","","","","","","","","","","","","","","","","","","","","","","","","","","","","","","","","","","","","","","","","","","","","","","","","","","","","MET051METAR GQPA 231200Z 00000KT 6000 DU NSC 36/10 Q1011=","","","","","","","","","",""
"61421099999","2021-08-24T09:00:00","20.506828","-13.043194","231.03","ATAR, MR","FM-15","4","29.91","50","93","","||DU","","","23","","","","3.11","","VRB","","2","","","","","","","","","","","","","","","","","","","","","","","","","","","","","","","","","","","","","","","","","","","","","","","","","","","","","","","","","","","","","","","","","","","","","","","","","","","","","","","","","","","","","","","","","","","MET051METAR GQPA 240900Z VRB02KT 5000 DU NSC 34/10 Q1013=","","","","","","","","","",""
"61421099999","2021-08-24T12:00:00","20.506828","-13.043194","231.03","ATAR, MR","FM-15","4","29.88","54","99","","","","","22","","","","4.35","","000","","0","","","","","","","","","","","","","","","","","","","","","","","","","","","","","","","","","","","","","","","","","","","","","","","","","","","","","","","","","","","","","","","","","","","","","","","","","","","","","","","","","","","","","","","","","","","MET048METAR GQPA 241200Z 00000KT 7000 NSC 37/12 Q1012=","","","","","","","","","",""
"61421099999","2021-08-28T09:00:00","20.506828","-13.043194","231.03","ATAR, MR","FM-15","4","30.00","48","90","","","","","24","","","","4.97","","VRB","","2","","","","","","","","","","","","","","","","","","","","","","","","","","","","","","","","","","","","","","","","","","","","","","","","","","","","","","","","","","","","","","","","","","","","","","","","","","","","","","","","","","","","","","","","","","","MET048METAR GQPA 280900Z VRB02KT 8000 NSC 32/09 Q1016=","","","","","","","","","",""
"61421099999","2021-08-30T09:00:00","20.506828","-13.043194","231.03","ATAR, MR","FM-15","4","29.91","50","91","","","","","24","","","","4.97","","020","","7","","","","","","","","","","","","","","","","","","","","","","","","","","","","","","","","","","","","","","","","","","","","","","","","","","","","","","","","","","","","","","","","","","","","","","","","","","","","","","","","","","","","","","","","","","","MET048METAR GQPA 300900Z 02006KT 8000 NSC 33/10 Q1013=","","","","","","","","","",""
"61421099999","2021-08-30T12:00:00","20.506828","-13.043194","231.03","ATAR, MR","FM-15","4","29.91","54","97","","","","","23","","","","4.35","","020","","11","","","","","","","","","","","","","","","","","","","","","","","","","","","","","","","","","","","","","","","","","","","","","","","","","","","","","","","","","","","","","","","","","","","","","","","","","","","","","","","","","","","","","","","","","","","MET048METAR GQPA 301200Z 02010KT 7000 NSC 36/12 Q1013=","","","","","","","","","",""
"61421099999","2021-09-01T09:00:00","20.506828","-13.043194","231.03","ATAR, MR","FM-15","4","30.00","48","90","","","","","24","","","","4.97","","060","","18","","","","","","","","","","","","","","","","","","","","","","","","","","","","","","","","","","","","","","","","","","","","","","","","","","","","","","","","","","","","","","","","","","","","","","","","","","","","","","","","","","","","","","","","","","","MET048METAR GQPA 010900Z 06016KT 8000 NSC 32/09 Q1016=","","","","","","","","","",""
"61421099999","2021-09-01T12:00:00","20.506828","-13.043194","231.03","ATAR, MR","FM-15","4","29.97","50","95","","","","","22","","","","4.97","","040","","11","","","","","","","","","","","","","","","","","","","","","","","","","","","","","","","","","","","","","","","","","","","","","","","","","","","","","","","","","","","","","","","","","","","","","","","","","","","","","","","","","","","","","","","","","","","MET048METAR GQPA 011200Z 04010KT 8000 NSC 35/10 Q1015=","","","","","","","","","",""
"61421099999","2021-09-01T15:00:00","20.506828","-13.043194","231.03","ATAR, MR","FM-15","4","29.91","54","100","","","","","21","","","","4.97","","VRB","","7","","","","","","","","","","","","","","","","","","","","","","","","","","","","","","","","","","","","","","","","","","","","","","","","","","","","","","","","","","","","","","","","","","","","","","","","","","","","","","","","","","","","","","","","","","","MET048METAR GQPA 011500Z VRB06KT 8000 NSC 38/12 Q1013=","","","","","","","","","",""
"61421099999","2021-09-02T09:00:00","20.506828","-13.043194","231.03","ATAR, MR","FM-15","4","29.97","50","93","","","","","23","","","","4.97","","020","","9","","","","","","","","","","","","","","","","","","","","","","","","","","","","","","","","","","","","","","","","","","","","","","","","","","","","","","","","","","","","","","","","","","","","","","","","","","","","","","","","","","","","","","","","","","","MET048METAR GQPA 020900Z 02008KT 8000 NSC 34/10 Q1015=","","","","","","","","","",""
"61421099999","2021-09-04T09:00:00","20.506828","-13.043194","231.03","ATAR, MR","FM-15","4","29.91","52","95","","","","","23","","","","4.35","","000","","0","","","","","","","","","","","","","","","","","","","","","","","","","","","","","","","","","","","","","","","","","","","","","","","","","","","","","","","","","","","","","","","","","","","","","","","","","","","","","","","","","","","","","","","","","","","MET048METAR GQPA 040900Z 00000KT 7000 NSC 35/11 Q1013=","","","","","","","","","",""
"61421099999","2021-09-05T09:00:00","20.506828","-13.043194","231.03","ATAR, MR","FM-15","4","29.97","52","95","","","","","23","","","","4.35","","180","","7","","","","","","","","","","","","","","","","","","","","","","","","","","","","","","","","","","","","","","","","","","","","","","","","","","","","","","","","","","","","","","","","","","","","","","","","","","","","","","","","","","","","","","","","","","","MET048METAR GQPA 050900Z 18006KT 7000 NSC 35/11 Q1015=","","","","","","","","","",""
"61421099999","2021-09-05T12:00:00","20.506828","-13.043194","231.03","ATAR, MR","FM-15","4","29.94","54","100","","","","","21","","","","4.35","","VRB","","9","","","","","","","","","","","","","","","","","","","","","","","","","","","","","","","","","","","","","","","","","","","","","","","","","","","","","","","","","","","","","","","","","","","","","","","","","","","","","","","","","","","","","","","","","","","MET048METAR GQPA 051200Z VRB08KT 7000 NSC 38/12 Q1014=","","","","","","","","","",""
"61421099999","2021-09-06T09:00:00","20.506828","-13.043194","231.03","ATAR, MR","FM-15","4","29.94","50","90","","","","","26","","","","4.35","","080","","5","","","","","","","","","","","","","","","","","","","","","","","","","","","","","","","","","","","","","","","","","","","","","","","","","","","","","","","","","","","","","","","","","","","","","","","","","","","","","","","","","","","","","","","","","","","MET048METAR GQPA 060900Z 08004KT 7000 NSC 32/10 Q1014=","","","","","","","","","",""
"61421099999","2021-09-06T12:00:00","20.506828","-13.043194","231.03","ATAR, MR","FM-15","4","29.94","50","95","","","","","22","","","","4.35","","VRB","","2","","","","","","","","","","","","","","","","","","","","","","","","","","","","","","","","","","","","","","","","","","","","","","","","","","","","","","","","","","","","","","","","","","","","","","","","","","","","","","","","","","","","","","","","","","","MET048METAR GQPA 061200Z VRB02KT 7000 NSC 35/10 Q1014=","","","","","","","","","",""
"61421099999","2021-09-07T09:00:00","20.506828","-13.043194","231.03","ATAR, MR","FM-15","4","29.91","54","91","","||DU","","","28","","","","1.86","","000","","0","","","","","","","","","","","","","","","","","","","","","","","","","","","","","","","","","","","","","","","","","","","","","","","","","","","","","","","","","","","","","","","","","","","","","","","","","","","","","","","","","","","","","","","","","","","MET051METAR GQPA 070900Z 00000KT 3000 DU NSC 33/12 Q1013=","","","","","","","","","",""
"61421099999","2021-09-07T12:00:00","20.506828","-13.043194","231.03","ATAR, MR","FM-15","4","29.88","55","99","","||DU","","","24","","","","3.11","","180","","9","","","","","","","","","","","","","","","","","","","","","","","","","","","","","","","","","","","","","","","","","","","","","","","","","","","","","","","","","","","","","","","","","","","","","","","","","","","","","","","","","","","","","","","","","","","MET051METAR GQPA 071200Z 18008KT 5000 DU NSC 37/13 Q1012=","","","","","","","","","",""
"61421099999","2021-09-08T09:00:00","20.506828","-13.043194","231.03","ATAR, MR","FM-15","4","29.97","54","95","","","","","25","","","","4.35","","100","","7","","","","","","","","","","","","","","","","","","","","","","","","","","","","","","","","","","","","","","","","","","","","","","","","","","","","","","","","","","","","","","","","","","","","","","","","","","","","","","","","","","","","","","","","","","","MET048METAR GQPA 080900Z 10006KT 7000 NSC 35/12 Q1015=","","","","","","","","","",""
"61421099999","2021-09-10T09:00:00","20.506828","-13.043194","231.03","ATAR, MR","FM-15","4","29.91","54","95","","","","","25","","","","4.35","","VRB","","3","","","","","","","","","","","","","","","","","","","","","","","","","","","","","","","","","","","","","","","","","","","","","","","","","","","","","","","","","","","","","","","","","","","","","","","","","","","","","","","","","","","","","","","","","","","MET048METAR GQPA 100900Z VRB03KT 7000 NSC 35/12 Q1013=","","","","","","","","","",""
"61421099999","2021-09-10T12:00:00","20.506828","-13.043194","231.03","ATAR, MR","FM-15","4","29.88","55","100","","","","","22","","","","4.35","","360","","9","","","","","","","","","","","","","","","","","","","","","","","","","","","","","","","","","","","","","","","","","","","","","","","","","","","","","","","","","","","","","","","","","","","","","","","","","","","","","","","","","","","","","","","","","","","MET048METAR GQPA 101200Z 36008KT 7000 NSC 38/13 Q1012=","","","","","","","","","",""
"61421099999","2021-09-11T09:00:00","20.506828","-13.043194","231.03","ATAR, MR","FM-15","4","30.06","57","95","","","","","28","","","","4.35","","000","","0","","","","","","","","","","","","","","","","","","","","","","","","","","","","","","","","","","","","","","","","","","","","","","","","","","","","","","","","","","","","","","","","","","","","","","","","","","","","","","","","","","","","","","","","","","","MET048METAR GQPA 110900Z 00000KT 7000 NSC 35/14 Q1018=","","","","","","","","","",""
"61421099999","2021-09-13T09:00:00","20.506828","-13.043194","231.03","ATAR, MR","FM-15","4","29.97","48","90","","","","","24","","","","4.35","","040","","11","","","","","","","","","","","","","","","","","","","","","","","","","","","","","","","","","","","","","","","","","","","","","","","","","","","","","","","","","","","","","","","","","","","","","","","","","","","","","","","","","","","","","","","","","","","MET048METAR GQPA 130900Z 04010KT 7000 NSC 32/09 Q1015=","","","","","","","","","",""
"61421099999","2021-09-16T09:00:00","20.506828","-13.043194","231.03","ATAR, MR","FM-15","4","30.03","46","90","","||DU","","","22","","","","1.24","","360","","7","","","","","","","","","","","","","","","","","","","","","","","","","","","","","","","","","","","","","","","","","","","","","","","","","","","","","","","","","","","","","","","","","","","","","","","","","","","","","","","","","","","","","","","","","","","MET053METAR GQPA 160900Z 36006KT 2000 BLDU NSC 32/08 Q1017=","","","","","","","","","",""
"61421099999","2021-09-17T09:00:00","20.506828","-13.043194","231.03","ATAR, MR","FM-15","4","29.97","52","93","","||DU","","","24","","","","1.86","","060","","11","","","","","","","","","","","","","","","","","","","","","","","","","","","","","","","","","","","","","","","","","","","","","","","","","","","","","","","","","","","","","","","","","","","","","","","","","","","","","","","","","","","","","","","","","","","MET053METAR GQPA 170900Z 06010KT 3000 BLDU NSC 34/11 Q1015=","","","","","","","","","",""
"61421099999","2021-09-17T15:00:00","20.506828","-13.043194","231.03","ATAR, MR","FM-15","4","29.91","54","100","","||DU","","","21","","","","2.49","","140","","9","","","","","","","","","","","","","","","","","","","","","","","","","","","","","","","","","","","","","","","","","","","","","","","","","","","","","","","","","","","","","","","","","","","","","","","","","","","","","","","","","","","","","","","","","","","MET053METAR GQPA 171500Z 14008KT 4000 DRDU NSC 38/12 Q1013=","","","","","","","","","",""
"61421099999","2021-09-18T09:00:00","20.506828","-13.043194","231.03","ATAR, MR","FM-15","4","30.00","46","90","","","","","22","","","","4.35","","020","","5","","","","","","","","","","","","","","","","","","","","","","","","","","","","","","","","","","","","","","","","","","","","","","","","","","","","","","","","","","","","","","","","","","","","","","","","","","","","","","","","","","","","","","","","","","","MET048METAR GQPA 180900Z 02004KT 7000 NSC 32/08 Q1016=","","","","","","","","","",""
"61421099999","2021-09-18T15:00:00","20.506828","-13.043194","231.03","ATAR, MR","FM-15","4","29.94","52","99","","","","","21","","","","4.35","","360","","9","","","","","","","","","","","","","","","","","","","","","","","","","","","","","","","","","","","","","","","","","","","","","","","","","","","","","","","","","","","","","","","","","","","","","","","","","","","","","","","","","","","","","","","","","","","MET048METAR GQPA 181500Z 36008KT 7000 NSC 37/11 Q1014=","","","","","","","","","",""
"61421099999","2021-09-19T09:00:00","20.506828","-13.043194","231.03","ATAR, MR","FM-15","4","30.03","45","84","","","","","25","","","","4.35","","360","","11","","","","","","","","","","","","","","","","","","","","","","","","","","","","","","","","","","","","","","","","","","","","","","","","","","","","","","","","","","","","","","","","","","","","","","","","","","","","","","","","","","","","","","","","","","","MET048METAR GQPA 190900Z 36010KT 7000 NSC 29/07 Q1017=","","","","","","","","","",""
"61421099999","2021-09-20T09:00:00","20.506828","-13.043194","231.03","ATAR, MR","FM-15","4","30.03","45","86","","","","","24","","","","4.97","","360","","9","","","","","","","","","","","","","","","","","","","","","","","","","","","","","","","","","","","","","","","","","","","","","","","","","","","","","","","","","","","","","","","","","","","","","","","","","","","","","","","","","","","","","","","","","","","MET048METAR GQPA 200900Z 36008KT 8000 NSC 30/07 Q1017=","","","","","","","","","",""
"61421099999","2021-09-21T12:00:00","20.506828","-13.043194","231.03","ATAR, MR","FM-15","4","29.94","48","95","","","","","20","","","","4.97","","360","","14","","","","","","","","","","","","","","","","","","","","","","","","","","","","","","","","","","","","","","","","","","","","","","","","","","","","","","","","","","","","","","","","","","","","","","","","","","","","","","","","","","","","","","","","","","","MET048METAR GQPA 211200Z 36012KT 8000 NSC 35/09 Q1014=","","","","","","","","","",""
"61421099999","2021-09-22T09:00:00","20.506828","-13.043194","231.03","ATAR, MR","FM-15","4","29.94","46","86","","","","","25","","","","4.97","","040","","9","","","","","","","","","","","","","","","","","","","","","","","","","","","","","","","","","","","","","","","","","","","","","","","","","","","","","","","","","","","","","","","","","","","","","","","","","","","","","","","","","","","","","","","","","","","MET048METAR GQPA 220900Z 04008KT 8000 NSC 30/08 Q1014=","","","","","","","","","",""
"61421099999","2021-09-22T18:00:00","20.506828","-13.043194","231.03","ATAR, MR","FM-15","4","29.88","46","102","","","","","15","","","","4.97","","360","","11","","","","","","","","","","","","","","","","","","","","","","","","","","","","","","","","","","","","","","","","","","","","","","","","","","","","","","","","","","","","","","","","","","","","","","","","","","","","","","","","","","","","","","","","","","","MET048METAR GQPA 221800Z 36010KT 8000 NSC 39/08 Q1012=","","","","","","","","","",""
"61421099999","2021-09-23T09:00:00","20.506828","-13.043194","231.03","ATAR, MR","FM-15","4","29.94","46","86","","","","","25","","","","4.97","","020","","11","","","","","","","","","","","","","","","","","","","","","","","","","","","","","","","","","","","","","","","","","","","","","","","","","","","","","","","","","","","","","","","","","","","","","","","","","","","","","","","","","","","","","","","","","","","MET048METAR GQPA 230900Z 02010KT 8000 NSC 30/08 Q1014=","","","","","","","","","",""
"61421099999","2021-09-23T12:00:00","20.506828","-13.043194","231.03","ATAR, MR","FM-15","4","29.91","34","102","","","","","9","","","","4.97","","360","","5","","","","","","","","","","","","","","","","","","","","","","","","","","","","","","","","","","","","","","","","","","","","","","","","","","","","","","","","","","","","","","","","","","","","","","","","","","","","","","","","","","","","","","","","","","","MET048METAR GQPA 231200Z 36004KT 8000 NSC 39/01 Q1013=","","","","","","","","","",""
"61421099999","2021-09-23T15:00:00","20.506828","-13.043194","231.03","ATAR, MR","FM-15","4","29.85","41","108","","","","","10","","","","4.97","","000","","0","","","","","","","","","","","","","","","","","","","","","","","","","","","","","","","","","","","","","","","","","","","","","","","","","","","","","","","","","","","","","","","","","","","","","","","","","","","","","","","","","","","","","","","","","","","MET048METAR GQPA 231500Z 00000KT 8000 NSC 42/05 Q1011=","","","","","","","","","",""
"61421099999","2021-09-23T18:00:00","20.506828","-13.043194","231.03","ATAR, MR","FM-15","4","29.83","36","106","","","","","9","","","","4.97","","360","","5","","","","","","","","","","","","","","","","","","","","","","","","","","","","","","","","","","","","","","","","","","","","","","","","","","","","","","","","","","","","","","","","","","","","","","","","","","","","","","","","","","","","","","","","","","","MET048METAR GQPA 231800Z 36004KT 8000 NSC 41/02 Q1010=","","","","","","","","","",""
"61421099999","2021-09-25T09:00:00","20.506828","-13.043194","231.03","ATAR, MR","FM-15","4","29.97","45","90","","","","","21","","","","4.97","","020","","5","","","","","","","","","","","","","","","","","","","","","","","","","","","","","","","","","","","","","","","","","","","","","","","","","","","","","","","","","","","","","","","","","","","","","","","","","","","","","","","","","","","","","","","","","","","MET048METAR GQPA 250900Z 02004KT 8000 NSC 32/07 Q1015=","","","","","","","","","",""
"61421099999","2021-09-25T12:00:00","20.506828","-13.043194","231.03","ATAR, MR","FM-15","4","29.97","55","97","","","","","25","","","","4.97","","040","","5","","","","","","","","","","","","","","","","","","","","","","","","","","","","","","","","","","","","","","","","","","","","","","","","","","","","","","","","","","","","","","","","","","","","","","","","","","","","","","","","","","","","","","","","","","","MET048METAR GQPA 251200Z 04004KT 8000 NSC 36/13 Q1015=","","","","","","","","","",""
"61421099999","2021-09-25T15:00:00","20.506828","-13.043194","231.03","ATAR, MR","FM-15","4","29.94","52","100","","","","","20","","","","4.97","","000","","0","","","","","","","","","","","","","","","","","","","","","","","","","","","","","","","","","","","","","","","","","","","","","","","","","","","","","","","","","","","","","","","","","","","","","","","","","","","","","","","","","","","","","","","","","","","MET048METAR GQPA 251500Z 00000KT 8000 NSC 38/11 Q1014=","","","","","","","","","",""
"61421099999","2021-09-25T18:00:00","20.506828","-13.043194","231.03","ATAR, MR","FM-15","4","29.91","52","100","","","","","20","","","","4.97","","320","","7","","","","","","","","","","","","","","","","","","","","","","","","","","","","","","","","","","","","","","","","","","","","","","","","","","","","","","","","","","","","","","","","","","","","","","","","","","","","","","","","","","","","","","","","","","","MET048METAR GQPA 251800Z 32006KT 8000 NSC 38/11 Q1013=","","","","","","","","","",""
"61421099999","2021-09-26T09:00:00","20.506828","-13.043194","231.03","ATAR, MR","FM-15","4","30.00","46","93","","","","","20","","","","4.97","","020","","7","","","","","","","","","","","","","","","","","","","","","","","","","","","","","","","","","","","","","","","","","","","","","","","","","","","","","","","","","","","","","","","","","","","","","","","","","","","","","","","","","","","","","","","","","","","MET048METAR GQPA 260900Z 02006KT 8000 NSC 34/08 Q1016=","","","","","","","","","",""
"61421099999","2021-09-26T15:00:00","20.506828","-13.043194","231.03","ATAR, MR","FM-15","4","29.88","45","109","","||DU","","","11","","","","1.55","","060","","21","","","","","","","","","","","","","","","","","","","","","","","","","","","","","","","","","","","","","","","","","","","","","","","","","","","","","","","","","","","","","","","","","","","","","","","","","","","","","","","","","","","","","","","","","","","MET053METAR GQPA 261500Z 06018KT 2500 BLSA NSC 43/07 Q1012=","","","","","","","","","",""
"61421099999","2021-09-27T09:00:00","20.506828","-13.043194","231.03","ATAR, MR","FM-15","4","29.97","43","91","","","","","18","","","","4.97","","020","","5","","","","","","","","","","","","","","","","","","","","","","","","","","","","","","","","","","","","","","","","","","","","","","","","","","","","","","","","","","","","","","","","","","","","","","","","","","","","","","","","","","","","","","","","","","","MET048METAR GQPA 270900Z 02004KT 8000 NSC 33/06 Q1015=","","","","","","","","","",""
"61421099999","2021-09-27T12:00:00","20.506828","-13.043194","231.03","ATAR, MR","FM-15","4","29.94","52","109","","","","","15","","","","4.97","","080","","16","","","","","","","","","","","","","","","","","","","","","","","","","","","","","","","","","","","","","","","","","","","","","","","","","","","","","","","","","","","","","","","","","","","","","","","","","","","","","","","","","","","","","","","","","","","MET048METAR GQPA 271200Z 08014KT 8000 NSC 43/11 Q1014=","","","","","","","","","",""
"61421099999","2021-09-27T15:00:00","20.506828","-13.043194","231.03","ATAR, MR","FM-15","4","29.88","50","106","","","","","15","","","","4.97","","080","","14","","","","","","","","","","","","","","","","","","","","","","","","","","","","","","","","","","","","","","","","","","","","","","","","","","","","","","","","","","","","","","","","","","","","","","","","","","","","","","","","","","","","","","","","","","","MET048METAR GQPA 271500Z 08012KT 8000 NSC 41/10 Q1012=","","","","","","","","","",""
"61421099999","2021-09-27T18:00:00","20.506828","-13.043194","231.03","ATAR, MR","FM-15","4","29.85","48","106","","","","","14","","","","4.97","","360","","17","","","","","","","","","","","","","","","","","","","","","","","","","","","","","","","","","","","","","","","","","","","","","","","","","","","","","","","","","","","","","","","","","","","","","","","","","","","","","","","","","","","","","","","","","","","MET048METAR GQPA 271800Z 36015KT 8000 NSC 41/09 Q1011=","","","","","","","","","",""
"61421099999","2021-09-28T09:00:00","20.506828","-13.043194","231.03","ATAR, MR","FM-15","4","29.97","48","91","","","","","23","","","","4.97","","020","","9","","","","","","","","","","","","","","","","","","","","","","","","","","","","","","","","","","","","","","","","","","","","","","","","","","","","","","","","","","","","","","","","","","","","","","","","","","","","","","","","","","","","","","","","","","","MET048METAR GQPA 280900Z 02008KT 8000 NSC 33/09 Q1015=","","","","","","","","","",""
"61421099999","2021-09-28T12:00:00","20.506828","-13.043194","231.03","ATAR, MR","FM-15","4","29.94","48","106","","","","","14","","","","4.97","","360","","11","","","","","","","","","","","","","","","","","","","","","","","","","","","","","","","","","","","","","","","","","","","","","","","","","","","","","","","","","","","","","","","","","","","","","","","","","","","","","","","","","","","","","","","","","","","MET048METAR GQPA 281200Z 36010KT 8000 NSC 41/09 Q1014=","","","","","","","","","",""
"61421099999","2021-09-28T15:00:00","20.506828","-13.043194","231.03","ATAR, MR","FM-15","4","29.83","52","109","","","","","15","","","","2.49","","004","","21","","","","","","","","","","","","","","","","","","","","","","","","","","","","","","","","","","","","","","","","","","","","","","","","","","","","","","","","","","","","","","","","","","","","","","","","","","","","","","","","","","","","","","","","","","","MET048METAR GQPA 281500Z 00418KT 4000 NSC 43/11 Q1010=","","","","","","","","","",""
"61421099999","2021-09-29T09:00:00","20.506828","-13.043194","231.03","ATAR, MR","FM-15","4","29.94","48","90","","||DU","","","24","","","","3.73","","360","","7","","","","","","","","","","","","","","","","","","","","","","","","","","","","","","","","","","","","","","","","","","","","","","","","","","","","","","","","","","","","","","","","","","","","","","","","","","","","","","","","","","","","","","","","","","","MET053METAR GQPA 290900Z 36006KT 6000 BLDU NSC 32/09 Q1014=","","","","","","","","","",""
"61421099999","2021-10-01T09:00:00","20.506828","-13.043194","231.03","ATAR, MR","FM-15","4","30.00","48","91","","","","","23","","","","4.97","","360","","7","","","","","","","","","","","","","","","","","","","","","","","","","","","","","","","","","","","","","","","","","","","","","","","","","","","","","","","","","","","","","","","","","","","","","","","","","","","","","","","","","","","","","","","","","","","MET048METAR GQPA 010900Z 36006KT 8000 NSC 33/09 Q1016=","","","","","","","","","",""
"61421099999","2021-10-01T18:00:00","20.506828","-13.043194","231.03","ATAR, MR","FM-15","4","29.83","48","104","","","","","15","","","","4.97","","040","","9","","","","","","","","","","","","","","","","","","","","","","","","","","","","","","","","","","","","","","","","","","","","","","","","","","","","","","","","","","","","","","","","","","","","","","","","","","","","","","","","","","","","","","","","","","","MET048METAR GQPA 011800Z 04008KT 8000 NSC 40/09 Q1010=","","","","","","","","","",""
"61421099999","2021-10-02T09:00:00","20.506828","-13.043194","231.03","ATAR, MR","FM-15","4","30.00","46","91","","","","","21","","","","4.97","","000","","0","","","","","","","","","","","","","","","","","","","","","","","","","","","","","","","","","","","","","","","","","","","","","","","","","","","","","","","","","","","","","","","","","","","","","","","","","","","","","","","","","","","","","","","","","","","MET048METAR GQPA 020900Z 00000KT 8000 NSC 33/08 Q1016=","","","","","","","","","",""
"61421099999","2021-10-02T15:00:00","20.506828","-13.043194","231.03","ATAR, MR","FM-15","4","29.88","46","104","","","","","14","SCT:04 30","","","4.97","","140","","5","","","","","","","","","","","","","","","","","","","","","","","","","","","","","","","","","","","","","","","","","","","","","","","","","","","","","","","","","","","","","","","","","","","","","","","","","","","","","","","","","","","","","","","","","","","MET058METAR COR GQPA 021500Z 14004KT 8000 SCT030TCU 40/08 Q1012=","","","","","","","","","",""
"61421099999","2021-10-02T18:00:00","20.506828","-13.043194","231.03","ATAR, MR","FM-15","4","29.91","43","102","","","","","13","","","","4.97","","040","","14","","","","","","","","","","","","","","","","","","","","","","","","","","","","","","","","","","","","","","","","","","","","","","","","","","","","","","","","","","","","","","","","","","","","","","","","","","","","","","","","","","","","","","","","","","","MET048METAR GQPA 021800Z 04012KT 8000 NSC 39/06 Q1013=","","","","","","","","","",""
"61421099999","2021-10-03T09:00:00","20.506828","-13.043194","231.03","ATAR, MR","FM-15","4","29.97","46","91","","","","","21","","","","4.97","","040","","9","","","","","","","","","","","","","","","","","","","","","","","","","","","","","","","","","","","","","","","","","","","","","","","","","","","","","","","","","","","","","","","","","","","","","","","","","","","","","","","","","","","","","","","","","","","MET048METAR GQPA 030900Z 04008KT 8000 NSC 33/08 Q1015=","","","","","","","","","",""
"61421099999","2021-10-04T09:00:00","20.506828","-13.043194","231.03","ATAR, MR","FM-15","4","29.97","45","88","","","","","22","","","","4.97","","040","","18","","","","","","","","","","","","","","","","","","","","","","","","","","","","","","","","","","","","","","","","","","","","","","","","","","","","","","","","","","","","","","","","","","","","","","","","","","","","","","","","","","","","","","","","","","","MET048METAR GQPA 040900Z 04016KT 8000 NSC 31/07 Q1015=","","","","","","","","","",""
"61421099999","2021-10-04T12:00:00","20.506828","-13.043194","231.03","ATAR, MR","FM-15","4","29.97","45","95","","","","","18","","","","4.35","","020","","14","","","","","","","","","","","","","","","","","","","","","","","","","","","","","","","","","","","","","","","","","","","","","","","","","","","","","","","","","","","","","","","","","","","","","","","","","","","","","","","","","","","","","","","","","","","MET048METAR GQPA 041200Z 02012KT 7000 NSC 35/07 Q1015=","","","","","","","","","",""
"61421099999","2021-10-05T09:00:00","20.506828","-13.043194","231.03","ATAR, MR","FM-15","4","30.03","37","82","","","","","20","","","","4.97","","020","","11","","","","","","","","","","","","","","","","","","","","","","","","","","","","","","","","","","","","","","","","","","","","","","","","","","","","","","","","","","","","","","","","","","","","","","","","","","","","","","","","","","","","","","","","","","","MET052METAR COR GQPA 050900Z 02010KT 8000 NSC 28/03 Q1017=","","","","","","","","","",""
"61421099999","2021-10-05T12:00:00","20.506828","-13.043194","231.03","ATAR, MR","FM-15","4","29.97","45","93","","","","","19","","","","4.97","","360","","14","","","","","","","","","","","","","","","","","","","","","","","","","","","","","","","","","","","","","","","","","","","","","","","","","","","","","","","","","","","","","","","","","","","","","","","","","","","","","","","","","","","","","","","","","","","MET052METAR COR GQPA 051200Z 36012KT 8000 NSC 34/07 Q1015=","","","","","","","","","",""
"61421099999","2021-10-05T15:00:00","20.506828","-13.043194","231.03","ATAR, MR","FM-15","4","29.88","46","104","","","","","14","","","","4.97","","360","","14","","","","","","","","","","","","","","","","","","","","","","","","","","","","","","","","","","","","","","","","","","","","","","","","","","","","","","","","","","","","","","","","","","","","","","","","","","","","","","","","","","","","","","","","","","","MET052METAR COR GQPA 051500Z 36012KT 8000 NSC 40/08 Q1012=","","","","","","","","","",""
"61421099999","2021-10-06T12:00:00","20.506828","-13.043194","231.03","ATAR, MR","FM-15","4","29.94","54","102","","","","","20","","","","4.97","","360","","14","","","","","","","","","","","","","","","","","","","","","","","","","","","","","","","","","","","","","","","","","","","","","","","","","","","","","","","","","","","","","","","","","","","","","","","","","","","","","","","","","","","","","","","","","","","MET048METAR GQPA 061200Z 36012KT 8000 NSC 39/12 Q1014=","","","","","","","","","",""
"61421099999","2021-10-06T15:00:00","20.506828","-13.043194","231.03","ATAR, MR","FM-15","4","29.91","48","106","","","","","14","","","","4.97","","360","","14","","","","","","","","","","","","","","","","","","","","","","","","","","","","","","","","","","","","","","","","","","","","","","","","","","","","","","","","","","","","","","","","","","","","","","","","","","","","","","","","","","","","","","","","","","","MET048METAR GQPA 061500Z 36012KT 8000 NSC 41/09 Q1013=","","","","","","","","","",""
"61421099999","2021-10-07T09:00:00","20.506828","-13.043194","231.03","ATAR, MR","FM-15","4","29.97","41","88","","","","","19","","","","4.97","","020","","7","","","","","","","","","","","","","","","","","","","","","","","","","","","","","","","","","","","","","","","","","","","","","","","","","","","","","","","","","","","","","","","","","","","","","","","","","","","","","","","","","","","","","","","","","","","MET048METAR GQPA 070900Z 02006KT 8000 NSC 31/05 Q1015=","","","","","","","","","",""
"61421099999","2021-10-07T12:00:00","20.506828","-13.043194","231.03","ATAR, MR","FM-15","4","29.97","45","102","","","","","14","","","","4.97","","070","","14","","","","","","","","","","","","","","","","","","","","","","","","","","","","","","","","","","","","","","","","","","","","","","","","","","","","","","","","","","","","","","","","","","","","","","","","","","","","","","","","","","","","","","","","","","","MET048METAR GQPA 071200Z 07012KT 8000 NSC 39/07 Q1015=","","","","","","","","","",""
"61421099999","2021-10-07T15:00:00","20.506828","-13.043194","231.03","ATAR, MR","FM-15","4","29.85","45","109","","","","","11","SCT:04 30","","","4.97","","360","","14","","","","","","","","","","","","","","","","","","","","","","","","","","","","","","","","","","","","","","","","","","","","","","","","","","","","","","","","","","","","","","","","","","","","","","","","","","","","","","","","","","","","","","","","","","","MET058METAR COR GQPA 071500Z 36012KT 8000 SCT030TCU 43/07 Q1011=","","","","","","","","","",""
"61421099999","2021-10-07T18:00:00","20.506828","-13.043194","231.03","ATAR, MR","FM-15","4","29.88","43","106","","","","","12","","","","4.97","","060","","16","","","","","","","","","","","","","","","","","","","","","","","","","","","","","","","","","","","","","","","","","","","","","","","","","","","","","","","","","","","","","","","","","","","","","","","","","","","","","","","","","","","","","","","","","","","MET048METAR GQPA 071800Z 06014KT 8000 NSC 41/06 Q1012=","","","","","","","","","",""
"61421099999","2021-10-08T09:00:00","20.506828","-13.043194","231.03","ATAR, MR","FM-15","4","29.94","41","91","","","","","17","","","","4.97","","360","","7","","","","","","","","","","","","","","","","","","","","","","","","","","","","","","","","","","","","","","","","","","","","","","","","","","","","","","","","","","","","","","","","","","","","","","","","","","","","","","","","","","","","","","","","","","","MET048METAR GQPA 080900Z 36006KT 8000 NSC 33/05 Q1014=","","","","","","","","","",""
"61421099999","2021-10-08T12:00:00","20.506828","-13.043194","231.03","ATAR, MR","FM-15","4","29.85","45","104","","","","","13","","","","4.97","","360","","7","","","","","","","","","","","","","","","","","","","","","","","","","","","","","","","","","","","","","","","","","","","","","","","","","","","","","","","","","","","","","","","","","","","","","","","","","","","","","","","","","","","","","","","","","","","MET048METAR GQPA 081200Z 36006KT 8000 NSC 40/07 Q1011=","","","","","","","","","",""
"61421099999","2021-10-08T15:00:00","20.506828","-13.043194","231.03","ATAR, MR","FM-15","4","29.85","48","109","","","","","13","","","","4.97","","060","","7","","","","","","","","","","","","","","","","","","","","","","","","","","","","","","","","","","","","","","","","","","","","","","","","","","","","","","","","","","","","","","","","","","","","","","","","","","","","","","","","","","","","","","","","","","","MET048METAR GQPA 081500Z 06006KT 8000 NSC 43/09 Q1011=","","","","","","","","","",""
"61421099999","2021-10-09T09:00:00","20.506828","-13.043194","231.03","ATAR, MR","FM-15","4","30.00","50","88","","","","","27","","","","6.15","","360","","5","","","","","","","","","","","","","","","","","","","","","","","","","","","","","","","","","","","","","","","","","","","","","","","","","","","","","","","","","","","","","","","","","","","","","","","","","","","","","","","","","","","","","","","","","","","MET045METAR GQPA 090900Z 36004KT CAVOK 31/10 Q1016=","","","","","","","","","",""
"61421099999","2021-10-09T12:00:00","20.506828","-13.043194","231.03","ATAR, MR","FM-15","4","29.94","48","100","","","","","17","","","","4.97","","360","","16","","","","","","","","","","","","","","","","","","","","","","","","","","","","","","","","","","","","","","","","","","","","","","","","","","","","","","","","","","","","","","","","","","","","","","","","","","","","","","","","","","","","","","","","","","","MET048METAR GQPA 091200Z 36014KT 8000 NSC 38/09 Q1014=","","","","","","","","","",""
"61421099999","2021-10-09T15:00:00","20.506828","-13.043194","231.03","ATAR, MR","FM-15","4","29.88","50","106","","","","","15","","","","4.97","","360","","14","","","","","","","","","","","","","","","","","","","","","","","","","","","","","","","","","","","","","","","","","","","","","","","","","","","","","","","","","","","","","","","","","","","","","","","","","","","","","","","","","","","","","","","","","","","MET048METAR GQPA 091500Z 36012KT 8000 NSC 41/10 Q1012=","","","","","","","","","",""
"61421099999","2021-10-09T18:00:00","20.506828","-13.043194","231.03","ATAR, MR","FM-15","4","29.91","48","104","","","","","15","","","","4.97","","360","","11","","","","","","","","","","","","","","","","","","","","","","","","","","","","","","","","","","","","","","","","","","","","","","","","","","","","","","","","","","","","","","","","","","","","","","","","","","","","","","","","","","","","","","","","","","","MET048METAR GQPA 091800Z 36010KT 8000 NSC 40/09 Q1013=","","","","","","","","","",""
"61421099999","2021-10-10T12:00:00","20.506828","-13.043194","231.03","ATAR, MR","FM-15","4","29.91","45","93","","","","","19","","","","6.15","","040","","11","","","","","","","","","","","","","","","","","","","","","","","","","","","","","","","","","","","","","","","","","","","","","","","","","","","","","","","","","","","","","","","","","","","","","","","","","","","","","","","","","","","","","","","","","","","MET045METAR GQPA 101200Z 04010KT CAVOK 34/07 Q1013=","","","","","","","","","",""
"61421099999","2021-10-10T15:00:00","20.506828","-13.043194","231.03","ATAR, MR","FM-15","4","29.85","41","100","","","","","13","","","","6.15","","000","","0","","","","","","","","","","","","","","","","","","","","","","","","","","","","","","","","","","","","","","","","","","","","","","","","","","","","","","","","","","","","","","","","","","","","","","","","","","","","","","","","","","","","","","","","","","","MET045METAR GQPA 101500Z 00000KT CAVOK 38/05 Q1011=","","","","","","","","","",""
"61421099999","2021-10-10T18:00:00","20.506828","-13.043194","231.03","ATAR, MR","FM-15","4","29.83","45","100","","","","","15","","","","6.15","","020","","7","","","","","","","","","","","","","","","","","","","","","","","","","","","","","","","","","","","","","","","","","","","","","","","","","","","","","","","","","","","","","","","","","","","","","","","","","","","","","","","","","","","","","","","","","","","MET045METAR GQPA 101800Z 02006KT CAVOK 38/07 Q1010=","","","","","","","","","",""
"61421099999","2021-10-11T18:00:00","20.506828","-13.043194","231.03","ATAR, MR","FM-15","4","29.85","46","102","","","","","15","","","","6.15","","320","","7","","","","","","","","","","","","","","","","","","","","","","","","","","","","","","","","","","","","","","","","","","","","","","","","","","","","","","","","","","","","","","","","","","","","","","","","","","","","","","","","","","","","","","","","","","","MET045METAR GQPA 111800Z 32006KT CAVOK 39/08 Q1011=","","","","","","","","","",""
"61421099999","2021-10-12T09:00:00","20.506828","-13.043194","231.03","ATAR, MR","FM-15","4","29.97","41","86","","","","","20","","","","4.97","","020","","5","","","","","","","","","","","","","","","","","","","","","","","","","","","","","","","","","","","","","","","","","","","","","","","","","","","","","","","","","","","","","","","","","","","","","","","","","","","","","","","","","","","","","","","","","","","MET048METAR GQPA 120900Z 02004KT 8000 NSC 30/05 Q1015=","","","","","","","","","",""
"61421099999","2021-10-12T12:00:00","20.506828","-13.043194","231.03","ATAR, MR","FM-15","4","29.94","48","102","","","","","16","","","","6.15","","000","","0","","","","","","","","","","","","","","","","","","","","","","","","","","","","","","","","","","","","","","","","","","","","","","","","","","","","","","","","","","","","","","","","","","","","","","","","","","","","","","","","","","","","","","","","","","","MET045METAR GQPA 121200Z 00000KT CAVOK 39/09 Q1014=","","","","","","","","","",""
"61421099999","2021-10-12T15:00:00","20.506828","-13.043194","231.03","ATAR, MR","FM-15","4","29.88","45","104","","","","","13","","","","6.15","","000","","0","","","","","","","","","","","","","","","","","","","","","","","","","","","","","","","","","","","","","","","","","","","","","","","","","","","","","","","","","","","","","","","","","","","","","","","","","","","","","","","","","","","","","","","","","","","MET045METAR GQPA 121500Z 00000KT CAVOK 40/07 Q1012=","","","","","","","","","",""
"61421099999","2021-10-12T18:00:00","20.506828","-13.043194","231.03","ATAR, MR","FM-15","4","29.88","45","102","","","","","14","","","","6.15","","000","","0","","","","","","","","","","","","","","","","","","","","","","","","","","","","","","","","","","","","","","","","","","","","","","","","","","","","","","","","","","","","","","","","","","","","","","","","","","","","","","","","","","","","","","","","","","","MET045METAR GQPA 121800Z 00000KT CAVOK 39/07 Q1012=","","","","","","","","","",""
"61421099999","2021-10-13T09:00:00","20.506828","-13.043194","231.03","ATAR, MR","FM-15","4","29.97","39","86","","","","","19","","","","4.97","","040","","9","","","","","","","","","","","","","","","","","","","","","","","","","","","","","","","","","","","","","","","","","","","","","","","","","","","","","","","","","","","","","","","","","","","","","","","","","","","","","","","","","","","","","","","","","","","MET048METAR GQPA 130900Z 04008KT 8000 NSC 30/04 Q1015=","","","","","","","","","",""
"61421099999","2021-10-13T15:00:00","20.506828","-13.043194","231.03","ATAR, MR","FM-15","4","29.85","48","106","","","","","14","","","","4.97","","320","","7","","","","","","","","","","","","","","","","","","","","","","","","","","","","","","","","","","","","","","","","","","","","","","","","","","","","","","","","","","","","","","","","","","","","","","","","","","","","","","","","","","","","","","","","","","","MET048METAR GQPA 131500Z 32006KT 8000 NSC 41/09 Q1011=","","","","","","","","","",""
"61421099999","2021-10-13T18:00:00","20.506828","-13.043194","231.03","ATAR, MR","FM-15","4","29.85","50","104","","","","","16","","","","6.15","","340","","11","","","","","","","","","","","","","","","","","","","","","","","","","","","","","","","","","","","","","","","","","","","","","","","","","","","","","","","","","","","","","","","","","","","","","","","","","","","","","","","","","","","","","","","","","","","MET045METAR GQPA 131800Z 34010KT CAVOK 40/10 Q1011=","","","","","","","","","",""
"61421099999","2021-10-14T09:00:00","20.506828","-13.043194","231.03","ATAR, MR","FM-15","4","29.94","41","86","","","","","20","","","","6.15","","020","","5","","","","","","","","","","","","","","","","","","","","","","","","","","","","","","","","","","","","","","","","","","","","","","","","","","","","","","","","","","","","","","","","","","","","","","","","","","","","","","","","","","","","","","","","","","","MET045METAR GQPA 140900Z 02004KT CAVOK 30/05 Q1014=","","","","","","","","","",""
"61421099999","2021-10-14T18:00:00","20.506828","-13.043194","231.03","ATAR, MR","FM-15","4","29.85","43","104","","","","","12","","","","4.97","","000","","0","","","","","","","","","","","","","","","","","","","","","","","","","","","","","","","","","","","","","","","","","","","","","","","","","","","","","","","","","","","","","","","","","","","","","","","","","","","","","","","","","","","","","","","","","","","MET048METAR GQPA 141800Z 00000KT 8000 NSC 40/06 Q1011=","","","","","","","","","",""
"61421099999","2021-10-15T09:00:00","20.506828","-13.043194","231.03","ATAR, MR","FM-15","4","30.00","41","84","","","","","22","","","","6.15","","360","","7","","","","","","","","","","","","","","","","","","","","","","","","","","","","","","","","","","","","","","","","","","","","","","","","","","","","","","","","","","","","","","","","","","","","","","","","","","","","","","","","","","","","","","","","","","","MET045METAR GQPA 150900Z 36006KT CAVOK 29/05 Q1016=","","","","","","","","","",""
"61421099999","2021-10-16T09:00:00","20.506828","-13.043194","231.03","ATAR, MR","FM-15","4","29.97","43","86","","","","","22","","","","4.97","","360","","5","","","","","","","","","","","","","","","","","","","","","","","","","","","","","","","","","","","","","","","","","","","","","","","","","","","","","","","","","","","","","","","","","","","","","","","","","","","","","","","","","","","","","","","","","","","MET048METAR GQPA 160900Z 36004KT 8000 NSC 30/06 Q1015=","","","","","","","","","",""
"61421099999","2021-10-16T12:00:00","20.506828","-13.043194","231.03","ATAR, MR","FM-15","4","29.94","52","100","","","","","20","","","","6.15","","040","","17","","","","","","","","","","","","","","","","","","","","","","","","","","","","","","","","","","","","","","","","","","","","","","","","","","","","","","","","","","","","","","","","","","","","","","","","","","","","","","","","","","","","","","","","","","","MET045METAR GQPA 161200Z 04015KT CAVOK 38/11 Q1014=","","","","","","","","","",""
"61421099999","2021-10-16T15:00:00","20.506828","-13.043194","231.03","ATAR, MR","FM-15","4","29.88","48","104","","","","","15","","","","4.97","","040","","11","","","","","","","","","","","","","","","","","","","","","","","","","","","","","","","","","","","","","","","","","","","","","","","","","","","","","","","","","","","","","","","","","","","","","","","","","","","","","","","","","","","","","","","","","","","MET048METAR GQPA 161500Z 04010KT 8000 NSC 40/09 Q1012=","","","","","","","","","",""
"61421099999","2021-10-17T09:00:00","20.506828","-13.043194","231.03","ATAR, MR","FM-15","4","29.94","45","72","","","","","38","","","","6.15","","020","","5","","","","","","","","","","","","","","","","","","","","","","","","","","","","","","","","","","","","","","","","","","","","","","","","","","","","","","","","","","","","","","","","","","","","","","","","","","","","","","","","","","","","","","","","","","","MET045METAR GQPA 170900Z 02004KT CAVOK 22/07 Q1014=","","","","","","","","","",""
"61421099999","2021-10-17T12:00:00","20.506828","-13.043194","231.03","ATAR, MR","FM-15","4","29.94","54","100s","","","","","21","","","","6.15","","360","","7","","","","","","","","","","","","","","","","","","","","","","","","","","","","","","","","","","","","","","","","","","","","","","","","","","","","","","","","","","","","","","","","","","","","","","","","","","","","","","","","","","","","","","","","","","","MET045METAR GQPA 171200Z 36006KT CAVOK 38/12 Q1014=","","","","","","","","","",""
"61421099999","2021-10-17T15:00:00","20.506828","-13.043194","231.03","ATAR, MR","FM-15","4","29.91","46","102s","","","","","15","","","","6.15","","040","","9","","","","","","","","","","","","","","","","","","","","","","","","","","","","","","","","","","","","","","","","","","","","","","","","","","","","","","","","","","","","","","","","","","","","","","","","","","","","","","","","","","","","","","","","","","","MET045METAR GQPA 171500Z 04008KT CAVOK 39/08 Q1013=","","","","","","","","","",""
"61421099999","2021-10-19T15:00:00","20.506828","-13.043194","231.03","ATAR, MR","FM-15","4","29.94","45","104","","","","","13","","","","6.15","","060","","9","","","","","","","","","","","","","","","","","","","","","","","","","","","","","","","","","","","","","","","","","","","","","","","","","","","","","","","","","","","","","","","","","","","","","","","","","","","","","","","","","","","","","","","","","","","MET045METAR GQPA 191500Z 06008KT CAVOK 40/07 Q1014=","","","","","","","","","",""
"61421099999","2021-10-19T18:00:00","20.506828","-13.043194","231.03","ATAR, MR","FM-15","4","29.91","48","102","","","","","16","","","","4.97","","060","","14","","","","","","","","","","","","","","","","","","","","","","","","","","","","","","","","","","","","","","","","","","","","","","","","","","","","","","","","","","","","","","","","","","","","","","","","","","","","","","","","","","","","","","","","","","","MET048METAR GQPA 191800Z 06012KT 8000 NSC 39/09 Q1013=","","","","","","","","","",""
"61421099999","2021-10-20T18:00:00","20.506828","-13.043194","231.03","ATAR, MR","FM-15","4","29.97","48","99","","||DU","","","18","","","","1.86","","100","","18","","","","","","","","","","","","","","","","","","","","","","","","","","","","","","","","","","","","","","","","","","","","","","","","","","","","","","","","","","","","","","","","","","","","","","","","","","","","","","","","","","","","","","","","","","","MET053METAR GQPA 201800Z 10016KT 3000 BLSA NSC 37/09 Q1015=","","","","","","","","","",""
"61421099999","2021-10-21T09:00:00","20.506828","-13.043194","231.03","ATAR, MR","FM-15","4","30.06","43","86","","","","","22","","","","4.35","","060","","11","","","","","","","","","","","","","","","","","","","","","","","","","","","","","","","","","","","","","","","","","","","","","","","","","","","","","","","","","","","","","","","","","","","","","","","","","","","","","","","","","","","","","","","","","","","MET048METAR GQPA 210900Z 06010KT 7000 NSC 30/06 Q1018=","","","","","","","","","",""
"61421099999","2021-10-22T09:00:00","20.506828","-13.043194","231.03","ATAR, MR","FM-15","4","30.03","37","79","","","","","23","","","","4.97","","020","","5","","","","","","","","","","","","","","","","","","","","","","","","","","","","","","","","","","","","","","","","","","","","","","","","","","","","","","","","","","","","","","","","","","","","","","","","","","","","","","","","","","","","","","","","","","","MET048METAR GQPA 220900Z 02004KT 8000 NSC 26/03 Q1017=","","","","","","","","","",""
"61421099999","2021-10-22T12:00:00","20.506828","-13.043194","231.03","ATAR, MR","FM-15","4","30.00","39","93","","||DU","","","15","","","","3.73","","040","","16","","","","","","","","","","","","","","","","","","","","","","","","","","","","","","","","","","","","","","","","","","","","","","","","","","","","","","","","","","","","","","","","","","","","","","","","","","","","","","","","","","","","","","","","","","","MET053METAR GQPA 221200Z 04014KT 6000 BLSA NSC 34/04 Q1016=","","","","","","","","","",""
"61421099999","2021-10-22T15:00:00","20.506828","-13.043194","231.03","ATAR, MR","FM-15","4","29.91","39","93","","","","","15","","","","4.97","","360","","11","","","","","","","","","","","","","","","","","","","","","","","","","","","","","","","","","","","","","","","","","","","","","","","","","","","","","","","","","","","","","","","","","","","","","","","","","","","","","","","","","","","","","","","","","","","MET048METAR GQPA 221500Z 36010KT 8000 NSC 34/04 Q1013=","","","","","","","","","",""
"61421099999","2021-10-22T18:00:00","20.506828","-13.043194","231.03","ATAR, MR","FM-15","4","29.94","39","93","","","","","15","","","","4.97","","360","","11","","","","","","","","","","","","","","","","","","","","","","","","","","","","","","","","","","","","","","","","","","","","","","","","","","","","","","","","","","","","","","","","","","","","","","","","","","","","","","","","","","","","","","","","","","","MET048METAR GQPA 221800Z 36010KT 8000 NSC 34/04 Q1014=","","","","","","","","","",""
"61421099999","2021-10-23T12:00:00","20.506828","-13.043194","231.03","ATAR, MR","FM-15","4","30.00","43","93","","","","","17","","","","6.15","","000","","0","","","","","","","","","","","","","","","","","","","","","","","","","","","","","","","","","","","","","","","","","","","","","","","","","","","","","","","","","","","","","","","","","","","","","","","","","","","","","","","","","","","","","","","","","","","MET045METAR GQPA 231200Z 00000KT CAVOK 34/06 Q1016=","","","","","","","","","",""
"61421099999","2021-10-23T15:00:00","20.506828","-13.043194","231.03","ATAR, MR","FM-15","4","30.06","43","99","","","","","15","","","","6.15","","020","","7","","","","","","","","","","","","","","","","","","","","","","","","","","","","","","","","","","","","","","","","","","","","","","","","","","","","","","","","","","","","","","","","","","","","","","","","","","","","","","","","","","","","","","","","","","","MET049METAR GQPA 231500Z 02006KT CAVOK NSC 37/06 Q1018=","","","","","","","","","",""
"61421099999","2021-10-24T12:00:00","20.506828","-13.043194","231.03","ATAR, MR","FM-15","4","30.03","41","97","","","","","14","","","","4.97","","VRB","","2","","","","","","","","","","","","","","","","","","","","","","","","","","","","","","","","","","","","","","","","","","","","","","","","","","","","","","","","","","","","","","","","","","","","","","","","","","","","","","","","","","","","","","","","","","","MET048METAR GQPA 241200Z VRB02KT 8000 NSC 36/05 Q1017=","","","","","","","","","",""
"61421099999","2021-10-25T15:00:00","20.506828","-13.043194","231.03","ATAR, MR","FM-15","4","29.97","45","99","","","","","16","","","","4.97","","360","","14","","","","","","","","","","","","","","","","","","","","","","","","","","","","","","","","","","","","","","","","","","","","","","","","","","","","","","","","","","","","","","","","","","","","","","","","","","","","","","","","","","","","","","","","","","","MET048METAR GQPA 251500Z 36012KT 8000 NSC 37/07 Q1015=","","","","","","","","","",""
"61421099999","2021-10-25T18:00:00","20.506828","-13.043194","231.03","ATAR, MR","FM-15","4","29.94","48","97","","","","","19","","","","4.97","","320","","14","","","","","","","","","","","","","","","","","","","","","","","","","","","","","","","","","","","","","","","","","","","","","","","","","","","","","","","","","","","","","","","","","","","","","","","","","","","","","","","","","","","","","","","","","","","MET048METAR GQPA 251800Z 32012KT 8000 NSC 36/09 Q1014=","","","","","","","","","",""
"61421099999","2021-10-26T09:00:00","20.506828","-13.043194","231.03","ATAR, MR","FM-15","4","30.03","48","84","","","","","29","","","","4.97","","320","","7","","","","","","","","","","","","","","","","","","","","","","","","","","","","","","","","","","","","","","","","","","","","","","","","","","","","","","","","","","","","","","","","","","","","","","","","","","","","","","","","","","","","","","","","","","","MET048METAR GQPA 260900Z 32006KT 8000 NSC 29/09 Q1017=","","","","","","","","","",""
"61421099999","2021-10-26T12:00:00","20.506828","-13.043194","231.03","ATAR, MR","FM-15","4","30.00","54","95","","","","","25","","","","4.97","","360","","14","","","","","","","","","","","","","","","","","","","","","","","","","","","","","","","","","","","","","","","","","","","","","","","","","","","","","","","","","","","","","","","","","","","","","","","","","","","","","","","","","","","","","","","","","","","MET048METAR GQPA 261200Z 36012KT 8000 NSC 35/12 Q1016=","","","","","","","","","",""
"61421099999","2021-10-27T09:00:00","20.506828","-13.043194","231.03","ATAR, MR","FM-15","4","30.06","43","79","","","","","28","","","","4.97","","020","","9","","","","","","","","","","","","","","","","","","","","","","","","","","","","","","","","","","","","","","","","","","","","","","","","","","","","","","","","","","","","","","","","","","","","","","","","","","","","","","","","","","","","","","","","","","","MET048METAR GQPA 270900Z 02008KT 8000 NSC 26/06 Q1018=","","","","","","","","","",""
"61421099999","2021-10-27T18:00:00","20.506828","-13.043194","231.03","ATAR, MR","FM-15","4","30.00","55","84","","","","","37","","","","4.97","","320","","11","","","","","","","","","","","","","","","","","","","","","","","","","","","","","","","","","","","","","","","","","","","","","","","","","","","","","","","","","","","","","","","","","","","","","","","","","","","","","","","","","","","","","","","","","","","MET048METAR GQPA 271800Z 32010KT 8000 NSC 29/13 Q1016=","","","","","","","","","",""
"61421099999","2021-10-28T09:00:00","20.506828","-13.043194","231.03","ATAR, MR","FM-15","4","30.06","54","75","","||RA","","","47","","","","4.97","","VRB","","2","","","","","","","","","","","","","","","","","","","","","","","","","","","","","","","","","","","","","","","","","","","","","","","","","","","","","","","","","","","","","","","","","","","","","","","","","","","","","","","","","","","","","","","","","","","MET052METAR GQPA 280900Z VRB02KT 8000 -RA NSC 24/12 Q1018=","","","","","","","","","",""
"61421099999","2021-10-28T12:00:00","20.506828","-13.043194","231.03","ATAR, MR","FM-15","4","30.03","64","77","","||RA","","","65","BKN:07 100","","","4.97","","000","","0","","","","","","","","","","","","","","","","","","","","","","","","","","","","","","","","","","","","","","","","","","","","","","","","","","","","","","","","","","","","","","","","","","","","","","","","","","","","","","","","","","","","","","","","","","","MET055METAR GQPA 281200Z 00000KT 8000 -RA BKN100 25/18 Q1017=","","","","","","","","","",""
"61421099999","2021-10-28T18:00:00","20.506828","-13.043194","231.03","ATAR, MR","FM-15","4","30.00","59","81","","","","","48","","","","4.97","","020","","9","","","","","","","","","","","","","","","","","","","","","","","","","","","","","","","","","","","","","","","","","","","","","","","","","","","","","","","","","","","","","","","","","","","","","","","","","","","","","","","","","","","","","","","","","","","MET048METAR GQPA 281800Z 02008KT 8000 NSC 27/15 Q1016=","","","","","","","","","",""
"61421099999","2021-10-29T15:00:00","20.506828","-13.043194","231.03","ATAR, MR","FM-15","4","29.97","57","91","","","","","32","","","","4.97","","360","","11","","","","","","","","","","","","","","","","","","","","","","","","","","","","","","","","","","","","","","","","","","","","","","","","","","","","","","","","","","","","","","","","","","","","","","","","","","","","","","","","","","","","","","","","","","","MET048METAR GQPA 291500Z 36010KT 8000 NSC 33/14 Q1015=","","","","","","","","","",""
"61421099999","2021-10-29T18:00:00","20.506828","-13.043194","231.03","ATAR, MR","FM-15","4","30.00","57","90","","","","","33","BKN:07 100","","","4.97","","340","","11","","","","","","","","","","","","","","","","","","","","","","","","","","","","","","","","","","","","","","","","","","","","","","","","","","","","","","","","","","","","","","","","","","","","","","","","","","","","","","","","","","","","","","","","","","","MET051METAR GQPA 291800Z 34010KT 8000 BKN100 32/14 Q1016=","","","","","","","","","",""
"61421099999","2021-10-30T09:00:00","20.506828","-13.043194","231.03","ATAR, MR","FM-15","4","30.12","66","73","","||RA","","","78","SCT:04 30","","","4.97","","000","","0","","","","","","","","","","","","","","","","","","","","","","","","","","","","","","","","","","","","","","","","","","","","","","","","","","","","","","","","","","","","","","","","","","","","","","","","","","","","","","","","","","","","","","","","","","","MET058METAR GQPA 300900Z 00000KT 8000 -RA SCT030TCU 23/19 Q1020=","","","","","","","","","",""
"61421099999","2021-10-30T12:00:00","20.506828","-13.043194","231.03","ATAR, MR","FM-15","4","30.06","59","77","","","","","54","","","","4.97","","000","","0","","","","","","","","","","","","","","","","","","","","","","","","","","","","","","","","","","","","","","","","","","","","","","","","","","","","","","","","","","","","","","","","","","","","","","","","","","","","","","","","","","","","","","","","","","","MET048METAR GQPA 301200Z 00000KT 8000 NSC 25/15 Q1018=","","","","","","","","","",""
"61421099999","2021-10-30T15:00:00","20.506828","-13.043194","231.03","ATAR, MR","FM-15","4","30.00","59","81","","","","","48","","","","4.97","","360","","7","","","","","","","","","","","","","","","","","","","","","","","","","","","","","","","","","","","","","","","","","","","","","","","","","","","","","","","","","","","","","","","","","","","","","","","","","","","","","","","","","","","","","","","","","","","MET048METAR GQPA 301500Z 36006KT 8000 NSC 27/15 Q1016=","","","","","","","","","",""
"61421099999","2021-10-30T18:00:00","20.506828","-13.043194","231.03","ATAR, MR","FM-15","4","30.06","61","81","","","","","51","BKN:07 100","","","4.97","","360","","7","","","","","","","","","","","","","","","","","","","","","","","","","","","","","","","","","","","","","","","","","","","","","","","","","","","","","","","","","","","","","","","","","","","","","","","","","","","","","","","","","","","","","","","","","","","MET051METAR GQPA 301800Z 36006KT 8000 BKN100 27/16 Q1018=","","","","","","","","","",""
"61421099999","2021-10-31T09:00:00","20.506828","-13.043194","231.03","ATAR, MR","FM-15","4","30.12","43","73","","","","","33","","","","4.97","","000","","0","","","","","","","","","","","","","","","","","","","","","","","","","","","","","","","","","","","","","","","","","","","","","","","","","","","","","","","","","","","","","","","","","","","","","","","","","","","","","","","","","","","","","","","","","","","MET048METAR GQPA 310900Z 00000KT 8000 NSC 23/06 Q1020=","","","","","","","","","",""
"61421099999","2021-10-31T12:00:00","20.506828","-13.043194","231.03","ATAR, MR","FM-15","4","30.12","54","88","","","","","31","","","","4.97","","020","","11","","","","","","","","","","","","","","","","","","","","","","","","","","","","","","","","","","","","","","","","","","","","","","","","","","","","","","","","","","","","","","","","","","","","","","","","","","","","","","","","","","","","","","","","","","","MET048METAR GQPA 311200Z 02010KT 8000 NSC 31/12 Q1020=","","","","","","","","","",""
"61421099999","2021-10-31T15:00:00","20.506828","-13.043194","231.03","ATAR, MR","FM-15","4","30.03","50","95","","","","","22","","","","4.97","","360","","11","","","","","","","","","","","","","","","","","","","","","","","","","","","","","","","","","","","","","","","","","","","","","","","","","","","","","","","","","","","","","","","","","","","","","","","","","","","","","","","","","","","","","","","","","","","MET052METAR COR GQPA 311500Z 36010KT 8000 NSC 35/10 Q1017=","","","","","","","","","",""
"61421099999","2021-10-31T18:00:00","20.506828","-13.043194","231.03","ATAR, MR","FM-15","4","30.00","50","93","","","","","23","","","","4.97","","000","","0","","","","","","","","","","","","","","","","","","","","","","","","","","","","","","","","","","","","","","","","","","","","","","","","","","","","","","","","","","","","","","","","","","","","","","","","","","","","","","","","","","","","","","","","","","","MET048METAR GQPA 311800Z 00000KT 8000 NSC 34/10 Q1016=","","","","","","","","","",""
"61421099999","2021-11-01T09:00:00","20.506828","-13.043194","231.03","ATAR, MR","FM-15","4","30.06","39","75","","","","","27","","","","4.97","","020","","7","","","","","","","","","","","","","","","","","","","","","","","","","","","","","","","","","","","","","","","","","","","","","","","","","","","","","","","","","","","","","","","","","","","","","","","","","","","","","","","","","","","","","","","","","","","MET048METAR GQPA 010900Z 02006KT 8000 NSC 24/04 Q1018=","","","","","","","","","",""
"61421099999","2021-11-01T15:00:00","20.506828","-13.043194","231.03","ATAR, MR","FM-15","4","29.97","50","97","","","","","20","","","","6.15","","360","","7","","","","","","","","","","","","","","","","","","","","","","","","","","","","","","","","","","","","","","","","","","","","","","","","","","","","","","","","","","","","","","","","","","","","","","","","","","","","","","","","","","","","","","","","","","","MET045METAR GQPA 011500Z 36006KT CAVOK 36/10 Q1015=","","","","","","","","","",""
"61421099999","2021-11-01T18:00:00","20.506828","-13.043194","231.03","ATAR, MR","FM-15","4","29.97","50","95","","","","","22","","","","4.97","","360","","5","","","","","","","","","","","","","","","","","","","","","","","","","","","","","","","","","","","","","","","","","","","","","","","","","","","","","","","","","","","","","","","","","","","","","","","","","","","","","","","","","","","","","","","","","","","MET048METAR GQPA 011800Z 36004KT 8000 NSC 35/10 Q1015=","","","","","","","","","",""
"61421099999","2021-11-02T09:00:00","20.506828","-13.043194","231.03","ATAR, MR","FM-15","4","30.06","46","77","","","","","34","","","","6.15","","020","","9","","","","","","","","","","","","","","","","","","","","","","","","","","","","","","","","","","","","","","","","","","","","","","","","","","","","","","","","","","","","","","","","","","","","","","","","","","","","","","","","","","","","","","","","","","","MET045METAR GQPA 020900Z 02008KT CAVOK 25/08 Q1018=","","","","","","","","","",""
"61421099999","2021-11-02T12:00:00","20.506828","-13.043194","231.03","ATAR, MR","FM-15","4","30.03","50","84","","","","","31","","","","6.15","","360","","14","","","","","","","","","","","","","","","","","","","","","","","","","","","","","","","","","","","","","","","","","","","","","","","","","","","","","","","","","","","","","","","","","","","","","","","","","","","","","","","","","","","","","","","","","","","MET045METAR GQPA 021200Z 36012KT CAVOK 29/10 Q1017=","","","","","","","","","",""
"61421099999","2021-11-02T15:00:00","20.506828","-13.043194","231.03","ATAR, MR","FM-15","4","29.94","48","99","","","","","18","","","","6.15","","360","","14","","","","","","","","","","","","","","","","","","","","","","","","","","","","","","","","","","","","","","","","","","","","","","","","","","","","","","","","","","","","","","","","","","","","","","","","","","","","","","","","","","","","","","","","","","","MET045METAR GQPA 021500Z 36012KT CAVOK 37/09 Q1014=","","","","","","","","","",""
"61421099999","2021-11-03T09:00:00","20.506828","-13.043194","231.03","ATAR, MR","FM-15","4","30.03","45","81","","","","","28","","","","6.15","","020","","7","","","","","","","","","","","","","","","","","","","","","","","","","","","","","","","","","","","","","","","","","","","","","","","","","","","","","","","","","","","","","","","","","","","","","","","","","","","","","","","","","","","","","","","","","","","MET045METAR GQPA 030900Z 02006KT CAVOK 27/07 Q1017=","","","","","","","","","",""
"61421099999","2021-11-03T12:00:00","20.506828","-13.043194","231.03","ATAR, MR","FM-15","4","30.00","48","84","","","","","29","","","","6.15","","360","","14","","","","","","","","","","","","","","","","","","","","","","","","","","","","","","","","","","","","","","","","","","","","","","","","","","","","","","","","","","","","","","","","","","","","","","","","","","","","","","","","","","","","","","","","","","","MET045METAR GQPA 031200Z 36012KT CAVOK 29/09 Q1016=","","","","","","","","","",""
"61421099999","2021-11-03T15:00:00","20.506828","-13.043194","231.03","ATAR, MR","FM-15","4","29.94","50","99","","","","","19","","","","6.15","","360","","7","","","","","","","","","","","","","","","","","","","","","","","","","","","","","","","","","","","","","","","","","","","","","","","","","","","","","","","","","","","","","","","","","","","","","","","","","","","","","","","","","","","","","","","","","","","MET045METAR GQPA 031500Z 36006KT CAVOK 37/10 Q1014=","","","","","","","","","",""
"61421099999","2021-11-04T18:00:00","20.506828","-13.043194","231.03","ATAR, MR","FM-15","4","29.91","50","93","","","","","23","","","","6.15","","000","","0","","","","","","","","","","","","","","","","","","","","","","","","","","","","","","","","","","","","","","","","","","","","","","","","","","","","","","","","","","","","","","","","","","","","","","","","","","","","","","","","","","","","","","","","","","","MET045METAR GQPA 041800Z 00000KT CAVOK 34/10 Q1013=","","","","","","","","","",""
"61421099999","2021-11-05T09:00:00","20.506828","-13.043194","231.03","ATAR, MR","FM-15","4","30.03","43","77","","","","","30","","","","6.15","","020","","7","","","","","","","","","","","","","","","","","","","","","","","","","","","","","","","","","","","","","","","","","","","","","","","","","","","","","","","","","","","","","","","","","","","","","","","","","","","","","","","","","","","","","","","","","","","MET045METAR GQPA 050900Z 02006KT CAVOK 25/06 Q1017=","","","","","","","","","",""
"61421099999","2021-11-05T18:00:00","20.506828","-13.043194","231.03","ATAR, MR","FM-15","4","29.94","50","93","","","","","23","","","","6.15","","360","","7","","","","","","","","","","","","","","","","","","","","","","","","","","","","","","","","","","","","","","","","","","","","","","","","","","","","","","","","","","","","","","","","","","","","","","","","","","","","","","","","","","","","","","","","","","","MET045METAR GQPA 051800Z 36006KT CAVOK 34/10 Q1014=","","","","","","","","","",""
"61421099999","2021-11-06T09:00:00","20.506828","-13.043194","231.03","ATAR, MR","FM-15","4","30.03","43","72","","","","","36","","","","6.15","","360","","11","","","","","","","","","","","","","","","","","","","","","","","","","","","","","","","","","","","","","","","","","","","","","","","","","","","","","","","","","","","","","","","","","","","","","","","","","","","","","","","","","","","","","","","","","","","MET045METAR GQPA 060900Z 36010KT CAVOK 22/06 Q1017=","","","","","","","","","",""
"61421099999","2021-11-06T18:00:00","20.506828","-13.043194","231.03","ATAR, MR","FM-15","4","29.91","54","90","","","","","29","","","","4.97","","020","","5","","","","","","","","","","","","","","","","","","","","","","","","","","","","","","","","","","","","","","","","","","","","","","","","","","","","","","","","","","","","","","","","","","","","","","","","","","","","","","","","","","","","","","","","","","","MET048METAR GQPA 061800Z 02004KT 8000 NSC 32/12 Q1013=","","","","","","","","","",""
"61421099999","2021-11-07T09:00:00","20.506828","-13.043194","231.03","ATAR, MR","FM-15","4","30.00","39","73","","","","","29","","","","4.97","","020","","7","","","","","","","","","","","","","","","","","","","","","","","","","","","","","","","","","","","","","","","","","","","","","","","","","","","","","","","","","","","","","","","","","","","","","","","","","","","","","","","","","","","","","","","","","","","MET048METAR GQPA 070900Z 02006KT 8000 NSC 23/04 Q1016=","","","","","","","","","",""
"61421099999","2021-11-07T18:00:00","20.506828","-13.043194","231.03","ATAR, MR","FM-15","4","29.91","48","90","","","","","24","","","","6.15","","040","","9","","","","","","","","","","","","","","","","","","","","","","","","","","","","","","","","","","","","","","","","","","","","","","","","","","","","","","","","","","","","","","","","","","","","","","","","","","","","","","","","","","","","","","","","","","","MET045METAR GQPA 071800Z 04008KT CAVOK 32/09 Q1013=","","","","","","","","","",""
"61421099999","2021-11-08T09:00:00","20.506828","-13.043194","231.03","ATAR, MR","FM-15","4","30.00","43","73","","","","","33","","","","4.97","","040","","9","","","","","","","","","","","","","","","","","","","","","","","","","","","","","","","","","","","","","","","","","","","","","","","","","","","","","","","","","","","","","","","","","","","","","","","","","","","","","","","","","","","","","","","","","","","MET048METAR GQPA 080900Z 04008KT 8000 NSC 23/06 Q1016=","","","","","","","","","",""
"61421099999","2021-11-08T12:00:00","20.506828","-13.043194","231.03","ATAR, MR","FM-15","4","30.03","45","79","","","","","30","","","","6.15","","040","","7","","","","","","","","","","","","","","","","","","","","","","","","","","","","","","","","","","","","","","","","","","","","","","","","","","","","","","","","","","","","","","","","","","","","","","","","","","","","","","","","","","","","","","","","","","","MET045METAR GQPA 081200Z 04006KT CAVOK 26/07 Q1017=","","","","","","","","","",""
"61421099999","2021-11-08T15:00:00","20.506828","-13.043194","231.03","ATAR, MR","FM-15","4","29.91","54","90","","","","","29","","","","6.15","","360","","7","","","","","","","","","","","","","","","","","","","","","","","","","","","","","","","","","","","","","","","","","","","","","","","","","","","","","","","","","","","","","","","","","","","","","","","","","","","","","","","","","","","","","","","","","","","MET045METAR GQPA 081500Z 36006KT CAVOK 32/12 Q1013=","","","","","","","","","",""
"61421099999","2021-11-09T09:00:00","20.506828","-13.043194","231.03","ATAR, MR","FM-15","4","29.97","37","77","","","","","24","","","","4.35","","020","","7","","","","","","","","","","","","","","","","","","","","","","","","","","","","","","","","","","","","","","","","","","","","","","","","","","","","","","","","","","","","","","","","","","","","","","","","","","","","","","","","","","","","","","","","","","","MET048METAR GQPA 090900Z 02006KT 7000 NSC 25/03 Q1015=","","","","","","","","","",""
"61421099999","2021-11-10T12:00:00","20.506828","-13.043194","231.03","ATAR, MR","FM-15","4","29.97","41","88","","||DU","","","19","BKN:07 100","","","3.73","","160","","21","","","","","","","","","","","","","","","","","","","","","","","","","","","","","","","","","","","","","","","","","","","","","","","","","","","","","","","","","","","","","","","","","","","","","","","","","","","","","","","","","","","","","","","","","","","MET056METAR GQPA 101200Z 16018KT 6000 BLDU BKN100 31/05 Q1015=","","","","","","","","","",""
"61421099999","2021-11-12T12:00:00","20.506828","-13.043194","231.03","ATAR, MR","FM-15","4","30.00","48","90","","","","","24","","","","4.97","","000","","0","","","","","","","","","","","","","","","","","","","","","","","","","","","","","","","","","","","","","","","","","","","","","","","","","","","","","","","","","","","","","","","","","","","","","","","","","","","","","","","","","","","","","","","","","","","MET048METAR GQPA 121200Z 00000KT 8000 NSC 32/09 Q1016=","","","","","","","","","",""
"61421099999","2021-11-13T09:00:00","20.506828","-13.043194","231.03","ATAR, MR","FM-15","4","30.00","37","77","","","","","24","","","","4.97","","360","","5","","","","","","","","","","","","","","","","","","","","","","","","","","","","","","","","","","","","","","","","","","","","","","","","","","","","","","","","","","","","","","","","","","","","","","","","","","","","","","","","","","","","","","","","","","","MET048METAR GQPA 130900Z 36004KT 8000 NSC 25/03 Q1016=","","","","","","","","","",""
"61421099999","2021-11-13T18:00:00","20.506828","-13.043194","231.03","ATAR, MR","FM-15","4","29.88","41","91","","","","","17","","","","4.97","","280","","11","","","","","","","","","","","","","","","","","","","","","","","","","","","","","","","","","","","","","","","","","","","","","","","","","","","","","","","","","","","","","","","","","","","","","","","","","","","","","","","","","","","","","","","","","","","MET048METAR GQPA 131800Z 28010KT 8000 NSC 33/05 Q1012=","","","","","","","","","",""
"61421099999","2021-11-14T09:00:00","20.506828","-13.043194","231.03","ATAR, MR","FM-15","4","30.03","43","77","","","","","30","","","","4.97","","020","","7","","","","","","","","","","","","","","","","","","","","","","","","","","","","","","","","","","","","","","","","","","","","","","","","","","","","","","","","","","","","","","","","","","","","","","","","","","","","","","","","","","","","","","","","","","","MET048METAR GQPA 140900Z 02006KT 8000 NSC 25/06 Q1017=","","","","","","","","","",""
"61421099999","2021-11-14T12:00:00","20.506828","-13.043194","231.03","ATAR, MR","FM-15","4","29.97","45","73","","","","","36","","","","6.15","","000","","0","","","","","","","","","","","","","","","","","","","","","","","","","","","","","","","","","","","","","","","","","","","","","","","","","","","","","","","","","","","","","","","","","","","","","","","","","","","","","","","","","","","","","","","","","","","MET045METAR GQPA 141200Z 00000KT CAVOK 23/07 Q1015=","","","","","","","","","",""
"61421099999","2021-11-15T09:00:00","20.506828","-13.043194","231.03","ATAR, MR","FM-15","4","30.06","43","79","","","","","28","","","","4.97","","360","","7","","","","","","","","","","","","","","","","","","","","","","","","","","","","","","","","","","","","","","","","","","","","","","","","","","","","","","","","","","","","","","","","","","","","","","","","","","","","","","","","","","","","","","","","","","","MET048METAR GQPA 150900Z 36006KT 8000 NSC 26/06 Q1018=","","","","","","","","","",""
"61421099999","2021-11-15T12:00:00","20.506828","-13.043194","231.03","ATAR, MR","FM-15","4","30.03","46","91","","","","","21","","","","4.97","","000","","0","","","","","","","","","","","","","","","","","","","","","","","","","","","","","","","","","","","","","","","","","","","","","","","","","","","","","","","","","","","","","","","","","","","","","","","","","","","","","","","","","","","","","","","","","","","MET048METAR GQPA 151200Z 00000KT 8000 NSC 33/08 Q1017=","","","","","","","","","",""
"61421099999","2021-11-15T15:00:00","20.506828","-13.043194","231.03","ATAR, MR","FM-15","4","29.85s","45","95","","","","","18","","","","4.97","","000","","0","","","","","","","","","","","","","","","","","","","","","","","","","","","","","","","","","","","","","","","","","","","","","","","","","","","","","","","","","","","","","","","","","","","","","","","","","","","","","","","","","","","","","","","","","","","MET048METAR GQPA 151500Z 00000KT 8000 NSC 35/07 Q1011=","","","","","","","","","",""
"61421099999","2021-11-15T18:00:00","20.506828","-13.043194","231.03","ATAR, MR","FM-15","4","29.97","43","93","","","","","17","","","","4.97","","000","","0","","","","","","","","","","","","","","","","","","","","","","","","","","","","","","","","","","","","","","","","","","","","","","","","","","","","","","","","","","","","","","","","","","","","","","","","","","","","","","","","","","","","","","","","","","","MET048METAR GQPA 151800Z 00000KT 8000 NSC 34/06 Q1015=","","","","","","","","","",""
"61421099999","2021-11-16T09:00:00","20.506828","-13.043194","231.03","ATAR, MR","FM-15","4","30.00","43","82","","","","","25","","","","4.97","","360","","5","","","","","","","","","","","","","","","","","","","","","","","","","","","","","","","","","","","","","","","","","","","","","","","","","","","","","","","","","","","","","","","","","","","","","","","","","","","","","","","","","","","","","","","","","","","MET048METAR GQPA 160900Z 36004KT 8000 NSC 28/06 Q1016=","","","","","","","","","",""
"61421099999","2021-11-16T12:00:00","20.506828","-13.043194","231.03","ATAR, MR","FM-15","4","29.97","50","91","","","","","24","BKN:07 100","","","4.97","","000","","0","","","","","","","","","","","","","","","","","","","","","","","","","","","","","","","","","","","","","","","","","","","","","","","","","","","","","","","","","","","","","","","","","","","","","","","","","","","","","","","","","","","","","","","","","","","MET051METAR GQPA 161200Z 00000KT 8000 BKN100 33/10 Q1015=","","","","","","","","","",""
"61421099999","2021-11-16T15:00:00","20.506828","-13.043194","231.03","ATAR, MR","FM-15","4","29.91","46","91","","","","","21","BKN:07 100","","","4.97","","000","","0","","","","","","","","","","","","","","","","","","","","","","","","","","","","","","","","","","","","","","","","","","","","","","","","","","","","","","","","","","","","","","","","","","","","","","","","","","","","","","","","","","","","","","","","","","","MET051METAR GQPA 161500Z 00000KT 8000 BKN100 33/08 Q1013=","","","","","","","","","",""
"61421099999","2021-11-16T18:00:00","20.506828","-13.043194","231.03","ATAR, MR","FM-15","4","29.94","48","86","","","","","27","BKN:07 100","","","4.97","","060","","16","","","","","","","","","","","","","","","","","","","","","","","","","","","","","","","","","","","","","","","","","","","","","","","","","","","","","","","","","","","","","","","","","","","","","","","","","","","","","","","","","","","","","","","","","","","MET051METAR GQPA 161800Z 06014KT 8000 BKN100 30/09 Q1014=","","","","","","","","","",""
"61421099999","2021-11-17T15:00:00","20.506828","-13.043194","231.03","ATAR, MR","FM-15","4","29.94","50","91","","","","","24","BKN:07 100","","","4.97","","360","","9","","","","","","","","","","","","","","","","","","","","","","","","","","","","","","","","","","","","","","","","","","","","","","","","","","","","","","","","","","","","","","","","","","","","","","","","","","","","","","","","","","","","","","","","","","","MET051METAR GQPA 171500Z 36008KT 8000 BKN100 33/10 Q1014=","","","","","","","","","",""
"61421099999","2021-11-17T18:00:00","20.506828","-13.043194","231.03","ATAR, MR","FM-15","4","29.94","46","86","","","","","25","BKN:07 100","","","4.97","","000","","0","","","","","","","","","","","","","","","","","","","","","","","","","","","","","","","","","","","","","","","","","","","","","","","","","","","","","","","","","","","","","","","","","","","","","","","","","","","","","","","","","","","","","","","","","","","MET051METAR GQPA 171800Z 00000KT 8000 BKN100 30/08 Q1014=","","","","","","","","","",""
"61421099999","2021-11-18T09:00:00","20.506828","-13.043194","231.03","ATAR, MR","FM-15","4","29.91","52","79","","","","","39","OVC:08 100","","","4.97","","000","","0","","","","","","","","","","","","","","","","","","","","","","","","","","","","","","","","","","","","","","","","","","","","","","","","","","","","","","","","","","","","","","","","","","","","","","","","","","","","","","","","","","","","","","","","","","","MET051METAR GQPA 180900Z 00000KT 8000 OVC100 26/11 Q1013=","","","","","","","","","",""
"61421099999","2021-11-18T12:00:00","20.506828","-13.043194","231.03","ATAR, MR","FM-15","4","29.91","54","90","","","","","29","OVC:08 100","","","4.97","","160","","9","","","","","","","","","","","","","","","","","","","","","","","","","","","","","","","","","","","","","","","","","","","","","","","","","","","","","","","","","","","","","","","","","","","","","","","","","","","","","","","","","","","","","","","","","","","MET051METAR GQPA 181200Z 16008KT 8000 OVC100 32/12 Q1013=","","","","","","","","","",""
"61421099999","2021-11-18T18:00:00","20.506828","-13.043194","231.03","ATAR, MR","FM-15","4","29.91","54","88","","","","","31","OVC:08 100","","","4.97","","340","","11","","","","","","","","","","","","","","","","","","","","","","","","","","","","","","","","","","","","","","","","","","","","","","","","","","","","","","","","","","","","","","","","","","","","","","","","","","","","","","","","","","","","","","","","","","","MET051METAR GQPA 181800Z 34010KT 8000 OVC100 31/12 Q1013=","","","","","","","","","",""
"61421099999","2021-11-19T09:00:00","20.506828","-13.043194","231.03","ATAR, MR","FM-15","4","30.06","48","72","","","","","44","","","","4.97","","360","","5","","","","","","","","","","","","","","","","","","","","","","","","","","","","","","","","","","","","","","","","","","","","","","","","","","","","","","","","","","","","","","","","","","","","","","","","","","","","","","","","","","","","","","","","","","","MET048METAR GQPA 190900Z 36004KT 8000 NSC 22/09 Q1018=","","","","","","","","","",""
"61421099999","2021-11-19T12:00:00","20.506828","-13.043194","231.03","ATAR, MR","FM-15","4","30.03","59","81","","","","","48","OVC:08 100","","","4.97","","360","","5","","","","","","","","","","","","","","","","","","","","","","","","","","","","","","","","","","","","","","","","","","","","","","","","","","","","","","","","","","","","","","","","","","","","","","","","","","","","","","","","","","","","","","","","","","","MET051METAR GQPA 191200Z 36004KT 8000 OVC100 27/15 Q1017=","","","","","","","","","",""
"61421099999","2021-11-19T18:00:00","20.506828","-13.043194","231.03","ATAR, MR","FM-15","4","29.97","55","88","","","","","33","","","","4.97","","360","","9","","","","","","","","","","","","","","","","","","","","","","","","","","","","","","","","","","","","","","","","","","","","","","","","","","","","","","","","","","","","","","","","","","","","","","","","","","","","","","","","","","","","","","","","","","","MET048METAR GQPA 191800Z 36008KT 8000 NSC 31/13 Q1015=","","","","","","","","","",""
"61421099999","2021-11-20T09:00:00","20.506828","-13.043194","231.03","ATAR, MR","FM-15","4","30.06","43","77","","","","","30","","","","4.97","","360","","9","","","","","","","","","","","","","","","","","","","","","","","","","","","","","","","","","","","","","","","","","","","","","","","","","","","","","","","","","","","","","","","","","","","","","","","","","","","","","","","","","","","","","","","","","","","MET048METAR GQPA 200900Z 36008KT 8000 NSC 25/06 Q1018=","","","","","","","","","",""
"61421099999","2021-11-20T12:00:00","20.506828","-13.043194","231.03","ATAR, MR","FM-15","4","30.06","43","88","","","","","21","","","","4.97","","340","","11","","","","","","","","","","","","","","","","","","","","","","","","","","","","","","","","","","","","","","","","","","","","","","","","","","","","","","","","","","","","","","","","","","","","","","","","","","","","","","","","","","","","","","","","","","","MET048METAR GQPA 201200Z 34010KT 8000 NSC 31/06 Q1018=","","","","","","","","","",""
"61421099999","2021-11-20T15:00:00","20.506828","-13.043194","231.03","ATAR, MR","FM-15","4","30.00","48","93","","","","","21","","","","4.97","","360","","7","","","","","","","","","","","","","","","","","","","","","","","","","","","","","","","","","","","","","","","","","","","","","","","","","","","","","","","","","","","","","","","","","","","","","","","","","","","","","","","","","","","","","","","","","","","MET048METAR GQPA 201500Z 36006KT 8000 NSC 34/09 Q1016=","","","","","","","","","",""
"61421099999","2021-11-20T18:00:00","20.506828","-13.043194","231.03","ATAR, MR","FM-15","4","29.97","50","91","","","","","24","","","","4.97","","090","","7","","","","","","","","","","","","","","","","","","","","","","","","","","","","","","","","","","","","","","","","","","","","","","","","","","","","","","","","","","","","","","","","","","","","","","","","","","","","","","","","","","","","","","","","","","","MET048METAR GQPA 201800Z 09006KT 8000 NSC 33/10 Q1015=","","","","","","","","","",""
"61421099999","2021-11-21T09:00:00","20.506828","-13.043194","231.03","ATAR, MR","FM-15","4","30.03","46","79","","","","","32","","","","4.97","","040","","5","","","","","","","","","","","","","","","","","","","","","","","","","","","","","","","","","","","","","","","","","","","","","","","","","","","","","","","","","","","","","","","","","","","","","","","","","","","","","","","","","","","","","","","","","","","MET048METAR GQPA 210900Z 04004KT 8000 NSC 26/08 Q1017=","","","","","","","","","",""
"61421099999","2021-11-22T12:00:00","20.506828","-13.043194","231.03","ATAR, MR","FM-15","4","30.09","52","79","","","","","39","","","","4.97","","360","","11","","","","","","","","","","","","","","","","","","","","","","","","","","","","","","","","","","","","","","","","","","","","","","","","","","","","","","","","","","","","","","","","","","","","","","","","","","","","","","","","","","","","","","","","","","","MET048METAR GQPA 221200Z 36010KT 8000 NSC 26/11 Q1019=","","","","","","","","","",""
"61421099999","2021-11-22T15:00:00","20.506828","-13.043194","231.03","ATAR, MR","FM-15","4","29.97","50","91","","","","","24","","","","4.97","","040","","11","","","","","","","","","","","","","","","","","","","","","","","","","","","","","","","","","","","","","","","","","","","","","","","","","","","","","","","","","","","","","","","","","","","","","","","","","","","","","","","","","","","","","","","","","","","MET048METAR GQPA 221500Z 04010KT 8000 NSC 33/10 Q1015=","","","","","","","","","",""
"61421099999","2021-11-22T18:00:00","20.506828","-13.043194","231.03","ATAR, MR","FM-15","4","29.94","50","90","","","","","26","","","","4.97","","060","","11","","","","","","","","","","","","","","","","","","","","","","","","","","","","","","","","","","","","","","","","","","","","","","","","","","","","","","","","","","","","","","","","","","","","","","","","","","","","","","","","","","","","","","","","","","","MET048METAR GQPA 221800Z 06010KT 8000 NSC 32/10 Q1014=","","","","","","","","","",""
"61421099999","2021-11-23T18:00:00","20.506828","-13.043194","231.03","ATAR, MR","FM-15","4","30.00","59","93","","","","","32","","","","4.97","","040","","5","","","","","","","","","","","","","","","","","","","","","","","","","","","","","","","","","","","","","","","","","","","","","","","","","","","","","","","","","","","","","","","","","","","","","","","","","","","","","","","","","","","","","","","","","","","MET048METAR GQPA 231800Z 04004KT 8000 NSC 34/15 Q1016=","","","","","","","","","",""
"61421099999","2021-11-24T09:00:00","20.506828","-13.043194","231.03","ATAR, MR","FM-15","4","30.06","43","77","","","","","30","","","","4.97","","360","","7","","","","","","","","","","","","","","","","","","","","","","","","","","","","","","","","","","","","","","","","","","","","","","","","","","","","","","","","","","","","","","","","","","","","","","","","","","","","","","","","","","","","","","","","","","","MET048METAR GQPA 240900Z 36006KT 8000 NSC 25/06 Q1018=","","","","","","","","","",""
"61421099999","2021-11-26T18:00:00","20.506828","-13.043194","231.03","ATAR, MR","FM-15","4","29.88","48","97","","","","","19","","","","4.97","","340","","5","","","","","","","","","","","","","","","","","","","","","","","","","","","","","","","","","","","","","","","","","","","","","","","","","","","","","","","","","","","","","","","","","","","","","","","","","","","","","","","","","","","","","","","","","","","MET048METAR GQPA 261800Z 34004KT 8000 NSC 36/09 Q1012=","","","","","","","","","",""
"61421099999","2021-11-28T09:00:00","20.506828","-13.043194","231.03","ATAR, MR","FM-15","4","30.12","36","64","","","","","34","","","","4.97","","040","","16","","","","","","","","","","","","","","","","","","","","","","","","","","","","","","","","","","","","","","","","","","","","","","","","","","","","","","","","","","","","","","","","","","","","","","","","","","","","","","","","","","","","","","","","","","","MET048METAR GQPA 280900Z 04014KT 8000 NSC 18/02 Q1020=","","","","","","","","","",""
"61421099999","2021-11-28T18:00:00","20.506828","-13.043194","231.03","ATAR, MR","FM-15","4","30.06","46","75","","||DU","","","36","","","","2.49","","060","","18","","","","","","","","","","","","","","","","","","","","","","","","","","","","","","","","","","","","","","","","","","","","","","","","","","","","","","","","","","","","","","","","","","","","","","","","","","","","","","","","","","","","","","","","","","","MET053METAR GQPA 281800Z 06016KT 4000 BLSA NSC 24/08 Q1018=","","","","","","","","","",""
"61421099999","2021-11-29T09:00:00","20.506828","-13.043194","231.03","ATAR, MR","FM-15","4","30.15","27","59","","","","","29","","","","4.97","","040","","11","","","","","","","","","","","","","","","","","","","","","","","","","","","","","","","","","","","","","","","","","","","","","","","","","","","","","","","","","","","","","","","","","","","","","","","","","","","","","","","","","","","","","","","","","","","MET049METAR GQPA 290900Z 04010KT 8000 NSC 15/M03 Q1021=","","","","","","","","","",""
"61421099999","2021-12-01T09:00:00","20.506828","-13.043194","231.03","ATAR, MR","FM-15","4","30.09","28","68","","||DU","","","23","","","","2.49","","360","","7","","","","","","","","","","","","","","","","","","","","","","","","","","","","","","","","","","","","","","","","","","","","","","","","","","","","","","","","","","","","","","","","","","","","","","","","","","","","","","","","","","","","","","","","","","","MET052METAR GQPA 010900Z 36006KT 4000 DU NSC 20/M02 Q1019=","","","","","","","","","",""
"61421099999","2021-12-01T12:00:00","20.506828","-13.043194","231.03","ATAR, MR","FM-15","4","30.06","37","81","","||DU","","","21","","","","1.86","","360","","7","","","","","","","","","","","","","","","","","","","","","","","","","","","","","","","","","","","","","","","","","","","","","","","","","","","","","","","","","","","","","","","","","","","","","","","","","","","","","","","","","","","","","","","","","","","MET053METAR GQPA 011200Z 36006KT 3000 BLDU NSC 27/03 Q1018=","","","","","","","","","",""
"61421099999","2021-12-02T09:00:00","20.506828","-13.043194","231.03","ATAR, MR","FM-15","4","30.06","39","66","","||DU","","","37","","","","3.73","","360","","11","","","","","","","","","","","","","","","","","","","","","","","","","","","","","","","","","","","","","","","","","","","","","","","","","","","","","","","","","","","","","","","","","","","","","","","","","","","","","","","","","","","","","","","","","","","MET053METAR GQPA 020900Z 36010KT 6000 BLDU NSC 19/04 Q1018=","","","","","","","","","",""
"61421099999","2021-12-03T12:00:00","20.506828","-13.043194","231.03","ATAR, MR","FM-15","4","30.06","34","72","","","","","25","","","","4.35","","360","","14","","","","","","","","","","","","","","","","","","","","","","","","","","","","","","","","","","","","","","","","","","","","","","","","","","","","","","","","","","","","","","","","","","","","","","","","","","","","","","","","","","","","","","","","","","","MET048METAR GQPA 031200Z 36012KT 7000 NSC 22/01 Q1018=","","","","","","","","","",""
"61421099999","2021-12-04T09:00:00","20.506828","-13.043194","231.03","ATAR, MR","FM-15","4","30.09","30","64","","","","","28","","","","6.15","","360","","7","","","","","","","","","","","","","","","","","","","","","","","","","","","","","","","","","","","","","","","","","","","","","","","","","","","","","","","","","","","","","","","","","","","","","","","","","","","","","","","","","","","","","","","","","","","MET046METAR GQPA 040900Z 36006KT CAVOK 18/M01 Q1019=","","","","","","","","","",""
"61421099999","2021-12-04T18:00:00","20.506828","-13.043194","231.03","ATAR, MR","FM-15","4","30.03","32","84","","","","","15","","","","4.97","","060","","11","","","","","","","","","","","","","","","","","","","","","","","","","","","","","","","","","","","","","","","","","","","","","","","","","","","","","","","","","","","","","","","","","","","","","","","","","","","","","","","","","","","","","","","","","","","MET048METAR GQPA 041800Z 06010KT 8000 NSC 29/00 Q1017=","","","","","","","","","",""
"61421099999","2021-12-05T09:00:00","20.506828","-13.043194","231.03","ATAR, MR","FM-15","4","30.12","30","75","","||DU","","","19","","","","2.49","","030","","10","","","","","","","","","","","","","","","","","","","","","","","","","","","","","","","","","","","","","","","","","","","","","","","","","","","","","","","","","","","","","","","","","","","","","","","","","","","","","","","","","","","","","","","","","","","MET054METAR GQPA 050900Z 03009KT 4000 BLDU NSC 24/M01 Q1020=","","","","","","","","","",""
"61421099999","2021-12-05T12:00:00","20.506828","-13.043194","231.03","ATAR, MR","FM-15","4","30.06","37","77","","||DU","","","24","","","","1.86","","060","","18","","","","","","","","","","","","","","","","","","","","","","","","","","","","","","","","","","","","","","","","","","","","","","","","","","","","","","","","","","","","","","","","","","","","","","","","","","","","","","","","","","","","","","","","","","","MET053METAR GQPA 051200Z 06016KT 3000 BLSA NSC 25/03 Q1018=","","","","","","","","","",""
"61421099999","2021-12-06T09:00:00","20.506828","-13.043194","231.03","ATAR, MR","FM-15","4","30.12","34","64","","","","","32","","","","4.35","","020","","11","","","","","","","","","","","","","","","","","","","","","","","","","","","","","","","","","","","","","","","","","","","","","","","","","","","","","","","","","","","","","","","","","","","","","","","","","","","","","","","","","","","","","","","","","","","MET048METAR GQPA 060900Z 02010KT 7000 NSC 18/01 Q1020=","","","","","","","","","",""
"61421099999","2021-12-06T18:00:00","20.506828","-13.043194","231.03","ATAR, MR","FM-15","4","29.91","25","79","","","","","13","","","","4.97","","080","","15","","","","","","","","","","","","","","","","","","","","","","","","","","","","","","","","","","","","","","","","","","","","","","","","","","","","","","","","","","","","","","","","","","","","","","","","","","","","","","","","","","","","","","","","","","","MET049METAR GQPA 061800Z 08013KT 8000 NSC 26/M04 Q1013=","","","","","","","","","",""
"61421099999","2021-12-07T09:00:00","20.506828","-13.043194","231.03","ATAR, MR","FM-15","4","30.12","39","73","","||DU","","","29","","","","1.86","","040","","14","","","","","","","","","","","","","","","","","","","","","","","","","","","","","","","","","","","","","","","","","","","","","","","","","","","","","","","","","","","","","","","","","","","","","","","","","","","","","","","","","","","","","","","","","","","MET053METAR GQPA 070900Z 04012KT 3000 BLDU NSC 23/04 Q1020=","","","","","","","","","",""
"61421099999","2021-12-07T12:00:00","20.506828","-13.043194","231.03","ATAR, MR","FM-15","4","30.12","39","75","","||DU","","","27","","","","2.49","","040","","16","","","","","","","","","","","","","","","","","","","","","","","","","","","","","","","","","","","","","","","","","","","","","","","","","","","","","","","","","","","","","","","","","","","","","","","","","","","","","","","","","","","","","","","","","","","MET053METAR GQPA 071200Z 04014KT 4000 BLSA NSC 24/04 Q1020=","","","","","","","","","",""
"61421099999","2021-12-07T15:00:00","20.506828","-13.043194","231.03","ATAR, MR","FM-15","4","30.06","43","77","","||DU","","","30","","","","3.73","","060","","11","","","","","","","","","","","","","","","","","","","","","","","","","","","","","","","","","","","","","","","","","","","","","","","","","","","","","","","","","","","","","","","","","","","","","","","","","","","","","","","","","","","","","","","","","","","MET053METAR GQPA 071500Z 06010KT 6000 BLDU NSC 25/06 Q1018=","","","","","","","","","",""
"61421099999","2021-12-08T09:00:00","20.506828","-13.043194","231.03","ATAR, MR","FM-15","4","","28","70","","||DU","","","21","","","","1.86","","VRB","","9","","","","","","","","","","","","","","","","","","","","","","","","","","","","","","","","","","","","","","","","","","","","","","","","","","","","","","","","","","","","","","","","","","","","","","","","","","","","","","","","","","","","","","","","","","","MET062METAR GQPA 080900Z 04008KT 360V060 3000 BLDU NSC 21/M02 Q////=","","","","","","","","","",""
"61421099999","2021-12-08T12:00:00","20.506828","-13.043194","231.03","ATAR, MR","FM-15","4","30.15","28","79","","||DU","","","16","","","","2.49","","060","","14","","","","","","","","","","","","","","","","","","","","","","","","","","","","","","","","","","","","","","","","","","","","","","","","","","","","","","","","","","","","","","","","","","","","","","","","","","","","","","","","","","","","","","","","","","","MET054METAR GQPA 081200Z 06012KT 4000 BLDU NSC 26/M02 Q1021=","","","","","","","","","",""
"61421099999","2021-12-08T18:00:00","20.506828","-13.043194","231.03","ATAR, MR","FM-15","4","29.97","28","82","","","","","14","","","","4.35","","040","","17","","","","","","","","","","","","","","","","","","","","","","","","","","","","","","","","","","","","","","","","","","","","","","","","","","","","","","","","","","","","","","","","","","","","","","","","","","","","","","","","","","","","","","","","","","","MET049METAR GQPA 081800Z 04015KT 7000 NSC 28/M02 Q1015=","","","","","","","","","",""
"61421099999","2021-12-09T12:00:00","20.506828","-13.043194","231.03","ATAR, MR","FM-15","4","30.09","37","73","","||DU","","","27","","","","3.11","","020","","16","","","","","","","","","","","","","","","","","","","","","","","","","","","","","","","","","","","","","","","","","","","","","","","","","","","","","","","","","","","","","","","","","","","","","","","","","","","","","","","","","","","","","","","","","","","MET053METAR GQPA 091200Z 02014KT 5000 BLDU NSC 23/03 Q1019=","","","","","","","","","",""
"61421099999","2021-12-09T18:00:00","20.506828","-13.043194","231.03","ATAR, MR","FM-15","4","30.00","25","77","","||DU","","","14","","","","3.73","","340","","18","","","","","","","","","","","","","","","","","","","","","","","","","","","","","","","","","","","","","","","","","","","","","","","","","","","","","","","","","","","","","","","","","","","","","","","","","","","","","","","","","","","","","","","","","","","MET052METAR GQPA 091800Z 34016KT 6000 DU NSC 25/M04 Q1016=","","","","","","","","","",""
"61421099999","2021-12-10T09:00:00","20.506828","-13.043194","231.03","ATAR, MR","FM-15","4","30.09","23","81","","","","","12","","","","4.35","","VRB","","6","","","","","","","","","","","","","","","","","","","","","","","","","","","","","","","","","","","","","","","","","","","","","","","","","","","","","","","","","","","","","","","","","","","","","","","","","","","","","","","","","","","","","","","","","","","MET057METAR GQPA 100900Z 33005KT 280V020 7000 NSC 27/M05 Q1019=","","","","","","","","","",""
"61421099999","2021-12-10T12:00:00","20.506828","-13.043194","231.03","ATAR, MR","FM-15","4","30.06","25","77","","","","","14","","","","4.35","","VRB","","15","","","","","","","","","","","","","","","","","","","","","","","","","","","","","","","","","","","","","","","","","","","","","","","","","","","","","","","","","","","","","","","","","","","","","","","","","","","","","","","","","","","","","","","","","","","MET063METAR GQPA 101200Z 33013KT 300V360 7000 NSC 25/M04 Q1018 Q1016=","","","","","","","","","",""
"61421099999","2021-12-10T18:00:00","20.506828","-13.043194","231.03","ATAR, MR","FM-15","4","29.94","27","82","","","","","13","","","","4.97","","360","","14","","","","","","","","","","","","","","","","","","","","","","","","","","","","","","","","","","","","","","","","","","","","","","","","","","","","","","","","","","","","","","","","","","","","","","","","","","","","","","","","","","","","","","","","","","","MET049METAR GQPA 101800Z 36012KT 8000 NSC 28/M03 Q1014=","","","","","","","","","",""
"61421099999","2021-12-11T15:00:00","20.506828","-13.043194","231.03","ATAR, MR","FM-15","4","29.91","32","86","","","","","14","","","","4.97","","VRB","","11","","","","","","","","","","","","","","","","","","","","","","","","","","","","","","","","","","","","","","","","","","","","","","","","","","","","","","","","","","","","","","","","","","","","","","","","","","","","","","","","","","","","","","","","","","","MET057METAR GQPA 111500Z 04010KT 290V360 8000 NSC 30/M00 Q1013=","","","","","","","","","",""
"61421099999","2021-12-11T18:00:00","20.506828","-13.043194","231.03","ATAR, MR","FM-15","4","29.94","36","82","","","","","19","","","","4.97","","080","","14","","","","","","","","","","","","","","","","","","","","","","","","","","","","","","","","","","","","","","","","","","","","","","","","","","","","","","","","","","","","","","","","","","","","","","","","","","","","","","","","","","","","","","","","","","","MET048METAR GQPA 111800Z 08012KT 8000 NSC 28/02 Q1014=","","","","","","","","","",""
"61421099999","2021-12-12T12:00:00","20.506828","-13.043194","231.03","ATAR, MR","FM-15","4","30.00","36","82","","","","","19","","","","4.97","","000","","0","","","","","","","","","","","","","","","","","","","","","","","","","","","","","","","","","","","","","","","","","","","","","","","","","","","","","","","","","","","","","","","","","","","","","","","","","","","","","","","","","","","","","","","","","","","MET048METAR GQPA 121200Z 00000KT 8000 NSC 28/02 Q1016=","","","","","","","","","",""
"61421099999","2021-12-13T09:00:00","20.506828","-13.043194","231.03","ATAR, MR","FM-15","4","30.06","28","64","","","","","26","","","","4.97","","000","","0","","","","","","","","","","","","","","","","","","","","","","","","","","","","","","","","","","","","","","","","","","","","","","","","","","","","","","","","","","","","","","","","","","","","","","","","","","","","","","","","","","","","","","","","","","","MET049METAR GQPA 130900Z 00000KT 8000 NSC 18/M02 Q1018=","","","","","","","","","",""
"61421099999","2021-12-13T12:00:00","20.506828","-13.043194","231.03","ATAR, MR","FM-15","4","30.03","37","82","","","","","20","","","","4.97","","000","","0","","","","","","","","","","","","","","","","","","","","","","","","","","","","","","","","","","","","","","","","","","","","","","","","","","","","","","","","","","","","","","","","","","","","","","","","","","","","","","","","","","","","","","","","","","","MET048METAR GQPA 131200Z 00000KT 8000 NSC 28/03 Q1017=","","","","","","","","","",""
"61421099999","2021-12-13T15:00:00","20.506828","-13.043194","231.03","ATAR, MR","FM-15","4","29.94","34","90","","","","","14","","","","4.97","","360","","7","","","","","","","","","","","","","","","","","","","","","","","","","","","","","","","","","","","","","","","","","","","","","","","","","","","","","","","","","","","","","","","","","","","","","","","","","","","","","","","","","","","","","","","","","","","MET048METAR GQPA 131500Z 36006KT 8000 NSC 32/01 Q1014=","","","","","","","","","",""
"61421099999","2021-12-13T18:00:00","20.506828","-13.043194","231.03","ATAR, MR","FM-15","4","29.94","36","90","","","","","15","","","","4.97","","360","","5","","","","","","","","","","","","","","","","","","","","","","","","","","","","","","","","","","","","","","","","","","","","","","","","","","","","","","","","","","","","","","","","","","","","","","","","","","","","","","","","","","","","","","","","","","","MET048METAR GQPA 131800Z 36004KT 8000 NSC 32/02 Q1014=","","","","","","","","","",""
"61421099999","2021-12-14T09:00:00","20.506828","-13.043194","231.03","ATAR, MR","FM-15","4","30.03","30","64","","","","","28","","","","4.35","","360","","7","","","","","","","","","","","","","","","","","","","","","","","","","","","","","","","","","","","","","","","","","","","","","","","","","","","","","","","","","","","","","","","","","","","","","","","","","","","","","","","","","","","","","","","","","","","MET049METAR GQPA 140900Z 36006KT 7000 NSC 18/M01 Q1017=","","","","","","","","","",""
"61421099999","2021-12-15T09:00:00","20.506828","-13.043194","231.03","ATAR, MR","FM-15","4","29.97","30","63","","||DU","","","30","","","","3.73","","000","","0","","","","","","","","","","","","","","","","","","","","","","","","","","","","","","","","","","","","","","","","","","","","","","","","","","","","","","","","","","","","","","","","","","","","","","","","","","","","","","","","","","","","","","","","","","","MET054METAR GQPA 150900Z 00000KT 6000 BLDU NSC 17/M01 Q1015=","","","","","","","","","",""
"61421099999","2021-12-15T12:00:00","20.506828","-13.043194","231.03","ATAR, MR","FM-15","4","29.97","","79","","","","","","","","","4.35","","000","","0","","","","","","","","","","","","","","","","","","","","","","","","","","","","","","","","","","","","","","","","","","","","","","","","","","","","","","","","","","","","","","","","","","","","","","","","","","","","","","","","","","","","","","","","","","","MET048METAR GQPA 151200Z 00000KT 7000 NSC 26/20 Q1015=","","","","","","","","","",""
"61421099999","2021-12-15T15:00:00","20.506828","-13.043194","231.03","ATAR, MR","FM-15","4","29.91","39","86","","","","","19","","","","4.97","","000","","0","","","","","","","","","","","","","","","","","","","","","","","","","","","","","","","","","","","","","","","","","","","","","","","","","","","","","","","","","","","","","","","","","","","","","","","","","","","","","","","","","","","","","","","","","","","MET048METAR GQPA 151500Z 00000KT 8000 NSC 30/04 Q1013=","","","","","","","","","",""
"61421099999","2021-12-15T18:00:00","20.506828","-13.043194","231.03","ATAR, MR","FM-15","4","29.94","37","82","","","","","20","","","","4.97","","000","","0","","","","","","","","","","","","","","","","","","","","","","","","","","","","","","","","","","","","","","","","","","","","","","","","","","","","","","","","","","","","","","","","","","","","","","","","","","","","","","","","","","","","","","","","","","","MET048METAR GQPA 151800Z 00000KT 8000 NSC 28/03 Q1014=","","","","","","","","","",""
"61421099999","2021-12-16T09:00:00","20.506828","-13.043194","231.03","ATAR, MR","FM-15","4","30.00","32","61","","","","","34","","","","4.97","","020","","7","","","","","","","","","","","","","","","","","","","","","","","","","","","","","","","","","","","","","","","","","","","","","","","","","","","","","","","","","","","","","","","","","","","","","","","","","","","","","","","","","","","","","","","","","","","MET049METAR GQPA 160900Z 02006KT 8000 NSC 16/M00 Q1016=","","","","","","","","","",""
"61421099999","2021-12-17T09:00:00","20.506828","-13.043194","231.03","ATAR, MR","FM-15","4","30.03","32","66","","","","","28","","","","4.97","","000","","0","","","","","","","","","","","","","","","","","","","","","","","","","","","","","","","","","","","","","","","","","","","","","","","","","","","","","","","","","","","","","","","","","","","","","","","","","","","","","","","","","","","","","","","","","","","MET048METAR GQPA 170900Z 00000KT 8000 NSC 19/00 Q1017=","","","","","","","","","",""
"61421099999","2021-12-17T15:00:00","20.506828","-13.043194","231.03","ATAR, MR","FM-15","4","29.97","48","91","","","","","23","","","","4.97","","000","","0","","","","","","","","","","","","","","","","","","","","","","","","","","","","","","","","","","","","","","","","","","","","","","","","","","","","","","","","","","","","","","","","","","","","","","","","","","","","","","","","","","","","","","","","","","","MET048METAR GQPA 171500Z 00000KT 8000 NSC 33/09 Q1015=","","","","","","","","","",""
"61421099999","2021-12-18T09:00:00","20.506828","-13.043194","231.03","ATAR, MR","FM-15","4","30.06","32","91","","","","","12","","","","4.35","","000","","0","","","","","","","","","","","","","","","","","","","","","","","","","","","","","","","","","","","","","","","","","","","","","","","","","","","","","","","","","","","","","","","","","","","","","","","","","","","","","","","","","","","","","","","","","","","MET048METAR GQPA 180900Z 00000KT 7000 NSC 33/00 Q1018=","","","","","","","","","",""
"61421099999","2021-12-20T12:00:00","20.506828","-13.043194","231.03","ATAR, MR","FM-15","4","30.06","36","81","","||DU","","","20","","","","3.73","","080","","24","","","","","","","","","","","","","","","","","","","","","","","","","","","","","","","","","","","","","","","","","","","","","","","","","","","","","","","","","","","","","","","","","","","","","","","","","","","","","","","","","","","","","","","","","","","MET053METAR GQPA 201200Z 08021KT 6000 BLSA NSC 27/02 Q1018=","","","","","","","","","",""
"61421099999","2021-12-21T09:00:00","20.506828","-13.043194","231.03","ATAR, MR","FM-15","4","30.12","37","73","","","","","27","","","","4.97","","020","","7","","","","","","","","","","","","","","","","","","","","","","","","","","","","","","","","","","","","","","","","","","","","","","","","","","","","","","","","","","","","","","","","","","","","","","","","","","","","","","","","","","","","","","","","","","","MET052METAR COR GQPA 210900Z 02006KT 8000 NSC 23/03 Q1020=","","","","","","","","","",""
"61421099999","2021-12-21T12:00:00","20.506828","-13.043194","231.03","ATAR, MR","FM-15","4","30.06","39","84","","","","","20","","","","4.97","","000","","0","","","","","","","","","","","","","","","","","","","","","","","","","","","","","","","","","","","","","","","","","","","","","","","","","","","","","","","","","","","","","","","","","","","","","","","","","","","","","","","","","","","","","","","","","","","MET048METAR GQPA 211200Z 00000KT 8000 NSC 29/04 Q1018=","","","","","","","","","",""
"61421099999","2021-12-21T15:00:00","20.506828","-13.043194","231.03","ATAR, MR","FM-15","4","30.00","36","90","","","","","15","","","","4.97","","360","","5","","","","","","","","","","","","","","","","","","","","","","","","","","","","","","","","","","","","","","","","","","","","","","","","","","","","","","","","","","","","","","","","","","","","","","","","","","","","","","","","","","","","","","","","","","","MET048METAR GQPA 211500Z 36004KT 8000 NSC 32/02 Q1016=","","","","","","","","","",""
"61421099999","2021-12-22T09:00:00","20.506828","-13.043194","231.03","ATAR, MR","FM-15","4","30.15","28","68","","","","","23","","","","4.97","","020","","5","","","","","","","","","","","","","","","","","","","","","","","","","","","","","","","","","","","","","","","","","","","","","","","","","","","","","","","","","","","","","","","","","","","","","","","","","","","","","","","","","","","","","","","","","","","MET049METAR GQPA 220900Z 02004KT 8000 NSC 20/M02 Q1021=","","","","","","","","","",""
"61421099999","2021-12-23T18:00:00","20.506828","-13.043194","231.03","ATAR, MR","FM-15","4","30.03","45","82","","","","","26","","","","4.97","","360","","5","","","","","","","","","","","","","","","","","","","","","","","","","","","","","","","","","","","","","","","","","","","","","","","","","","","","","","","","","","","","","","","","","","","","","","","","","","","","","","","","","","","","","","","","","","","MET048METAR GQPA 231800Z 36004KT 8000 NSC 28/07 Q1017=","","","","","","","","","",""
"61421099999","2021-12-24T09:00:00","20.506828","-13.043194","231.03","ATAR, MR","FM-15","4","30.09","37","70","","","","","31","","","","4.97","","020","","9","","","","","","","","","","","","","","","","","","","","","","","","","","","","","","","","","","","","","","","","","","","","","","","","","","","","","","","","","","","","","","","","","","","","","","","","","","","","","","","","","","","","","","","","","","","MET048METAR GQPA 240900Z 02008KT 8000 NSC 21/03 Q1019=","","","","","","","","","",""
"61421099999","2021-12-25T09:00:00","20.506828","-13.043194","231.03","ATAR, MR","FM-15","4","30.15","36","66","","","","","32","","","","4.35","","VRB","","6","","","","","","","","","","","","","","","","","","","","","","","","","","","","","","","","","","","","","","","","","","","","","","","","","","","","","","","","","","","","","","","","","","","","","","","","","","","","","","","","","","","","","","","","","","","MET056METAR GQPA 250900Z 36005KT 300V360 7000 NSC 19/02 Q1021=","","","","","","","","","",""
"61421099999","2021-12-25T12:00:00","20.506828","-13.043194","231.03","ATAR, MR","FM-15","4","30.09","36","84","","","","","18","","","","4.35","","VRB","","6","","","","","","","","","","","","","","","","","","","","","","","","","","","","","","","","","","","","","","","","","","","","","","","","","","","","","","","","","","","","","","","","","","","","","","","","","","","","","","","","","","","","","","","","","","","MET048METAR GQPA 251200Z VRB05KT 7000 NSC 29/02 Q1019=","","","","","","","","","",""
"61421099999","2021-12-26T09:00:00","20.506828","-13.043194","231.03","ATAR, MR","FM-15","4","30.09","32","64","","","","","30","","","","4.97","","030","","7","","","","","","","","","","","","","","","","","","","","","","","","","","","","","","","","","","","","","","","","","","","","","","","","","","","","","","","","","","","","","","","","","","","","","","","","","","","","","","","","","","","","","","","","","","","MET048METAR GQPA 260900Z 03006KT 8000 NSC 18/00 Q1019=","","","","","","","","","",""
"61421099999","2021-12-26T15:00:00","20.506828","-13.043194","231.03","ATAR, MR","FM-15","4","30.00","39","86","","","","","19","","","","4.97","","020","","9","","","","","","","","","","","","","","","","","","","","","","","","","","","","","","","","","","","","","","","","","","","","","","","","","","","","","","","","","","","","","","","","","","","","","","","","","","","","","","","","","","","","","","","","","","","MET048METAR GQPA 261500Z 02008KT 8000 NSC 30/04 Q1016=","","","","","","","","","",""
"61421099999","2021-12-27T12:00:00","20.506828","-13.043194","231.03","ATAR, MR","FM-15","4","30.15","37","81","","","","","21","","","","4.97","","040","","7","","","","","","","","","","","","","","","","","","","","","","","","","","","","","","","","","","","","","","","","","","","","","","","","","","","","","","","","","","","","","","","","","","","","","","","","","","","","","","","","","","","","","","","","","","","MET048METAR GQPA 271200Z 04006KT 8000 NSC 27/03 Q1021=","","","","","","","","","",""
"61421099999","2021-12-28T09:00:00","20.506828","-13.043194","231.03","ATAR, MR","FM-15","4","30.15","32","68","","","","","26","","","","4.97","","000","","0","","","","","","","","","","","","","","","","","","","","","","","","","","","","","","","","","","","","","","","","","","","","","","","","","","","","","","","","","","","","","","","","","","","","","","","","","","","","","","","","","","","","","","","","","","","MET048METAR GQPA 280900Z 00000KT 8000 NSC 20/00 Q1021=","","","","","","","","","",""
"61421099999","2021-12-28T12:00:00","20.506828","-13.043194","231.03","ATAR, MR","FM-15","4","30.15","37","81","","","","","21","","","","4.97","","100","","11","","","","","","","","","","","","","","","","","","","","","","","","","","","","","","","","","","","","","","","","","","","","","","","","","","","","","","","","","","","","","","","","","","","","","","","","","","","","","","","","","","","","","","","","","","","MET048METAR GQPA 281200Z 10010KT 8000 NSC 27/03 Q1021=","","","","","","","","","",""
"61421099999","2021-12-29T12:00:00","20.506828","-13.043194","231.03","ATAR, MR","FM-15","4","30.09","36","86","","","","","17","","","","4.97","","040","","11","","","","","","","","","","","","","","","","","","","","","","","","","","","","","","","","","","","","","","","","","","","","","","","","","","","","","","","","","","","","","","","","","","","","","","","","","","","","","","","","","","","","","","","","","","","MET048METAR GQPA 291200Z 04010KT 8000 NSC 30/02 Q1019=","","","","","","","","","",""
"61421099999","2021-12-29T15:00:00","20.506828","-13.043194","231.03","ATAR, MR","FM-15","4","30.09","37","93","","","","","14","","","","4.97","","060","","9","","","","","","","","","","","","","","","","","","","","","","","","","","","","","","","","","","","","","","","","","","","","","","","","","","","","","","","","","","","","","","","","","","","","","","","","","","","","","","","","","","","","","","","","","","","MET048METAR GQPA 291500Z 06008KT 8000 NSC 34/03 Q1019=","","","","","","","","","",""
"61421099999","2021-12-30T09:00:00","20.506828","-13.043194","231.03","ATAR, MR","FM-15","4","30.12","36","64","","","","","34","","","","4.97","","360","","9","","","","","","","","","","","","","","","","","","","","","","","","","","","","","","","","","","","","","","","","","","","","","","","","","","","","","","","","","","","","","","","","","","","","","","","","","","","","","","","","","","","","","","","","","","","MET048METAR GQPA 300900Z 36008KT 8000 NSC 18/02 Q1020=","","","","","","","","","",""
"61421099999","2021-12-30T12:00:00","20.506828","-13.043194","231.03","ATAR, MR","FM-15","4","30.12","37","81","","","","","21","","","","4.97","","000","","0","","","","","","","","","","","","","","","","","","","","","","","","","","","","","","","","","","","","","","","","","","","","","","","","","","","","","","","","","","","","","","","","","","","","","","","","","","","","","","","","","","","","","","","","","","","MET048METAR GQPA 301200Z 00000KT 8000 NSC 27/03 Q1020=","","","","","","","","","",""
"61421099999","2021-12-30T15:00:00","20.506828","-13.043194","231.03","ATAR, MR","FM-15","4","30.06","36","90","","","","","15","","","","4.97","","040","","5","","","","","","","","","","","","","","","","","","","","","","","","","","","","","","","","","","","","","","","","","","","","","","","","","","","","","","","","","","","","","","","","","","","","","","","","","","","","","","","","","","","","","","","","","","","MET048METAR GQPA 301500Z 04004KT 8000 NSC 32/02 Q1018=","","","","","","","","","",""
"61421099999","2021-12-30T18:00:00","20.506828","-13.043194","231.03","ATAR, MR","FM-15","4","30.03","37","88","","","","","17","","","","4.97","","060","","9","","","","","","","","","","","","","","","","","","","","","","","","","","","","","","","","","","","","","","","","","","","","","","","","","","","","","","","","","","","","","","","","","","","","","","","","","","","","","","","","","","","","","","","","","","","MET048METAR GQPA 301800Z 06008KT 8000 NSC 31/03 Q1017=","","","","","","","","","",""
"61421099999","2021-12-31T18:00:00","20.506828","-13.043194","231.03","ATAR, MR","FM-15","4","30.03","34","86","","","","","15","","","","4.97","","080","","14","","","","","","","","","","","","","","","","","","","","","","","","","","","","","","","","","","","","","","","","","","","","","","","","","","","","","","","","","","","","","","","","","","","","","","","","","","","","","","","","","","","","","","","","","","","MET048METAR GQPA 311800Z 08012KT 8000 NSC 30/01 Q1017=","","","","","","","","","",""
