"STATION","DATE","LATITUDE","LONGITUDE","ELEVATION","NAME","REPORT_TYPE","SOURCE","HourlyAltimeterSetting","HourlyDewPointTemperature","HourlyDryBulbTemperature","HourlyPrecipitation","HourlyPresentWeatherType","HourlyPressureChange","HourlyPressureTendency","HourlyRelativeHumidity","HourlySkyConditions","HourlySeaLevelPressure","HourlyStationPressure","HourlyVisibility","HourlyWetBulbTemperature","HourlyWindDirection","HourlyWindGustSpeed","HourlyWindSpeed","Sunrise","Sunset","DailyAverageDewPointTemperature","DailyAverageDryBulbTemperature","DailyAverageRelativeHumidity","DailyAverageSeaLevelPressure","DailyAverageStationPressure","DailyAverageWetBulbTemperature","DailyAverageWindSpeed","DailyCoolingDegreeDays","DailyDepartureFromNormalAverageTemperature","DailyHeatingDegreeDays","DailyMaximumDryBulbTemperature","DailyMinimumDryBulbTemperature","DailyPeakWindDirection","DailyPeakWindSpeed","DailyPrecipitation","DailySnowDepth","DailySnowfall","DailySustainedWindDirection","DailySustainedWindSpeed","DailyWeather","MonthlyAverageRH","MonthlyDaysWithGT001Precip","MonthlyDaysWithGT010Precip","MonthlyDaysWithGT32Temp","MonthlyDaysWithGT90Temp","MonthlyDaysWithLT0Temp","MonthlyDaysWithLT32Temp","MonthlyDepartureFromNormalAverageTemperature","MonthlyDepartureFromNormalCoolingDegreeDays","MonthlyDepartureFromNormalHeatingDegreeDays","MonthlyDepartureFromNormalMaximumTemperature","MonthlyDepartureFromNormalMinimumTemperature","MonthlyDepartureFromNormalPrecipitation","MonthlyDewpointTemperature","MonthlyGreatestPrecip","MonthlyGreatestPrecipDate","MonthlyGreatestSnowDepth","MonthlyGreatestSnowDepthDate","MonthlyGreatestSnowfall","MonthlyGreatestSnowfallDate","MonthlyMaxSeaLevelPressureValue","MonthlyMaxSeaLevelPressureValueDate","MonthlyMaxSeaLevelPressureValueTime","MonthlyMaximumTemperature","MonthlyMeanTemperature","MonthlyMinSeaLevelPressureValue","MonthlyMinSeaLevelPressureValueDate","MonthlyMinSeaLevelPressureValueTime","MonthlyMinimumTemperature","MonthlySeaLevelPressure","MonthlyStationPressure","MonthlyTotalLiquidPrecipitation","MonthlyTotalSnowfall","MonthlyWetBulb","AWND","CDSD","CLDD","DSNW","HDSD","HTDD","DYTS","DYHF","NormalsCoolingDegreeDay","NormalsHeatingDegreeDay","ShortDurationEndDate005","ShortDurationEndDate010","ShortDurationEndDate015","ShortDurationEndDate020","ShortDurationEndDate030","ShortDurationEndDate045","ShortDurationEndDate060","ShortDurationEndDate080","ShortDurationEndDate100","ShortDurationEndDate120","ShortDurationEndDate150","ShortDurationEndDate180","ShortDurationPrecipitationValue005","ShortDurationPrecipitationValue010","ShortDurationPrecipitationValue015","ShortDurationPrecipitationValue020","ShortDurationPrecipitationValue030","ShortDurationPrecipitationValue045","ShortDurationPrecipitationValue060","ShortDurationPrecipitationValue080","ShortDurationPrecipitationValue100","ShortDurationPrecipitationValue120","ShortDurationPrecipitationValue150","ShortDurationPrecipitationValue180","REM","BackupDirection","BackupDistance","BackupDistanceUnit","BackupElements","BackupElevation","BackupEquipment","BackupLatitude","BackupLongitude","BackupName","WindEquipmentChangeDate"
"82445099999","2021-01-01T08:00:00","-4.2666666","-55.9833333","45.0","ITAITUBA, BR","FM-12","4","","75","78","","","","9","91","FEW:02 41","30.00","29.85","6.21","76","000","","0","","","","","","","","","","","","","","","","","","","","","","","","","","","","","","","","","","","","","","","","","","","","","","","","","","","","","","","","","","","","","","","","","","","","","","","","","","","","","","","","","","","","","","","","","","","SYN07082445 22697 70000 10254 20238 30107 40159 82150 333 20231 58036 69974=","","","","","","","","","",""
"82445099999","2021-01-01T14:00:00","-4.2666666","-55.9833333","45.0","ITAITUBA, BR","FM-12","4","","76","89","","","","9","66","SCT:03 26","29.91","29.75","6.21","80","090","","2","","","","","","","","","","","","","","","","","","","","","","","","","","","","","","","","","","","","","","","","","","","","","","","","","","","","","","","","","","","","","","","","","","","","","","","","","","","","","","","","","","","","","","","","","","","SYN05882445 32597 60902 10316 20246 30076 40128 83280 333 58005=","","","","","","","","","",""
"82445099999","2021-01-01T20:00:00","-4.2666666","-55.9833333","45.0","ITAITUBA, BR","FM-12","4","","79","83","","","","","87","","29.86","29.71","6.21","80","140","","1","","","","","","","","","","","","","","","","","","","","","","","","","","","","","","","","","","","","","","","","","","","","","","","","","","","","","","","","","","","","","","","","","","","","","","","","","","","","","","","","","","","","","","","","","","","SYN07082445 32997 01401 10286 20262 30060 40112 333 10338 29083 55059 59003=","","","","","","","","","",""
"82445099999","2021-01-02T08:00:00","-4.2666666","-55.9833333","45.0","ITAITUBA, BR","FM-12","4","","77","81","","","","9","89","FEW:01 15","29.93","29.78","12.43","78","000","","0","","","","","","","","","","","","","","","","","","","","","","","","","","","","","","","","","","","","","","","","","","","","","","","","","","","","","","","","","","","","","","","","","","","","","","","","","","","","","","","","","","","","","","","","","","","SYN06482445 32498 30000 10272 20252 30084 40136 81131 333 20231 59023=","","","","","","","","","",""
"82445099999","2021-01-02T14:00:00","-4.2666666","-55.9833333","45.0","ITAITUBA, BR","FM-12","4","","80","89","","||TS","","9","73","SCT:04 26","29.83","29.68","6.21","82","320","","1","","","","","","","","","","","","","","","","","","","","","","","","","","","","","","","","","","","","","","","","","","","","","","","","","","","","","","","","","","","","","","","","","","","","","","","","","","","","","","","","","","","","","","","","","","","SYN06482445 31597 73201 10318 20264 30050 40102 71792 84346 333 59026=","","","","","","","","","",""
"82445099999","2021-01-02T20:00:00","-4.2666666","-55.9833333","45.0","ITAITUBA, BR","FM-12","4","","75","81","","","","","84","FEW:02 26","29.85","29.70","2.49","77","000","","0","","","","","","","","","","","","","","","","","","","","","","","","","","","","","","","","","","","","","","","","","","","","","","","","","","","","","","","","","","","","","","","","","","","","","","","","","","","","","","","","","","","","","","","","","","","SYN07682445 32596 20000 10270 20241 30058 40110 82200 333 10341 29082 55063 59002=","","","","","","","","","",""
"82445099999","2021-01-03T08:00:00","-4.2666666","-55.9833333","45.0","ITAITUBA, BR","FM-12","4","","74","76","","||RA","","9","95","SCT:04 15","29.93","29.78","2.49","75","360","","1","","","","","","","","","","","","","","","","","","","","","","","","","","","","","","","","","","","","","","","","","","","","","","","","","","","","","","","","","","","","","","","","","","","","","","","","","","","","","","","","","","","","","","","","","","","SYN07682445 21496 83601 10242 20233 30083 40136 76165 8472/ 333 20235 59001 60094=","","","","","","","","","",""
"82445099999","2021-01-03T14:00:00","-4.2666666","-55.9833333","45.0","ITAITUBA, BR","FM-12","4","","73","76","","||DZ","","9","90","SCT:03 15","29.91","29.75","2.49","74","000","","0","","","","","","","","","","","","","","","","","","","","","","","","","","","","","","","","","","","","","","","","","","","","","","","","","","","","","","","","","","","","","","","","","","","","","","","","","","","","","","","","","","","","","","","","","","","SYN07082445 21496 80000 10246 20228 30074 40127 75065 8372/ 333 58024 60071=","","","","","","","","","",""
"82445099999","2021-01-03T20:00:00","-4.2666666","-55.9833333","45.0","ITAITUBA, BR","FM-12","4","","74","74","","","","","97","SCT:04 41","29.86","29.71","0.62","74","000","","0","","","","","","","","","","","","","","","","","","","","","","","","","","","","","","","","","","","","","","","","","","","","","","","","","","","","","","","","","","","","","","","","","","","","","","","","","","","","","","","","","","","","","","","","","","","SYN08882445 21694 80000 10236 20231 30060 40113 70252 8452/ 333 10278 29095 55000 58002 69921=","","","","","","","","","",""
"82445099999","2021-01-04T08:00:00","-4.2666666","-55.9833333","45.0","ITAITUBA, BR","FM-12","4","","75","76","","","","9","95","SCT:03 26","29.93","29.77","2.49","75","000","","0","","","","","","","","","","","","","","","","","","","","","","","","","","","","","","","","","","","","","","","","","","","","","","","","","","","","","","","","","","","","","","","","","","","","","","","","","","","","","","","","","","","","","","","","","","","SYN07082445 22596 80000 10246 20237 30082 40135 8348/ 333 20229 59001 60174=","","","","","","","","","",""
"82445099999","2021-01-04T14:00:00","-4.2666666","-55.9833333","45.0","ITAITUBA, BR","FM-12","4","","76","87","","","","9","69","SCT:03 26","29.85","29.70","6.21","79","050","","1","","","","","","","","","","","","","","","","","","","","","","","","","","","","","","","","","","","","","","","","","","","","","","","","","","","","","","","","","","","","","","","","","","","","","","","","","","","","","","","","","","","","","","","","","","","SYN05882445 32597 70501 10306 20243 30056 40108 83250 333 59018=","","","","","","","","","",""
"82445099999","2021-01-04T20:00:00","-4.2666666","-55.9833333","45.0","ITAITUBA, BR","FM-12","4","","76","82","","","","","80","SCT:03 41","29.85","29.70","2.49","78","000","","0","","","","","","","","","","","","","","","","","","","","","","","","","","","","","","","","","","","","","","","","","","","","","","","","","","","","","","","","","","","","","","","","","","","","","","","","","","","","","","","","","","","","","","","","","","","SYN07682445 32696 70000 10280 20242 30058 40110 8357/ 333 10323 29081 55049 59003=","","","","","","","","","",""
"82445099999","2021-01-05T08:00:00","-4.2666666","-55.9833333","45.0","ITAITUBA, BR","FM-12","4","","75","81","","","","9","81","BKN:06 74","29.92","29.77","6.21","77","000","","0","","","","","","","","","","","","","","","","","","","","","","","","","","","","","","","","","","","","","","","","","","","","","","","","","","","","","","","","","","","","","","","","","","","","","","","","","","","","","","","","","","","","","","","","","","","SYN06482445 32897 60000 10274 20238 30080 40132 86050 333 20241 59002=","","","","","","","","","",""
"82445099999","2021-01-05T14:00:00","-4.2666666","-55.9833333","45.0","ITAITUBA, BR","FM-12","4","","77","78","","","","9","95","SCT:04 15","29.85","29.69","1.24","77","090","","2","","","","","","","","","","","","","","","","","","","","","","","","","","","","","","","","","","","","","","","","","","","","","","","","","","","","","","","","","","","","","","","","","","","","","","","","","","","","","","","","","","","","","","","","","","","SYN07082445 21495 80902 10256 20248 30055 40108 72196 8477/ 333 59001 60211=","","","","","","","","","",""
"82445099999","2021-01-05T20:00:00","-4.2666666","-55.9833333","45.0","ITAITUBA, BR","FM-12","4","","73","76","","","","","92","FEW:02 41","29.87","29.71","2.49","74","140","","2","","","","","","","","","","","","","","","","","","","","","","","","","","","","","","","","","","","","","","","","","","","","","","","","","","","","","","","","","","","","","","","","","","","","","","","","","","","","","","","","","","","","","","","","","","","SYN07682445 32696 51402 10244 20230 30062 40114 8257/ 333 10299 29089 55007 58004=","","","","","","","","","",""
"82445099999","2021-01-06T08:00:00","-4.2666666","-55.9833333","45.0","ITAITUBA, BR","FM-12","4","","75","79","","","","9","89","FEW:01 26","29.94","29.79","12.43","76","000","","0","","","","","","","","","","","","","","","","","","","","","","","","","","","","","","","","","","","","","","","","","","","","","","","","","","","","","","","","","","","","","","","","","","","","","","","","","","","","","","","","","","","","","","","","","","","SYN07082445 22598 40000 10260 20240 30088 40140 81152 333 20223 58008 60214=","","","","","","","","","",""
"82445099999","2021-01-06T14:00:00","-4.2666666","-55.9833333","45.0","ITAITUBA, BR","FM-12","4","","77","83","","","","9","84","SCT:04 26","29.86","29.70","2.49","79","000","","0","","","","","","","","","","","","","","","","","","","","","","","","","","","","","","","","","","","","","","","","","","","","","","","","","","","","","","","","","","","","","","","","","","","","","","","","","","","","","","","","","","","","","","","","","","","SYN07082445 21596 80000 10282 20252 30059 40111 72162 8427/ 333 58004 69971=","","","","","","","","","",""
"82445099999","2021-01-06T20:00:00","-4.2666666","-55.9833333","45.0","ITAITUBA, BR","FM-12","4","","78","80","","","","","94","SCT:03 41","29.86","29.70","2.49","79","000","","0","","","","","","","","","","","","","","","","","","","","","","","","","","","","","","","","","","","","","","","","","","","","","","","","","","","","","","","","","","","","","","","","","","","","","","","","","","","","","","","","","","","","","","","","","","","SYN07682445 32696 60000 10264 20254 30059 40111 83570 333 10313 29090 55061 59003=","","","","","","","","","",""
"82445099999","2021-01-07T08:00:00","-4.2666666","-55.9833333","45.0","ITAITUBA, BR","FM-12","4","","78","81","","","","9","91","BKN:05 26","29.99","29.83","6.21","79","000","","0","","","","","","","","","","","","","","","","","","","","","","","","","","","","","","","","","","","","","","","","","","","","","","","","","","","","","","","","","","","","","","","","","","","","","","","","","","","","","","","","","","","","","","","","","","","SYN07082445 22597 50000 10274 20258 30103 40155 85100 333 20238 58015 69974=","","","","","","","","","",""
"82445099999","2021-01-07T14:00:00","-4.2666666","-55.9833333","45.0","ITAITUBA, BR","FM-12","4","","76","91","","","","9","62","SCT:03 26","29.85","29.70","12.43","80","050","","5","","","","","","","","","","","","","","","","","","","","","","","","","","","","","","","","","","","","","","","","","","","","","","","","","","","","","","","","","","","","","","","","","","","","","","","","","","","","","","","","","","","","","","","","","","","SYN05882445 32598 40504 10328 20245 30058 40110 83201 333 59001=","","","","","","","","","",""
"82445099999","2021-01-07T20:00:00","-4.2666666","-55.9833333","45.0","ITAITUBA, BR","FM-12","4","","80","82","","","","","92","","29.85","29.70","6.21","81","000","","0","","","","","","","","","","","","","","","","","","","","","","","","","","","","","","","","","","","","","","","","","","","","","","","","","","","","","","","","","","","","","","","","","","","","","","","","","","","","","","","","","","","","","","","","","","","SYN07082445 32997 00000 10278 20264 30058 40110 333 10353 29084 55092 59001=","","","","","","","","","",""
"82445099999","2021-01-08T08:00:00","-4.2666666","-55.9833333","45.0","ITAITUBA, BR","FM-12","4","","78","81","","","","9","89","SCT:03 26","29.94","29.79","2.49","79","270","","1","","","","","","","","","","","","","","","","","","","","","","","","","","","","","","","","","","","","","","","","","","","","","","","","","","","","","","","","","","","","","","","","","","","","","","","","","","","","","","","","","","","","","","","","","","","SYN06482445 32596 72701 10274 20254 30087 40139 83250 333 20253 59016=","","","","","","","","","",""
"82445099999","2021-01-08T14:00:00","-4.2666666","-55.9833333","45.0","ITAITUBA, BR","FM-12","4","","77","82","","","","9","83","BKN:05 26","29.92","29.76","1.24","78","360","","6","","","","","","","","","","","","","","","","","","","","","","","","","","","","","","","","","","","","","","","","","","","","","","","","","","","","","","","","","","","","","","","","","","","","","","","","","","","","","","","","","","","","","","","","","","","SYN07082445 21595 83605 10280 20248 30079 40131 72092 8537/ 333 59021 69921=","","","","","","","","","",""
"82445099999","2021-01-08T20:00:00","-4.2666666","-55.9833333","45.0","ITAITUBA, BR","FM-12","4","","72","73","","","","","97","SCT:03 41","29.92","29.76","1.24","72","000","","0","","","","","","","","","","","","","","","","","","","","","","","","","","","","","","","","","","","","","","","","","","","","","","","","","","","","","","","","","","","","","","","","","","","","","","","","","","","","","","","","","","","","","","","","","","","SYN08882445 21695 80000 10230 20225 30079 40132 72162 8357/ 333 10327 29092 55037 58021 60011=","","","","","","","","","",""
"82445099999","2021-01-09T08:00:00","-4.2666666","-55.9833333","45.0","ITAITUBA, BR","FM-12","4","","74","76","","","","9","94","SCT:04 15","29.99","29.83","1.24","75","000","","0","","","","","","","","","","","","","","","","","","","","","","","","","","","","","","","","","","","","","","","","","","","","","","","","","","","","","","","","","","","","","","","","","","","","","","","","","","","","","","","","","","","","","","","","","","","SYN07082445 22495 80000 10243 20232 30103 40156 8477/ 333 20221 58016 60024=","","","","","","","","","",""
"82445099999","2021-01-09T14:00:00","-4.2666666","-55.9833333","45.0","ITAITUBA, BR","FM-12","4","","77","84","","","","9","78","SCT:03 26","29.87","29.72","2.49","79","140","","5","","","","","","","","","","","","","","","","","","","","","","","","","","","","","","","","","","","","","","","","","","","","","","","","","","","","","","","","","","","","","","","","","","","","","","","","","","","","","","","","","","","","","","","","","","","SYN05882445 32596 71404 10290 20248 30064 40116 83252 333 59015=","","","","","","","","","",""
"82445099999","2021-01-09T20:00:00","-4.2666666","-55.9833333","45.0","ITAITUBA, BR","FM-12","4","","78","82","","","","","87","FEW:02 26","29.87","29.72","1.24","79","000","","0","","","","","","","","","","","","","","","","","","","","","","","","","","","","","","","","","","","","","","","","","","","","","","","","","","","","","","","","","","","","","","","","","","","","","","","","","","","","","","","","","","","","","","","","","","","SYN08282445 31595 50000 10280 20256 30064 40116 71311 82380 333 10312 29086 55045 59015=","","","","","","","","","",""
"82445099999","2021-01-10T08:00:00","-4.2666666","-55.9833333","45.0","ITAITUBA, BR","FM-12","4","","74","75","","||DZ","","9","97","OVC:08 15","30.01","29.85","1.24","74","000","","0","","","","","","","","","","","","","","","","","","","","","","","","","","","","","","","","","","","","","","","","","","","","","","","","","","","","","","","","","","","","","","","","","","","","","","","","","","","","","","","","","","","","","","","","","","","SYN07682445 21495 80000 10238 20233 30108 40161 75062 887// 333 20231 58005 60164=","","","","","","","","","",""
"82445099999","2021-01-10T14:00:00","-4.2666666","-55.9833333","45.0","ITAITUBA, BR","FM-12","4","","75","85","","","","9","71","FEW:02 26","29.88","29.73","6.21","78","320","","5","","","","","","","","","","","","","","","","","","","","","","","","","","","","","","","","","","","","","","","","","","","","","","","","","","","","","","","","","","","","","","","","","","","","","","","","","","","","","","","","","","","","","","","","","","","SYN07082445 21597 63204 10296 20238 30068 40120 72021 82252 333 58002 69921=","","","","","","","","","",""
"82445099999","2021-01-10T20:00:00","-4.2666666","-55.9833333","45.0","ITAITUBA, BR","FM-12","4","","77","80","","","","","92","SCT:04 41","29.91","29.75","1.24","78","000","","0","","","","","","","","","","","","","","","","","","","","","","","","","","","","","","","","","","","","","","","","","","","","","","","","","","","","","","","","","","","","","","","","","","","","","","","","","","","","","","","","","","","","","","","","","","","SYN08882445 21695 80000 10264 20250 30076 40128 72122 8457/ 333 10312 29088 55041 58012 60051=","","","","","","","","","",""
"82445099999","2021-01-11T08:00:00","-4.2666666","-55.9833333","45.0","ITAITUBA, BR","FM-12","4","","77","80","","","","9","92","BKN:06 15","29.98","29.83","6.21","78","000","","0","","","","","","","","","","","","","","","","","","","","","","","","","","","","","","","","","","","","","","","","","","","","","","","","","","","","","","","","","","","","","","","","","","","","","","","","","","","","","","","","","","","","","","","","","","","SYN07682445 21497 70000 10264 20250 30100 40152 70352 86701 333 20231 59008 60054=","","","","","","","","","",""
"82445099999","2021-01-11T14:00:00","-4.2666666","-55.9833333","45.0","ITAITUBA, BR","FM-12","4","","81","85","","","","9","86","SCT:03 41","29.90","29.74","6.21","82","360","","1","","","","","","","","","","","","","","","","","","","","","","","","","","","","","","","","","","","","","","","","","","","","","","","","","","","","","","","","","","","","","","","","","","","","","","","","","","","","","","","","","","","","","","","","","","","SYN07082445 21697 73601 10296 20270 30072 40124 70365 83577 333 58004 60011=","","","","","","","","","",""
"82445099999","2021-01-11T20:00:00","-4.2666666","-55.9833333","45.0","ITAITUBA, BR","FM-12","4","","79","81","","","","","93","SCT:04 26","29.91","29.75","2.49","80","140","","1","","","","","","","","","","","","","","","","","","","","","","","","","","","","","","","","","","","","","","","","","","","","","","","","","","","","","","","","","","","","","","","","","","","","","","","","","","","","","","","","","","","","","","","","","","","SYN08282445 31596 51401 10272 20260 30076 40128 71322 84240 333 10307 29091 55034 58000=","","","","","","","","","",""
"82445099999","2021-01-12T08:00:00","-4.2666666","-55.9833333","45.0","ITAITUBA, BR","FM-12","4","","76","81","","","","9","87","SCT:03 15","29.98","29.82","12.43","77","090","","2","","","","","","","","","","","","","","","","","","","","","","","","","","","","","","","","","","","","","","","","","","","","","","","","","","","","","","","","","","","","","","","","","","","","","","","","","","","","","","","","","","","","","","","","","","","SYN07082445 22498 50902 10270 20246 30099 40151 83141 333 20245 59001 60014=","","","","","","","","","",""
"82445099999","2021-01-12T14:00:00","-4.2666666","-55.9833333","45.0","ITAITUBA, BR","FM-12","4","","78","90","","","","9","67","SCT:03 26","29.88","29.73","6.21","81","050","","5","","","","","","","","","","","","","","","","","","","","","","","","","","","","","","","","","","","","","","","","","","","","","","","","","","","","","","","","","","","","","","","","","","","","","","","","","","","","","","","","","","","","","","","","","","","SYN05882445 32597 60504 10322 20253 30067 40119 83346 333 59012=","","","","","","","","","",""
"82445099999","2021-01-12T20:00:00","-4.2666666","-55.9833333","45.0","ITAITUBA, BR","FM-12","4","","77","81","","","","","87","FEW:01 26","29.89","29.74","2.49","78","090","","2","","","","","","","","","","","","","","","","","","","","","","","","","","","","","","","","","","","","","","","","","","","","","","","","","","","","","","","","","","","","","","","","","","","","","","","","","","","","","","","","","","","","","","","","","","","SYN07682445 32596 60902 10274 20250 30071 40123 81210 333 10336 29082 55085 59005=","","","","","","","","","",""
"82445099999","2021-01-13T14:00:00","-4.2666666","-55.9833333","45.0","ITAITUBA, BR","FM-12","4","","79","90","","","","9","71","SCT:03 26","29.81","29.66","12.43","82","090","","2","","","","","","","","","","","","","","","","","","","","","","","","","","","","","","","","","","","","","","","","","","","","","","","","","","","","","","","","","","","","","","","","","","","","","","","","","","","","","","","","","","","","","","","","","","","SYN05882445 32598 60902 10320 20261 30044 40096 83241 333 59016=","","","","","","","","","",""
"82445099999","2021-01-13T20:00:00","-4.2666666","-55.9833333","45.0","ITAITUBA, BR","FM-12","4","","78","82","","","","","89","SCT:04 26","29.87","29.71","2.49","79","000","","0","","","","","","","","","","","","","","","","","","","","","","","","","","","","","","","","","","","","","","","","","","","","","","","","","","","","","","","","","","","","","","","","","","","","","","","","","","","","","","","","","","","","","","","","","","","SYN07682445 32596 40000 10278 20258 30062 40114 84200 333 10341 29085 55076 59008=","","","","","","","","","",""
"82445099999","2021-01-14T08:00:00","-4.2666666","-55.9833333","45.0","ITAITUBA, BR","FM-12","4","","76","79","","","","9","89","FEW:02 41","29.91","29.76","6.21","77","090","","1","","","","","","","","","","","","","","","","","","","","","","","","","","","","","","","","","","","","","","","","","","","","","","","","","","","","","","","","","","","","","","","","","","","","","","","","","","","","","","","","","","","","","","","","","","","SYN07682445 21697 70901 10262 20242 30078 40130 70352 82531 333 20251 59010 69914=","","","","","","","","","",""
"82445099999","2021-01-14T14:00:00","-4.2666666","-55.9833333","45.0","ITAITUBA, BR","FM-12","4","","78","89","","","","9","70","SCT:03 41","29.80","29.65","6.21","81","050","","5","","","","","","","","","","","","","","","","","","","","","","","","","","","","","","","","","","","","","","","","","","","","","","","","","","","","","","","","","","","","","","","","","","","","","","","","","","","","","","","","","","","","","","","","","","","SYN05882445 32697 70504 10316 20255 30039 40091 83576 333 59005=","","","","","","","","","",""
"82445099999","2021-01-14T20:00:00","-4.2666666","-55.9833333","45.0","ITAITUBA, BR","FM-12","4","","78","82","","","","","90","SCT:03 26","29.89","29.71","2.49","79","000","","0","","","","","","","","","","","","","","","","","","","","","","","","","","","","","","","","","","","","","","","","","","","","","","","","","","","","","","","","","","","","","","","","","","","","","","","","","","","","","","","","","","","","","","","","","","","SYN08282445 31596 70000 10276 20258 30060 40122 71322 83270 333 10325 29085 55009 59002=","","","","","","","","","",""
"82445099999","2021-01-15T08:00:00","-4.2666666","-55.9833333","45.0","ITAITUBA, BR","FM-12","4","","77","80","","","","9","90","BKN:07 15","29.91","29.76","6.21","78","140","","1","","","","","","","","","","","","","","","","","","","","","","","","","","","","","","","","","","","","","","","","","","","","","","","","","","","","","","","","","","","","","","","","","","","","","","","","","","","","","","","","","","","","","","","","","","","SYN07682445 21497 71401 10266 20248 30078 40130 70365 87700 333 20251 58000 60024=","","","","","","","","","",""
"82445099999","2021-01-15T14:00:00","-4.2666666","-55.9833333","45.0","ITAITUBA, BR","FM-12","4","","78","89","","","","9","70","FEW:02 41","29.81","29.66","6.21","81","090","","6","","","","","","","","","","","","","","","","","","","","","","","","","","","","","","","","","","","","","","","","","","","","","","","","","","","","","","","","","","","","","","","","","","","","","","","","","","","","","","","","","","","","","","","","","","","SYN05882445 32697 60905 10314 20253 30043 40095 82526 333 58004=","","","","","","","","","",""
"82445099999","2021-01-15T20:00:00","-4.2666666","-55.9833333","45.0","ITAITUBA, BR","FM-12","4","","78","82","","","","","89","","29.84","29.68","6.21","79","230","","1","","","","","","","","","","","","","","","","","","","","","","","","","","","","","","","","","","","","","","","","","","","","","","","","","","","","","","","","","","","","","","","","","","","","","","","","","","","","","","","","","","","","","","","","","","","SYN07682445 32997 22301 10276 20256 30052 40104 80001 333 10333 29084 55055 59008=","","","","","","","","","",""
"82445099999","2021-01-16T08:00:00","-4.2666666","-55.9833333","45.0","ITAITUBA, BR","FM-12","4","","76","81","","","","9","86","FEW:01 26","29.89","29.74","12.43","77","140","","1","","","","","","","","","","","","","","","","","","","","","","","","","","","","","","","","","","","","","","","","","","","","","","","","","","","","","","","","","","","","","","","","","","","","","","","","","","","","","","","","","","","","","","","","","","","SYN06482445 32598 41401 10272 20247 30070 40122 81103 333 20235 59008=","","","","","","","","","",""
"82445099999","2021-01-16T14:00:00","-4.2666666","-55.9833333","45.0","ITAITUBA, BR","FM-12","4","","75","91","","","","9","60","FEW:02 26","29.80","29.65","12.43","79","090","","7","","","","","","","","","","","","","","","","","","","","","","","","","","","","","","","","","","","","","","","","","","","","","","","","","","","","","","","","","","","","","","","","","","","","","","","","","","","","","","","","","","","","","","","","","","","SYN05882445 32598 30906 10328 20240 30039 40091 82201 333 59004=","","","","","","","","","",""
"82445099999","2021-01-16T20:00:00","-4.2666666","-55.9833333","45.0","ITAITUBA, BR","FM-12","4","","80","84","","","","","87","","29.81","29.65","6.21","81","000","","0","","","","","","","","","","","","","","","","","","","","","","","","","","","","","","","","","","","","","","","","","","","","","","","","","","","","","","","","","","","","","","","","","","","","","","","","","","","","","","","","","","","","","","","","","","","SYN07082445 32997 00000 10290 20266 30042 40094 333 10346 29080 55111 59010=","","","","","","","","","",""
"82445099999","2021-01-17T08:00:00","-4.2666666","-55.9833333","45.0","ITAITUBA, BR","FM-12","4","","77","83","","","","9","83","FEW:01","29.91","29.75","31.07","79","230","","1","","","","","","","","","","","","","","","","","","","","","","","","","","","","","","","","","","","","","","","","","","","","","","","","","","","","","","","","","","","","","","","","","","","","","","","","","","","","","","","","","","","","","","","","","","","SYN06482445 32999 22301 10284 20252 30075 40127 81034 333 20248 58005=","","","","","","","","","",""
"82445099999","2021-01-17T14:00:00","-4.2666666","-55.9833333","45.0","ITAITUBA, BR","FM-12","4","","77","93","","","","9","60","FEW:02 26","29.80","29.64","12.43","81","090","","7","","","","","","","","","","","","","","","","","","","","","","","","","","","","","","","","","","","","","","","","","","","","","","","","","","","","","","","","","","","","","","","","","","","","","","","","","","","","","","","","","","","","","","","","","","","SYN05882445 32598 30906 10340 20251 30038 40090 82201 333 59001=","","","","","","","","","",""
"82445099999","2021-01-17T20:00:00","-4.2666666","-55.9833333","45.0","ITAITUBA, BR","FM-12","4","","77","83","","","","","82","SCT:03 41","29.89","29.74","2.49","79","000","","0","","","","","","","","","","","","","","","","","","","","","","","","","","","","","","","","","","","","","","","","","","","","","","","","","","","","","","","","","","","","","","","","","","","","","","","","","","","","","","","","","","","","","","","","","","","SYN07682445 32696 60000 10282 20248 30070 40122 83530 333 10356 29077 55090 58028=","","","","","","","","","",""
"82445099999","2021-01-18T08:00:00","-4.2666666","-55.9833333","45.0","ITAITUBA, BR","FM-12","4","","73","75","","||RA","","9","93","OVC:08 15","29.94","29.78","1.24","74","140","","1","","","","","","","","","","","","","","","","","","","","","","","","","","","","","","","","","","","","","","","","","","","","","","","","","","","","","","","","","","","","","","","","","","","","","","","","","","","","","","","","","","","","","","","","","","","SYN07682445 21495 81401 10238 20226 30086 40139 76022 887// 333 20229 58011 60114=","","","","","","","","","",""
"82445099999","2021-01-18T14:00:00","-4.2666666","-55.9833333","45.0","ITAITUBA, BR","FM-12","4","","76","78","","||RA","","9","92","OVC:08 15","29.94","29.79","0.62","77","050","","1","","","","","","","","","","","","","","","","","","","","","","","","","","","","","","","","","","","","","","","","","","","","","","","","","","","","","","","","","","","","","","","","","","","","","","","","","","","","","","","","","","","","","","","","","","","SYN07082445 21494 80501 10258 20244 30087 40140 76062 887// 333 58049 60011=","","","","","","","","","",""
"82445099999","2021-01-18T20:00:00","-4.2666666","-55.9833333","45.0","ITAITUBA, BR","FM-12","4","","75","77","","","","","94","SCT:04 15","29.88","29.73","1.24","76","000","","0","","","","","","","","","","","","","","","","","","","","","","","","","","","","","","","","","","","","","","","","","","","","","","","","","","","","","","","","","","","","","","","","","","","","","","","","","","","","","","","","","","","","","","","","","","","SYN08882445 21495 80000 10248 20238 30067 40119 70266 8477/ 333 10287 29093 55000 58025 69971=","","","","","","","","","",""
"82445099999","2021-01-19T08:00:00","-4.2666666","-55.9833333","45.0","ITAITUBA, BR","FM-12","4","","76","78","","","","9","94","SCT:04 41","29.94","29.79","2.49","77","000","","0","","","","","","","","","","","","","","","","","","","","","","","","","","","","","","","","","","","","","","","","","","","","","","","","","","","","","","","","","","","","","","","","","","","","","","","","","","","","","","","","","","","","","","","","","","","SYN07082445 22696 80000 10256 20246 30088 40140 84580 333 20229 58002 60224=","","","","","","","","","",""
"82445099999","2021-01-19T14:00:00","-4.2666666","-55.9833333","45.0","ITAITUBA, BR","FM-12","4","","77","89","","","","9","69","SCT:03 26","29.83","29.67","2.49","80","050","","2","","","","","","","","","","","","","","","","","","","","","","","","","","","","","","","","","","","","","","","","","","","","","","","","","","","","","","","","","","","","","","","","","","","","","","","","","","","","","","","","","","","","","","","","","","","SYN05882445 32596 60502 10314 20250 30048 40100 83252 333 59039=","","","","","","","","","",""
"82445099999","2021-01-19T20:00:00","-4.2666666","-55.9833333","45.0","ITAITUBA, BR","FM-12","4","","77","80","","","","","89","SCT:03 26","29.88","29.73","2.49","78","000","","0","","","","","","","","","","","","","","","","","","","","","","","","","","","","","","","","","","","","","","","","","","","","","","","","","","","","","","","","","","","","","","","","","","","","","","","","","","","","","","","","","","","","","","","","","","","SYN07682445 32596 80000 10267 20248 30068 40120 8328/ 333 10322 29082 55033 58001=","","","","","","","","","",""
"82445099999","2021-01-20T08:00:00","-4.2666666","-55.9833333","45.0","ITAITUBA, BR","FM-12","4","","74","75","","||RA","","9","98","OVC:08 15","29.97","29.81","0.62","74","000","","0","","","","","","","","","","","","","","","","","","","","","","","","","","","","","","","","","","","","","","","","","","","","","","","","","","","","","","","","","","","","","","","","","","","","","","","","","","","","","","","","","","","","","","","","","","","SYN07682445 21494 80000 10238 20235 30095 40148 76062 887// 333 20233 58007 60394=","","","","","","","","","",""
"82445099999","2021-01-20T14:00:00","-4.2666666","-55.9833333","45.0","ITAITUBA, BR","FM-12","4","","76","78","","","","9","92","OVC:08 15","29.88","29.73","0.62","77","000","","0","","","","","","","","","","","","","","","","","","","","","","","","","","","","","","","","","","","","","","","","","","","","","","","","","","","","","","","","","","","","","","","","","","","","","","","","","","","","","","","","","","","","","","","","","","","SYN07082445 21494 80000 10258 20244 30067 40120 72166 887// 333 58019 60131=","","","","","","","","","",""
"82445099999","2021-01-20T20:00:00","-4.2666666","-55.9833333","45.0","ITAITUBA, BR","FM-12","4","","76","78","","","","","95","SCT:04 15","29.91","29.75","1.24","77","000","","0","","","","","","","","","","","","","","","","","","","","","","","","","","","","","","","","","","","","","","","","","","","","","","","","","","","","","","","","","","","","","","","","","","","","","","","","","","","","","","","","","","","","","","","","","","","SYN08882445 21495 80000 10254 20245 30075 40128 72066 8477/ 333 10272 29095 55000 58007 69931=","","","","","","","","","",""
"82445099999","2021-01-21T08:00:00","-4.2666666","-55.9833333","45.0","ITAITUBA, BR","FM-12","4","","74","75","","","","9","97","SCT:04 41","29.97","29.81","1.24","74","000","","0","","","","","","","","","","","","","","","","","","","","","","","","","","","","","","","","","","","","","","","","","","","","","","","","","","","","","","","","","","","","","","","","","","","","","","","","","","","","","","","","","","","","","","","","","","","SYN07682445 21695 80000 10240 20235 30096 40149 72162 8457/ 333 20232 58001 60244=","","","","","","","","","",""
"82445099999","2021-01-21T14:00:00","-4.2666666","-55.9833333","45.0","ITAITUBA, BR","FM-12","4","","76","85","","","","9","76","SCT:04 26","29.91","29.76","2.49","79","090","","1","","","","","","","","","","","","","","","","","","","","","","","","","","","","","","","","","","","","","","","","","","","","","","","","","","","","","","","","","","","","","","","","","","","","","","","","","","","","","","","","","","","","","","","","","","","SYN05882445 32596 70901 10294 20247 30078 40130 84290 333 58011=","","","","","","","","","",""
"82445099999","2021-01-21T20:00:00","-4.2666666","-55.9833333","45.0","ITAITUBA, BR","FM-12","4","","77","80","","","","","89","SCT:03 41","29.90","29.75","2.49","78","000","","0","","","","","","","","","","","","","","","","","","","","","","","","","","","","","","","","","","","","","","","","","","","","","","","","","","","","","","","","","","","","","","","","","","","","","","","","","","","","","","","","","","","","","","","","","","","SYN07682445 32696 60000 10268 20248 30074 40126 83570 333 10307 29088 55031 59001=","","","","","","","","","",""
"82445099999","2021-01-22T08:00:00","-4.2666666","-55.9833333","45.0","ITAITUBA, BR","FM-12","4","","75","77","","","","9","94","SCT:04 15","30.02","29.86","0.62","76","050","","1","","","","","","","","","","","","","","","","","","","","","","","","","","","","","","","","","","","","","","","","","","","","","","","","","","","","","","","","","","","","","","","","","","","","","","","","","","","","","","","","","","","","","","","","","","","SYN07682445 21494 80501 10248 20238 30112 40165 72052 8477/ 333 20237 58016 69944=","","","","","","","","","",""
"82445099999","2021-01-22T14:00:00","-4.2666666","-55.9833333","45.0","ITAITUBA, BR","FM-12","4","","74","83","","","","9","75","SCT:03 41","29.92","29.76","6.21","77","050","","5","","","","","","","","","","","","","","","","","","","","","","","","","","","","","","","","","","","","","","","","","","","","","","","","","","","","","","","","","","","","","","","","","","","","","","","","","","","","","","","","","","","","","","","","","","","SYN05882445 32697 60504 10284 20235 30079 40131 83590 333 58001=","","","","","","","","","",""
"82445099999","2021-01-22T20:00:00","-4.2666666","-55.9833333","45.0","ITAITUBA, BR","FM-12","4","","75","80","","","","","87","","29.90","29.75","6.21","77","000","","0","","","","","","","","","","","","","","","","","","","","","","","","","","","","","","","","","","","","","","","","","","","","","","","","","","","","","","","","","","","","","","","","","","","","","","","","","","","","","","","","","","","","","","","","","","","SYN07082445 32997 00000 10264 20241 30074 40124 333 10297 29086 55015 58000=","","","","","","","","","",""
"82445099999","2021-01-23T08:00:00","-4.2666666","-55.9833333","45.0","ITAITUBA, BR","FM-12","4","","76","78","","","","9","93","SCT:04 41","29.96","29.81","6.21","77","000","","0","","","","","","","","","","","","","","","","","","","","","","","","","","","","","","","","","","","","","","","","","","","","","","","","","","","","","","","","","","","","","","","","","","","","","","","","","","","","","","","","","","","","","","","","","","","SYN06482445 32697 70000 10256 20244 30095 40147 84580 333 20237 59017=","","","","","","","","","",""
"82445099999","2021-01-23T14:00:00","-4.2666666","-55.9833333","45.0","ITAITUBA, BR","FM-12","4","","75","90","","","","9","63","SCT:03 26","29.87","29.71","6.21","79","050","","2","","","","","","","","","","","","","","","","","","","","","","","","","","","","","","","","","","","","","","","","","","","","","","","","","","","","","","","","","","","","","","","","","","","","","","","","","","","","","","","","","","","","","","","","","","","SYN05882445 32597 60502 10320 20241 30062 40114 83282 333 59017=","","","","","","","","","",""
"82445099999","2021-01-23T20:00:00","-4.2666666","-55.9833333","45.0","ITAITUBA, BR","FM-12","4","","76","80","","","","","89","SCT:03 26","29.84","29.68","6.21","77","000","","0","","","","","","","","","","","","","","","","","","","","","","","","","","","","","","","","","","","","","","","","","","","","","","","","","","","","","","","","","","","","","","","","","","","","","","","","","","","","","","","","","","","","","","","","","","","SYN08882445 21597 50000 10266 20246 30052 40104 72162 83201 333 10337 29084 55053 59022 60071=","","","","","","","","","",""
"82445099999","2021-01-24T08:00:00","-4.2666666","-55.9833333","45.0","ITAITUBA, BR","FM-12","4","","77","78","","","","9","94","FEW:02 41","29.93","29.78","2.49","77","000","","0","","","","","","","","","","","","","","","","","","","","","","","","","","","","","","","","","","","","","","","","","","","","","","","","","","","","","","","","","","","","","","","","","","","","","","","","","","","","","","","","","","","","","","","","","","","SYN07082445 22696 80000 10258 20248 30083 40135 82580 333 20245 59012 60064=","","","","","","","","","",""
"82445099999","2021-01-24T14:00:00","-4.2666666","-55.9833333","45.0","ITAITUBA, BR","FM-12","4","","77","89","","","","9","69","SCT:04 26","29.84","29.68","2.49","80","090","","5","","","","","","","","","","","","","","","","","","","","","","","","","","","","","","","","","","","","","","","","","","","","","","","","","","","","","","","","","","","","","","","","","","","","","","","","","","","","","","","","","","","","","","","","","","","SYN05882445 32596 70904 10314 20250 30052 40104 84272 333 58010=","","","","","","","","","",""
"82445099999","2021-01-24T20:00:00","-4.2666666","-55.9833333","45.0","ITAITUBA, BR","FM-12","4","","75","81","","","","","84","SCT:03 26","29.85","29.70","1.24","77","000","","0","","","","","","","","","","","","","","","","","","","","","","","","","","","","","","","","","","","","","","","","","","","","","","","","","","","","","","","","","","","","","","","","","","","","","","","","","","","","","","","","","","","","","","","","","","","SYN08282445 31595 70000 10270 20241 30058 40110 72922 8327/ 333 10333 29083 55054 58002=","","","","","","","","","",""
"82445099999","2021-01-25T08:00:00","-4.2666666","-55.9833333","45.0","ITAITUBA, BR","FM-12","4","","75","79","","","","9","88","SCT:04 15","29.96","29.81","6.21","76","140","","2","","","","","","","","","","","","","","","","","","","","","","","","","","","","","","","","","","","","","","","","","","","","","","","","","","","","","","","","","","","","","","","","","","","","","","","","","","","","","","","","","","","","","","","","","","","SYN06482445 32497 71402 10262 20241 30095 40147 84770 333 20233 58012=","","","","","","","","","",""
"82445099999","2021-01-25T14:00:00","-4.2666666","-55.9833333","45.0","ITAITUBA, BR","FM-12","4","","74","82","","","","9","77","SCT:03 41","29.87","29.72","6.21","76","050","","2","","","","","","","","","","","","","","","","","","","","","","","","","","","","","","","","","","","","","","","","","","","","","","","","","","","","","","","","","","","","","","","","","","","","","","","","","","","","","","","","","","","","","","","","","","","SYN07082445 21697 60502 10280 20236 30063 40115 70365 83531 333 58011 60021=","","","","","","","","","",""
"82445099999","2021-01-25T20:00:00","-4.2666666","-55.9833333","45.0","ITAITUBA, BR","FM-12","4","","77","78","","","","","96","","29.86","29.71","6.21","77","000","","0","","","","","","","","","","","","","","","","","","","","","","","","","","","","","","","","","","","","","","","","","","","","","","","","","","","","","","","","","","","","","","","","","","","","","","","","","","","","","","","","","","","","","","","","","","","SYN07682445 32997 60000 10258 20251 30060 40112 80006 333 10295 29089 55015 58002=","","","","","","","","","",""
"82445099999","2021-01-26T08:00:00","-4.2666666","-55.9833333","45.0","ITAITUBA, BR","FM-12","4","","74","77","","","","9","89","FEW:02 8","29.96","29.80","6.21","75","050","","5","","","","","","","","","","","","","","","","","","","","","","","","","","","","","","","","","","","","","","","","","","","","","","","","","","","","","","","","","","","","","","","","","","","","","","","","","","","","","","","","","","","","","","","","","","","SYN07682445 21397 60504 10250 20231 30091 40144 70365 82731 333 20230 59004 60044=","","","","","","","","","",""
"82445099999","2021-01-26T14:00:00","-4.2666666","-55.9833333","45.0","ITAITUBA, BR","FM-12","4","","77","87","","","","9","71","FEW:02 26","29.85","29.69","12.43","80","050","","2","","","","","","","","","","","","","","","","","","","","","","","","","","","","","","","","","","","","","","","","","","","","","","","","","","","","","","","","","","","","","","","","","","","","","","","","","","","","","","","","","","","","","","","","","","","SYN05882445 32598 50502 10308 20249 30055 40107 82145 333 59008=","","","","","","","","","",""
"82445099999","2021-01-26T20:00:00","-4.2666666","-55.9833333","45.0","ITAITUBA, BR","FM-12","4","","79","84","","","","","86","","29.85","29.70","6.21","80","090","","1","","","","","","","","","","","","","","","","","","","","","","","","","","","","","","","","","","","","","","","","","","","","","","","","","","","","","","","","","","","","","","","","","","","","","","","","","","","","","","","","","","","","","","","","","","","SYN07682445 32997 40901 10288 20262 30058 40110 80005 333 10331 29083 55090 59002=","","","","","","","","","",""
"82445099999","2021-01-27T08:00:00","-4.2666666","-55.9833333","45.0","ITAITUBA, BR","FM-12","4","","76","79","","","","9","90","SCT:03 41","29.95","29.80","6.21","77","090","","1","","","","","","","","","","","","","","","","","","","","","","","","","","","","","","","","","","","","","","","","","","","","","","","","","","","","","","","","","","","","","","","","","","","","","","","","","","","","","","","","","","","","","","","","","","","SYN07682445 21697 70901 10260 20242 30090 40142 70365 83570 333 20237 59001 60094=","","","","","","","","","",""
"82445099999","2021-01-27T14:00:00","-4.2666666","-55.9833333","45.0","ITAITUBA, BR","FM-12","4","","79","87","","","","9","76","FEW:02 26","29.87","29.72","6.21","81","090","","2","","","","","","","","","","","","","","","","","","","","","","","","","","","","","","","","","","","","","","","","","","","","","","","","","","","","","","","","","","","","","","","","","","","","","","","","","","","","","","","","","","","","","","","","","","","SYN05882445 32597 60902 10306 20259 30063 40115 82246 333 58008=","","","","","","","","","",""
"82445099999","2021-01-27T20:00:00","-4.2666666","-55.9833333","45.0","ITAITUBA, BR","FM-12","4","","79","82","","","","","92","FEW:02 41","29.88","29.72","2.49","80","000","","0","","","","","","","","","","","","","","","","","","","","","","","","","","","","","","","","","","","","","","","","","","","","","","","","","","","","","","","","","","","","","","","","","","","","","","","","","","","","","","","","","","","","","","","","","","","SYN07682445 32696 60000 10276 20262 30066 40118 82505 333 10325 29088 55045 58008=","","","","","","","","","",""
"82445099999","2021-01-28T08:00:00","-4.2666666","-55.9833333","45.0","ITAITUBA, BR","FM-12","4","","75","76","","","","9","95","SCT:03 41","29.94","29.78","6.21","75","000","","0","","","","","","","","","","","","","","","","","","","","","","","","","","","","","","","","","","","","","","","","","","","","","","","","","","","","","","","","","","","","","","","","","","","","","","","","","","","","","","","","","","","","","","","","","","","SYN07682445 21697 70000 10246 20237 30086 40139 72165 83570 333 20239 59004 60084=","","","","","","","","","",""
"82445099999","2021-01-28T14:00:00","-4.2666666","-55.9833333","45.0","ITAITUBA, BR","FM-12","4","","75","77","","||RA","","9","96","SCT:04 15","29.87","29.72","2.49","76","000","","0","","","","","","","","","","","","","","","","","","","","","","","","","","","","","","","","","","","","","","","","","","","","","","","","","","","","","","","","","","","","","","","","","","","","","","","","","","","","","","","","","","","","","","","","","","","SYN07082445 21496 80000 10248 20241 30063 40116 76165 8472/ 333 58003 60121=","","","","","","","","","",""
"82445099999","2021-01-28T20:00:00","-4.2666666","-55.9833333","45.0","ITAITUBA, BR","FM-12","4","","76","77","","","","","97","SCT:03 41","29.85","29.69","2.49","76","000","","0","","","","","","","","","","","","","","","","","","","","","","","","","","","","","","","","","","","","","","","","","","","","","","","","","","","","","","","","","","","","","","","","","","","","","","","","","","","","","","","","","","","","","","","","","","","SYN08882445 21696 60000 10248 20243 30055 40108 70365 83536 333 10279 29096 55002 59011 69971=","","","","","","","","","",""
"82445099999","2021-01-29T08:00:00","-4.2666666","-55.9833333","45.0","ITAITUBA, BR","FM-12","4","","76","77","","","","9","95","SCT:03 41","29.93","29.78","6.21","76","180","","1","","","","","","","","","","","","","","","","","","","","","","","","","","","","","","","","","","","","","","","","","","","","","","","","","","","","","","","","","","","","","","","","","","","","","","","","","","","","","","","","","","","","","","","","","","","SYN07082445 22697 71801 10252 20243 30083 40136 83530 333 20237 59003 60124=","","","","","","","","","",""
"82445099999","2021-01-29T14:00:00","-4.2666666","-55.9833333","45.0","ITAITUBA, BR","FM-12","4","","77","80","","","","9","90","SCT:03 41","29.88","29.70","6.21","78","140","","1","","","","","","","","","","","","","","","","","","","","","","","","","","","","","","","","","","","","","","","","","","","","","","","","","","","","","","","","","","","","","","","","","","","","","","","","","","","","","","","","","","","","","","","","","","","SYN07082445 21697 71401 10266 20248 30056 40118 72165 83570 333 59007 60051=","","","","","","","","","",""
"82445099999","2021-01-29T20:00:00","-4.2666666","-55.9833333","45.0","ITAITUBA, BR","FM-12","4","","77","79","","","","","94","FEW:02 15","29.84","29.69","2.49","78","000","","0","","","","","","","","","","","","","","","","","","","","","","","","","","","","","","","","","","","","","","","","","","","","","","","","","","","","","","","","","","","","","","","","","","","","","","","","","","","","","","","","","","","","","","","","","","","SYN08882445 21496 60000 10260 20250 30054 40106 70352 82131 333 10299 29093 55010 59001 69911=","","","","","","","","","",""
"82445099999","2021-01-30T08:00:00","-4.2666666","-55.9833333","45.0","ITAITUBA, BR","FM-12","4","","75","77","","||DZ","","9","93","SCT:03 15","29.96","29.81","2.49","76","360","","2","","","","","","","","","","","","","","","","","","","","","","","","","","","","","","","","","","","","","","","","","","","","","","","","","","","","","","","","","","","","","","","","","","","","","","","","","","","","","","","","","","","","","","","","","","","SYN07682445 21496 83602 10252 20240 30094 40147 75122 8372/ 333 20243 58011 69924=","","","","","","","","","",""
"82445099999","2021-01-30T14:00:00","-4.2666666","-55.9833333","45.0","ITAITUBA, BR","FM-12","4","","79","87","","","","9","76","SCT:03 41","29.88","29.73","6.21","81","090","","5","","","","","","","","","","","","","","","","","","","","","","","","","","","","","","","","","","","","","","","","","","","","","","","","","","","","","","","","","","","","","","","","","","","","","","","","","","","","","","","","","","","","","","","","","","","SYN07082445 21697 60904 10306 20259 30067 40119 70365 83535 333 58011 60021=","","","","","","","","","",""
"82445099999","2021-01-30T20:00:00","-4.2666666","-55.9833333","45.0","ITAITUBA, BR","FM-12","4","","79","81","","","","","93","SCT:03 41","29.87","29.71","1.24","80","000","","0","","","","","","","","","","","","","","","","","","","","","","","","","","","","","","","","","","","","","","","","","","","","","","","","","","","","","","","","","","","","","","","","","","","","","","","","","","","","","","","","","","","","","","","","","","","SYN08882445 21695 70000 10274 20262 30062 40114 70352 83520 333 10327 29089 55024 58008 69921=","","","","","","","","","",""
"82445099999","2021-01-31T08:00:00","-4.2666666","-55.9833333","45.0","ITAITUBA, BR","FM-12","4","","74","74","","||RA","","9","97","SCT:03 15","29.99","29.83","2.49","74","000","","0","","","","","","","","","","","","","","","","","","","","","","","","","","","","","","","","","","","","","","","","","","","","","","","","","","","","","","","","","","","","","","","","","","","","","","","","","","","","","","","","","","","","","","","","","","","SYN07682445 21496 80000 10236 20231 30102 40155 76165 8372/ 333 20231 58008 60344=","","","","","","","","","",""
"82445099999","2021-01-31T14:00:00","-4.2666666","-55.9833333","45.0","ITAITUBA, BR","FM-12","4","","77","80","","","","9","92","SCT:03 41","29.91","29.75","6.21","78","000","","0","","","","","","","","","","","","","","","","","","","","","","","","","","","","","","","","","","","","","","","","","","","","","","","","","","","","","","","","","","","","","","","","","","","","","","","","","","","","","","","","","","","","","","","","","","","SYN07082445 21697 80000 10266 20252 30075 40127 70265 8357/ 333 58008 69981=","","","","","","","","","",""
"82445099999","2021-01-31T20:00:00","-4.2666666","-55.9833333","45.0","ITAITUBA, BR","FM-12","4","","76","78","","","","","95","FEW:01 26","29.85","29.69","6.21","77","000","","0","","","","","","","","","","","","","","","","","","","","","","","","","","","","","","","","","","","","","","","","","","","","","","","","","","","","","","","","","","","","","","","","","","","","","","","","","","","","","","","","","","","","","","","","","","","SYN07682445 32597 10000 10254 20245 30054 40107 81100 333 10277 29095 55000 59008=","","","","","","","","","",""
"82445099999","2021-02-01T08:00:00","-4.2666666","-55.9833333","45.0","ITAITUBA, BR","FM-12","4","","76","79","","","","9","92","FEW:02 41","29.88","29.72","12.43","77","000","","0","","","","","","","","","","","","","","","","","","","","","","","","","","","","","","","","","","","","","","","","","","","","","","","","","","","","","","","","","","","","","","","","","","","","","","","","","","","","","","","","","","","","","","","","","","","SYN07082445 22698 60000 10260 20246 30066 40118 82551 333 20231 59036 69984=","","","","","","","","","",""
"82445099999","2021-02-01T14:00:00","-4.2666666","-55.9833333","45.0","ITAITUBA, BR","FM-12","4","","79","89","","||TS","","9","73","SCT:03 26","29.81","29.66","6.21","82","050","","5","","","","","","","","","","","","","","","","","","","","","","","","","","","","","","","","","","","","","","","","","","","","","","","","","","","","","","","","","","","","","","","","","","","","","","","","","","","","","","","","","","","","","","","","","","","SYN06482445 31597 60504 10314 20260 30043 40095 71722 83422 333 59032=","","","","","","","","","",""
"82445099999","2021-02-01T20:00:00","-4.2666666","-55.9833333","45.0","ITAITUBA, BR","FM-12","4","","78","80","","","","","94","SCT:03 41","29.81","29.66","2.49","79","000","","0","","","","","","","","","","","","","","","","","","","","","","","","","","","","","","","","","","","","","","","","","","","","","","","","","","","","","","","","","","","","","","","","","","","","","","","","","","","","","","","","","","","","","","","","","","","SYN07682445 32696 60000 10268 20258 30043 40095 83510 333 10333 29088 55065 59011=","","","","","","","","","",""
"82445099999","2021-02-02T08:00:00","-4.2666666","-55.9833333","45.0","ITAITUBA, BR","FM-12","4","","78","80","","","","9","92","SCT:03 41","29.92","29.77","6.21","79","050","","2","","","","","","","","","","","","","","","","","","","","","","","","","","","","","","","","","","","","","","","","","","","","","","","","","","","","","","","","","","","","","","","","","","","","","","","","","","","","","","","","","","","","","","","","","","","SYN07082445 22697 60502 10268 20254 30080 40132 83532 333 20249 58014 69904=","","","","","","","","","",""
"82445099999","2021-02-02T14:00:00","-4.2666666","-55.9833333","45.0","ITAITUBA, BR","FM-12","4","","78","89","","","","9","70","SCT:03 26","29.82","29.67","6.21","81","050","","7","","","","","","","","","","","","","","","","","","","","","","","","","","","","","","","","","","","","","","","","","","","","","","","","","","","","","","","","","","","","","","","","","","","","","","","","","","","","","","","","","","","","","","","","","","","SYN05882445 32597 60506 10316 20255 30047 40099 83422 333 58004=","","","","","","","","","",""
"82445099999","2021-02-02T20:00:00","-4.2666666","-55.9833333","45.0","ITAITUBA, BR","FM-12","4","","78","83","","","","","85","SCT:04 41","29.88","29.73","1.24","79","000","","0","","","","","","","","","","","","","","","","","","","","","","","","","","","","","","","","","","","","","","","","","","","","","","","","","","","","","","","","","","","","","","","","","","","","","","","","","","","","","","","","","","","","","","","","","","","SYN07682445 32695 70000 10286 20258 30067 40119 84520 333 10342 29083 55080 58020=","","","","","","","","","",""
"82445099999","2021-02-03T08:00:00","-4.2666666","-55.9833333","45.0","ITAITUBA, BR","FM-12","4","","77","81","","","","9","87","SCT:03 41","29.96","29.81","12.43","78","090","","2","","","","","","","","","","","","","","","","","","","","","","","","","","","","","","","","","","","","","","","","","","","","","","","","","","","","","","","","","","","","","","","","","","","","","","","","","","","","","","","","","","","","","","","","","","","SYN06482445 32698 60902 10274 20250 30095 40147 83532 333 20255 58015=","","","","","","","","","",""
"82445099999","2021-02-03T14:00:00","-4.2666666","-55.9833333","45.0","ITAITUBA, BR","FM-12","4","","79","90","","","","9","70","SCT:03 26","29.87","29.72","12.43","82","090","","3","","","","","","","","","","","","","","","","","","","","","","","","","","","","","","","","","","","","","","","","","","","","","","","","","","","","","","","","","","","","","","","","","","","","","","","","","","","","","","","","","","","","","","","","","","","SYN05882445 32598 60903 10322 20260 30063 40115 83422 333 58016=","","","","","","","","","",""
"82445099999","2021-02-03T20:00:00","-4.2666666","-55.9833333","45.0","ITAITUBA, BR","FM-12","4","","76","81","","","","","86","SCT:04 41","29.87","29.71","1.24","77","180","","5","","","","","","","","","","","","","","","","","","","","","","","","","","","","","","","","","","","","","","","","","","","","","","","","","","","","","","","","","","","","","","","","","","","","","","","","","","","","","","","","","","","","","","","","","","","SYN07682445 32695 81804 10270 20245 30062 40114 84520 333 10342 29082 55084 59001=","","","","","","","","","",""
"82445099999","2021-02-04T08:00:00","-4.2666666","-55.9833333","45.0","ITAITUBA, BR","FM-12","4","","76","78","","","","9","92","SCT:03 41","29.96","29.80","12.43","77","000","","0","","","","","","","","","","","","","","","","","","","","","","","","","","","","","","","","","","","","","","","","","","","","","","","","","","","","","","","","","","","","","","","","","","","","","","","","","","","","","","","","","","","","","","","","","","","SYN06482445 32698 60000 10258 20244 30092 40144 83535 333 20243 59003=","","","","","","","","","",""
"82445099999","2021-02-04T14:00:00","-4.2666666","-55.9833333","45.0","ITAITUBA, BR","FM-12","4","","78","91","","","","9","66","SCT:03 26","29.87","29.71","12.43","81","360","","2","","","","","","","","","","","","","","","","","","","","","","","","","","","","","","","","","","","","","","","","","","","","","","","","","","","","","","","","","","","","","","","","","","","","","","","","","","","","","","","","","","","","","","","","","","","SYN05882445 32598 63602 10330 20258 30062 40114 83530 333 59001=","","","","","","","","","",""
"82445099999","2021-02-04T20:00:00","-4.2666666","-55.9833333","45.0","ITAITUBA, BR","FM-12","4","","79","86","","","","","81","SCT:03 41","29.85","29.70","2.49","81","000","","0","","","","","","","","","","","","","","","","","","","","","","","","","","","","","","","","","","","","","","","","","","","","","","","","","","","","","","","","","","","","","","","","","","","","","","","","","","","","","","","","","","","","","","","","","","","SYN07682445 32696 40000 10298 20262 30056 40108 83220 333 10348 29080 55086 59006=","","","","","","","","","",""
"82445099999","2021-02-05T08:00:00","-4.2666666","-55.9833333","45.0","ITAITUBA, BR","FM-12","4","","77","81","","","","9","88","SCT:03 41","29.93","29.78","12.43","78","050","","2","","","","","","","","","","","","","","","","","","","","","","","","","","","","","","","","","","","","","","","","","","","","","","","","","","","","","","","","","","","","","","","","","","","","","","","","","","","","","","","","","","","","","","","","","","","SYN06482445 32698 60502 10272 20250 30084 40136 83531 333 20247 59008=","","","","","","","","","",""
"82445099999","2021-02-05T14:00:00","-4.2666666","-55.9833333","45.0","ITAITUBA, BR","FM-12","4","","78","90","","","","9","69","SCT:03 26","29.84","29.68","12.43","81","050","","5","","","","","","","","","","","","","","","","","","","","","","","","","","","","","","","","","","","","","","","","","","","","","","","","","","","","","","","","","","","","","","","","","","","","","","","","","","","","","","","","","","","","","","","","","","","SYN05882445 32598 60504 10320 20256 30052 40104 83442 333 59010=","","","","","","","","","",""
"82445099999","2021-02-05T20:00:00","-4.2666666","-55.9833333","45.0","ITAITUBA, BR","FM-12","4","","80","84","","","","","87","SCT:03 26","29.85","29.69","2.49","81","000","","0","","","","","","","","","","","","","","","","","","","","","","","","","","","","","","","","","","","","","","","","","","","","","","","","","","","","","","","","","","","","","","","","","","","","","","","","","","","","","","","","","","","","","","","","","","","SYN07682445 32596 60000 10290 20266 30055 40107 83120 333 10338 29083 55081 58003=","","","","","","","","","",""
"82445099999","2021-02-06T08:00:00","-4.2666666","-55.9833333","45.0","ITAITUBA, BR","FM-12","4","","77","82","","","","9","86","FEW:02 41","29.96","29.81","12.43","78","000","","0","","","","","","","","","","","","","","","","","","","","","","","","","","","","","","","","","","","","","","","","","","","","","","","","","","","","","","","","","","","","","","","","","","","","","","","","","","","","","","","","","","","","","","","","","","","SYN06482445 32698 60000 10278 20252 30094 40146 82548 333 20241 58010=","","","","","","","","","",""
"82445099999","2021-02-06T14:00:00","-4.2666666","-55.9833333","45.0","ITAITUBA, BR","FM-12","4","","80","89","","","","9","74","SCT:03 26","29.85","29.70","12.43","82","140","","2","","","","","","","","","","","","","","","","","","","","","","","","","","","","","","","","","","","","","","","","","","","","","","","","","","","","","","","","","","","","","","","","","","","","","","","","","","","","","","","","","","","","","","","","","","","SYN07082445 21598 61402 10318 20266 30056 40108 70262 83422 333 58004 60021=","","","","","","","","","",""
"82445099999","2021-02-06T20:00:00","-4.2666666","-55.9833333","45.0","ITAITUBA, BR","FM-12","4","","81","85","","","","","88","SCT:04 41","29.88","29.72","1.24","82","000","","0","","","","","","","","","","","","","","","","","","","","","","","","","","","","","","","","","","","","","","","","","","","","","","","","","","","","","","","","","","","","","","","","","","","","","","","","","","","","","","","","","","","","","","","","","","","SYN07682445 32695 70000 10294 20272 30066 40118 84520 333 10352 29084 55079 59011=","","","","","","","","","",""
"82445099999","2021-02-07T08:00:00","-4.2666666","-55.9833333","45.0","ITAITUBA, BR","FM-12","4","","76","80","","","","9","89","FEW:02 26","29.96","29.81","12.43","77","000","","0","","","","","","","","","","","","","","","","","","","","","","","","","","","","","","","","","","","","","","","","","","","","","","","","","","","","","","","","","","","","","","","","","","","","","","","","","","","","","","","","","","","","","","","","","","","SYN07082445 22598 60000 10266 20246 30095 40147 82142 333 20243 58001 60024=","","","","","","","","","",""
"82445099999","2021-02-07T14:00:00","-4.2666666","-55.9833333","45.0","ITAITUBA, BR","FM-12","4","","77","93","","","","9","61","FEW:02 26","29.85","29.70","12.43","81","360","","2","","","","","","","","","","","","","","","","","","","","","","","","","","","","","","","","","","","","","","","","","","","","","","","","","","","","","","","","","","","","","","","","","","","","","","","","","","","","","","","","","","","","","","","","","","","SYN05882445 32598 53602 10338 20252 30056 40108 82442 333 58000=","","","","","","","","","",""
"82445099999","2021-02-07T20:00:00","-4.2666666","-55.9833333","45.0","ITAITUBA, BR","FM-12","4","","76","82","","","","","82","SCT:04 41","29.91","29.76","1.24","78","320","","2","","","","","","","","","","","","","","","","","","","","","","","","","","","","","","","","","","","","","","","","","","","","","","","","","","","","","","","","","","","","","","","","","","","","","","","","","","","","","","","","","","","","","","","","","","","SYN07682445 32695 83202 10276 20242 30078 40130 8452/ 333 10359 29078 55097 58012=","","","","","","","","","",""
"82445099999","2021-02-08T08:00:00","-4.2666666","-55.9833333","45.0","ITAITUBA, BR","FM-12","4","","77","79","","","","9","94","SCT:04 41","29.94","29.79","6.21","78","000","","0","","","","","","","","","","","","","","","","","","","","","","","","","","","","","","","","","","","","","","","","","","","","","","","","","","","","","","","","","","","","","","","","","","","","","","","","","","","","","","","","","","","","","","","","","","","SYN06482445 32697 80000 10260 20250 30087 40139 84520 333 20247 59008=","","","","","","","","","",""
"82445099999","2021-02-08T14:00:00","-4.2666666","-55.9833333","45.0","ITAITUBA, BR","FM-12","4","","77","87","","","","9","72","SCT:03 26","29.86","29.71","6.21","80","050","","2","","","","","","","","","","","","","","","","","","","","","","","","","","","","","","","","","","","","","","","","","","","","","","","","","","","","","","","","","","","","","","","","","","","","","","","","","","","","","","","","","","","","","","","","","","","SYN05882445 32597 70502 10304 20248 30060 40112 83422 333 58004=","","","","","","","","","",""
"82445099999","2021-02-08T20:00:00","-4.2666666","-55.9833333","45.0","ITAITUBA, BR","FM-12","4","","78","83","","","","","84","SCT:04 41","29.85","29.69","1.24","79","000","","0","","","","","","","","","","","","","","","","","","","","","","","","","","","","","","","","","","","","","","","","","","","","","","","","","","","","","","","","","","","","","","","","","","","","","","","","","","","","","","","","","","","","","","","","","","","SYN07682445 32695 70000 10284 20254 30055 40107 84520 333 10312 29086 55002 59023=","","","","","","","","","",""
"82445099999","2021-02-09T08:00:00","-4.2666666","-55.9833333","45.0","ITAITUBA, BR","FM-12","4","","78","80","","","","9","92","SCT:03 41","29.93","29.78","6.21","79","000","","0","","","","","","","","","","","","","","","","","","","","","","","","","","","","","","","","","","","","","","","","","","","","","","","","","","","","","","","","","","","","","","","","","","","","","","","","","","","","","","","","","","","","","","","","","","","SYN06482445 32697 70000 10268 20254 30083 40135 83570 333 20251 59004=","","","","","","","","","",""
"82445099999","2021-02-09T14:00:00","-4.2666666","-55.9833333","45.0","ITAITUBA, BR","FM-12","4","","79","88","","","","9","75","SCT:04 26","29.83","29.67","6.21","81","050","","3","","","","","","","","","","","","","","","","","","","","","","","","","","","","","","","","","","","","","","","","","","","","","","","","","","","","","","","","","","","","","","","","","","","","","","","","","","","","","","","","","","","","","","","","","","","SYN05882445 32597 70503 10312 20263 30048 40100 84470 333 59012=","","","","","","","","","",""
"82445099999","2021-02-09T20:00:00","-4.2666666","-55.9833333","45.0","ITAITUBA, BR","FM-12","4","","79","84","","","","","86","SCT:04 41","29.88","29.73","1.24","80","000","","0","","","","","","","","","","","","","","","","","","","","","","","","","","","","","","","","","","","","","","","","","","","","","","","","","","","","","","","","","","","","","","","","","","","","","","","","","","","","","","","","","","","","","","","","","","","SYN07682445 32695 80000 10288 20262 30068 40120 8457/ 333 10332 29084 55026 58020=","","","","","","","","","",""
"82445099999","2021-02-10T14:00:00","-4.2666666","-55.9833333","45.0","ITAITUBA, BR","FM-12","4","","74","82","","","","9","78","SCT:04 41","29.87","29.72","6.21","76","050","","1","","","","","","","","","","","","","","","","","","","","","","","","","","","","","","","","","","","","","","","","","","","","","","","","","","","","","","","","","","","","","","","","","","","","","","","","","","","","","","","","","","","","","","","","","","","SYN07082445 21697 70501 10278 20236 30064 40116 70252 84570 333 58016 69921=","","","","","","","","","",""
"82445099999","2021-02-10T20:00:00","-4.2666666","-55.9833333","45.0","ITAITUBA, BR","FM-12","4","","76","78","","","","","93","SCT:04 41","29.87","29.72","1.24","77","000","","0","","","","","","","","","","","","","","","","","","","","","","","","","","","","","","","","","","","","","","","","","","","","","","","","","","","","","","","","","","","","","","","","","","","","","","","","","","","","","","","","","","","","","","","","","","","SYN08882445 21695 70000 10256 20244 30064 40116 70262 84570 333 10287 29090 55000 59004 60011=","","","","","","","","","",""
"82445099999","2021-02-13T08:00:00","-4.2666666","-55.9833333","45.0","ITAITUBA, BR","FM-12","4","","76","79","","","","9","90","SCT:04 15","29.92","29.76","1.24","77","050","","6","","","","","","","","","","","","","","","","","","","","","","","","","","","","","","","","","","","","","","","","","","","","","","","","","","","","","","","","","","","","","","","","","","","","","","","","","","","","","","","","","","","","","","","","","","","SYN06482445 32495 80505 10262 20244 30079 40131 8477/ 333 20247 59003=","","","","","","","","","",""
"82445099999","2021-02-13T14:00:00","-4.2666666","-55.9833333","45.0","ITAITUBA, BR","FM-12","4","","78","86","","","","9","76","SCT:03 41","29.84","29.68","2.49","80","050","","7","","","","","","","","","","","","","","","","","","","","","","","","","","","","","","","","","","","","","","","","","","","","","","","","","","","","","","","","","","","","","","","","","","","","","","","","","","","","","","","","","","","","","","","","","","","SYN07082445 21696 70506 10302 20255 30052 40104 70265 83570 333 58004 60011=","","","","","","","","","",""
"82445099999","2021-02-13T20:00:00","-4.2666666","-55.9833333","45.0","ITAITUBA, BR","FM-12","4","","76","80","","","","","87","SCT:04 26","29.83","29.67","1.24","77","000","","0","","","","","","","","","","","","","","","","","","","","","","","","","","","","","","","","","","","","","","","","","","","","","","","","","","","","","","","","","","","","","","","","","","","","","","","","","","","","","","","","","","","","","","","","","","","SYN08882445 21595 80000 10268 20244 30048 40100 70252 8457/ 333 10317 29088 55020 58000 69911=","","","","","","","","","",""
"82445099999","2021-02-14T08:00:00","-4.2666666","-55.9833333","45.0","ITAITUBA, BR","FM-12","4","","76","76","","||RA","","9","99","OVC:08 8","29.94","29.78","0.62","76","000","","0","","","","","","","","","","","","","","","","","","","","","","","","","","","","","","","","","","","","","","","","","","","","","","","","","","","","","","","","","","","","","","","","","","","","","","","","","","","","","","","","","","","","","","","","","","","SYN07682445 21394 80000 10244 20242 30086 40139 76266 887// 333 20239 58007 60414=","","","","","","","","","",""
"82445099999","2021-02-14T14:00:00","-4.2666666","-55.9833333","45.0","ITAITUBA, BR","FM-12","4","","77","81","","||DZ","","9","89","SCT:04 26","29.85","29.70","2.49","78","360","","1","","","","","","","","","","","","","","","","","","","","","","","","","","","","","","","","","","","","","","","","","","","","","","","","","","","","","","","","","","","","","","","","","","","","","","","","","","","","","","","","","","","","","","","","","","","SYN07082445 21596 83601 10272 20252 30058 40110 75065 8457/ 333 58006 60051=","","","","","","","","","",""
"82445099999","2021-02-14T20:00:00","-4.2666666","-55.9833333","45.0","ITAITUBA, BR","FM-12","4","","78","80","","","","","94","SCT:04 26","29.87","29.71","0.62","79","000","","0","","","","","","","","","","","","","","","","","","","","","","","","","","","","","","","","","","","","","","","","","","","","","","","","","","","","","","","","","","","","","","","","","","","","","","","","","","","","","","","","","","","","","","","","","","","SYN07682445 32594 80000 10264 20254 30062 40114 8457/ 333 10282 29094 55000 58010=","","","","","","","","","",""
"82445099999","2021-02-15T08:00:00","-4.2666666","-55.9833333","45.0","ITAITUBA, BR","FM-12","4","","72","74","","||RA","","9","96","OVC:08 15","29.97","29.81","0.62","73","000","","0","","","","","","","","","","","","","","","","","","","","","","","","","","","","","","","","","","","","","","","","","","","","","","","","","","","","","","","","","","","","","","","","","","","","","","","","","","","","","","","","","","","","","","","","","","","SYN07682445 21494 80000 10232 20225 30095 40148 79296 887// 333 20227 58009 60584=","","","","","","","","","",""
"82445099999","2021-02-15T14:00:00","-4.2666666","-55.9833333","45.0","ITAITUBA, BR","FM-12","4","","76","78","","","","9","93","OVC:08 15","29.93","29.78","0.62","77","000","","0","","","","","","","","","","","","","","","","","","","","","","","","","","","","","","","","","","","","","","","","","","","","","","","","","","","","","","","","","","","","","","","","","","","","","","","","","","","","","","","","","","","","","","","","","","","SYN07082445 21494 80000 10256 20244 30083 40135 72166 887// 333 58025 60061=","","","","","","","","","",""
"82445099999","2021-02-15T20:00:00","-4.2666666","-55.9833333","45.0","ITAITUBA, BR","FM-12","4","","77","77","","","","","99","OVC:08 15","29.93","29.77","0.62","77","000","","0","","","","","","","","","","","","","","","","","","","","","","","","","","","","","","","","","","","","","","","","","","","","","","","","","","","","","","","","","","","","","","","","","","","","","","","","","","","","","","","","","","","","","","","","","","","SYN08882445 21494 80000 10250 20248 30082 40134 72065 887// 333 10267 29097 55000 58020 69961=","","","","","","","","","",""
"82445099999","2021-02-16T08:00:00","-4.2666666","-55.9833333","45.0","ITAITUBA, BR","FM-12","4","","74","76","","","","9","95","BKN:05 15","29.98","29.82","1.24","75","000","","0","","","","","","","","","","","","","","","","","","","","","","","","","","","","","","","","","","","","","","","","","","","","","","","","","","","","","","","","","","","","","","","","","","","","","","","","","","","","","","","","","","","","","","","","","","","SYN07682445 21495 80000 10243 20235 30098 40151 72055 8577/ 333 20218 58003 60074=","","","","","","","","","",""
"82445099999","2021-02-16T14:00:00","-4.2666666","-55.9833333","45.0","ITAITUBA, BR","FM-12","4","","77","81","","","","9","87","SCT:04 15","29.91","29.75","1.24","78","000","","0","","","","","","","","","","","","","","","","","","","","","","","","","","","","","","","","","","","","","","","","","","","","","","","","","","","","","","","","","","","","","","","","","","","","","","","","","","","","","","","","","","","","","","","","","","","SYN06482445 31495 80000 10272 20248 30076 40128 71622 8477/ 333 59007=","","","","","","","","","",""
"82445099999","2021-02-16T20:00:00","-4.2666666","-55.9833333","45.0","ITAITUBA, BR","FM-12","4","","75","77","","","","","93","OVC:08 15","29.88","29.73","0.62","76","000","","0","","","","","","","","","","","","","","","","","","","","","","","","","","","","","","","","","","","","","","","","","","","","","","","","","","","","","","","","","","","","","","","","","","","","","","","","","","","","","","","","","","","","","","","","","","","SYN08882445 21494 80000 10252 20240 30067 40119 72052 887// 333 10290 29092 55008 59015 69921=","","","","","","","","","",""
"82445099999","2021-02-17T08:00:00","-4.2666666","-55.9833333","45.0","ITAITUBA, BR","FM-12","4","","75","76","","","","9","97","SCT:04 15","29.96","29.80","0.62","75","000","","0","","","","","","","","","","","","","","","","","","","","","","","","","","","","","","","","","","","","","","","","","","","","","","","","","","","","","","","","","","","","","","","","","","","","","","","","","","","","","","","","","","","","","","","","","","","SYN07682445 21494 80000 10244 20239 30091 40144 72162 847// 333 20239 59007 60044=","","","","","","","","","",""
"82445099999","2021-02-17T14:00:00","-4.2666666","-55.9833333","45.0","ITAITUBA, BR","FM-12","4","","76","80","","","","9","87","SCT:04 26","29.89","29.74","1.24","77","360","","7","","","","","","","","","","","","","","","","","","","","","","","","","","","","","","","","","","","","","","","","","","","","","","","","","","","","","","","","","","","","","","","","","","","","","","","","","","","","","","","","","","","","","","","","","","","SYN07082445 21595 83606 10266 20243 30070 40122 72052 8457/ 333 59006 69931=","","","","","","","","","",""
"82445099999","2021-02-17T20:00:00","-4.2666666","-55.9833333","45.0","ITAITUBA, BR","FM-12","4","","75","77","","","","","94","OVC:08 15","29.90","29.75","0.62","76","180","","1","","","","","","","","","","","","","","","","","","","","","","","","","","","","","","","","","","","","","","","","","","","","","","","","","","","","","","","","","","","","","","","","","","","","","","","","","","","","","","","","","","","","","","","","","","","SYN08882445 21494 81801 10250 20240 30076 40125 72166 887// 333 10307 29090 55030 59009 60081=","","","","","","","","","",""
"82445099999","2021-02-18T08:00:00","-4.2666666","-55.9833333","45.0","ITAITUBA, BR","FM-12","4","","73","75","","","","9","95","SCT:04 15","30.00","29.84","2.49","74","000","","0","","","","","","","","","","","","","","","","","","","","","","","","","","","","","","","","","","","","","","","","","","","","","","","","","","","","","","","","","","","","","","","","","","","","","","","","","","","","","","","","","","","","","","","","","","","SYN07682445 21496 80000 10238 20229 30106 40158 70266 8477/ 333 20221 58015 60134=","","","","","","","","","",""
"82445099999","2021-02-18T14:00:00","-4.2666666","-55.9833333","45.0","ITAITUBA, BR","FM-12","4","","76","77","","||RA","","9","95","SCT:04 15","29.91","29.76","1.24","76","360","","3","","","","","","","","","","","","","","","","","","","","","","","","","","","","","","","","","","","","","","","","","","","","","","","","","","","","","","","","","","","","","","","","","","","","","","","","","","","","","","","","","","","","","","","","","","","SYN07082445 21495 83603 10252 20243 30078 40130 76365 8477/ 333 58008 60041=","","","","","","","","","",""
"82445099999","2021-02-18T20:00:00","-4.2666666","-55.9833333","45.0","ITAITUBA, BR","FM-12","4","","77","79","","","","","93","OVC:08 26","29.91","29.75","1.24","78","000","","0","","","","","","","","","","","","","","","","","","","","","","","","","","","","","","","","","","","","","","","","","","","","","","","","","","","","","","","","","","","","","","","","","","","","","","","","","","","","","","","","","","","","","","","","","","","SYN08882445 21595 80000 10262 20250 30076 40128 70265 8807/ 333 10297 29094 55006 58000 60071=","","","","","","","","","",""
"82445099999","2021-02-20T14:00:00","-4.2666666","-55.9833333","45.0","ITAITUBA, BR","FM-12","4","","76","78","","||RA","","9","94","OVC:08 10","29.92","29.77","0.62","77","360","","2","","","","","","","","","","","","","","","","","","","","","","","","","","","","","","","","","","","","","","","","","","","","","","","","","","","","","","","","","","","","","","","","","","","","","","","","","","","","","","","","","","","","","","","","","","","SYN004BUFR","","","","","","","","","",""
"82445099999","2021-02-20T20:00:00","-4.2666666","-55.9833333","45.0","ITAITUBA, BR","FM-12","4","","73","74","","||RA","","9","95","OVC:08 7","30.01","29.85","0.62","73","360","","0","","","","","","","","","","","","","","","","","","","","","","","","","","","","","","","","","","","","","","","","","","","","","","","","","","","","","","","","","","","","","","","","","","","","","","","","","","","","","","","","","","","","","","","","","","","SYN004BUFR","","","","","","","","","",""
"82445099999","2021-02-21T08:00:00","-4.2666666","-55.9833333","45.0","ITAITUBA, BR","FM-12","4","","72","74","","","","9","92","SCT:04 33","29.98","29.83","2.49","73","360","","0","","","","","","","","","","","","","","","","","","","","","","","","","","","","","","","","","","","","","","","","","","","","","","","","","","","","","","","","","","","","","","","","","","","","","","","","","","","","","","","","","","","","","","","","","","","SYN004BUFR","","","","","","","","","",""
"82445099999","2021-02-21T14:00:00","-4.2666666","-55.9833333","45.0","ITAITUBA, BR","FM-12","4","","77","87","","","","9","72","SCT:03 26","29.91","29.75","6.21","80","090","","2","","","","","","","","","","","","","","","","","","","","","","","","","","","","","","","","","","","","","","","","","","","","","","","","","","","","","","","","","","","","","","","","","","","","","","","","","","","","","","","","","","","","","","","","","","","SYN05882445 32597 60902 10304 20248 30076 40128 83431 333 59004=","","","","","","","","","",""
"82445099999","2021-02-21T20:00:00","-4.2666666","-55.9833333","45.0","ITAITUBA, BR","FM-12","4","","78","81","","","","","93","SCT:04 26","29.91","29.75","1.24","79","000","","0","","","","","","","","","","","","","","","","","","","","","","","","","","","","","","","","","","","","","","","","","","","","","","","","","","","","","","","","","","","","","","","","","","","","","","","","","","","","","","","","","","","","","","","","","","","SYN07682445 32595 80000 10270 20258 30076 40128 8452/ 333 10322 29086 55053 59004=","","","","","","","","","",""
"82445099999","2021-02-22T08:00:00","-4.2666666","-55.9833333","45.0","ITAITUBA, BR","FM-12","4","","76","78","","","","9","92","SCT:03 26","29.98","29.82","12.43","77","000","","0","","","","","","","","","","","","","","","","","","","","","","","","","","","","","","","","","","","","","","","","","","","","","","","","","","","","","","","","","","","","","","","","","","","","","","","","","","","","","","","","","","","","","","","","","","","SYN06482445 32598 60000 10258 20244 30099 40151 83432 333 20231 59003=","","","","","","","","","",""
"82445099999","2021-02-22T14:00:00","-4.2666666","-55.9833333","45.0","ITAITUBA, BR","FM-12","4","","80","86","","||TS","","9","80","SCT:03 26","29.88","29.73","6.21","82","140","","7","","","","","","","","","","","","","","","","","","","","","","","","","","","","","","","","","","","","","","","","","","","","","","","","","","","","","","","","","","","","","","","","","","","","","","","","","","","","","","","","","","","","","","","","","","","SYN06482445 31597 71406 10302 20264 30067 40119 71722 83376 333 59009=","","","","","","","","","",""
"82445099999","2021-02-22T20:00:00","-4.2666666","-55.9833333","45.0","ITAITUBA, BR","FM-12","4","","77","79","","","","","94","SCT:03 41","29.92","29.76","2.49","78","320","","2","","","","","","","","","","","","","","","","","","","","","","","","","","","","","","","","","","","","","","","","","","","","","","","","","","","","","","","","","","","","","","","","","","","","","","","","","","","","","","","","","","","","","","","","","","","SYN07682445 32696 63202 10260 20250 30079 40131 83530 333 10325 29090 55047 58003=","","","","","","","","","",""
"82445099999","2021-02-23T08:00:00","-4.2666666","-55.9833333","45.0","ITAITUBA, BR","FM-12","4","","75","78","","","","9","92","FEW:01 15","29.99","29.83","12.43","76","050","","2","","","","","","","","","","","","","","","","","","","","","","","","","","","","","","","","","","","","","","","","","","","","","","","","","","","","","","","","","","","","","","","","","","","","","","","","","","","","","","","","","","","","","","","","","","","SYN07682445 21498 60502 10254 20240 30102 40155 70365 81731 333 20239 58003 60294=","","","","","","","","","",""
"82445099999","2021-02-23T14:00:00","-4.2666666","-55.9833333","45.0","ITAITUBA, BR","FM-12","4","","78","89","","","","9","71","FEW:02 26","29.91","29.75","12.43","81","140","","2","","","","","","","","","","","","","","","","","","","","","","","","","","","","","","","","","","","","","","","","","","","","","","","","","","","","","","","","","","","","","","","","","","","","","","","","","","","","","","","","","","","","","","","","","","","SYN05882445 32598 61402 10314 20255 30076 40128 82231 333 58009=","","","","","","","","","",""
"82445099999","2021-02-23T20:00:00","-4.2666666","-55.9833333","45.0","ITAITUBA, BR","FM-12","4","","81","83","","","","","91","","29.87","29.71","6.21","82","000","","0","","","","","","","","","","","","","","","","","","","","","","","","","","","","","","","","","","","","","","","","","","","","","","","","","","","","","","","","","","","","","","","","","","","","","","","","","","","","","","","","","","","","","","","","","","","SYN07682445 32997 10000 10286 20270 30062 40114 80008 333 10331 29086 55078 59017=","","","","","","","","","",""
"82445099999","2021-02-24T08:00:00","-4.2666666","-55.9833333","45.0","ITAITUBA, BR","FM-12","4","","78","83","","","","9","83","FEW:02 15","29.99","29.83","12.43","79","050","","2","","","","","","","","","","","","","","","","","","","","","","","","","","","","","","","","","","","","","","","","","","","","","","","","","","","","","","","","","","","","","","","","","","","","","","","","","","","","","","","","","","","","","","","","","","","SYN06482445 32498 20502 10286 20254 30103 40155 82100 333 20250 58001=","","","","","","","","","",""
"82445099999","2021-02-24T14:00:00","-4.2666666","-55.9833333","45.0","ITAITUBA, BR","FM-12","4","","80","91","","","","9","69","SCT:03 26","29.86","29.71","12.43","83","090","","5","","","","","","","","","","","","","","","","","","","","","","","","","","","","","","","","","","","","","","","","","","","","","","","","","","","","","","","","","","","","","","","","","","","","","","","","","","","","","","","","","","","","","","","","","","","SYN05882445 32598 60904 10328 20264 30060 40112 83231 333 59016=","","","","","","","","","",""
"82445099999","2021-02-24T20:00:00","-4.2666666","-55.9833333","45.0","ITAITUBA, BR","FM-12","4","","80","85","","","","","86","FEW:01 74","29.87","29.72","6.21","81","090","","1","","","","","","","","","","","","","","","","","","","","","","","","","","","","","","","","","","","","","","","","","","","","","","","","","","","","","","","","","","","","","","","","","","","","","","","","","","","","","","","","","","","","","","","","","","","SYN07682445 32897 20901 10292 20266 30064 40116 81053 333 10341 29081 55074 58002=","","","","","","","","","",""
"82445099999","2021-02-25T08:00:00","-4.2666666","-55.9833333","45.0","ITAITUBA, BR","FM-12","4","","77","78","","","","9","97","SCT:04 41","29.96","29.81","6.21","77","000","","0","","","","","","","","","","","","","","","","","","","","","","","","","","","","","","","","","","","","","","","","","","","","","","","","","","","","","","","","","","","","","","","","","","","","","","","","","","","","","","","","","","","","","","","","","","","SYN07682445 21697 70000 10256 20251 30094 40146 70365 84570 333 20248 59009 60074=","","","","","","","","","",""
"82445099999","2021-02-25T14:00:00","-4.2666666","-55.9833333","45.0","ITAITUBA, BR","FM-12","4","","78","89","","","","9","71","SCT:03 26","29.87","29.72","6.21","81","090","","2","","","","","","","","","","","","","","","","","","","","","","","","","","","","","","","","","","","","","","","","","","","","","","","","","","","","","","","","","","","","","","","","","","","","","","","","","","","","","","","","","","","","","","","","","","","SYN05882445 32597 60902 10315 20257 30064 40116 83375 333 58004=","","","","","","","","","",""
"82445099999","2021-02-25T20:00:00","-4.2666666","-55.9833333","45.0","ITAITUBA, BR","FM-12","4","","75","76","","||RA","","","95","FEW:02 15","29.92","29.76","2.49","75","140","","5","","","","","","","","","","","","","","","","","","","","","","","","","","","","","","","","","","","","","","","","","","","","","","","","","","","","","","","","","","","","","","","","","","","","","","","","","","","","","","","","","","","","","","","","","","","SYN08882445 21496 81404 10246 20237 30078 40131 76365 8272/ 333 10327 29090 55042 58014 60521=","","","","","","","","","",""
"82445099999","2021-02-26T08:00:00","-4.2666666","-55.9833333","45.0","ITAITUBA, BR","FM-12","4","","74","76","","||DZ","","9","96","SCT:03 15","29.93","29.78","2.49","75","000","","0","","","","","","","","","","","","","","","","","","","","","","","","","","","","","","","","","","","","","","","","","","","","","","","","","","","","","","","","","","","","","","","","","","","","","","","","","","","","","","","","","","","","","","","","","","","SYN07682445 21496 80000 10242 20235 30084 40137 75166 8372/ 333 20231 59010 60694=","","","","","","","","","",""
"82445099999","2021-02-26T14:00:00","-4.2666666","-55.9833333","45.0","ITAITUBA, BR","FM-12","4","","79","86","","","","9","80","SCT:03 26","29.82","29.67","6.21","81","140","","5","","","","","","","","","","","","","","","","","","","","","","","","","","","","","","","","","","","","","","","","","","","","","","","","","","","","","","","","","","","","","","","","","","","","","","","","","","","","","","","","","","","","","","","","","","","SYN07082445 21597 71404 10299 20260 30047 40099 70352 83276 333 59017 69921=","","","","","","","","","",""
"82445099999","2021-02-26T20:00:00","-4.2666666","-55.9833333","45.0","ITAITUBA, BR","FM-12","4","","76","78","","","","","95","FEW:01 74","29.84","29.68","2.49","77","000","","0","","","","","","","","","","","","","","","","","","","","","","","","","","","","","","","","","","","","","","","","","","","","","","","","","","","","","","","","","","","","","","","","","","","","","","","","","","","","","","","","","","","","","","","","","","","SYN07682445 32896 30000 10255 20246 30052 40105 81056 333 10314 29091 55000 59026=","","","","","","","","","",""
"82445099999","2021-02-27T08:00:00","-4.2666666","-55.9833333","45.0","ITAITUBA, BR","FM-12","4","","76","78","","","","9","95","SCT:04 41","29.93","29.78","6.21","77","090","","2","","","","","","","","","","","","","","","","","","","","","","","","","","","","","","","","","","","","","","","","","","","","","","","","","","","","","","","","","","","","","","","","","","","","","","","","","","","","","","","","","","","","","","","","","","","SYN07682445 21697 70902 10254 20245 30084 40137 70352 84570 333 20238 58000 69944=","","","","","","","","","",""
"82445099999","2021-02-27T14:00:00","-4.2666666","-55.9833333","45.0","ITAITUBA, BR","FM-12","4","","77","88","","","","9","70","FEW:02 26","29.81","29.66","12.43","80","140","","5","","","","","","","","","","","","","","","","","","","","","","","","","","","","","","","","","","","","","","","","","","","","","","","","","","","","","","","","","","","","","","","","","","","","","","","","","","","","","","","","","","","","","","","","","","","SYN05882445 32598 31404 10312 20251 30043 40095 82203 333 59004=","","","","","","","","","",""
"82445099999","2021-02-27T20:00:00","-4.2666666","-55.9833333","45.0","ITAITUBA, BR","FM-12","4","","80","83","","","","","89","SCT:03 41","29.83","29.67","2.49","81","000","","0","","","","","","","","","","","","","","","","","","","","","","","","","","","","","","","","","","","","","","","","","","","","","","","","","","","","","","","","","","","","","","","","","","","","","","","","","","","","","","","","","","","","","","","","","","","SYN07682445 32696 60000 10284 20264 30048 40100 83537 333 10331 29086 55055 59004=","","","","","","","","","",""
"82445099999","2021-02-28T08:00:00","-4.2666666","-55.9833333","45.0","ITAITUBA, BR","FM-12","4","","77","79","","","","9","94","SCT:04 41","29.89","29.74","6.21","78","320","","1","","","","","","","","","","","","","","","","","","","","","","","","","","","","","","","","","","","","","","","","","","","","","","","","","","","","","","","","","","","","","","","","","","","","","","","","","","","","","","","","","","","","","","","","","","","SYN07682445 21697 83201 10260 20250 30070 40122 70392 8457/ 333 20239 59014 69904=","","","","","","","","","",""
"82445099999","2021-02-28T14:00:00","-4.2666666","-55.9833333","45.0","ITAITUBA, BR","FM-12","4","","77","80","","","","9","89","SCT:03 41","29.81","29.65","6.21","78","090","","1","","","","","","","","","","","","","","","","","","","","","","","","","","","","","","","","","","","","","","","","","","","","","","","","","","","","","","","","","","","","","","","","","","","","","","","","","","","","","","","","","","","","","","","","","","","SYN07082445 21697 80901 10267 20248 30042 40094 70365 8352/ 333 59001 60201=","","","","","","","","","",""
"82445099999","2021-02-28T20:00:00","-4.2666666","-55.9833333","45.0","ITAITUBA, BR","FM-12","4","","77","79","","","","","95","FEW:02 41","29.80","29.65","2.49","78","000","","0","","","","","","","","","","","","","","","","","","","","","","","","","","","","","","","","","","","","","","","","","","","","","","","","","","","","","","","","","","","","","","","","","","","","","","","","","","","","","","","","","","","","","","","","","","","SYN07682445 32696 60000 10260 20251 30039 40091 82506 333 10289 29093 55000 59009=","","","","","","","","","",""
"82445099999","2021-03-01T08:00:00","-4.2666666","-55.9833333","45.0","ITAITUBA, BR","FM-12","4","","75","77","","||DZ","","9","95","OVC:08 15","29.87","29.72","2.49","76","000","","0","","","","","","","","","","","","","","","","","","","","","","","","","","","","","","","","","","","","","","","","","","","","","","","","","","","","","","","","","","","","","","","","","","","","","","","","","","","","","","","","","","","","","","","","","","","SYN07682445 21496 80000 10250 20241 30063 40115 75152 887// 333 20241 59007 60214=","","","","","","","","","",""
"82445099999","2021-03-01T14:00:00","-4.2666666","-55.9833333","45.0","ITAITUBA, BR","FM-12","4","","76","77","","||RA","","9","95","OVC:08 15","29.82","29.67","2.49","76","320","","1","","","","","","","","","","","","","","","","","","","","","","","","","","","","","","","","","","","","","","","","","","","","","","","","","","","","","","","","","","","","","","","","","","","","","","","","","","","","","","","","","","","","","","","","","","","SYN07082445 21496 83201 10252 20243 30047 40099 76365 8807/ 333 58007 60191=","","","","","","","","","",""
"82445099999","2021-03-01T20:00:00","-4.2666666","-55.9833333","45.0","ITAITUBA, BR","FM-12","4","","76","77","","","","","97","OVC:08 15","29.85","29.70","1.24","76","000","","0","","","","","","","","","","","","","","","","","","","","","","","","","","","","","","","","","","","","","","","","","","","","","","","","","","","","","","","","","","","","","","","","","","","","","","","","","","","","","","","","","","","","","","","","","","","SYN08882445 21495 80000 10250 20245 30056 40108 70265 887// 333 10272 29096 55000 58017 60031=","","","","","","","","","",""
"82445099999","2021-03-02T08:00:00","-4.2666666","-55.9833333","45.0","ITAITUBA, BR","FM-12","4","","75","76","","","","9","95","SCT:03 26","29.93","29.78","1.24","75","000","","0","","","","","","","","","","","","","","","","","","","","","","","","","","","","","","","","","","","","","","","","","","","","","","","","","","","","","","","","","","","","","","","","","","","","","","","","","","","","","","","","","","","","","","","","","","","SYN07682445 21595 80000 10246 20237 30083 40135 70265 8357/ 333 20233 58020 60234=","","","","","","","","","",""
"82445099999","2021-03-02T14:00:00","-4.2666666","-55.9833333","45.0","ITAITUBA, BR","FM-12","4","","77","87","","","","9","74","SCT:03 41","29.83","29.67","6.21","80","050","","5","","","","","","","","","","","","","","","","","","","","","","","","","","","","","","","","","","","","","","","","","","","","","","","","","","","","","","","","","","","","","","","","","","","","","","","","","","","","","","","","","","","","","","","","","","","SYN05882445 32697 60504 10304 20252 30048 40100 83573 333 58001=","","","","","","","","","",""
"82445099999","2021-03-02T20:00:00","-4.2666666","-55.9833333","45.0","ITAITUBA, BR","FM-12","4","","75","76","","||DZ","","","95","SCT:04 26","29.90","29.75","1.24","75","000","","0","","","","","","","","","","","","","","","","","","","","","","","","","","","","","","","","","","","","","","","","","","","","","","","","","","","","","","","","","","","","","","","","","","","","","","","","","","","","","","","","","","","","","","","","","","","SYN08882445 21595 80000 10246 20237 30074 40126 75052 8457/ 333 10323 29090 55013 58018 69931=","","","","","","","","","",""
"82445099999","2021-03-03T08:00:00","-4.2666666","-55.9833333","45.0","ITAITUBA, BR","FM-12","4","","75","76","","","","9","97","SCT:04 41","30.01","29.85","2.49","75","000","","0","","","","","","","","","","","","","","","","","","","","","","","","","","","","","","","","","","","","","","","","","","","","","","","","","","","","","","","","","","","","","","","","","","","","","","","","","","","","","","","","","","","","","","","","","","","SYN07682445 21696 80000 10244 20239 30110 40163 70265 8457/ 333 20233 58027 60034=","","","","","","","","","",""
"82445099999","2021-03-03T14:00:00","-4.2666666","-55.9833333","45.0","ITAITUBA, BR","FM-12","4","","72","74","","||DZ","","9","96","OVC:08 15","29.96","29.81","1.24","73","000","","0","","","","","","","","","","","","","","","","","","","","","","","","","","","","","","","","","","","","","","","","","","","","","","","","","","","","","","","","","","","","","","","","","","","","","","","","","","","","","","","","","","","","","","","","","","","SYN07082445 21495 80000 10232 20225 30094 40147 75566 887// 333 58046 60681=","","","","","","","","","",""
"82445099999","2021-03-03T20:00:00","-4.2666666","-55.9833333","45.0","ITAITUBA, BR","FM-12","4","","73","74","","","","","95","OVC:08 15","29.92","29.76","1.24","73","000","","0","","","","","","","","","","","","","","","","","","","","","","","","","","","","","","","","","","","","","","","","","","","","","","","","","","","","","","","","","","","","","","","","","","","","","","","","","","","","","","","","","","","","","","","","","","","SYN08882445 21495 80000 10236 20228 30078 40131 70252 887// 333 10271 29096 55000 58004 69931=","","","","","","","","","",""
"82445099999","2021-03-04T08:00:00","-4.2666666","-55.9833333","45.0","ITAITUBA, BR","FM-12","4","","74","75","","","","9","96","OVC:08 26","30.00","29.85","1.24","74","000","","0","","","","","","","","","","","","","","","","","","","","","","","","","","","","","","","","","","","","","","","","","","","","","","","","","","","","","","","","","","","","","","","","","","","","","","","","","","","","","","","","","","","","","","","","","","","SYN07682445 21595 80000 10238 20231 30107 40160 70265 8807/ 333 20229 59003 60714=","","","","","","","","","",""
"82445099999","2021-03-04T14:00:00","-4.2666666","-55.9833333","45.0","ITAITUBA, BR","FM-12","4","","78","88","","","","9","73","SCT:03 26","29.90","29.74","6.21","81","090","","3","","","","","","","","","","","","","","","","","","","","","","","","","","","","","","","","","","","","","","","","","","","","","","","","","","","","","","","","","","","","","","","","","","","","","","","","","","","","","","","","","","","","","","","","","","","SYN05882445 32597 60903 10310 20256 30072 40124 83132 333 59022=","","","","","","","","","",""
"82445099999","2021-03-04T20:00:00","-4.2666666","-55.9833333","45.0","ITAITUBA, BR","FM-12","4","","80","83","","","","","91","SCT:03 41","29.86","29.71","1.24","81","000","","0","","","","","","","","","","","","","","","","","","","","","","","","","","","","","","","","","","","","","","","","","","","","","","","","","","","","","","","","","","","","","","","","","","","","","","","","","","","","","","","","","","","","","","","","","","","SYN07682445 32695 60000 10284 20268 30060 40112 83502 333 10329 29088 55060 59018=","","","","","","","","","",""
"82445099999","2021-03-05T08:00:00","-4.2666666","-55.9833333","45.0","ITAITUBA, BR","FM-12","4","","74","76","","","","9","93","SCT:04 26","29.96","29.80","6.21","75","000","","0","","","","","","","","","","","","","","","","","","","","","","","","","","","","","","","","","","","","","","","","","","","","","","","","","","","","","","","","","","","","","","","","","","","","","","","","","","","","","","","","","","","","","","","","","","","SYN07682445 21597 70000 10246 20234 30092 40144 70265 84522 333 20236 59015 60084=","","","","","","","","","",""
"82445099999","2021-03-05T14:00:00","-4.2666666","-55.9833333","45.0","ITAITUBA, BR","FM-12","4","","77","89","","","","9","67","SCT:03 41","29.83","29.68","6.21","80","050","","2","","","","","","","","","","","","","","","","","","","","","","","","","","","","","","","","","","","","","","","","","","","","","","","","","","","","","","","","","","","","","","","","","","","","","","","","","","","","","","","","","","","","","","","","","","","SYN05882445 32697 60502 10318 20249 30051 40103 83506 333 59021=","","","","","","","","","",""
"82445099999","2021-03-05T20:00:00","-4.2666666","-55.9833333","45.0","ITAITUBA, BR","FM-12","4","","78","80","","","","","94","SCT:03 26","29.87","29.72","2.49","79","000","","0","","","","","","","","","","","","","","","","","","","","","","","","","","","","","","","","","","","","","","","","","","","","","","","","","","","","","","","","","","","","","","","","","","","","","","","","","","","","","","","","","","","","","","","","","","","SYN07682445 32596 40000 10269 20258 30064 40116 83201 333 10331 29086 55058 58004=","","","","","","","","","",""
"82445099999","2021-03-06T08:00:00","-4.2666666","-55.9833333","45.0","ITAITUBA, BR","FM-12","4","","73","74","","||TS","","9","96","SCT:03 15","29.99","29.83","1.24","73","050","","5","","","","","","","","","","","","","","","","","","","","","","","","","","","","","","","","","","","","","","","","","","","","","","","","","","","","","","","","","","","","","","","","","","","","","","","","","","","","","","","","","","","","","","","","","","","SYN07682445 21495 80504 10234 20227 30103 40156 79869 8372/ 333 20227 58011 60274=","","","","","","","","","",""
"82445099999","2021-03-06T14:00:00","-4.2666666","-55.9833333","45.0","ITAITUBA, BR","FM-12","4","","77","83","","","","9","82","FEW:02 26","29.88","29.73","12.43","79","090","","1","","","","","","","","","","","","","","","","","","","","","","","","","","","","","","","","","","","","","","","","","","","","","","","","","","","","","","","","","","","","","","","","","","","","","","","","","","","","","","","","","","","","","","","","","","","SYN07082445 21598 60901 10284 20250 30068 40120 70365 82201 333 58017 60041=","","","","","","","","","",""
"82445099999","2021-03-06T20:00:00","-4.2666666","-55.9833333","45.0","ITAITUBA, BR","FM-12","4","","80","82","","","","","94","BKN:07 15","29.90","29.75","2.49","81","180","","2","","","","","","","","","","","","","","","","","","","","","","","","","","","","","","","","","","","","","","","","","","","","","","","","","","","","","","","","","","","","","","","","","","","","","","","","","","","","","","","","","","","","","","","","","","","SYN08282445 31496 71802 10276 20265 30074 40126 71322 87700 333 10302 29091 55034 58010=","","","","","","","","","",""
"82445099999","2021-03-07T08:00:00","-4.2666666","-55.9833333","45.0","ITAITUBA, BR","FM-12","4","","76","77","","","","9","95","SCT:04 15","30.01","29.85","6.21","76","000","","0","","","","","","","","","","","","","","","","","","","","","","","","","","","","","","","","","","","","","","","","","","","","","","","","","","","","","","","","","","","","","","","","","","","","","","","","","","","","","","","","","","","","","","","","","","","SYN07682445 21497 80000 10252 20243 30108 40161 70352 8472/ 333 20229 58005 60044=","","","","","","","","","",""
"82445099999","2021-03-07T14:00:00","-4.2666666","-55.9833333","45.0","ITAITUBA, BR","FM-12","4","","79","89","","","","9","73","SCT:04 26","29.86","29.70","12.43","82","050","","2","","","","","","","","","","","","","","","","","","","","","","","","","","","","","","","","","","","","","","","","","","","","","","","","","","","","","","","","","","","","","","","","","","","","","","","","","","","","","","","","","","","","","","","","","","","SYN05882445 32598 40502 10315 20262 30059 40111 84200 333 59009=","","","","","","","","","",""
"82445099999","2021-03-07T20:00:00","-4.2666666","-55.9833333","45.0","ITAITUBA, BR","FM-12","4","","80","83","","","","","89","SCT:03 26","29.88","29.73","2.49","81","000","","0","","","","","","","","","","","","","","","","","","","","","","","","","","","","","","","","","","","","","","","","","","","","","","","","","","","","","","","","","","","","","","","","","","","","","","","","","","","","","","","","","","","","","","","","","","","SYN07682445 32596 60000 10284 20264 30067 40119 83230 333 10332 29087 55053 59007=","","","","","","","","","",""
"82445099999","2021-03-08T08:00:00","-4.2666666","-55.9833333","45.0","ITAITUBA, BR","FM-12","4","","75","80","","","","9","87","SCT:03 41","29.95","29.80","6.21","77","000","","0","","","","","","","","","","","","","","","","","","","","","","","","","","","","","","","","","","","","","","","","","","","","","","","","","","","","","","","","","","","","","","","","","","","","","","","","","","","","","","","","","","","","","","","","","","","SYN07682445 21697 70000 10264 20241 30091 40143 70362 83551 333 20245 58017 60024=","","","","","","","","","",""
"82445099999","2021-03-08T14:00:00","-4.2666666","-55.9833333","45.0","ITAITUBA, BR","FM-12","4","","78","89","","","","9","70","SCT:03 26","29.85","29.70","6.21","81","090","","7","","","","","","","","","","","","","","","","","","","","","","","","","","","","","","","","","","","","","","","","","","","","","","","","","","","","","","","","","","","","","","","","","","","","","","","","","","","","","","","","","","","","","","","","","","","SYN05882445 32597 60906 10318 20256 30058 40110 83241 333 59001=","","","","","","","","","",""
"82445099999","2021-03-08T20:00:00","-4.2666666","-55.9833333","45.0","ITAITUBA, BR","FM-12","4","","77","80","","","","","90","SCT:04 41","29.89","29.74","1.24","78","000","","0","","","","","","","","","","","","","","","","","","","","","","","","","","","","","","","","","","","","","","","","","","","","","","","","","","","","","","","","","","","","","","","","","","","","","","","","","","","","","","","","","","","","","","","","","","","SYN07682445 32695 80000 10266 20248 30070 40122 8457/ 333 10322 29084 55076 58003=","","","","","","","","","",""
"82445099999","2021-03-09T08:00:00","-4.2666666","-55.9833333","45.0","ITAITUBA, BR","FM-12","4","","73","73","","","","9","99","OVC:08 15","30.00","29.83","1.24","73","000","","0","","","","","","","","","","","","","","","","","","","","","","","","","","","","","","","","","","","","","","","","","","","","","","","","","","","","","","","","","","","","","","","","","","","","","","","","","","","","","","","","","","","","","","","","","","","SYN07682445 21495 80000 10230 20228 30102 40159 72066 887// 333 20225 58011 60464=","","","","","","","","","",""
"82445099999","2021-03-09T14:00:00","-4.2666666","-55.9833333","45.0","ITAITUBA, BR","FM-12","4","","77","81","","","","9","89","SCT:03 26","29.86","29.71","2.49","78","000","","0","","","","","","","","","","","","","","","","","","","","","","","","","","","","","","","","","","","","","","","","","","","","","","","","","","","","","","","","","","","","","","","","","","","","","","","","","","","","","","","","","","","","","","","","","","","SYN07082445 21596 70000 10270 20250 30060 40113 70265 83270 333 58002 60041=","","","","","","","","","",""
"82445099999","2021-03-09T20:00:00","-4.2666666","-55.9833333","45.0","ITAITUBA, BR","FM-12","4","","75","77","","","","","95","SCT:04 15","29.89","29.74","0.62","76","000","","0","","","","","","","","","","","","","","","","","","","","","","","","","","","","","","","","","","","","","","","","","","","","","","","","","","","","","","","","","","","","","","","","","","","","","","","","","","","","","","","","","","","","","","","","","","","SYN08882445 21494 70000 10250 20241 30070 40122 70265 84770 333 10302 29094 55023 58000 69911=","","","","","","","","","",""
"82445099999","2021-03-10T08:00:00","-4.2666666","-55.9833333","45.0","ITAITUBA, BR","FM-12","4","","74","75","","||RA","","9","97","SCT:04 15","29.95","29.80","1.24","74","000","","0","","","","","","","","","","","","","","","","","","","","","","","","","","","","","","","","","","","","","","","","","","","","","","","","","","","","","","","","","","","","","","","","","","","","","","","","","","","","","","","","","","","","","","","","","","","SYN07682445 21495 80000 10240 20235 30090 40143 76066 8477/ 333 20221 59012 60054=","","","","","","","","","",""
"82445099999","2021-03-10T14:00:00","-4.2666666","-55.9833333","45.0","ITAITUBA, BR","FM-12","4","","78","84","","","","9","83","SCT:04 26","29.86","29.70","2.49","80","000","","0","","","","","","","","","","","","","","","","","","","","","","","","","","","","","","","","","","","","","","","","","","","","","","","","","","","","","","","","","","","","","","","","","","","","","","","","","","","","","","","","","","","","","","","","","","","SYN07082445 21596 80000 10290 20258 30059 40111 70362 8427/ 333 59001 69991=","","","","","","","","","",""
"82445099999","2021-03-10T20:00:00","-4.2666666","-55.9833333","45.0","ITAITUBA, BR","FM-12","4","","75","76","","","","","97","SCT:03 15","29.91","29.75","0.62","75","000","","0","","","","","","","","","","","","","","","","","","","","","","","","","","","","","","","","","","","","","","","","","","","","","","","","","","","","","","","","","","","","","","","","","","","","","","","","","","","","","","","","","","","","","","","","","","","SYN08882445 21494 80000 10244 20239 30076 40129 70265 8377/ 333 10304 29093 55023 58006 60071=","","","","","","","","","",""
"82445099999","2021-03-11T08:00:00","-4.2666666","-55.9833333","45.0","ITAITUBA, BR","FM-12","4","","74","75","","||RA","","9","97","OVC:08 15","29.99","29.83","0.62","74","000","","0","","","","","","","","","","","","","","","","","","","","","","","","","","","","","","","","","","","","","","","","","","","","","","","","","","","","","","","","","","","","","","","","","","","","","","","","","","","","","","","","","","","","","","","","","","","SYN07682445 21494 80000 10238 20233 30103 40156 76262 887// 333 20220 58013 60224=","","","","","","","","","",""
"82445099999","2021-03-11T14:00:00","-4.2666666","-55.9833333","45.0","ITAITUBA, BR","FM-12","4","","73","74","","","","9","95","BKN:06 15","29.95","29.80","1.24","73","000","","0","","","","","","","","","","","","","","","","","","","","","","","","","","","","","","","","","","","","","","","","","","","","","","","","","","","","","","","","","","","","","","","","","","","","","","","","","","","","","","","","","","","","","","","","","","","SYN07082445 21495 80000 10236 20228 30091 40143 72166 8677/ 333 58032 60671=","","","","","","","","","",""
"82445099999","2021-03-11T20:00:00","-4.2666666","-55.9833333","45.0","ITAITUBA, BR","FM-12","4","","75","75","","","","","100","SCT:03 15","29.92","29.76","1.24","75","000","","0","","","","","","","","","","","","","","","","","","","","","","","","","","","","","","","","","","","","","","","","","","","","","","","","","","","","","","","","","","","","","","","","","","","","","","","","","","","","","","","","","","","","","","","","","","","SYN08882445 21495 80000 10238 20238 30078 40131 70265 8377/ 333 10250 29098 55000 58002 69931=","","","","","","","","","",""
"82445099999","2021-03-12T08:00:00","-4.2666666","-55.9833333","45.0","ITAITUBA, BR","FM-12","4","","74","75","","","","9","99","SCT:04 15","30.03","29.88","1.24","74","000","","0","","","","","","","","","","","","","","","","","","","","","","","","","","","","","","","","","","","","","","","","","","","","","","","","","","","","","","","","","","","","","","","","","","","","","","","","","","","","","","","","","","","","","","","","","","","SYN07682445 21495 80000 10238 20236 30118 40171 70266 8477/ 333 20223 58005 60694=","","","","","","","","","",""
"82445099999","2021-03-12T14:00:00","-4.2666666","-55.9833333","45.0","ITAITUBA, BR","FM-12","4","","75","86","","","","9","70","SCT:03 26","29.93","29.78","6.21","78","090","","5","","","","","","","","","","","","","","","","","","","","","","","","","","","","","","","","","","","","","","","","","","","","","","","","","","","","","","","","","","","","","","","","","","","","","","","","","","","","","","","","","","","","","","","","","","","SYN05882445 32597 60904 10300 20239 30083 40136 83570 333 59008=","","","","","","","","","",""
"82445099999","2021-03-12T20:00:00","-4.2666666","-55.9833333","45.0","ITAITUBA, BR","FM-12","4","","78","80","","","","","94","BKN:06 74","29.87","29.71","2.49","79","000","","0","","","","","","","","","","","","","","","","","","","","","","","","","","","","","","","","","","","","","","","","","","","","","","","","","","","","","","","","","","","","","","","","","","","","","","","","","","","","","","","","","","","","","","","","","","","SYN07682445 32896 60000 10266 20256 30062 40115 86070 333 10314 29090 55044 59011=","","","","","","","","","",""
"82445099999","2021-03-13T08:00:00","-4.2666666","-55.9833333","45.0","ITAITUBA, BR","FM-12","4","","76","79","","","","9","90","SCT:03 41","30.03","29.88","6.21","77","000","","0","","","","","","","","","","","","","","","","","","","","","","","","","","","","","","","","","","","","","","","","","","","","","","","","","","","","","","","","","","","","","","","","","","","","","","","","","","","","","","","","","","","","","","","","","","","SYN06482445 32697 60000 10260 20243 30118 40170 83550 333 20229 58000=","","","","","","","","","",""
"82445099999","2021-03-13T14:00:00","-4.2666666","-55.9833333","45.0","ITAITUBA, BR","FM-12","4","","78","81","","","","9","89","SCT:04 26","29.94","29.78","1.24","79","000","","0","","","","","","","","","","","","","","","","","","","","","","","","","","","","","","","","","","","","","","","","","","","","","","","","","","","","","","","","","","","","","","","","","","","","","","","","","","","","","","","","","","","","","","","","","","","SYN07082445 21595 80000 10274 20254 30086 40138 72022 8427/ 333 58003 69911=","","","","","","","","","",""
"82445099999","2021-03-13T20:00:00","-4.2666666","-55.9833333","45.0","ITAITUBA, BR","FM-12","4","","76","77","","","","","96","BKN:07 74","29.93","29.78","1.24","76","000","","0","","","","","","","","","","","","","","","","","","","","","","","","","","","","","","","","","","","","","","","","","","","","","","","","","","","","","","","","","","","","","","","","","","","","","","","","","","","","","","","","","","","","","","","","","","","SYN07682445 32895 70000 10252 20245 30083 40135 87070 333 10302 29092 55034 58021=","","","","","","","","","",""
"82445099999","2021-03-14T08:00:00","-4.2666666","-55.9833333","45.0","ITAITUBA, BR","FM-12","4","","74","76","","","","9","96","OVC:08 15","30.01","29.86","1.24","75","000","","0","","","","","","","","","","","","","","","","","","","","","","","","","","","","","","","","","","","","","","","","","","","","","","","","","","","","","","","","","","","","","","","","","","","","","","","","","","","","","","","","","","","","","","","","","","","SYN07682445 21495 80000 10242 20235 30111 40164 72052 887// 333 20237 59007 69984=","","","","","","","","","",""
"82445099999","2021-03-14T14:00:00","-4.2666666","-55.9833333","45.0","ITAITUBA, BR","FM-12","4","","78","87","","","","9","75","SCT:04 26","29.96","29.80","1.24","80","320","","8","","","","","","","","","","","","","","","","","","","","","","","","","","","","","","","","","","","","","","","","","","","","","","","","","","","","","","","","","","","","","","","","","","","","","","","","","","","","","","","","","","","","","","","","","","","SYN07082445 21595 83207 10304 20255 30092 40144 71622 8427/ 333 58006 69951=","","","","","","","","","",""
"82445099999","2021-03-14T20:00:00","-4.2666666","-55.9833333","45.0","ITAITUBA, BR","FM-12","4","","77","79","","","","","92","OVC:08 15","29.93","29.77","1.24","78","140","","1","","","","","","","","","","","","","","","","","","","","","","","","","","","","","","","","","","","","","","","","","","","","","","","","","","","","","","","","","","","","","","","","","","","","","","","","","","","","","","","","","","","","","","","","","","","SYN08882445 21495 81401 10262 20248 30082 40134 72052 887// 333 10312 29089 55026 59001 69911=","","","","","","","","","",""
"82445099999","2021-03-15T08:00:00","-4.2666666","-55.9833333","45.0","ITAITUBA, BR","FM-12","4","","76","78","","","","9","94","BKN:07 15","29.99","29.84","6.21","77","000","","0","","","","","","","","","","","","","","","","","","","","","","","","","","","","","","","","","","","","","","","","","","","","","","","","","","","","","","","","","","","","","","","","","","","","","","","","","","","","","","","","","","","","","","","","","","","SYN07082445 22497 70000 10254 20244 30104 40157 87700 333 20233 59007 69964=","","","","","","","","","",""
"82445099999","2021-03-15T14:00:00","-4.2666666","-55.9833333","45.0","ITAITUBA, BR","FM-12","4","","79","89","","||TS","","9","73","BKN:05 41","29.87","29.72","6.21","82","050","","2","","","","","","","","","","","","","","","","","","","","","","","","","","","","","","","","","","","","","","","","","","","","","","","","","","","","","","","","","","","","","","","","","","","","","","","","","","","","","","","","","","","","","","","","","","","SYN06482445 31697 70502 10315 20262 30063 40115 71722 85521 333 59029=","","","","","","","","","",""
"82445099999","2021-03-15T20:00:00","-4.2666666","-55.9833333","45.0","ITAITUBA, BR","FM-12","4","","79","81","","","","","95","","29.87","29.72","6.21","80","000","","0","","","","","","","","","","","","","","","","","","","","","","","","","","","","","","","","","","","","","","","","","","","","","","","","","","","","","","","","","","","","","","","","","","","","","","","","","","","","","","","","","","","","","","","","","","","SYN07682445 32997 30000 10270 20261 30064 40116 80001 333 10327 29089 55048 59018=","","","","","","","","","",""
"82445099999","2021-03-16T08:00:00","-4.2666666","-55.9833333","45.0","ITAITUBA, BR","FM-12","4","","77","80","","","","9","92","BKN:06 26","29.95","29.80","6.21","78","000","","0","","","","","","","","","","","","","","","","","","","","","","","","","","","","","","","","","","","","","","","","","","","","","","","","","","","","","","","","","","","","","","","","","","","","","","","","","","","","","","","","","","","","","","","","","","","SYN06482445 32597 70000 10266 20252 30091 40143 86230 333 20239 59013=","","","","","","","","","",""
"82445099999","2021-03-16T14:00:00","-4.2666666","-55.9833333","45.0","ITAITUBA, BR","FM-12","4","","80","85","","","","9","86","SCT:04 41","29.85","29.70","6.21","81","090","","2","","","","","","","","","","","","","","","","","","","","","","","","","","","","","","","","","","","","","","","","","","","","","","","","","","","","","","","","","","","","","","","","","","","","","","","","","","","","","","","","","","","","","","","","","","","SYN07082445 21697 80902 10292 20266 30058 40110 70365 8452/ 333 59005 69961=","","","","","","","","","",""
"82445099999","2021-03-16T20:00:00","-4.2666666","-55.9833333","45.0","ITAITUBA, BR","FM-12","4","","77","79","","","","","92","","29.85","29.70","6.21","78","090","","2","","","","","","","","","","","","","","","","","","","","","","","","","","","","","","","","","","","","","","","","","","","","","","","","","","","","","","","","","","","","","","","","","","","","","","","","","","","","","","","","","","","","","","","","","","","SYN08882445 21997 10902 10262 20248 30058 40110 70151 80001 333 10317 29090 55041 59006 69911=","","","","","","","","","",""
"82445099999","2021-03-17T08:00:00","-4.2666666","-55.9833333","45.0","ITAITUBA, BR","FM-12","4","","77","78","","","","9","96","FEW:01 15","29.93","29.77","6.21","77","090","","1","","","","","","","","","","","","","","","","","","","","","","","","","","","","","","","","","","","","","","","","","","","","","","","","","","","","","","","","","","","","","","","","","","","","","","","","","","","","","","","","","","","","","","","","","","","SYN07082445 22497 70901 10258 20251 30082 40134 81736 333 20236 59009 69974=","","","","","","","","","",""
"82445099999","2021-03-17T14:00:00","-4.2666666","-55.9833333","45.0","ITAITUBA, BR","FM-12","4","","80","90","","","","9","73","SCT:03 26","29.80","29.65","6.21","83","360","","5","","","","","","","","","","","","","","","","","","","","","","","","","","","","","","","","","","","","","","","","","","","","","","","","","","","","","","","","","","","","","","","","","","","","","","","","","","","","","","","","","","","","","","","","","","","SYN05882445 32597 63604 10320 20265 30039 40091 83248 333 59019=","","","","","","","","","",""
"82445099999","2021-03-17T20:00:00","-4.2666666","-55.9833333","45.0","ITAITUBA, BR","FM-12","4","","79","81","","||TS","","","95","SCT:04 15","29.87","29.72","0.62","80","140","","2","","","","","","","","","","","","","","","","","","","","","","","","","","","","","","","","","","","","","","","","","","","","","","","","","","","","","","","","","","","","","","","","","","","","","","","","","","","","","","","","","","","","","","","","","","","SYN08882445 21494 81402 10272 20263 30063 40115 71765 8472/ 333 10331 29090 55065 58005 60011=","","","","","","","","","",""
"82445099999","2021-03-18T08:00:00","-4.2666666","-55.9833333","45.0","ITAITUBA, BR","FM-12","4","","75","76","","||RA","","9","95","SCT:04 15","29.95","29.79","1.24","75","320","","2","","","","","","","","","","","","","","","","","","","","","","","","","","","","","","","","","","","","","","","","","","","","","","","","","","","","","","","","","","","","","","","","","","","","","","","","","","","","","","","","","","","","","","","","","","","SYN07682445 21495 83202 10246 20237 30088 40141 76396 8472/ 333 20241 58006 60154=","","","","","","","","","",""
"82445099999","2021-03-18T14:00:00","-4.2666666","-55.9833333","45.0","ITAITUBA, BR","FM-12","4","","73","75","","||RA","","9","95","OVC:08 74","29.91","29.75","2.49","74","320","","7","","","","","","","","","","","","","","","","","","","","","","","","","","","","","","","","","","","","","","","","","","","","","","","","","","","","","","","","","","","","","","","","","","","","","","","","","","","","","","","","","","","","","","","","","","","SYN07082445 21896 83206 10239 20230 30075 40128 76365 8802/ 333 58036 60151=","","","","","","","","","",""
"82445099999","2021-03-18T20:00:00","-4.2666666","-55.9833333","45.0","ITAITUBA, BR","FM-12","4","","72","74","","||DZ","","","96","FEW:02 15","29.91","29.75","1.24","73","090","","1","","","","","","","","","","","","","","","","","","","","","","","","","","","","","","","","","","","","","","","","","","","","","","","","","","","","","","","","","","","","","","","","","","","","","","","","","","","","","","","","","","","","","","","","","","","SYN08882445 21495 80901 10232 20225 30074 40127 75065 8272/ 333 10276 29095 55000 58011 60181=","","","","","","","","","",""
"82445099999","2021-03-19T08:00:00","-4.2666666","-55.9833333","45.0","ITAITUBA, BR","FM-12","4","","72","74","","||DZ","","9","96","SCT:03 15","29.96","29.80","2.49","73","000","","0","","","","","","","","","","","","","","","","","","","","","","","","","","","","","","","","","","","","","","","","","","","","","","","","","","","","","","","","","","","","","","","","","","","","","","","","","","","","","","","","","","","","","","","","","","","SYN07682445 21496 80000 10232 20225 30092 40145 75065 8372/ 333 20220 58004 60364=","","","","","","","","","",""
"82445099999","2021-03-19T14:00:00","-4.2666666","-55.9833333","45.0","ITAITUBA, BR","FM-12","4","","77","85","","","","9","79","SCT:03 41","29.88","29.73","6.21","79","180","","1","","","","","","","","","","","","","","","","","","","","","","","","","","","","","","","","","","","","","","","","","","","","","","","","","","","","","","","","","","","","","","","","","","","","","","","","","","","","","","","","","","","","","","","","","","","SYN07082445 21697 61801 10292 20252 30068 40120 70352 83560 333 59007 69921=","","","","","","","","","",""
"82445099999","2021-03-19T20:00:00","-4.2666666","-55.9833333","45.0","ITAITUBA, BR","FM-12","4","","78","80","","","","","93","SCT:03 41","29.88","29.73","2.49","79","000","","0","","","","","","","","","","","","","","","","","","","","","","","","","","","","","","","","","","","","","","","","","","","","","","","","","","","","","","","","","","","","","","","","","","","","","","","","","","","","","","","","","","","","","","","","","","","SYN07682445 32696 60000 10266 20254 30067 40119 83530 333 10312 29090 55020 59007=","","","","","","","","","",""
"82445099999","2021-03-20T08:00:00","-4.2666666","-55.9833333","45.0","ITAITUBA, BR","FM-12","4","","75","79","","","","9","87","SCT:03 41","29.96","29.80","6.21","76","050","","2","","","","","","","","","","","","","","","","","","","","","","","","","","","","","","","","","","","","","","","","","","","","","","","","","","","","","","","","","","","","","","","","","","","","","","","","","","","","","","","","","","","","","","","","","","","SYN07082445 22697 60502 10260 20237 30092 40144 83502 333 20223 58000 69924=","","","","","","","","","",""
"82445099999","2021-03-20T14:00:00","-4.2666666","-55.9833333","45.0","ITAITUBA, BR","FM-12","4","","78","89","","","","9","69","SCT:03 41","29.85","29.70","6.21","81","090","","6","","","","","","","","","","","","","","","","","","","","","","","","","","","","","","","","","","","","","","","","","","","","","","","","","","","","","","","","","","","","","","","","","","","","","","","","","","","","","","","","","","","","","","","","","","","SYN05882445 32697 60905 10318 20254 30058 40110 83520 333 59010=","","","","","","","","","",""
"82445099999","2021-03-20T20:00:00","-4.2666666","-55.9833333","45.0","ITAITUBA, BR","FM-12","4","","79","83","","","","","88","SCT:04 41","29.90","29.75","1.24","80","000","","0","","","","","","","","","","","","","","","","","","","","","","","","","","","","","","","","","","","","","","","","","","","","","","","","","","","","","","","","","","","","","","","","","","","","","","","","","","","","","","","","","","","","","","","","","","","SYN07682445 32695 70000 10282 20260 30074 40126 84530 333 10333 29083 55080 58007=","","","","","","","","","",""
"82445099999","2021-03-21T08:00:00","-4.2666666","-55.9833333","45.0","ITAITUBA, BR","FM-12","4","","74","75","","","","9","97","OVC:08 15","30.01","29.85","0.62","74","000","","0","","","","","","","","","","","","","","","","","","","","","","","","","","","","","","","","","","","","","","","","","","","","","","","","","","","","","","","","","","","","","","","","","","","","","","","","","","","","","","","","","","","","","","","","","","","SYN07682445 21494 80000 10238 20233 30110 40162 70365 887// 333 20231 58016 60394=","","","","","","","","","",""
"82445099999","2021-03-21T14:00:00","-4.2666666","-55.9833333","45.0","ITAITUBA, BR","FM-12","4","","80","85","","","","9","85","SCT:03 26","29.91","29.75","6.21","81","320","","1","","","","","","","","","","","","","","","","","","","","","","","","","","","","","","","","","","","","","","","","","","","","","","","","","","","","","","","","","","","","","","","","","","","","","","","","","","","","","","","","","","","","","","","","","","","SYN05882445 32597 73201 10294 20266 30075 40127 83422 333 58017=","","","","","","","","","",""
"82445099999","2021-03-21T20:00:00","-4.2666666","-55.9833333","45.0","ITAITUBA, BR","FM-12","4","","77","81","","","","","90","SCT:04 41","29.91","29.76","1.24","78","000","","0","","","","","","","","","","","","","","","","","","","","","","","","","","","","","","","","","","","","","","","","","","","","","","","","","","","","","","","","","","","","","","","","","","","","","","","","","","","","","","","","","","","","","","","","","","","SYN07682445 32695 80000 10270 20252 30078 40130 8457/ 333 10302 29090 55002 58004=","","","","","","","","","",""
"82445099999","2021-03-22T08:00:00","-4.2666666","-55.9833333","45.0","ITAITUBA, BR","FM-12","4","","76","78","","","","9","94","SCT:03 41","29.97","29.82","6.21","77","000","","0","","","","","","","","","","","","","","","","","","","","","","","","","","","","","","","","","","","","","","","","","","","","","","","","","","","","","","","","","","","","","","","","","","","","","","","","","","","","","","","","","","","","","","","","","","","SYN06482445 32697 70000 10254 20244 30098 40150 83570 333 20237 59012=","","","","","","","","","",""
"82445099999","2021-03-22T14:00:00","-4.2666666","-55.9833333","45.0","ITAITUBA, BR","FM-12","4","","77","89","","","","9","69","SCT:04 41","29.82","29.67","12.43","80","050","","6","","","","","","","","","","","","","","","","","","","","","","","","","","","","","","","","","","","","","","","","","","","","","","","","","","","","","","","","","","","","","","","","","","","","","","","","","","","","","","","","","","","","","","","","","","","SYN05882445 32698 60505 10316 20252 30047 40099 84402 333 59028=","","","","","","","","","",""
"82445099999","2021-03-22T20:00:00","-4.2666666","-55.9833333","45.0","ITAITUBA, BR","FM-12","4","","78","80","","","","","92","SCT:04 41","29.88","29.73","1.24","79","000","","0","","","","","","","","","","","","","","","","","","","","","","","","","","","","","","","","","","","","","","","","","","","","","","","","","","","","","","","","","","","","","","","","","","","","","","","","","","","","","","","","","","","","","","","","","","","SYN07682445 32695 80000 10268 20254 30068 40120 8457/ 333 10332 29087 55042 58021=","","","","","","","","","",""
"82445099999","2021-03-23T08:00:00","-4.2666666","-55.9833333","45.0","ITAITUBA, BR","FM-12","4","","77","78","","","","9","94","SCT:04 41","29.96","29.80","2.49","77","000","","0","","","","","","","","","","","","","","","","","","","","","","","","","","","","","","","","","","","","","","","","","","","","","","","","","","","","","","","","","","","","","","","","","","","","","","","","","","","","","","","","","","","","","","","","","","","SYN07682445 21696 80000 10258 20248 30092 40144 70265 8457/ 333 20239 59006 60044=","","","","","","","","","",""
"82445099999","2021-03-23T14:00:00","-4.2666666","-55.9833333","45.0","ITAITUBA, BR","FM-12","4","","78","89","","","","9","70","SCT:03 26","29.85","29.70","12.43","81","050","","2","","","","","","","","","","","","","","","","","","","","","","","","","","","","","","","","","","","","","","","","","","","","","","","","","","","","","","","","","","","","","","","","","","","","","","","","","","","","","","","","","","","","","","","","","","","SYN05882445 32598 60502 10316 20255 30056 40108 83232 333 58009=","","","","","","","","","",""
"82445099999","2021-03-23T20:00:00","-4.2666666","-55.9833333","45.0","ITAITUBA, BR","FM-12","4","","79","83","","","","","87","SCT:03 41","29.90","29.74","2.49","80","000","","0","","","","","","","","","","","","","","","","","","","","","","","","","","","","","","","","","","","","","","","","","","","","","","","","","","","","","","","","","","","","","","","","","","","","","","","","","","","","","","","","","","","","","","","","","","","SYN07682445 32696 70000 10284 20260 30072 40124 8357/ 333 10333 29084 55058 59016=","","","","","","","","","",""
"82445099999","2021-03-24T08:00:00","-4.2666666","-55.9833333","45.0","ITAITUBA, BR","FM-12","4","","77","79","","","","9","93","SCT:04 41","29.97","29.81","6.21","78","000","","0","","","","","","","","","","","","","","","","","","","","","","","","","","","","","","","","","","","","","","","","","","","","","","","","","","","","","","","","","","","","","","","","","","","","","","","","","","","","","","","","","","","","","","","","","","","SYN07682445 21697 70000 10262 20250 30096 40148 70265 84520 333 20251 58004 69954=","","","","","","","","","",""
"82445099999","2021-03-24T14:00:00","-4.2666666","-55.9833333","45.0","ITAITUBA, BR","FM-12","4","","76","77","","||DZ","","9","95","SCT:04 41","29.92","29.76","2.49","76","320","","3","","","","","","","","","","","","","","","","","","","","","","","","","","","","","","","","","","","","","","","","","","","","","","","","","","","","","","","","","","","","","","","","","","","","","","","","","","","","","","","","","","","","","","","","","","","SYN07082445 21696 83203 10252 20243 30079 40131 75265 8457/ 333 58023 60251=","","","","","","","","","",""
"82445099999","2021-03-24T20:00:00","-4.2666666","-55.9833333","45.0","ITAITUBA, BR","FM-12","4","","74","76","","","","","95","OVC:08 15","29.99","29.81","1.24","75","000","","0","","","","","","","","","","","","","","","","","","","","","","","","","","","","","","","","","","","","","","","","","","","","","","","","","","","","","","","","","","","","","","","","","","","","","","","","","","","","","","","","","","","","","","","","","","","SYN08882445 21495 80000 10242 20233 30094 40156 70252 887// 333 10297 29094 55000 58022 60011=","","","","","","","","","",""
"82445099999","2021-03-25T08:00:00","-4.2666666","-55.9833333","45.0","ITAITUBA, BR","FM-12","4","","74","76","","","","9","96","41","30.01","29.86","2.49","75","000","","0","","","","","","","","","","","","","","","","","","","","","","","","","","","","","","","","","","","","","","","","","","","","","","","","","","","","","","","","","","","","","","","","","","","","","","","","","","","","","","","","","","","","","","","","","","","SYN07082445 22696 80000 10242 20235 30111 40164 80252 333 20233 58015 60274=","","","","","","","","","",""
"82445099999","2021-03-25T14:00:00","-4.2666666","-55.9833333","45.0","ITAITUBA, BR","FM-12","4","","78","85","","","","9","79","SCT:03 26","29.92","29.77","6.21","80","230","","2","","","","","","","","","","","","","","","","","","","","","","","","","","","","","","","","","","","","","","","","","","","","","","","","","","","","","","","","","","","","","","","","","","","","","","","","","","","","","","","","","","","","","","","","","","","SYN05882445 32597 72302 10296 20256 30080 40132 83322 333 58001=","","","","","","","","","",""
"82445099999","2021-03-25T20:00:00","-4.2666666","-55.9833333","45.0","ITAITUBA, BR","FM-12","4","","75","77","","||RA","","","93","OVC:08 15","29.92","29.77","1.24","76","000","","0","","","","","","","","","","","","","","","","","","","","","","","","","","","","","","","","","","","","","","","","","","","","","","","","","","","","","","","","","","","","","","","","","","","","","","","","","","","","","","","","","","","","","","","","","","","SYN08882445 21495 80000 10252 20240 30080 40133 76155 887// 333 10303 29090 55003 59014 69981=","","","","","","","","","",""
"82445099999","2021-03-26T08:00:00","-4.2666666","-55.9833333","45.0","ITAITUBA, BR","FM-12","4","","75","77","","","","9","94","SCT:04 41","29.98","30.13","2.49","76","000","","0","","","","","","","","","","","","","","","","","","","","","","","","","","","","","","","","","","","","","","","","","","","","","","","","","","","","","","","","","","","","","","","","","","","","","","","","","","","","","","","","","","","","","","","","","","","SYN07682445 21696 80000 10248 20238 30202 40154 70252 8457/ 333 20235 59009 60014=","","","","","","","","","",""
"82445099999","2021-03-26T14:00:00","-4.2666666","-55.9833333","45.0","ITAITUBA, BR","FM-12","4","","77","88","","","","9","70","BKN:05 26","29.87","29.72s","12.43","80","090","","5","","","","","","","","","","","","","","","","","","","","","","","","","","","","","","","","","","","","","","","","","","","","","","","","","","","","","","","","","","","","","","","","","","","","","","","","","","","","","","","","","","","","","","","","","","","SYN05882445 32598 50904 10310 20249 30064 40116 85100 333 59016=","","","","","","","","","",""
"82445099999","2021-03-26T20:00:00","-4.2666666","-55.9833333","45.0","ITAITUBA, BR","FM-12","4","","78","83","","","","","83","SCT:03 41","29.91","29.76","2.49","79","000","","0","","","","","","","","","","","","","","","","","","","","","","","","","","","","","","","","","","","","","","","","","","","","","","","","","","","","","","","","","","","","","","","","","","","","","","","","","","","","","","","","","","","","","","","","","","","SYN07682445 32696 70000 10286 20254 30078 40130 83582 333 10327 29084 55065 58002=","","","","","","","","","",""
"82445099999","2021-03-27T08:00:00","-4.2666666","-55.9833333","45.0","ITAITUBA, BR","FM-12","4","","76","78","","","","9","93","SCT:04 41","29.98","29.83","2.49","77","050","","1","","","","","","","","","","","","","","","","","","","","","","","","","","","","","","","","","","","","","","","","","","","","","","","","","","","","","","","","","","","","","","","","","","","","","","","","","","","","","","","","","","","","","","","","","","","SYN07082445 22696 80501 10256 20244 30100 40152 8457/ 333 20247 59002 69904=","","","","","","","","","",""
"82445099999","2021-03-27T14:00:00","-4.2666666","-55.9833333","45.0","ITAITUBA, BR","FM-12","4","","79","90","","","","9","70","SCT:04 26","29.84","29.68","12.43","82","050","","6","","","","","","","","","","","","","","","","","","","","","","","","","","","","","","","","","","","","","","","","","","","","","","","","","","","","","","","","","","","","","","","","","","","","","","","","","","","","","","","","","","","","","","","","","","","SYN05882445 32598 40505 10322 20260 30052 40104 84100 333 59012=","","","","","","","","","",""
"82445099999","2021-03-27T20:00:00","-4.2666666","-55.9833333","45.0","ITAITUBA, BR","FM-12","4","","76","81","","","","","87","SCT:04 41","29.87","29.72","1.24","77","090","","2","","","","","","","","","","","","","","","","","","","","","","","","","","","","","","","","","","","","","","","","","","","","","","","","","","","","","","","","","","","","","","","","","","","","","","","","","","","","","","","","","","","","","","","","","","","SYN08882445 21695 80902 10270 20246 30063 40115 70396 8452/ 333 10338 29084 55075 58011 69931=","","","","","","","","","",""
"82445099999","2021-03-28T08:00:00","-4.2666666","-55.9833333","45.0","ITAITUBA, BR","FM-12","4","","76","80","","","","9","89","SCT:03 41","29.99","29.83","6.21","77","000","","0","","","","","","","","","","","","","","","","","","","","","","","","","","","","","","","","","","","","","","","","","","","","","","","","","","","","","","","","","","","","","","","","","","","","","","","","","","","","","","","","","","","","","","","","","","","SYN07682445 21697 60000 10266 20246 30103 40155 70162 83606 333 20241 58003 69954=","","","","","","","","","",""
"82445099999","2021-03-28T14:00:00","-4.2666666","-55.9833333","45.0","ITAITUBA, BR","FM-12","4","","80","91","","||TS","","9","70","SCT:03 26","29.82","29.67","6.21","83","050","","6","","","","","","","","","","","","","","","","","","","","","","","","","","","","","","","","","","","","","","","","","","","","","","","","","","","","","","","","","","","","","","","","","","","","","","","","","","","","","","","","","","","","","","","","","","","SYN06482445 31597 70505 10328 20266 30047 40099 71722 83321 333 59005=","","","","","","","","","",""
"82445099999","2021-03-28T20:00:00","-4.2666666","-55.9833333","45.0","ITAITUBA, BR","FM-12","4","","79","83","","","","","89","SCT:03 41","29.84","29.69","2.49","80","000","","0","","","","","","","","","","","","","","","","","","","","","","","","","","","","","","","","","","","","","","","","","","","","","","","","","","","","","","","","","","","","","","","","","","","","","","","","","","","","","","","","","","","","","","","","","","","SYN08882445 21696 60000 10282 20262 30054 40106 70352 83520 333 10343 29084 55066 59009 69911=","","","","","","","","","",""
"82445099999","2021-03-29T08:00:00","-4.2666666","-55.9833333","45.0","ITAITUBA, BR","FM-12","4","","78","81","","","","9","89","FEW:02 41","29.94","29.79","12.43","79","050","","3","","","","","","","","","","","","","","","","","","","","","","","","","","","","","","","","","","","","","","","","","","","","","","","","","","","","","","","","","","","","","","","","","","","","","","","","","","","","","","","","","","","","","","","","","","","SYN07082445 22698 60503 10274 20254 30088 40140 82530 333 20251 59015 69914=","","","","","","","","","",""
"82445099999","2021-03-29T14:00:00","-4.2666666","-55.9833333","45.0","ITAITUBA, BR","FM-12","4","","78","90","","","","9","68","SCT:04 26","29.84","29.68","6.21","81","050","","6","","","","","","","","","","","","","","","","","","","","","","","","","","","","","","","","","","","","","","","","","","","","","","","","","","","","","","","","","","","","","","","","","","","","","","","","","","","","","","","","","","","","","","","","","","","SYN05882445 32597 60505 10322 20255 30052 40104 84202 333 58005=","","","","","","","","","",""
"82445099999","2021-03-29T20:00:00","-4.2666666","-55.9833333","45.0","ITAITUBA, BR","FM-12","4","","77","81","","||TS","","","87","FEW:02 26","29.96","29.71","2.49","78","000","","0","","","","","","","","","","","","","","","","","","","","","","","","","","","","","","","","","","","","","","","","","","","","","","","","","","","","","","","","","","","","","","","","","","","","","","","","","","","","","","","","","","","","","","","","","","","SYN08282445 31596 60000 10274 20250 30062 40144 71722 82570 333 10332 29083 55076 58008=","","","","","","","","","",""
"82445099999","2021-03-30T08:00:00","-4.2666666","-55.9833333","45.0","ITAITUBA, BR","FM-12","4","","78","81","","","","9","89","SCT:03 41","29.94","29.79","2.49","79","090","","5","","","","","","","","","","","","","","","","","","","","","","","","","","","","","","","","","","","","","","","","","","","","","","","","","","","","","","","","","","","","","","","","","","","","","","","","","","","","","","","","","","","","","","","","","","","SYN07682445 21696 60904 10274 20254 30087 40139 72022 83592 333 20244 59001 69984=","","","","","","","","","",""
"82445099999","2021-03-30T14:00:00","-4.2666666","-55.9833333","45.0","ITAITUBA, BR","FM-12","4","","80","88","","","","9","76","SCT:03 26","29.82","29.67","2.49","82","050","","1","","","","","","","","","","","","","","","","","","","","","","","","","","","","","","","","","","","","","","","","","","","","","","","","","","","","","","","","","","","","","","","","","","","","","","","","","","","","","","","","","","","","","","","","","","","SYN07082445 21596 60501 10312 20265 30047 40099 70362 83270 333 59005 60021=","","","","","","","","","",""
"82445099999","2021-03-30T20:00:00","-4.2666666","-55.9833333","45.0","ITAITUBA, BR","FM-12","4","","78","81","","||TS","","","93","SCT:04 26","29.86","29.70","1.24","79","000","","0","","","","","","","","","","","","","","","","","","","","","","","","","","","","","","","","","","","","","","","","","","","","","","","","","","","","","","","","","","","","","","","","","","","","","","","","","","","","","","","","","","","","","","","","","","","SYN08882445 21595 80000 10271 20258 30059 40111 71752 8427/ 333 10322 29088 55051 59003 69911=","","","","","","","","","",""
"82445099999","2021-03-31T08:00:00","-4.2666666","-55.9833333","45.0","ITAITUBA, BR","FM-12","4","","76","79","","","","9","92","SCT:04 26","29.91","29.76","2.49","77","000","","0","","","","","","","","","","","","","","","","","","","","","","","","","","","","","","","","","","","","","","","","","","","","","","","","","","","","","","","","","","","","","","","","","","","","","","","","","","","","","","","","","","","","","","","","","","","SYN07082445 22596 80000 10260 20246 30078 40130 8457/ 333 20243 59009 60024=","","","","","","","","","",""
"82445099999","2021-03-31T14:00:00","-4.2666666","-55.9833333","45.0","ITAITUBA, BR","FM-12","4","","80","89","","","","9","77","BKN:05 26","29.79","29.64","2.49","82","140","","5","","","","","","","","","","","","","","","","","","","","","","","","","","","","","","","","","","","","","","","","","","","","","","","","","","","","","","","","","","","","","","","","","","","","","","","","","","","","","","","","","","","","","","","","","","","SYN05882445 32596 81404 10314 20269 30036 40088 8527/ 333 59011=","","","","","","","","","",""
"82445099999","2021-03-31T20:00:00","-4.2666666","-55.9833333","45.0","ITAITUBA, BR","FM-12","4","","78","79","","","","","97","SCT:04 15","29.85","29.70","1.24","78","000","","0","","","","","","","","","","","","","","","","","","","","","","","","","","","","","","","","","","","","","","","","","","","","","","","","","","","","","","","","","","","","","","","","","","","","","","","","","","","","","","","","","","","","","","","","","","","SYN08882445 21495 80000 10260 20255 30058 40110 72962 8477/ 333 10337 29091 55036 59001 60101=","","","","","","","","","",""
"82445099999","2021-04-01T08:00:00","-4.2666666","-55.9833333","45.0","ITAITUBA, BR","FM-12","4","","74","76","","||RA","","9","94","FEW:02 15","29.93","29.78","2.49","75","050","","5","","","","","","","","","","","","","","","","","","","","","","","","","","","","","","","","","","","","","","","","","","","","","","","","","","","","","","","","","","","","","","","","","","","","","","","","","","","","","","","","","","","","","","","","","","","SYN07682445 21496 80504 10244 20234 30083 40136 76165 8272/ 333 20237 58005 60164=","","","","","","","","","",""
"82445099999","2021-04-01T14:00:00","-4.2666666","-55.9833333","45.0","ITAITUBA, BR","FM-12","4","","75","80","","","","9","87","SCT:04 41","29.87","29.71","6.21","77","320","","2","","","","","","","","","","","","","","","","","","","","","","","","","","","","","","","","","","","","","","","","","","","","","","","","","","","","","","","","","","","","","","","","","","","","","","","","","","","","","","","","","","","","","","","","","","","SYN07082445 21697 73202 10264 20241 30062 40114 70365 84520 333 58026 60371=","","","","","","","","","",""
"82445099999","2021-04-01T20:00:00","-4.2666666","-55.9833333","45.0","ITAITUBA, BR","FM-12","4","","77","79","","","","","94","OVC:08 15","29.96","29.71","0.62","78","000","","0","","","","","","","","","","","","","","","","","","","","","","","","","","","","","","","","","","","","","","","","","","","","","","","","","","","","","","","","","","","","","","","","","","","","","","","","","","","","","","","","","","","","","","","","","","","SYN08882445 21494 80000 10260 20250 30062 40145 72052 887// 333 10334 29092 55002 58004 69921=","","","","","","","","","",""
"82445099999","2021-04-02T08:00:00","-4.2666666","-55.9833333","45.0","ITAITUBA, BR","FM-12","4","","74","78","","","","9","89","OVC:08 15","29.98","29.82","1.24","75","000","","0","","","","","","","","","","","","","","","","","","","","","","","","","","","","","","","","","","","","","","","","","","","","","","","","","","","","","","","","","","","","","","","","","","","","","","","","","","","","","","","","","","","","","","","","","","","SYN07682445 21495 80000 10256 20236 30099 40152 72062 8877/ 333 20231 58016 60384=","","","","","","","","","",""
"82445099999","2021-04-02T14:00:00","-4.2666666","-55.9833333","45.0","ITAITUBA, BR","FM-12","4","","78","89","","","","9","70","SCT:03 41","29.86","29.70","6.21","81","050","","2","","","","","","","","","","","","","","","","","","","","","","","","","","","","","","","","","","","","","","","","","","","","","","","","","","","","","","","","","","","","","","","","","","","","","","","","","","","","","","","","","","","","","","","","","","","SYN05882445 32697 70502 10316 20255 30059 40111 83570 333 59003=","","","","","","","","","",""
"82445099999","2021-04-02T20:00:00","-4.2666666","-55.9833333","45.0","ITAITUBA, BR","FM-12","4","","79","82","","","","","92","SCT:04 41","29.86","29.70","2.49","80","000","","0","","","","","","","","","","","","","","","","","","","","","","","","","","","","","","","","","","","","","","","","","","","","","","","","","","","","","","","","","","","","","","","","","","","","","","","","","","","","","","","","","","","","","","","","","","","SYN07682445 32696 70000 10276 20262 30059 40111 84550 333 10330 29088 55040 58003=","","","","","","","","","",""
"82445099999","2021-04-03T08:00:00","-4.2666666","-55.9833333","45.0","ITAITUBA, BR","FM-12","4","","77","80","","","","9","92","BKN:06 15","29.95","29.80","6.21","78","000","","0","","","","","","","","","","","","","","","","","","","","","","","","","","","","","","","","","","","","","","","","","","","","","","","","","","","","","","","","","","","","","","","","","","","","","","","","","","","","","","","","","","","","","","","","","","","SYN07682445 21497 70000 10267 20252 30090 40142 70352 86708 333 20245 59009 69944=","","","","","","","","","",""
"82445099999","2021-04-03T14:00:00","-4.2666666","-55.9833333","45.0","ITAITUBA, BR","FM-12","4","","80","93","","","","9","67","SCT:03 26","29.81","29.66","6.21","83","090","","5","","","","","","","","","","","","","","","","","","","","","","","","","","","","","","","","","","","","","","","","","","","","","","","","","","","","","","","","","","","","","","","","","","","","","","","","","","","","","","","","","","","","","","","","","","","SYN05882445 32597 70904 10337 20268 30044 40096 83270 333 59015=","","","","","","","","","",""
"82445099999","2021-04-03T20:00:00","-4.2666666","-55.9833333","45.0","ITAITUBA, BR","FM-12","4","","80","83","","","","","91","FEW:02 26","29.87","29.72","2.49","81","000","","0","","","","","","","","","","","","","","","","","","","","","","","","","","","","","","","","","","","","","","","","","","","","","","","","","","","","","","","","","","","","","","","","","","","","","","","","","","","","","","","","","","","","","","","","","","","SYN08882445 21596 60000 10284 20268 30063 40115 70365 82220 333 10349 29085 55083 58004 60011=","","","","","","","","","",""
"82445099999","2021-04-04T08:00:00","-4.2666666","-55.9833333","45.0","ITAITUBA, BR","FM-12","4","","76","78","","||FG","","9","95","","29.93","29.78","1.24","77","000","","0","","","","","","","","","","","","","","","","","","","","","","","","","","","","","","","","","","","","","","","","","","","","","","","","","","","","","","","","","","","","","","","","","","","","","","","","","","","","","","","","","","","","","","","","","","","SYN07682445 21/95 90000 10256 20247 30084 40136 74544 8//// 333 20241 59006 60014=","","","","","","","","","",""
"82445099999","2021-04-04T14:00:00","-4.2666666","-55.9833333","45.0","ITAITUBA, BR","FM-12","4","","79","91","","","","9","68","FEW:02 26","29.83","29.68","6.21","82","050","","2","","","","","","","","","","","","","","","","","","","","","","","","","","","","","","","","","","","","","","","","","","","","","","","","","","","","","","","","","","","","","","","","","","","","","","","","","","","","","","","","","","","","","","","","","","","SYN05882445 32597 70502 10326 20259 30050 40102 82276 333 58006=","","","","","","","","","",""
"82445099999","2021-04-04T20:00:00","-4.2666666","-55.9833333","45.0","ITAITUBA, BR","FM-12","4","","81","85","","","","","89","SCT:03 41","29.81","29.66","2.49","82","000","","0","","","","","","","","","","","","","","","","","","","","","","","","","","","","","","","","","","","","","","","","","","","","","","","","","","","","","","","","","","","","","","","","","","","","","","","","","","","","","","","","","","","","","","","","","","","SYN07682445 32696 60000 10294 20274 30044 40096 83506 333 10342 29085 55031 59019=","","","","","","","","","",""
"82445099999","2021-04-05T08:00:00","-4.2666666","-55.9833333","45.0","ITAITUBA, BR","FM-12","4","","78","80","","","","9","93","SCT:03 15","29.93","29.78","6.21","79","360","","1","","","","","","","","","","","","","","","","","","","","","","","","","","","","","","","","","","","","","","","","","","","","","","","","","","","","","","","","","","","","","","","","","","","","","","","","","","","","","","","","","","","","","","","","","","","SYN06482445 32497 73601 10266 20254 30084 40136 83720 333 20251 58000=","","","","","","","","","",""
"82445099999","2021-04-05T14:00:00","-4.2666666","-55.9833333","45.0","ITAITUBA, BR","FM-12","4","","80","90","","","","9","72","SCT:03 26","29.81","29.66","6.21","83","050","","5","","","","","","","","","","","","","","","","","","","","","","","","","","","","","","","","","","","","","","","","","","","","","","","","","","","","","","","","","","","","","","","","","","","","","","","","","","","","","","","","","","","","","","","","","","","SYN05882445 32597 60504 10321 20265 30044 40096 83276 333 59006=","","","","","","","","","",""
"82445099999","2021-04-05T20:00:00","-4.2666666","-55.9833333","45.0","ITAITUBA, BR","FM-12","4","","76","78","","","","","95","SCT:03 41","29.88","29.73","1.24","77","000","","0","","","","","","","","","","","","","","","","","","","","","","","","","","","","","","","","","","","","","","","","","","","","","","","","","","","","","","","","","","","","","","","","","","","","","","","","","","","","","","","","","","","","","","","","","","","SYN08882445 21695 80000 10254 20245 30067 40120 70296 8352/ 333 10336 29089 55050 58023 60041=","","","","","","","","","",""
"82445099999","2021-04-06T14:00:00","-4.2666666","-55.9833333","45.0","ITAITUBA, BR","FM-12","4","","79","90","","","","9","69","FEW:02 26","29.87","29.72","6.21","82","090","","2","","","","","","","","","","","","","","","","","","","","","","","","","","","","","","","","","","","","","","","","","","","","","","","","","","","","","","","","","","","","","","","","","","","","","","","","","","","","","","","","","","","","","","","","","","","SYN05882445 32597 60902 10324 20260 30064 40116 82276 333 58020=","","","","","","","","","",""
"82445099999","2021-04-06T20:00:00","-4.2666666","-55.9833333","45.0","ITAITUBA, BR","FM-12","4","","79","81","","","","","93","SCT:03 41","29.86","29.71","2.49","80","000","","0","","","","","","","","","","","","","","","","","","","","","","","","","","","","","","","","","","","","","","","","","","","","","","","","","","","","","","","","","","","","","","","","","","","","","","","","","","","","","","","","","","","","","","","","","","","SYN08882445 21696 30000 10272 20260 30060 40112 70352 83500 333 10341 29087 55046 59007 69931=","","","","","","","","","",""
"82445099999","2021-04-07T08:00:00","-4.2666666","-55.9833333","45.0","ITAITUBA, BR","FM-12","4","","75","77","","","","9","94","SCT:04 15","29.98","29.82","1.24","76","180","","1","","","","","","","","","","","","","","","","","","","","","","","","","","","","","","","","","","","","","","","","","","","","","","","","","","","","","","","","","","","","","","","","","","","","","","","","","","","","","","","","","","","","","","","","","","","SYN07082445 22495 81801 10250 20240 30099 40151 8477/ 333 20239 58005 69934=","","","","","","","","","",""
"82445099999","2021-04-07T14:00:00","-4.2666666","-55.9833333","45.0","ITAITUBA, BR","FM-12","4","","78","91","","","","9","67","SCT:04 26","29.84","29.68","6.21","81","090","","1","","","","","","","","","","","","","","","","","","","","","","","","","","","","","","","","","","","","","","","","","","","","","","","","","","","","","","","","","","","","","","","","","","","","","","","","","","","","","","","","","","","","","","","","","","","SYN05882445 32597 40901 10326 20257 30052 40104 84200 333 59012=","","","","","","","","","",""
"82445099999","2021-04-07T20:00:00","-4.2666666","-55.9833333","45.0","ITAITUBA, BR","FM-12","4","","82","85","","","","","91","BKN:06 41","29.85","29.70","2.49","83","000","","0","","","","","","","","","","","","","","","","","","","","","","","","","","","","","","","","","","","","","","","","","","","","","","","","","","","","","","","","","","","","","","","","","","","","","","","","","","","","","","","","","","","","","","","","","","","SYN07682445 32696 60000 10292 20276 30056 40108 86500 333 10342 29086 55067 59004=","","","","","","","","","",""
"82445099999","2021-04-08T08:00:00","-4.2666666","-55.9833333","45.0","ITAITUBA, BR","FM-12","4","","77","83","","","","9","83","SCT:03 41","29.94","29.78","6.21","79","000","","0","","","","","","","","","","","","","","","","","","","","","","","","","","","","","","","","","","","","","","","","","","","","","","","","","","","","","","","","","","","","","","","","","","","","","","","","","","","","","","","","","","","","","","","","","","","SYN06482445 32697 70000 10284 20252 30086 40138 83502 333 20245 59016=","","","","","","","","","",""
"82445099999","2021-04-08T14:00:00","-4.2666666","-55.9833333","45.0","ITAITUBA, BR","FM-12","4","","84","94","","","","9","73","SCT:03 26","29.84","29.68","6.21","86","090","","1","","","","","","","","","","","","","","","","","","","","","","","","","","","","","","","","","","","","","","","","","","","","","","","","","","","","","","","","","","","","","","","","","","","","","","","","","","","","","","","","","","","","","","","","","","","SYN05882445 32597 70901 10342 20287 30052 40104 83202 333 58000=","","","","","","","","","",""
"82445099999","2021-04-08T20:00:00","-4.2666666","-55.9833333","45.0","ITAITUBA, BR","FM-12","4","","81","86","","","","","83","74","29.85","29.70","6.21","82","000","","0","","","","","","","","","","","","","","","","","","","","","","","","","","","","","","","","","","","","","","","","","","","","","","","","","","","","","","","","","","","","","","","","","","","","","","","","","","","","","","","","","","","","","","","","","","","SYN07682445 32897 40000 10302 20270 30056 40108 80002 333 10358 29082 55095 58000=","","","","","","","","","",""
"82445099999","2021-04-09T08:00:00","-4.2666666","-55.9833333","45.0","ITAITUBA, BR","FM-12","4","","76","81","","","","9","86","FEW:02 41","29.97","29.82","6.21","77","090","","5","","","","","","","","","","","","","","","","","","","","","","","","","","","","","","","","","","","","","","","","","","","","","","","","","","","","","","","","","","","","","","","","","","","","","","","","","","","","","","","","","","","","","","","","","","","SYN06482445 32697 70904 10272 20247 30098 40150 82535 333 20246 58012=","","","","","","","","","",""
"82445099999","2021-04-09T14:00:00","-4.2666666","-55.9833333","45.0","ITAITUBA, BR","FM-12","4","","53","91","","","","9","27","FEW:02 26","29.87","29.72","6.21","68","090","","7","","","","","","","","","","","","","","","","","","","","","","","","","","","","","","","","","","","","","","","","","","","","","","","","","","","","","","","","","","","","","","","","","","","","","","","","","","","","","","","","","","","","","","","","","","","SYN05882445 32597 70906 10330 20116 30064 40116 82236 333 58012=","","","","","","","","","",""
"82445099999","2021-04-09T20:00:00","-4.2666666","-55.9833333","45.0","ITAITUBA, BR","FM-12","4","","81","85","","","","","86","SCT:04","29.87","29.71","2.49","82","000","","0","","","","","","","","","","","","","","","","","","","","","","","","","","","","","","","","","","","","","","","","","","","","","","","","","","","","","","","","","","","","","","","","","","","","","","","","","","","","","","","","","","","","","","","","","","","SYN07682445 32996 40000 10295 20270 30062 40114 84030 333 10343 29081 55075 58006=","","","","","","","","","",""
"82445099999","2021-04-10T08:00:00","-4.2666666","-55.9833333","45.0","ITAITUBA, BR","FM-12","4","","78","82","","","","9","90","FEW:02 26","29.94","29.79","12.43","79","180","","2","","","","","","","","","","","","","","","","","","","","","","","","","","","","","","","","","","","","","","","","","","","","","","","","","","","","","","","","","","","","","","","","","","","","","","","","","","","","","","","","","","","","","","","","","","","SYN06482445 32598 61802 10276 20258 30087 40139 82201 333 20253 59011=","","","","","","","","","",""
"82445099999","2021-04-10T14:00:00","-4.2666666","-55.9833333","45.0","ITAITUBA, BR","FM-12","4","","80","86","","||TS","","9","82","SCT:03 26","29.81","29.66","6.21","82","180","","1","","","","","","","","","","","","","","","","","","","","","","","","","","","","","","","","","","","","","","","","","","","","","","","","","","","","","","","","","","","","","","","","","","","","","","","","","","","","","","","","","","","","","","","","","","","SYN06482445 31597 71801 10302 20268 30044 40096 71722 83376 333 59020=","","","","","","","","","",""
"82445099999","2021-04-10T20:00:00","-4.2666666","-55.9833333","45.0","ITAITUBA, BR","FM-12","4","","78","81","","","","","91","FEW:02 26","29.86","29.71","2.49","79","000","","0","","","","","","","","","","","","","","","","","","","","","","","","","","","","","","","","","","","","","","","","","","","","","","","","","","","","","","","","","","","","","","","","","","","","","","","","","","","","","","","","","","","","","","","","","","","SYN08882445 21596 40000 10274 20258 30060 40112 70352 82140 333 10346 29088 55039 58002 69931=","","","","","","","","","",""
"82445099999","2021-04-11T08:00:00","-4.2666666","-55.9833333","45.0","ITAITUBA, BR","FM-12","4","","76","79","","","","9","90","SCT:03 41","29.94","29.78","6.21","77","050","","1","","","","","","","","","","","","","","","","","","","","","","","","","","","","","","","","","","","","","","","","","","","","","","","","","","","","","","","","","","","","","","","","","","","","","","","","","","","","","","","","","","","","","","","","","","","SYN07082445 22697 70501 10260 20242 30086 40138 83570 333 20249 59001 69934=","","","","","","","","","",""
"82445099999","2021-04-11T14:00:00","-4.2666666","-55.9833333","45.0","ITAITUBA, BR","FM-12","4","","79","85","","","","9","81","SCT:03 41","29.88","29.72","6.21","81","090","","2","","","","","","","","","","","","","","","","","","","","","","","","","","","","","","","","","","","","","","","","","","","","","","","","","","","","","","","","","","","","","","","","","","","","","","","","","","","","","","","","","","","","","","","","","","","SYN05882445 32697 70902 10297 20260 30066 40118 83570 333 58022=","","","","","","","","","",""
"82445099999","2021-04-11T20:00:00","-4.2666666","-55.9833333","45.0","ITAITUBA, BR","FM-12","4","","78","80","","","","","94","BKN:05 41","29.91","29.75","1.24","79","000","","0","","","","","","","","","","","","","","","","","","","","","","","","","","","","","","","","","","","","","","","","","","","","","","","","","","","","","","","","","","","","","","","","","","","","","","","","","","","","","","","","","","","","","","","","","","","SYN07682445 32695 80000 10264 20254 30075 40127 8553/ 333 10310 29090 55001 58015=","","","","","","","","","",""
"82445099999","2021-04-12T08:00:00","-4.2666666","-55.9833333","45.0","ITAITUBA, BR","FM-12","4","","77","81","","","","9","89","SCT:03 41","29.97","29.81","12.43","78","000","","0","","","","","","","","","","","","","","","","","","","","","","","","","","","","","","","","","","","","","","","","","","","","","","","","","","","","","","","","","","","","","","","","","","","","","","","","","","","","","","","","","","","","","","","","","","","SYN06482445 32698 60000 10270 20250 30096 40148 83580 333 20243 58010=","","","","","","","","","",""
"82445099999","2021-04-12T14:00:00","-4.2666666","-55.9833333","45.0","ITAITUBA, BR","FM-12","4","","81","87","","||TS","","9","81","SCT:03 26","29.84","29.69","6.21","83","000","","0","","","","","","","","","","","","","","","","","","","","","","","","","","","","","","","","","","","","","","","","","","","","","","","","","","","","","","","","","","","","","","","","","","","","","","","","","","","","","","","","","","","","","","","","","","","SYN07082445 21597 70000 10306 20270 30054 40106 71765 83220 333 59018 60021=","","","","","","","","","",""
"82445099999","2021-04-12T20:00:00","-4.2666666","-55.9833333","45.0","ITAITUBA, BR","FM-12","4","","78","81","","","","","92","SCT:04 41","29.88","29.73","1.24","79","000","","0","","","","","","","","","","","","","","","","","","","","","","","","","","","","","","","","","","","","","","","","","","","","","","","","","","","","","","","","","","","","","","","","","","","","","","","","","","","","","","","","","","","","","","","","","","","SYN08882445 21695 80000 10270 20256 30067 40119 70252 84520 333 10327 29088 55028 59008 69911=","","","","","","","","","",""
"82445099999","2021-04-13T08:00:00","-4.2666666","-55.9833333","45.0","ITAITUBA, BR","FM-12","4","","77","81","","","","9","87","FEW:02 26","29.97","29.81","12.43","78","180","","2","","","","","","","","","","","","","","","","","","","","","","","","","","","","","","","","","","","","","","","","","","","","","","","","","","","","","","","","","","","","","","","","","","","","","","","","","","","","","","","","","","","","","","","","","","","SYN07082445 22598 41802 10274 20250 30096 40148 82231 333 20249 58000 60024=","","","","","","","","","",""
"82445099999","2021-04-13T14:00:00","-4.2666666","-55.9833333","45.0","ITAITUBA, BR","FM-12","4","","78","88","","||RA","","9","73","SCT:03 26","29.85","29.69","6.21","81","090","","3","","","","","","","","","","","","","","","","","","","","","","","","","","","","","","","","","","","","","","","","","","","","","","","","","","","","","","","","","","","","","","","","","","","","","","","","","","","","","","","","","","","","","","","","","","","SYN07082445 21597 70903 10312 20258 30055 40107 79196 83372 333 58001 60031=","","","","","","","","","",""
"82445099999","2021-04-13T20:00:00","-4.2666666","-55.9833333","45.0","ITAITUBA, BR","FM-12","4","","78","80","","","","","92","SCT:04 41","29.91","29.75","1.24","79","000","","0","","","","","","","","","","","","","","","","","","","","","","","","","","","","","","","","","","","","","","","","","","","","","","","","","","","","","","","","","","","","","","","","","","","","","","","","","","","","","","","","","","","","","","","","","","","SYN08882445 21695 80000 10268 20254 30076 40128 70265 8457/ 333 10337 29086 55072 58009 60221=","","","","","","","","","",""
"82445099999","2021-04-14T08:00:00","-4.2666666","-55.9833333","45.0","ITAITUBA, BR","FM-12","4","","75","78","","","","9","92","SCT:03 41","29.98","29.83","6.21","76","090","","1","","","","","","","","","","","","","","","","","","","","","","","","","","","","","","","","","","","","","","","","","","","","","","","","","","","","","","","","","","","","","","","","","","","","","","","","","","","","","","","","","","","","","","","","","","","SYN07082445 22697 70901 10254 20240 30100 40152 83570 333 20241 58004 60254=","","","","","","","","","",""
"82445099999","2021-04-14T14:00:00","-4.2666666","-55.9833333","45.0","ITAITUBA, BR","FM-12","4","","79","92","","||TS","","9","65","FEW:02 41","29.87","29.71","12.43","82","360","","2","","","","","","","","","","","","","","","","","","","","","","","","","","","","","","","","","","","","","","","","","","","","","","","","","","","","","","","","","","","","","","","","","","","","","","","","","","","","","","","","","","","","","","","","","","","SYN06482445 31698 63602 10334 20260 30062 40114 71722 82361 333 58007=","","","","","","","","","",""
"82445099999","2021-04-14T20:00:00","-4.2666666","-55.9833333","45.0","ITAITUBA, BR","FM-12","4","","81","85","","","","","88","SCT:03 26","29.86","29.71","2.49","82","000","","0","","","","","","","","","","","","","","","","","","","","","","","","","","","","","","","","","","","","","","","","","","","","","","","","","","","","","","","","","","","","","","","","","","","","","","","","","","","","","","","","","","","","","","","","","","","SYN08282445 31596 60000 10296 20274 30060 40112 71322 83220 333 10344 29084 55077 59016=","","","","","","","","","",""
"82445099999","2021-04-15T08:00:00","-4.2666666","-55.9833333","45.0","ITAITUBA, BR","FM-12","4","","77","80","","","","9","91","SCT:03 26","29.95","29.80","12.43","78","230","","1","","","","","","","","","","","","","","","","","","","","","","","","","","","","","","","","","","","","","","","","","","","","","","","","","","","","","","","","","","","","","","","","","","","","","","","","","","","","","","","","","","","","","","","","","","","SYN07682445 21598 62301 10264 20248 30091 40142 70296 83412 333 20239 59009 60044=","","","","","","","","","",""
"82445099999","2021-04-15T14:00:00","-4.2666666","-55.9833333","45.0","ITAITUBA, BR","FM-12","4","","77","78","","","","9","94","SCT:04 41","29.86","29.71","2.49","77","000","","0","","","","","","","","","","","","","","","","","","","","","","","","","","","","","","","","","","","","","","","","","","","","","","","","","","","","","","","","","","","","","","","","","","","","","","","","","","","","","","","","","","","","","","","","","","","SYN07082445 21696 80000 10258 20248 30060 40112 72965 84520 333 59002 60101=","","","","","","","","","",""
"82445099999","2021-04-15T20:00:00","-4.2666666","-55.9833333","45.0","ITAITUBA, BR","FM-12","4","","76","78","","","","","95","SCT:04 41","29.90","29.74","1.24","77","000","","0","","","","","","","","","","","","","","","","","","","","","","","","","","","","","","","","","","","","","","","","","","","","","","","","","","","","","","","","","","","","","","","","","","","","","","","","","","","","","","","","","","","","","","","","","","","SYN07682445 32695 80000 10256 20247 30072 40124 8457/ 333 10334 29094 55034 58012=","","","","","","","","","",""
"82445099999","2021-04-16T08:00:00","-4.2666666","-55.9833333","45.0","ITAITUBA, BR","FM-12","4","","76","80","","","","9","87","SCT:03 26","29.90","29.78","6.21","77","140","","2","","","","","","","","","","","","","","","","","","","","","","","","","","","","","","","","","","","","","","","","","","","","","","","","","","","","","","","","","","","","","","","","","","","","","","","","","","","","","","","","","","","","","","","","","","","SYN07082445 22597 61402 10266 20243 30083 40125 83411 333 20237 59008 60104=","","","","","","","","","",""
"82445099999","2021-04-16T14:00:00","-4.2666666","-55.9833333","45.0","ITAITUBA, BR","FM-12","4","","80","89","","||TS","","9","74","SCT:03 26","29.82","29.67","12.43","82","090","","3","","","","","","","","","","","","","","","","","","","","","","","","","","","","","","","","","","","","","","","","","","","","","","","","","","","","","","","","","","","","","","","","","","","","","","","","","","","","","","","","","","","","","","","","","","","SYN06482445 31598 60903 10316 20264 30047 40099 71722 83322 333 59013=","","","","","","","","","",""
"82445099999","2021-04-16T20:00:00","-4.2666666","-55.9833333","45.0","ITAITUBA, BR","FM-12","4","","78","82","","","","","90","SCT:04 41","29.87","29.72","2.49","79","000","","0","","","","","","","","","","","","","","","","","","","","","","","","","","","","","","","","","","","","","","","","","","","","","","","","","","","","","","","","","","","","","","","","","","","","","","","","","","","","","","","","","","","","","","","","","","","SYN07682445 32696 80000 10276 20258 30063 40115 84520 333 10338 29085 55080 59009=","","","","","","","","","",""
"82445099999","2021-04-17T08:00:00","-4.2666666","-55.9833333","45.0","ITAITUBA, BR","FM-12","4","","76","81","","","","9","87","SCT:03 26","29.95","29.80","6.21","77","090","","1","","","","","","","","","","","","","","","","","","","","","","","","","","","","","","","","","","","","","","","","","","","","","","","","","","","","","","","","","","","","","","","","","","","","","","","","","","","","","","","","","","","","","","","","","","","SYN06482445 32597 70901 10270 20246 30091 40143 83416 333 20243 58008=","","","","","","","","","",""
"82445099999","2021-04-17T14:00:00","-4.2666666","-55.9833333","45.0","ITAITUBA, BR","FM-12","4","","79","90","","","","9","71","SCT:03 41","29.85","29.69","6.21","82","090","","1","","","","","","","","","","","","","","","","","","","","","","","","","","","","","","","","","","","","","","","","","","","","","","","","","","","","","","","","","","","","","","","","","","","","","","","","","","","","","","","","","","","","","","","","","","","SYN05882445 32697 70901 10320 20261 30055 40107 83422 333 58008=","","","","","","","","","",""
"82445099999","2021-04-18T08:00:00","-4.2666666","-55.9833333","45.0","ITAITUBA, BR","FM-12","4","","75","76","","||DZ","","9","97","SCT:04 15","30.00","29.85","0.62","75","000","","0","","","","","","","","","","","","","","","","","","","","","","","","","","","","","","","","","","","","","","","","","","","","","","","","","","","","","","","","","","","","","","","","","","","","","","","","","","","","","","","","","","","","","","","","","","","SYN07682445 21494 80000 10246 20241 30108 40160 75165 8477/ 333 20235 58017 60484=","","","","","","","","","",""
"82445099999","2021-04-18T14:00:00","-4.2666666","-55.9833333","45.0","ITAITUBA, BR","FM-12","4","","77","79","","","","9","94","SCT:04 26","29.91","29.76","2.49","78","050","","1","","","","","","","","","","","","","","","","","","","","","","","","","","","","","","","","","","","","","","","","","","","","","","","","","","","","","","","","","","","","","","","","","","","","","","","","","","","","","","","","","","","","","","","","","","","SYN07082445 21596 70501 10260 20250 30078 40130 70265 84570 333 58023 60021=","","","","","","","","","",""
"82445099999","2021-04-18T20:00:00","-4.2666666","-55.9833333","45.0","ITAITUBA, BR","FM-12","4","","75","77","","","","","94","OVC:08 15","29.93","29.78","0.62","76","000","","0","","","","","","","","","","","","","","","","","","","","","","","","","","","","","","","","","","","","","","","","","","","","","","","","","","","","","","","","","","","","","","","","","","","","","","","","","","","","","","","","","","","","","","","","","","","SYN08882445 21494 80000 10250 20240 30084 40136 70255 887// 333 10277 29094 55000 58012 69911=","","","","","","","","","",""
"82445099999","2021-04-19T08:00:00","-4.2666666","-55.9833333","45.0","ITAITUBA, BR","FM-12","4","","76","78","","","","9","92","BKN:05 41","30.03","29.87","2.49","77","000","","0","","","","","","","","","","","","","","","","","","","","","","","","","","","","","","","","","","","","","","","","","","","","","","","","","","","","","","","","","","","","","","","","","","","","","","","","","","","","","","","","","","","","","","","","","","","SYN07082445 22696 70000 10256 20242 30116 40169 85550 333 20233 58008 60024=","","","","","","","","","",""
"82445099999","2021-04-19T14:00:00","-4.2666666","-55.9833333","45.0","ITAITUBA, BR","FM-12","4","","78","89","","","","9","71","SCT:04 26","29.89","29.74","6.21","81","140","","1","","","","","","","","","","","","","","","","","","","","","","","","","","","","","","","","","","","","","","","","","","","","","","","","","","","","","","","","","","","","","","","","","","","","","","","","","","","","","","","","","","","","","","","","","","","SYN05882445 32597 61401 10316 20257 30070 40122 84250 333 59008=","","","","","","","","","",""
"82445099999","2021-04-19T20:00:00","-4.2666666","-55.9833333","45.0","ITAITUBA, BR","FM-12","4","","76","78","","||RA","","","93","OVC:08 15","29.94","29.81","0.62","77","000","","0","","","","","","","","","","","","","","","","","","","","","","","","","","","","","","","","","","","","","","","","","","","","","","","","","","","","","","","","","","","","","","","","","","","","","","","","","","","","","","","","","","","","","","","","","","","SYN08882445 21494 80000 10256 20244 30096 40138 76322 887// 333 10333 29087 55047 58012 60061=","","","","","","","","","",""
"82445099999","2021-04-20T08:00:00","-4.2666666","-55.9833333","45.0","ITAITUBA, BR","FM-12","4","","76","78","","","","9","93","SCT:04 41","30.02","29.87","2.49","77","000","","0","","","","","","","","","","","","","","","","","","","","","","","","","","","","","","","","","","","","","","","","","","","","","","","","","","","","","","","","","","","","","","","","","","","","","","","","","","","","","","","","","","","","","","","","","","","SYN07682445 21696 70000 10256 20244 30114 40166 72162 84570 333 20241 59002 60094=","","","","","","","","","",""
"82445099999","2021-04-20T14:00:00","-4.2666666","-55.9833333","45.0","ITAITUBA, BR","FM-12","4","","78","90","","","","9","68","SCT:04 26","29.92","29.76","2.49","81","090","","5","","","","","","","","","","","","","","","","","","","","","","","","","","","","","","","","","","","","","","","","","","","","","","","","","","","","","","","","","","","","","","","","","","","","","","","","","","","","","","","","","","","","","","","","","","","SYN06482445 31596 60904 10320 20253 30079 40131 71622 84280 333 58009=","","","","","","","","","",""
"82445099999","2021-04-20T20:00:00","-4.2666666","-55.9833333","45.0","ITAITUBA, BR","FM-12","4","","75","77","","","","","93","SCT:03 41","29.95","29.80","1.24","76","000","","0","","","","","","","","","","","","","","","","","","","","","","","","","","","","","","","","","","","","","","","","","","","","","","","","","","","","","","","","","","","","","","","","","","","","","","","","","","","","","","","","","","","","","","","","","","","SYN07682445 32695 80000 10252 20240 30091 40143 83571 333 10333 29087 55061 59005=","","","","","","","","","",""
"82445099999","2021-04-21T08:00:00","-4.2666666","-55.9833333","45.0","ITAITUBA, BR","FM-12","4","","75","79","","","","9","86","SCT:03 41","30.01","29.85","6.21","76","000","","0","","","","","","","","","","","","","","","","","","","","","","","","","","","","","","","","","","","","","","","","","","","","","","","","","","","","","","","","","","","","","","","","","","","","","","","","","","","","","","","","","","","","","","","","","","","SYN06482445 32697 70000 10262 20237 30110 40162 83580 333 20237 59004=","","","","","","","","","",""
"82445099999","2021-04-21T14:00:00","-4.2666666","-55.9833333","45.0","ITAITUBA, BR","FM-12","4","","78","80","","||RA","","9","94","OVC:08 15","29.92","29.76","0.62","79","000","","0","","","","","","","","","","","","","","","","","","","","","","","","","","","","","","","","","","","","","","","","","","","","","","","","","","","","","","","","","","","","","","","","","","","","","","","","","","","","","","","","","","","","","","","","","","","SYN07082445 21494 80000 10268 20258 30078 40131 76162 887// 333 59001 60021=","","","","","","","","","",""
"82445099999","2021-04-21T20:00:00","-4.2666666","-55.9833333","45.0","ITAITUBA, BR","FM-12","4","","77","79","","","","","93","FEW:02 41","29.97","29.81","2.49","78","000","","0","","","","","","","","","","","","","","","","","","","","","","","","","","","","","","","","","","","","","","","","","","","","","","","","","","","","","","","","","","","","","","","","","","","","","","","","","","","","","","","","","","","","","","","","","","","SYN08882445 21696 40000 10262 20250 30096 40148 72166 82550 333 10307 29092 55038 58005 60011=","","","","","","","","","",""
"82445099999","2021-04-22T08:00:00","-4.2666666","-55.9833333","45.0","ITAITUBA, BR","FM-12","4","","77","79","","","","9","92","FEW:02 26","29.98","29.83","6.21","78","000","","0","","","","","","","","","","","","","","","","","","","","","","","","","","","","","","","","","","","","","","","","","","","","","","","","","","","","","","","","","","","","","","","","","","","","","","","","","","","","","","","","","","","","","","","","","","","SYN07082445 22597 60000 10262 20248 30102 40154 82150 333 20241 59008 60044=","","","","","","","","","",""
"82445099999","2021-04-22T14:00:00","-4.2666666","-55.9833333","45.0","ITAITUBA, BR","FM-12","4","","78","87","","","","9","76","SCT:03 26","29.85","29.69","12.43","80","320","","5","","","","","","","","","","","","","","","","","","","","","","","","","","","","","","","","","","","","","","","","","","","","","","","","","","","","","","","","","","","","","","","","","","","","","","","","","","","","","","","","","","","","","","","","","","","SYN05882445 32598 63204 10304 20257 30055 40107 83202 333 59023=","","","","","","","","","",""
"82445099999","2021-04-22T20:00:00","-4.2666666","-55.9833333","45.0","ITAITUBA, BR","FM-12","4","","78","81","","","","","92","SCT:03 41","29.91","29.76","2.49","79","000","","0","","","","","","","","","","","","","","","","","","","","","","","","","","","","","","","","","","","","","","","","","","","","","","","","","","","","","","","","","","","","","","","","","","","","","","","","","","","","","","","","","","","","","","","","","","","SYN07682445 32696 70000 10272 20258 30078 40130 83520 333 10343 29088 55064 59018=","","","","","","","","","",""
"82445099999","2021-04-23T08:00:00","-4.2666666","-55.9833333","45.0","ITAITUBA, BR","FM-12","4","","76","81","","","","9","86","SCT:03 26","29.99","29.83","12.43","77","000","","0","","","","","","","","","","","","","","","","","","","","","","","","","","","","","","","","","","","","","","","","","","","","","","","","","","","","","","","","","","","","","","","","","","","","","","","","","","","","","","","","","","","","","","","","","","","SYN06482445 32598 60000 10272 20247 30103 40155 83422 333 20252 58001=","","","","","","","","","",""
"82445099999","2021-04-23T14:00:00","-4.2666666","-55.9833333","45.0","ITAITUBA, BR","FM-12","4","","79","89","","","","9","72","SCT:03 26","29.87","29.71","12.43","82","000","","0","","","","","","","","","","","","","","","","","","","","","","","","","","","","","","","","","","","","","","","","","","","","","","","","","","","","","","","","","","","","","","","","","","","","","","","","","","","","","","","","","","","","","","","","","","","SYN05882445 32598 60000 10318 20261 30062 40114 83422 333 58007=","","","","","","","","","",""
"82445099999","2021-04-23T20:00:00","-4.2666666","-55.9833333","45.0","ITAITUBA, BR","FM-12","4","","80","84","","","","","88","SCT:03 41","29.88","29.73","1.24","81","000","","0","","","","","","","","","","","","","","","","","","","","","","","","","","","","","","","","","","","","","","","","","","","","","","","","","","","","","","","","","","","","","","","","","","","","","","","","","","","","","","","","","","","","","","","","","","","SYN07682445 32695 70000 10288 20266 30067 40119 83520 333 10338 29084 55075 58005=","","","","","","","","","",""
"82445099999","2021-04-24T08:00:00","-4.2666666","-55.9833333","45.0","ITAITUBA, BR","FM-12","4","","77","81","","","","9","90","BKN:05 41","30.00","29.84","2.49","78","000","","0","","","","","","","","","","","","","","","","","","","","","","","","","","","","","","","","","","","","","","","","","","","","","","","","","","","","","","","","","","","","","","","","","","","","","","","","","","","","","","","","","","","","","","","","","","","SYN06482445 32696 70000 10270 20252 30106 40158 85502 333 20247 58003=","","","","","","","","","",""
"82445099999","2021-04-24T14:00:00","-4.2666666","-55.9833333","45.0","ITAITUBA, BR","FM-12","4","","80","92","","","","9","69","BKN:05 26","29.83","29.68","12.43","83","180","","1","","","","","","","","","","","","","","","","","","","","","","","","","","","","","","","","","","","","","","","","","","","","","","","","","","","","","","","","","","","","","","","","","","","","","","","","","","","","","","","","","","","","","","","","","","","SYN05882445 32598 61801 10332 20267 30051 40103 85202 333 59011=","","","","","","","","","",""
"82445099999","2021-04-24T20:00:00","-4.2666666","-55.9833333","45.0","ITAITUBA, BR","FM-12","4","","78","82","","","","","88","FEW:02 26","29.83","29.68","1.24","79","000","","0","","","","","","","","","","","","","","","","","","","","","","","","","","","","","","","","","","","","","","","","","","","","","","","","","","","","","","","","","","","","","","","","","","","","","","","","","","","","","","","","","","","","","","","","","","","SYN07682445 32595 80000 10278 20256 30051 40103 8227/ 333 10348 29084 55081 59016=","","","","","","","","","",""
"82445099999","2021-04-25T08:00:00","-4.2666666","-55.9833333","45.0","ITAITUBA, BR","FM-12","4","","75","81","","","","9","83","BKN:06 26","29.95","29.80","6.21","77","090","","3","","","","","","","","","","","","","","","","","","","","","","","","","","","","","","","","","","","","","","","","","","","","","","","","","","","","","","","","","","","","","","","","","","","","","","","","","","","","","","","","","","","","","","","","","","","SYN06482445 32597 60903 10270 20239 30090 40142 86152 333 20245 59016=","","","","","","","","","",""
"82445099999","2021-04-25T14:00:00","-4.2666666","-55.9833333","45.0","ITAITUBA, BR","FM-12","4","","79","91","","","","9","67","SCT:03 26","29.83","29.67","6.21","82","090","","5","","","","","","","","","","","","","","","","","","","","","","","","","","","","","","","","","","","","","","","","","","","","","","","","","","","","","","","","","","","","","","","","","","","","","","","","","","","","","","","","","","","","","","","","","","","SYN05882445 32597 50904 10330 20260 30048 40100 83202 333 59003=","","","","","","","","","",""
"82445099999","2021-04-25T20:00:00","-4.2666666","-55.9833333","45.0","ITAITUBA, BR","FM-12","4","","79","82","","","","","92","OVC:08 15","29.88","29.73","0.62","80","000","","0","","","","","","","","","","","","","","","","","","","","","","","","","","","","","","","","","","","","","","","","","","","","","","","","","","","","","","","","","","","","","","","","","","","","","","","","","","","","","","","","","","","","","","","","","","","SYN08882445 21494 80000 10276 20262 30068 40120 72962 887// 333 10343 29084 55092 58017 69961=","","","","","","","","","",""
"82445099999","2021-04-26T08:00:00","-4.2666666","-55.9833333","45.0","ITAITUBA, BR","FM-12","4","","76","77","","||DZ","","9","96","OVC:08 15","29.94","29.79","0.62","76","000","","0","","","","","","","","","","","","","","","","","","","","","","","","","","","","","","","","","","","","","","","","","","","","","","","","","","","","","","","","","","","","","","","","","","","","","","","","","","","","","","","","","","","","","","","","","","","SYN07682445 21494 80000 10252 20245 30087 40139 75066 887// 333 20241 59003 60474=","","","","","","","","","",""
"82445099999","2021-04-26T14:00:00","-4.2666666","-55.9833333","45.0","ITAITUBA, BR","FM-12","4","","77","79","","||RA","","9","94","SCT:04 15","29.86","29.71","1.24","78","000","","0","","","","","","","","","","","","","","","","","","","","","","","","","","","","","","","","","","","","","","","","","","","","","","","","","","","","","","","","","","","","","","","","","","","","","","","","","","","","","","","","","","","","","","","","","","","SYN07082445 21495 80000 10261 20250 30060 40112 76196 8472/ 333 58012 60091=","","","","","","","","","",""
"82445099999","2021-04-26T20:00:00","-4.2666666","-55.9833333","45.0","ITAITUBA, BR","FM-12","4","","77","78","","","","","97","SCT:03 15","29.91","29.75","1.24","77","000","","0","","","","","","","","","","","","","","","","","","","","","","","","","","","","","","","","","","","","","","","","","","","","","","","","","","","","","","","","","","","","","","","","","","","","","","","","","","","","","","","","","","","","","","","","","","","SYN08882445 21495 80000 10256 20251 30075 40128 70265 8352/ 333 10291 29096 55001 58007 60031=","","","","","","","","","",""
"82445099999","2021-04-27T08:00:00","-4.2666666","-55.9833333","45.0","ITAITUBA, BR","FM-12","4","","77","79","","","","9","95","FEW:02 41","29.99","29.84","6.21","78","000","","0","","","","","","","","","","","","","","","","","","","","","","","","","","","","","","","","","","","","","","","","","","","","","","","","","","","","","","","","","","","","","","","","","","","","","","","","","","","","","","","","","","","","","","","","","","","SYN07682445 21697 70000 10260 20251 30104 40156 70352 82530 333 20243 58017 60124=","","","","","","","","","",""
"82445099999","2021-04-27T14:00:00","-4.2666666","-55.9833333","45.0","ITAITUBA, BR","FM-12","4","","80","85","","","","9","84","SCT:03 41","29.83","29.67","6.21","81","140","","2","","","","","","","","","","","","","","","","","","","","","","","","","","","","","","","","","","","","","","","","","","","","","","","","","","","","","","","","","","","","","","","","","","","","","","","","","","","","","","","","","","","","","","","","","","","SYN07082445 21697 71402 10295 20266 30048 40100 70365 83575 333 59012 60021=","","","","","","","","","",""
"82445099999","2021-04-27T20:00:00","-4.2666666","-55.9833333","45.0","ITAITUBA, BR","FM-12","4","","77","78","","","","","96","SCT:04 15","29.90","29.75","0.62","77","000","","0","","","","","","","","","","","","","","","","","","","","","","","","","","","","","","","","","","","","","","","","","","","","","","","","","","","","","","","","","","","","","","","","","","","","","","","","","","","","","","","","","","","","","","","","","","","SYN08882445 21494 80000 10258 20251 30074 40126 70252 8472/ 333 10308 29093 55040 59001 69931=","","","","","","","","","",""
"82445099999","2021-04-28T08:00:00","-4.2666666","-55.9833333","45.0","ITAITUBA, BR","FM-12","4","","74","75","","","","9","94","SCT:03 41","29.95","29.80","6.21","74","000","","0","","","","","","","","","","","","","","","","","","","","","","","","","","","","","","","","","","","","","","","","","","","","","","","","","","","","","","","","","","","","","","","","","","","","","","","","","","","","","","","","","","","","","","","","","","","SYN07682445 21697 70000 10241 20231 30090 40143 70365 83570 333 20224 59014 60104=","","","","","","","","","",""
"82445099999","2021-04-28T14:00:00","-4.2666666","-55.9833333","45.0","ITAITUBA, BR","FM-12","4","","79","89","","","","9","73","SCT:04 26","29.84","29.69","6.21","82","180","","2","","","","","","","","","","","","","","","","","","","","","","","","","","","","","","","","","","","","","","","","","","","","","","","","","","","","","","","","","","","","","","","","","","","","","","","","","","","","","","","","","","","","","","","","","","","SYN07082445 21597 71802 10316 20262 30054 40106 70352 84207 333 58006 69911=","","","","","","","","","",""
"82445099999","2021-04-28T20:00:00","-4.2666666","-55.9833333","45.0","ITAITUBA, BR","FM-12","4","","77","79","","","","","93","SCT:03 41","29.92","29.77","1.24","78","000","","0","","","","","","","","","","","","","","","","","","","","","","","","","","","","","","","","","","","","","","","","","","","","","","","","","","","","","","","","","","","","","","","","","","","","","","","","","","","","","","","","","","","","","","","","","","","SYN08882445 21695 80000 10262 20250 30080 40132 70296 8357/ 333 10327 29088 55066 58006 60031=","","","","","","","","","",""
"82445099999","2021-04-29T08:00:00","-4.2666666","-55.9833333","45.0","ITAITUBA, BR","FM-12","4","","76","77","","","","9","96","SCT:03 15","29.98","29.82","6.21","76","000","","0","","","","","","","","","","","","","","","","","","","","","","","","","","","","","","","","","","","","","","","","","","","","","","","","","","","","","","","","","","","","","","","","","","","","","","","","","","","","","","","","","","","","","","","","","","","SYN07682445 21497 70000 10249 20243 30099 40152 70352 83720 333 20236 58009 60034=","","","","","","","","","",""
"82445099999","2021-04-29T14:00:00","-4.2666666","-55.9833333","45.0","ITAITUBA, BR","FM-12","4","","77","87","","","","9","72","SCT:03 26","29.89","29.74","12.43","80","140","","5","","","","","","","","","","","","","","","","","","","","","","","","","","","","","","","","","","","","","","","","","","","","","","","","","","","","","","","","","","","","","","","","","","","","","","","","","","","","","","","","","","","","","","","","","","","SYN05882445 32598 51404 10306 20250 30071 40123 83242 333 58017=","","","","","","","","","",""
"82445099999","2021-04-29T20:00:00","-4.2666666","-55.9833333","45.0","ITAITUBA, BR","FM-12","4","","78","83","","","","","86","","29.93","29.77","6.21","79","000","","0","","","","","","","","","","","","","","","","","","","","","","","","","","","","","","","","","","","","","","","","","","","","","","","","","","","","","","","","","","","","","","","","","","","","","","","","","","","","","","","","","","","","","","","","","","","SYN07082445 32997 00000 10284 20258 30082 40134 333 10336 29085 55087 58002=","","","","","","","","","",""
"82445099999","2021-04-30T08:00:00","-4.2666666","-55.9833333","45.0","ITAITUBA, BR","FM-12","4","","77","79","","","","9","94","BKN:07 15","30.00","29.85","6.21","78","000","","0","","","","","","","","","","","","","","","","","","","","","","","","","","","","","","","","","","","","","","","","","","","","","","","","","","","","","","","","","","","","","","","","","","","","","","","","","","","","","","","","","","","","","","","","","","","SYN06482445 32497 70000 10263 20252 30107 40159 87700 333 20241 58008=","","","","","","","","","",""
"82445099999","2021-04-30T14:00:00","-4.2666666","-55.9833333","45.0","ITAITUBA, BR","FM-12","4","","76","89","","","","9","64","SCT:03 41","29.88","29.73","6.21","80","050","","2","","","","","","","","","","","","","","","","","","","","","","","","","","","","","","","","","","","","","","","","","","","","","","","","","","","","","","","","","","","","","","","","","","","","","","","","","","","","","","","","","","","","","","","","","","","SYN05882445 32697 70502 10319 20243 30068 40120 83526 333 59003=","","","","","","","","","",""
"82445099999","2021-04-30T20:00:00","-4.2666666","-55.9833333","45.0","ITAITUBA, BR","FM-12","4","","77","82","","||TS","","","86","FEW:02 26","29.94","29.79","1.24","78","090","","5","","","","","","","","","","","","","","","","","","","","","","","","","","","","","","","","","","","","","","","","","","","","","","","","","","","","","","","","","","","","","","","","","","","","","","","","","","","","","","","","","","","","","","","","","","","SYN08282445 31595 80904 10276 20250 30087 40139 71722 8212/ 333 10333 29082 55031 58005=","","","","","","","","","",""
"82445099999","2021-05-01T08:00:00","-4.2666666","-55.9833333","45.0","ITAITUBA, BR","FM-12","4","","76","80","","","","9","88","FEW:01 26","30.00","29.84","12.43","77","140","","1","","","","","","","","","","","","","","","","","","","","","","","","","","","","","","","","","","","","","","","","","","","","","","","","","","","","","","","","","","","","","","","","","","","","","","","","","","","","","","","","","","","","","","","","","","","SYN06482445 32598 71401 10264 20242 30106 40158 81136 333 20239 59001=","","","","","","","","","",""
"82445099999","2021-05-01T14:00:00","-4.2666666","-55.9833333","45.0","ITAITUBA, BR","FM-12","4","","77","80","","||DZ","","9","90","SCT:03 41","29.92","29.76","6.21","78","000","","0","","","","","","","","","","","","","","","","","","","","","","","","","","","","","","","","","","","","","","","","","","","","","","","","","","","","","","","","","","","","","","","","","","","","","","","","","","","","","","","","","","","","","","","","","","","SYN07082445 21697 70000 10266 20248 30079 40131 75065 83570 333 58011 60111=","","","","","","","","","",""
"82445099999","2021-05-01T20:00:00","-4.2666666","-55.9833333","45.0","ITAITUBA, BR","FM-12","4","","78","80","","||DZ","","","92","SCT:03 41","29.95","29.80","1.24","79","000","","0","","","","","","","","","","","","","","","","","","","","","","","","","","","","","","","","","","","","","","","","","","","","","","","","","","","","","","","","","","","","","","","","","","","","","","","","","","","","","","","","","","","","","","","","","","","SYN08882445 21695 80000 10268 20254 30090 40142 75052 8352/ 333 10329 29090 55034 58003 69921=","","","","","","","","","",""
"82445099999","2021-05-02T08:00:00","-4.2666666","-55.9833333","45.0","ITAITUBA, BR","FM-12","4","","77","79","","","","9","93","FEW:02 41","30.01","29.86","6.21","78","000","","0","","","","","","","","","","","","","","","","","","","","","","","","","","","","","","","","","","","","","","","","","","","","","","","","","","","","","","","","","","","","","","","","","","","","","","","","","","","","","","","","","","","","","","","","","","","SYN07682445 21697 70000 10262 20250 30111 40163 70352 82535 333 20243 58005 60124=","","","","","","","","","",""
"82445099999","2021-05-02T14:00:00","-4.2666666","-55.9833333","45.0","ITAITUBA, BR","FM-12","4","","77","90","","","","9","65","SCT:03 26","29.89","29.74","12.43","81","050","","3","","","","","","","","","","","","","","","","","","","","","","","","","","","","","","","","","","","","","","","","","","","","","","","","","","","","","","","","","","","","","","","","","","","","","","","","","","","","","","","","","","","","","","","","","","","SYN05882445 32598 60503 10323 20250 30071 40123 83231 333 59008=","","","","","","","","","",""
"82445099999","2021-05-02T20:00:00","-4.2666666","-55.9833333","45.0","ITAITUBA, BR","FM-12","4","","78","80","","","","","94","SCT:03 41","29.96","29.80","1.24","79","000","","0","","","","","","","","","","","","","","","","","","","","","","","","","","","","","","","","","","","","","","","","","","","","","","","","","","","","","","","","","","","","","","","","","","","","","","","","","","","","","","","","","","","","","","","","","","","SYN08882445 21695 70000 10265 20254 30092 40144 71365 83570 333 10341 29087 55062 58002 60051=","","","","","","","","","",""
"82445099999","2021-05-03T08:00:00","-4.2666666","-55.9833333","45.0","ITAITUBA, BR","FM-12","4","","76","78","","","","9","93","SCT:04 26","29.98","29.82","6.21","77","000","","0","","","","","","","","","","","","","","","","","","","","","","","","","","","","","","","","","","","","","","","","","","","","","","","","","","","","","","","","","","","","","","","","","","","","","","","","","","","","","","","","","","","","","","","","","","","SYN07682445 21597 70000 10256 20244 30099 40151 70252 84420 333 20232 59012 60054=","","","","","","","","","",""
"82445099999","2021-05-03T14:00:00","-4.2666666","-55.9833333","45.0","ITAITUBA, BR","FM-12","4","","80","87","","","","9","78","SCT:03 41","29.85","29.70","6.21","82","180","","2","","","","","","","","","","","","","","","","","","","","","","","","","","","","","","","","","","","","","","","","","","","","","","","","","","","","","","","","","","","","","","","","","","","","","","","","","","","","","","","","","","","","","","","","","","","SYN07082445 21697 61802 10308 20265 30058 40110 70252 83520 333 59013 69911=","","","","","","","","","",""
"82445099999","2021-05-03T20:00:00","-4.2666666","-55.9833333","45.0","ITAITUBA, BR","FM-12","4","","78","82","","","","","89","SCT:04 41","29.93","29.77","2.49","79","000","","0","","","","","","","","","","","","","","","","","","","","","","","","","","","","","","","","","","","","","","","","","","","","","","","","","","","","","","","","","","","","","","","","","","","","","","","","","","","","","","","","","","","","","","","","","","","SYN08282445 31696 70000 10276 20256 30082 40134 71322 84530 333 10322 29087 55045 58024=","","","","","","","","","",""
"82445099999","2021-05-04T08:00:00","-4.2666666","-55.9833333","45.0","ITAITUBA, BR","FM-12","4","","75","77","","","","9","93","SCT:03 41","30.03","29.88","6.21","76","000","","0","","","","","","","","","","","","","","","","","","","","","","","","","","","","","","","","","","","","","","","","","","","","","","","","","","","","","","","","","","","","","","","","","","","","","","","","","","","","","","","","","","","","","","","","","","","SYN07082445 22697 70000 10252 20240 30119 40171 83570 333 20239 58020 69914=","","","","","","","","","",""
"82445099999","2021-05-04T14:00:00","-4.2666666","-55.9833333","45.0","ITAITUBA, BR","FM-12","4","","80","89","","","","9","74","SCT:03 26","29.89","29.74","12.43","82","230","","2","","","","","","","","","","","","","","","","","","","","","","","","","","","","","","","","","","","","","","","","","","","","","","","","","","","","","","","","","","","","","","","","","","","","","","","","","","","","","","","","","","","","","","","","","","","SYN05882445 32598 62302 10316 20264 30071 40123 83431 333 58013=","","","","","","","","","",""
"82445099999","2021-05-04T20:00:00","-4.2666666","-55.9833333","45.0","ITAITUBA, BR","FM-12","4","","77","82","","","","","85","SCT:03 26","29.97","29.82","2.49","78","000","","0","","","","","","","","","","","","","","","","","","","","","","","","","","","","","","","","","","","","","","","","","","","","","","","","","","","","","","","","","","","","","","","","","","","","","","","","","","","","","","","","","","","","","","","","","","","SYN08282445 31596 60000 10280 20252 30098 40150 71391 8327/ 333 10333 29084 55046 58016=","","","","","","","","","",""
"82445099999","2021-05-05T08:00:00","-4.2666666","-55.9833333","45.0","ITAITUBA, BR","FM-12","4","","77","78","","","","9","94","SCT:03 41","30.05","29.90","6.21","77","000","","0","","","","","","","","","","","","","","","","","","","","","","","","","","","","","","","","","","","","","","","","","","","","","","","","","","","","","","","","","","","","","","","","","","","","","","","","","","","","","","","","","","","","","","","","","","","SYN06482445 32697 70000 10258 20248 30124 40176 83532 333 20243 58005=","","","","","","","","","",""
"82445099999","2021-05-05T14:00:00","-4.2666666","-55.9833333","45.0","ITAITUBA, BR","FM-12","4","","80","89","","","","9","75","SCT:04 26","29.91","29.75","2.49","82","000","","0","","","","","","","","","","","","","","","","","","","","","","","","","","","","","","","","","","","","","","","","","","","","","","","","","","","","","","","","","","","","","","","","","","","","","","","","","","","","","","","","","","","","","","","","","","","SYN05882445 32596 60000 10314 20264 30075 40127 84270 333 58004=","","","","","","","","","",""
"82445099999","2021-05-05T20:00:00","-4.2666666","-55.9833333","45.0","ITAITUBA, BR","FM-12","4","","76","83","","","","","78","BKN:07 57","29.98","29.83","1.24","78","000","","0","","","","","","","","","","","","","","","","","","","","","","","","","","","","","","","","","","","","","","","","","","","","","","","","","","","","","","","","","","","","","","","","","","","","","","","","","","","","","","","","","","","","","","","","","","","SYN08882445 21795 70000 10284 20242 30100 40152 70262 87070 333 10333 29089 55031 58002 60021=","","","","","","","","","",""
"82445099999","2021-05-06T08:00:00","-4.2666666","-55.9833333","45.0","ITAITUBA, BR","FM-12","4","","74","76","","","","9","95","BKN:07 41","30.01","29.85","2.49","75","140","","2","","","","","","","","","","","","","","","","","","","","","","","","","","","","","","","","","","","","","","","","","","","","","","","","","","","","","","","","","","","","","","","","","","","","","","","","","","","","","","","","","","","","","","","","","","","SYN07082445 22696 71402 10244 20235 30108 42016 87500 333 20230 59016 60024=","","","","","","","","","",""
"82445099999","2021-05-06T14:00:00","-4.2666666","-55.9833333","45.0","ITAITUBA, BR","FM-12","4","","75","90","","","","9","61","BKN:05 26","29.90","29.75","6.21","79","090","","5","","","","","","","","","","","","","","","","","","","","","","","","","","","","","","","","","","","","","","","","","","","","","","","","","","","","","","","","","","","","","","","","","","","","","","","","","","","","","","","","","","","","","","","","","","","SYN05882445 32597 50904 10324 20239 30074 40126 85200 333 59001=","","","","","","","","","",""
"82445099999","2021-05-06T20:00:00","-4.2666666","-55.9833333","45.0","ITAITUBA, BR","FM-12","4","","78","82","","","","","87","SCT:03 41","29.93","29.78","2.49","79","090","","2","","","","","","","","","","","","","","","","","","","","","","","","","","","","","","","","","","","","","","","","","","","","","","","","","","","","","","","","","","","","","","","","","","","","","","","","","","","","","","","","","","","","","","","","","","","SYN07682445 32696 50902 10280 20256 30084 40136 83202 333 10343 29082 55087 59016=","","","","","","","","","",""
"82445099999","2021-05-07T08:00:00","-4.2666666","-55.9833333","45.0","ITAITUBA, BR","FM-12","4","","76","80","","","","9","89","FEW:02 26","30.01","29.86","12.43","77","000","","0","","","","","","","","","","","","","","","","","","","","","","","","","","","","","","","","","","","","","","","","","","","","","","","","","","","","","","","","","","","","","","","","","","","","","","","","","","","","","","","","","","","","","","","","","","","SYN06482445 32598 30000 10266 20246 30112 40164 82101 333 20237 58004=","","","","","","","","","",""
"82445099999","2021-05-07T14:00:00","-4.2666666","-55.9833333","45.0","ITAITUBA, BR","FM-12","4","","78","82","","","","9","86","SCT:04 26","29.91","29.76","1.24","79","140","","1","","","","","","","","","","","","","","","","","","","","","","","","","","","","","","","","","","","","","","","","","","","","","","","","","","","","","","","","","","","","","","","","","","","","","","","","","","","","","","","","","","","","","","","","","","","SYN07082445 21595 71401 10280 20254 30078 40130 72996 84270 333 59004 60251=","","","","","","","","","",""
"82445099999","2021-05-07T20:00:00","-4.2666666","-55.9833333","45.0","ITAITUBA, BR","FM-12","4","","76","81","","","","","87","SCT:04 41","29.95","29.80","1.24","77","090","","1","","","","","","","","","","","","","","","","","","","","","","","","","","","","","","","","","","","","","","","","","","","","","","","","","","","","","","","","","","","","","","","","","","","","","","","","","","","","","","","","","","","","","","","","","","","SYN07682445 32695 80901 10270 20246 30091 40143 84571 333 10333 29087 55062 58007=","","","","","","","","","",""
"82445099999","2021-05-08T08:00:00","-4.2666666","-55.9833333","45.0","ITAITUBA, BR","FM-12","4","","77","80","","","","9","91","FEW:02 41","30.03","29.88","6.21","78","000","","0","","","","","","","","","","","","","","","","","","","","","","","","","","","","","","","","","","","","","","","","","","","","","","","","","","","","","","","","","","","","","","","","","","","","","","","","","","","","","","","","","","","","","","","","","","","SYN07082445 22697 60000 10264 20248 30119 40171 82550 333 20245 58007 60254=","","","","","","","","","",""
"82445099999","2021-05-08T14:00:00","-4.2666666","-55.9833333","45.0","ITAITUBA, BR","FM-12","4","","78","82","","","","9","88","SCT:04 26","29.93","29.78","2.49","79","000","","0","","","","","","","","","","","","","","","","","","","","","","","","","","","","","","","","","","","","","","","","","","","","","","","","","","","","","","","","","","","","","","","","","","","","","","","","","","","","","","","","","","","","","","","","","","","SYN07082445 21596 80000 10276 20254 30084 40136 72161 8457/ 333 58006 60081=","","","","","","","","","",""
"82445099999","2021-05-08T20:00:00","-4.2666666","-55.9833333","45.0","ITAITUBA, BR","FM-12","4","","77","79","","","","","93","SCT:04 41","29.98","29.82","1.24","78","000","","0","","","","","","","","","","","","","","","","","","","","","","","","","","","","","","","","","","","","","","","","","","","","","","","","","","","","","","","","","","","","","","","","","","","","","","","","","","","","","","","","","","","","","","","","","","","SYN07682445 32695 80000 10262 20250 30099 40151 8457/ 333 10307 29091 55024 58008=","","","","","","","","","",""
"82445099999","2021-05-09T08:00:00","-4.2666666","-55.9833333","45.0","ITAITUBA, BR","FM-12","4","","74","75","","||RA","","9","97","OVC:08 15","30.06","29.91","0.62","74","000","","0","","","","","","","","","","","","","","","","","","","","","","","","","","","","","","","","","","","","","","","","","","","","","","","","","","","","","","","","","","","","","","","","","","","","","","","","","","","","","","","","","","","","","","","","","","","SYN07682445 21494 80000 10238 20233 30128 40181 76362 887// 333 20227 58009 60234=","","","","","","","","","",""
"82445099999","2021-05-09T14:00:00","-4.2666666","-55.9833333","45.0","ITAITUBA, BR","FM-12","4","","77","82","","","","9","84","SCT:03 41","29.92","29.77","6.21","78","000","","0","","","","","","","","","","","","","","","","","","","","","","","","","","","","","","","","","","","","","","","","","","","","","","","","","","","","","","","","","","","","","","","","","","","","","","","","","","","","","","","","","","","","","","","","","","","SYN07082445 21697 60000 10280 20250 30080 40132 72166 83550 333 59004 60051=","","","","","","","","","",""
"82445099999","2021-05-09T20:00:00","-4.2666666","-55.9833333","45.0","ITAITUBA, BR","FM-12","4","","77","82","","","","","86","BKN:05 15","29.96","29.81","1.24","78","000","","0","","","","","","","","","","","","","","","","","","","","","","","","","","","","","","","","","","","","","","","","","","","","","","","","","","","","","","","","","","","","","","","","","","","","","","","","","","","","","","","","","","","","","","","","","","","SYN08282445 31495 80000 10278 20252 30095 40147 70222 8577/ 333 10312 29088 55042 59004=","","","","","","","","","",""
"82445099999","2021-05-10T08:00:00","-4.2666666","-55.9833333","45.0","ITAITUBA, BR","FM-12","4","","77","78","","","","9","97","SCT:03 26","30.01","29.85","12.43","77","000","","0","","","","","","","","","","","","","","","","","","","","","","","","","","","","","","","","","","","","","","","","","","","","","","","","","","","","","","","","","","","","","","","","","","","","","","","","","","","","","","","","","","","","","","","","","","","SYN07082445 22598 50000 10257 20251 30110 40162 83201 333 20229 59018 60054=","","","","","","","","","",""
"82445099999","2021-05-10T14:00:00","-4.2666666","-55.9833333","45.0","ITAITUBA, BR","FM-12","4","","80","90","","","","9","72","SCT:04 26","29.87","29.72","12.43","83","140","","1","","","","","","","","","","","","","","","","","","","","","","","","","","","","","","","","","","","","","","","","","","","","","","","","","","","","","","","","","","","","","","","","","","","","","","","","","","","","","","","","","","","","","","","","","","","SYN07082445 21598 51401 10321 20265 30064 40116 72122 84240 333 59016 60021=","","","","","","","","","",""
"82445099999","2021-05-10T20:00:00","-4.2666666","-55.9833333","45.0","ITAITUBA, BR","FM-12","4","","81","83","","","","","92","","29.93","29.78","6.21","82","000","","0","","","","","","","","","","","","","","","","","","","","","","","","","","","","","","","","","","","","","","","","","","","","","","","","","","","","","","","","","","","","","","","","","","","","","","","","","","","","","","","","","","","","","","","","","","","SYN07082445 32997 00000 10284 20270 30084 40136 333 10336 29088 55088 59011=","","","","","","","","","",""
"82445099999","2021-05-11T08:00:00","-4.2666666","-55.9833333","45.0","ITAITUBA, BR","FM-12","4","","76","80","","","","9","89","BKN:05 26","29.98","29.83","12.43","77","000","","0","","","","","","","","","","","","","","","","","","","","","","","","","","","","","","","","","","","","","","","","","","","","","","","","","","","","","","","","","","","","","","","","","","","","","","","","","","","","","","","","","","","","","","","","","","","SYN06482445 32598 50000 10266 20246 30102 40154 85200 333 20241 59008=","","","","","","","","","",""
"82445099999","2021-05-11T14:00:00","-4.2666666","-55.9833333","45.0","ITAITUBA, BR","FM-12","4","","78","92","","","","9","63","BKN:05 26","29.87","29.72","12.43","82","050","","5","","","","","","","","","","","","","","","","","","","","","","","","","","","","","","","","","","","","","","","","","","","","","","","","","","","","","","","","","","","","","","","","","","","","","","","","","","","","","","","","","","","","","","","","","","","SYN05882445 32598 60504 10334 20254 30063 40115 85205 333 59001=","","","","","","","","","",""
"82445099999","2021-05-11T20:00:00","-4.2666666","-55.9833333","45.0","ITAITUBA, BR","FM-12","4","","80","83","","","","","90","","29.89","29.74","6.21","81","180","","1","","","","","","","","","","","","","","","","","","","","","","","","","","","","","","","","","","","","","","","","","","","","","","","","","","","","","","","","","","","","","","","","","","","","","","","","","","","","","","","","","","","","","","","","","","","SYN07082445 32997 01801 10286 20268 30070 40122 333 10350 29083 55099 59014=","","","","","","","","","",""
"82445099999","2021-05-12T08:00:00","-4.2666666","-55.9833333","45.0","ITAITUBA, BR","FM-12","4","","77","80","","","","9","90","FEW:02 26","29.98","29.82","12.43","78","000","","0","","","","","","","","","","","","","","","","","","","","","","","","","","","","","","","","","","","","","","","","","","","","","","","","","","","","","","","","","","","","","","","","","","","","","","","","","","","","","","","","","","","","","","","","","","","SYN07682445 21598 40000 10269 20252 30099 40151 70352 82241 333 20249 59003 69924=","","","","","","","","","",""
"82445099999","2021-05-12T14:00:00","-4.2666666","-55.9833333","45.0","ITAITUBA, BR","FM-12","4","","80","89","","||TS","","9","76","SCT:03 41","29.89","29.74","6.21","82","180","","2","","","","","","","","","","","","","","","","","","","","","","","","","","","","","","","","","","","","","","","","","","","","","","","","","","","","","","","","","","","","","","","","","","","","","","","","","","","","","","","","","","","","","","","","","","","SYN06482445 31697 71802 10316 20268 30070 40122 71722 83570 333 58007=","","","","","","","","","",""
"82445099999","2021-05-12T20:00:00","-4.2666666","-55.9833333","45.0","ITAITUBA, BR","FM-12","4","","77","80","","","","","92","SCT:04 41","29.95","29.80","12.43","78","000","","0","","","","","","","","","","","","","","","","","","","","","","","","","","","","","","","","","","","","","","","","","","","","","","","","","","","","","","","","","","","","","","","","","","","","","","","","","","","","","","","","","","","","","","","","","","","SYN08882445 21698 80000 10266 20252 30090 40142 70265 8452/ 333 10340 29088 55052 58020 60101=","","","","","","","","","",""
"82445099999","2021-05-13T08:00:00","-4.2666666","-55.9833333","45.0","ITAITUBA, BR","FM-12","4","","76","78","","","","9","96","SCT:03 41","30.00","29.84","6.21","77","000","","0","","","","","","","","","","","","","","","","","","","","","","","","","","","","","","","","","","","","","","","","","","","","","","","","","","","","","","","","","","","","","","","","","","","","","","","","","","","","","","","","","","","","","","","","","","","SYN07082445 22697 70000 10254 20247 30106 40158 83520 333 20243 58007 60104=","","","","","","","","","",""
"82445099999","2021-05-13T14:00:00","-4.2666666","-55.9833333","45.0","ITAITUBA, BR","FM-12","4","","76","88","","","","9","67","SCT:03 26","29.91","29.75","12.43","79","180","","1","","","","","","","","","","","","","","","","","","","","","","","","","","","","","","","","","","","","","","","","","","","","","","","","","","","","","","","","","","","","","","","","","","","","","","","","","","","","","","","","","","","","","","","","","","","SYN05882445 32598 61801 10312 20243 30076 40128 83235 333 58006=","","","","","","","","","",""
"82445099999","2021-05-13T20:00:00","-4.2666666","-55.9833333","45.0","ITAITUBA, BR","FM-12","4","","79","83","","","","","86","","29.92","29.77","6.21","80","000","","0","","","","","","","","","","","","","","","","","","","","","","","","","","","","","","","","","","","","","","","","","","","","","","","","","","","","","","","","","","","","","","","","","","","","","","","","","","","","","","","","","","","","","","","","","","","SYN07082445 32997 00000 10286 20260 30080 40132 333 10344 29084 55070 59010=","","","","","","","","","",""
"82445099999","2021-05-14T08:00:00","-4.2666666","-55.9833333","45.0","ITAITUBA, BR","FM-12","4","","77","80","","","","9","89","FEW:02 26","30.00","29.85","12.43","78","230","","1","","","","","","","","","","","","","","","","","","","","","","","","","","","","","","","","","","","","","","","","","","","","","","","","","","","","","","","","","","","","","","","","","","","","","","","","","","","","","","","","","","","","","","","","","","","SYN06482445 32598 62301 10267 20248 30107 40159 82245 333 20241 58001=","","","","","","","","","",""
"82445099999","2021-05-14T14:00:00","-4.2666666","-55.9833333","45.0","ITAITUBA, BR","FM-12","4","","78","93","","","","9","63","FEW:02 26","29.90","29.74","12.43","82","360","","2","","","","","","","","","","","","","","","","","","","","","","","","","","","","","","","","","","","","","","","","","","","","","","","","","","","","","","","","","","","","","","","","","","","","","","","","","","","","","","","","","","","","","","","","","","","SYN05882445 32598 33602 10337 20258 30072 40124 82202 333 59004=","","","","","","","","","",""
"82445099999","2021-05-14T20:00:00","-4.2666666","-55.9833333","45.0","ITAITUBA, BR","FM-12","4","","78","82","","","","","86","BKN:05 41","29.92","29.76","2.49","79","360","","2","","","","","","","","","","","","","","","","","","","","","","","","","","","","","","","","","","","","","","","","","","","","","","","","","","","","","","","","","","","","","","","","","","","","","","","","","","","","","","","","","","","","","","","","","","","SYN07682445 32696 63602 10280 20254 30079 40131 85530 333 10352 29081 55081 59001=","","","","","","","","","",""
"82445099999","2021-05-15T08:00:00","-4.2666666","-55.9833333","45.0","ITAITUBA, BR","FM-12","4","","78","83","","","","9","86","FEW:02 26","29.98","29.83","12.43","79","090","","2","","","","","","","","","","","","","","","","","","","","","","","","","","","","","","","","","","","","","","","","","","","","","","","","","","","","","","","","","","","","","","","","","","","","","","","","","","","","","","","","","","","","","","","","","","","SYN07082445 22598 40902 10282 20256 30102 40154 82101 333 20252 59005 69904=","","","","","","","","","",""
"82445099999","2021-05-15T14:00:00","-4.2666666","-55.9833333","45.0","ITAITUBA, BR","FM-12","4","","78","93","","","","9","63","FEW:02 26","29.87","29.71","12.43","82","090","","2","","","","","","","","","","","","","","","","","","","","","","","","","","","","","","","","","","","","","","","","","","","","","","","","","","","","","","","","","","","","","","","","","","","","","","","","","","","","","","","","","","","","","","","","","","","SYN05882445 32598 40902 10338 20258 30062 40114 82201 333 59010=","","","","","","","","","",""
"82445099999","2021-05-15T20:00:00","-4.2666666","-55.9833333","45.0","ITAITUBA, BR","FM-12","4","","82","87","","","","","87","BKN:05 15","29.91","29.75","2.49","83","000","","0","","","","","","","","","","","","","","","","","","","","","","","","","","","","","","","","","","","","","","","","","","","","","","","","","","","","","","","","","","","","","","","","","","","","","","","","","","","","","","","","","","","","","","","","","","","SYN07682445 32496 50000 10304 20280 30075 40127 85200 333 10361 29081 55105 59004=","","","","","","","","","",""
"82445099999","2021-05-16T08:00:00","-4.2666666","-55.9833333","45.0","ITAITUBA, BR","FM-12","4","","76","81","","","","9","82","FEW:02 26","29.99","29.83","12.43","77","090","","2","","","","","","","","","","","","","","","","","","","","","","","","","","","","","","","","","","","","","","","","","","","","","","","","","","","","","","","","","","","","","","","","","","","","","","","","","","","","","","","","","","","","","","","","","","","SYN06482445 32598 60902 10275 20242 30103 40155 82235 333 20253 58001=","","","","","","","","","",""
"82445099999","2021-05-16T14:00:00","-4.2666666","-55.9833333","45.0","ITAITUBA, BR","FM-12","4","","79","89","","","","9","73","FEW:02 41","29.91","29.76","12.43","82","050","","2","","","","","","","","","","","","","","","","","","","","","","","","","","","","","","","","","","","","","","","","","","","","","","","","","","","","","","","","","","","","","","","","","","","","","","","","","","","","","","","","","","","","","","","","","","","SYN05882445 32698 60502 10316 20262 30078 40130 82506 333 58016=","","","","","","","","","",""
"82445099999","2021-05-16T20:00:00","-4.2666666","-55.9833333","45.0","ITAITUBA, BR","FM-12","4","","81","84","","","","","90","SCT:04 26","29.94","29.78","1.24","82","000","","0","","","","","","","","","","","","","","","","","","","","","","","","","","","","","","","","","","","","","","","","","","","","","","","","","","","","","","","","","","","","","","","","","","","","","","","","","","","","","","","","","","","","","","","","","","","SYN07682445 32595 80000 10289 20270 30086 40138 8422/ 333 10330 29083 55034 58011=","","","","","","","","","",""
"82445099999","2021-05-17T08:00:00","-4.2666666","-55.9833333","45.0","ITAITUBA, BR","FM-12","4","","78","82","","","","9","88","FEW:02 41","29.94","29.85","2.49","79","000","","0","","","","","","","","","","","","","","","","","","","","","","","","","","","","","","","","","","","","","","","","","","","","","","","","","","","","","","","","","","","","","","","","","","","","","","","","","","","","","","","","","","","","","","","","","","","SYN06482445 32696 60000 10276 20254 30107 40139 82580 333 20257 58004=","","","","","","","","","",""
"82445099999","2021-05-17T14:00:00","-4.2666666","-55.9833333","45.0","ITAITUBA, BR","FM-12","4","","79","90","","","","9","70","SCT:03 26","29.90","29.75","1.24","82","050","","1","","","","","","","","","","","","","","","","","","","","","","","","","","","","","","","","","","","","","","","","","","","","","","","","","","","","","","","","","","","","","","","","","","","","","","","","","","","","","","","","","","","","","","","","","","","SYN07082445 21595 70501 10322 20260 30074 40126 71662 83270 333 59004 60061=","","","","","","","","","",""
"82445099999","2021-05-17T20:00:00","-4.2666666","-55.9833333","45.0","ITAITUBA, BR","FM-12","4","","78","81","","","","","92","SCT:03 26","29.97","29.81","2.49","79","000","","0","","","","","","","","","","","","","","","","","","","","","","","","","","","","","","","","","","","","","","","","","","","","","","","","","","","","","","","","","","","","","","","","","","","","","","","","","","","","","","","","","","","","","","","","","","","SYN08882445 21596 60000 10270 20256 30096 40148 72022 83580 333 10262 29086 55032 58010 69931=","","","","","","","","","",""
"82445099999","2021-05-18T08:00:00","-4.2666666","-55.9833333","45.0","ITAITUBA, BR","FM-12","4","","73","75","","","","9","94","BKN:05s","30.00","29.85","","74","150","","111s","","","","","","","","","","","","","","","","","","","","","","","","","","","","","","","","","","","","","","","","","","","","","","","","","","","","","","","","","","","","","","","","","","","","","","","","","","","","","","","","","","","","","","","","","","","SYN004BUFR","","","","","","","","","",""
"82445099999","2021-05-18T14:00:00","-4.2666666","-55.9833333","45.0","ITAITUBA, BR","FM-12","4","","77","90","","","","9","65","SCT:03 26","29.93","29.76","6.21","81","050","","2","","","","","","","","","","","","","","","","","","","","","","","","","","","","","","","","","","","","","","","","","","","","","","","","","","","","","","","","","","","","","","","","","","","","","","","","","","","","","","","","","","","","","","","","","","","SYN05882445 32597 60502 10324 20250 30079 40135 83250 333 58005=","","","","","","","","","",""
"82445099999","2021-05-18T20:00:00","-4.2666666","-55.9833333","45.0","ITAITUBA, BR","FM-12","4","","77","82","","","","","84","SCT:03 41","29.97","29.81","2.49","78","140","","1","","","","","","","","","","","","","","","","","","","","","","","","","","","","","","","","","","","","","","","","","","","","","","","","","","","","","","","","","","","","","","","","","","","","","","","","","","","","","","","","","","","","","","","","","","","SYN07682445 32696 61401 10277 20248 30096 40148 83570 333 10338 29082 55063 58000=","","","","","","","","","",""
"82445099999","2021-05-19T08:00:00","-4.2666666","-55.9833333","45.0","ITAITUBA, BR","FM-12","4","","78","80","","","","9","93","SCT:03 41","30.00","29.85","6.21","79","000","","0","","","","","","","","","","","","","","","","","","","","","","","","","","","","","","","","","","","","","","","","","","","","","","","","","","","","","","","","","","","","","","","","","","","","","","","","","","","","","","","","","","","","","","","","","","","SYN06482445 32697 50000 10266 20254 30108 40160 83502 333 20231 58000=","","","","","","","","","",""
"82445099999","2021-05-19T14:00:00","-4.2666666","-55.9833333","45.0","ITAITUBA, BR","FM-12","4","","76","93","","","","9","58","FEW:02 26","29.88","29.73","12.43","81","090","","7","","","","","","","","","","","","","","","","","","","","","","","","","","","","","","","","","","","","","","","","","","","","","","","","","","","","","","","","","","","","","","","","","","","","","","","","","","","","","","","","","","","","","","","","","","","SYN05882445 32598 60906 10338 20244 30067 40119 82252 333 59012=","","","","","","","","","",""
"82445099999","2021-05-19T20:00:00","-4.2666666","-55.9833333","45.0","ITAITUBA, BR","FM-12","4","","79","83","","","","","87","BKN:06 74","29.94","29.79","2.49","80","230","","1","","","","","","","","","","","","","","","","","","","","","","","","","","","","","","","","","","","","","","","","","","","","","","","","","","","","","","","","","","","","","","","","","","","","","","","","","","","","","","","","","","","","","","","","","","","SYN07682445 32896 62301 10284 20260 30087 40139 86070 333 10348 29081 55090 59009=","","","","","","","","","",""
"82445099999","2021-05-20T08:00:00","-4.2666666","-55.9833333","45.0","ITAITUBA, BR","FM-12","4","","77","80","","","","9","91","FEW:01 26","29.96","29.81","12.43","78","180","","1","","","","","","","","","","","","","","","","","","","","","","","","","","","","","","","","","","","","","","","","","","","","","","","","","","","","","","","","","","","","","","","","","","","","","","","","","","","","","","","","","","","","","","","","","","","SYN07682445 21598 51801 10264 20248 30094 40146 70351 81102 333 20247 59014 69914=","","","","","","","","","",""
"82445099999","2021-05-20T14:00:00","-4.2666666","-55.9833333","45.0","ITAITUBA, BR","FM-12","4","","77","92","","","","9","62","SCT:03 26","29.88","29.72","12.43","81","090","","5","","","","","","","","","","","","","","","","","","","","","","","","","","","","","","","","","","","","","","","","","","","","","","","","","","","","","","","","","","","","","","","","","","","","","","","","","","","","","","","","","","","","","","","","","","","SYN05882445 32598 50904 10332 20249 30066 40118 83201 333 59001=","","","","","","","","","",""
"82445099999","2021-05-20T20:00:00","-4.2666666","-55.9833333","45.0","ITAITUBA, BR","FM-12","4","","76","83","","","","","79","SCT:03 26","29.92","29.77","1.24","78","000","","0","","","","","","","","","","","","","","","","","","","","","","","","","","","","","","","","","","","","","","","","","","","","","","","","","","","","","","","","","","","","","","","","","","","","","","","","","","","","","","","","","","","","","","","","","","","SYN07682445 32595 80000 10284 20245 30080 40132 8357/ 333 10348 29083 55085 59007=","","","","","","","","","",""
"82445099999","2021-05-21T08:00:00","-4.2666666","-55.9833333","45.0","ITAITUBA, BR","FM-12","4","","78","81","","","","9","92","SCT:03 26","29.93","29.78","1.24","79","000","","0","","","","","","","","","","","","","","","","","","","","","","","","","","","","","","","","","","","","","","","","","","","","","","","","","","","","","","","","","","","","","","","","","","","","","","","","","","","","","","","","","","","","","","","","","","","SYN06482445 32595 40000 10270 20256 30084 40136 83101 333 20253 59010=","","","","","","","","","",""
"82445099999","2021-05-21T14:00:00","-4.2666666","-55.9833333","45.0","ITAITUBA, BR","FM-12","4","","78","93","","","","9","63","SCT:03 26","29.87","29.71","12.43","82","050","","5","","","","","","","","","","","","","","","","","","","","","","","","","","","","","","","","","","","","","","","","","","","","","","","","","","","","","","","","","","","","","","","","","","","","","","","","","","","","","","","","","","","","","","","","","","","SYN05882445 32598 50504 10338 20258 30062 40114 83201 333 59004=","","","","","","","","","",""
"82445099999","2021-05-21T20:00:00","-4.2666666","-55.9833333","45.0","ITAITUBA, BR","FM-12","4","","77","83","","","","","83","FEW:02 41","29.88","29.73","6.21","79","090","","2","","","","","","","","","","","","","","","","","","","","","","","","","","","","","","","","","","","","","","","","","","","","","","","","","","","","","","","","","","","","","","","","","","","","","","","","","","","","","","","","","","","","","","","","","","","SYN07682445 32697 60902 10284 20252 30068 40120 82551 333 10353 29080 55086 59012=","","","","","","","","","",""
"82445099999","2021-05-22T08:00:00","-4.2666666","-55.9833333","45.0","ITAITUBA, BR","FM-12","4","","79","81","","","","9","94","FEW:02 26","29.96","29.81","12.43","80","050","","5","","","","","","","","","","","","","","","","","","","","","","","","","","","","","","","","","","","","","","","","","","","","","","","","","","","","","","","","","","","","","","","","","","","","","","","","","","","","","","","","","","","","","","","","","","","SYN06482445 32598 50504 10274 20263 30094 40146 82246 333 20251 58010=","","","","","","","","","",""
"82445099999","2021-05-22T14:00:00","-4.2666666","-55.9833333","45.0","ITAITUBA, BR","FM-12","4","","79","90","","","","9","70","SCT:03 41","29.87","29.72","6.21","82","050","","8","","","","","","","","","","","","","","","","","","","","","","","","","","","","","","","","","","","","","","","","","","","","","","","","","","","","","","","","","","","","","","","","","","","","","","","","","","","","","","","","","","","","","","","","","","","SYN05882445 32697 60507 10324 20262 30064 40116 83560 333 58002=","","","","","","","","","",""
"82445099999","2021-05-22T20:00:00","-4.2666666","-55.9833333","45.0","ITAITUBA, BR","FM-12","4","","80","84","","","","","88","","29.88","29.73","6.21","81","000","","0","","","","","","","","","","","","","","","","","","","","","","","","","","","","","","","","","","","","","","","","","","","","","","","","","","","","","","","","","","","","","","","","","","","","","","","","","","","","","","","","","","","","","","","","","","","SYN07682445 32997 40000 10288 20266 30068 40120 80005 333 10334 29085 55058 58000=","","","","","","","","","",""
"82445099999","2021-05-23T08:00:00","-4.2666666","-55.9833333","45.0","ITAITUBA, BR","FM-12","4","","76","83","","","","9","80","FEW:01","29.96","29.81","31.07","78","140","","1","","","","","","","","","","","","","","","","","","","","","","","","","","","","","","","","","","","","","","","","","","","","","","","","","","","","","","","","","","","","","","","","","","","","","","","","","","","","","","","","","","","","","","","","","","","SYN06482445 32999 31401 10281 20244 30094 40146 81146 333 20253 58000=","","","","","","","","","",""
"82445099999","2021-05-23T14:00:00","-4.2666666","-55.9833333","45.0","ITAITUBA, BR","FM-12","4","","77","94","","","","9","59","FEW:02 26","29.88","29.73","31.07","81","050","","8","","","","","","","","","","","","","","","","","","","","","","","","","","","","","","","","","","","","","","","","","","","","","","","","","","","","","","","","","","","","","","","","","","","","","","","","","","","","","","","","","","","","","","","","","","","SYN05882445 32599 30507 10344 20252 30067 40118 82205 333 58003=","","","","","","","","","",""
"82445099999","2021-05-23T20:00:00","-4.2666666","-55.9833333","45.0","ITAITUBA, BR","FM-12","4","","81","87","","","","","81","FEW:01 26","29.88","29.73","6.21","83","000","","0","","","","","","","","","","","","","","","","","","","","","","","","","","","","","","","","","","","","","","","","","","","","","","","","","","","","","","","","","","","","","","","","","","","","","","","","","","","","","","","","","","","","","","","","","","","SYN07682445 32597 40000 10306 20270 30068 40120 81105 333 10356 29076 55104 58000=","","","","","","","","","",""
"82445099999","2021-05-24T08:00:00","-4.2666666","-55.9833333","45.0","ITAITUBA, BR","FM-12","4","","78","81","","","","9","89","FEW:02 26","29.98","29.83","6.21","79","230","","1","","","","","","","","","","","","","","","","","","","","","","","","","","","","","","","","","","","","","","","","","","","","","","","","","","","","","","","","","","","","","","","","","","","","","","","","","","","","","","","","","","","","","","","","","","","SYN06482445 32597 62301 10274 20254 30100 40152 82230 333 20232 58006=","","","","","","","","","",""
"82445099999","2021-05-24T14:00:00","-4.2666666","-55.9833333","45.0","ITAITUBA, BR","FM-12","4","","79","88","","","","9","75","SCT:03 41","29.88","29.72","6.21","81","050","","2","","","","","","","","","","","","","","","","","","","","","","","","","","","","","","","","","","","","","","","","","","","","","","","","","","","","","","","","","","","","","","","","","","","","","","","","","","","","","","","","","","","","","","","","","","","SYN05882445 32697 60502 10312 20262 30066 40118 83531 333 59001=","","","","","","","","","",""
"82445099999","2021-05-24T20:00:00","-4.2666666","-55.9833333","45.0","ITAITUBA, BR","FM-12","4","","79","83","","","","","86","FEW:02 26","29.93","29.78","6.21","80","000","","0","","","","","","","","","","","","","","","","","","","","","","","","","","","","","","","","","","","","","","","","","","","","","","","","","","","","","","","","","","","","","","","","","","","","","","","","","","","","","","","","","","","","","","","","","","","SYN08882445 21597 50000 10286 20260 30083 40135 70352 82232 333 10346 29084 55072 58015 69911=","","","","","","","","","",""
"82445099999","2021-05-25T08:00:00","-4.2666666","-55.9833333","45.0","ITAITUBA, BR","FM-12","4","","78","81","","","","9","91","BKN:07 41","29.97","29.82","6.21","79","000","","0","","","","","","","","","","","","","","","","","","","","","","","","","","","","","","","","","","","","","","","","","","","","","","","","","","","","","","","","","","","","","","","","","","","","","","","","","","","","","","","","","","","","","","","","","","","SYN06482445 32697 70000 10272 20256 30098 40150 87500 333 20251 59002=","","","","","","","","","",""
"82445099999","2021-05-25T14:00:00","-4.2666666","-55.9833333","45.0","ITAITUBA, BR","FM-12","4","","80","95","","","","9","62","SCT:04 26","29.87","29.72","2.49","84","090","","2","","","","","","","","","","","","","","","","","","","","","","","","","","","","","","","","","","","","","","","","","","","","","","","","","","","","","","","","","","","","","","","","","","","","","","","","","","","","","","","","","","","","","","","","","","","SYN05882445 32596 60902 10348 20264 30064 40116 84201 333 59002=","","","","","","","","","",""
"82445099999","2021-05-25T20:00:00","-4.2666666","-55.9833333","45.0","ITAITUBA, BR","FM-12","4","","79","86","","","","","79","FEW:02 41","29.93","29.78","6.21","81","000","","0","","","","","","","","","","","","","","","","","","","","","","","","","","","","","","","","","","","","","","","","","","","","","","","","","","","","","","","","","","","","","","","","","","","","","","","","","","","","","","","","","","","","","","","","","","","SYN07682445 32697 40000 10302 20261 30084 40136 82051 333 10358 29078 55087 58001=","","","","","","","","","",""
"82445099999","2021-05-26T08:00:00","-4.2666666","-55.9833333","45.0","ITAITUBA, BR","FM-12","4","","76","83","","","","9","81","SCT:03 26","29.98","29.83","12.43","78","000","","0","","","","","","","","","","","","","","","","","","","","","","","","","","","","","","","","","","","","","","","","","","","","","","","","","","","","","","","","","","","","","","","","","","","","","","","","","","","","","","","","","","","","","","","","","","","SYN06482445 32598 30000 10282 20246 30100 40152 83100 333 20239 58002=","","","","","","","","","",""
"82445099999","2021-05-26T14:00:00","-4.2666666","-55.9833333","45.0","ITAITUBA, BR","FM-12","4","","77","95","","||FU","","9","57","BKN:05 26","29.87","29.72","6.21","82","180","","2","","","","","","","","","","","","","","","","","","","","","","","","","","","","","","","","","","","","","","","","","","","","","","","","","","","","","","","","","","","","","","","","","","","","","","","","","","","","","","","","","","","","","","","","","","","SYN06482445 31597 51802 10350 20252 30064 40116 70411 85200 333 58000=","","","","","","","","","",""
"82445099999","2021-05-26T20:00:00","-4.2666666","-55.9833333","45.0","ITAITUBA, BR","FM-12","4","","81","87","","","","","85","FEW:02 74","29.92","29.76","6.21","83","000","","0","","","","","","","","","","","","","","","","","","","","","","","","","","","","","","","","","","","","","","","","","","","","","","","","","","","","","","","","","","","","","","","","","","","","","","","","","","","","","","","","","","","","","","","","","","","SYN07682445 32897 20000 10303 20274 30079 40131 82050 333 10366 29077 55104 59005=","","","","","","","","","",""
"82445099999","2021-05-27T14:00:00","-4.2666666","-55.9833333","45.0","ITAITUBA, BR","FM-12","4","","80","96","","","","","60","SCT:03 26","29.87","29.72","12.43","84","230","","2","","","","","","","","","","","","","","","","","","","","","","","","","","","","","","","","","","","","","","","","","","","","","","","","","","","","","","","","","","","","","","","","","","","","","","","","","","","","","","","","","","","","","","","","","","","SYN05882445 32598 32302 10354 20264 30064 40115 83200 333 58091=","","","","","","","","","",""
"82445099999","2021-05-27T20:00:00","-4.2666666","-55.9833333","45.0","ITAITUBA, BR","FM-12","4","","80","85","","","","","85","FEW:01","29.90","29.74","6.21","81","000","","0","","","","","","","","","","","","","","","","","","","","","","","","","","","","","","","","","","","","","","","","","","","","","","","","","","","","","","","","","","","","","","","","","","","","","","","","","","","","","","","","","","","","","","","","","","","SYN07682445 32997 10000 10294 20266 30072 40124 81040 333 10375 29079 55101 59007=","","","","","","","","","",""
"82445099999","2021-05-28T08:00:00","-4.2666666","-55.9833333","45.0","ITAITUBA, BR","FM-12","4","","78","83","","","","9","85","FEW:01","29.95","29.80","31.07","79","180","","1","","","","","","","","","","","","","","","","","","","","","","","","","","","","","","","","","","","","","","","","","","","","","","","","","","","","","","","","","","","","","","","","","","","","","","","","","","","","","","","","","","","","","","","","","","","SYN06482445 32999 11801 10282 20254 30090 40142 81040 333 20230 59013=","","","","","","","","","",""
"82445099999","2021-05-28T14:00:00","-4.2666666","-55.9833333","45.0","ITAITUBA, BR","FM-12","4","","74","93","","","","9","55","FEW:02 26","29.87","29.71","31.07","79","090","","5","","","","","","","","","","","","","","","","","","","","","","","","","","","","","","","","","","","","","","","","","","","","","","","","","","","","","","","","","","","","","","","","","","","","","","","","","","","","","","","","","","","","","","","","","","","SYN05882445 32599 20904 10338 20235 30062 40114 82200 333 59002=","","","","","","","","","",""
"82445099999","2021-05-28T20:00:00","-4.2666666","-55.9833333","45.0","ITAITUBA, BR","FM-12","4","","79","85","","","","","81","FEW:01 26","29.88","29.73","6.21","81","000","","0","","","","","","","","","","","","","","","","","","","","","","","","","","","","","","","","","","","","","","","","","","","","","","","","","","","","","","","","","","","","","","","","","","","","","","","","","","","","","","","","","","","","","","","","","","","SYN07682445 32597 10000 10295 20260 30067 40119 81200 333 10354 29076 55105 58003=","","","","","","","","","",""
"82445099999","2021-05-29T08:00:00","-4.2666666","-55.9833333","45.0","ITAITUBA, BR","FM-12","4","","78","82","","","","9","89","SCT:03 41","29.94","29.79","6.21","79","000","","0","","","","","","","","","","","","","","","","","","","","","","","","","","","","","","","","","","","","","","","","","","","","","","","","","","","","","","","","","","","","","","","","","","","","","","","","","","","","","","","","","","","","","","","","","","","SYN06482445 32697 70000 10276 20256 30087 40139 83530 333 20244 59003=","","","","","","","","","",""
"82445099999","2021-05-29T14:00:00","-4.2666666","-55.9833333","45.0","ITAITUBA, BR","FM-12","4","","77","88","","||TS","","9","70","SCT:03 41","29.89","29.74","6.21","80","140","","2","","","","","","","","","","","","","","","","","","","","","","","","","","","","","","","","","","","","","","","","","","","","","","","","","","","","","","","","","","","","","","","","","","","","","","","","","","","","","","","","","","","","","","","","","","","SYN06482445 31697 71402 10312 20251 30070 40122 71722 83570 333 58008=","","","","","","","","","",""
"82445099999","2021-05-29T20:00:00","-4.2666666","-55.9833333","45.0","ITAITUBA, BR","FM-12","4","","78","81","","","","","91","FEW:02 41","29.92","29.76","2.49","79","000","","0","","","","","","","","","","","","","","","","","","","","","","","","","","","","","","","","","","","","","","","","","","","","","","","","","","","","","","","","","","","","","","","","","","","","","","","","","","","","","","","","","","","","","","","","","","","SYN08882445 21696 40000 10272 20256 30079 40131 70352 82530 333 10336 29085 55006 58012 69921=","","","","","","","","","",""
"82445099999","2021-05-30T08:00:00","-4.2666666","-55.9833333","45.0","ITAITUBA, BR","FM-12","4","","77","80","","","","9","89","FEW:01 15","29.97","29.82","31.07","78","230","","1","","","","","","","","","","","","","","","","","","","","","","","","","","","","","","","","","","","","","","","","","","","","","","","","","","","","","","","","","","","","","","","","","","","","","","","","","","","","","","","","","","","","","","","","","","","SYN07082445 22499 12301 10268 20248 30098 40150 81100 333 20231 58011 69924=","","","","","","","","","",""
"82445099999","2021-05-30T14:00:00","-4.2666666","-55.9833333","45.0","ITAITUBA, BR","FM-12","4","","77","88","","||TS","","9","70","SCT:03 41","29.89","29.74","6.21","80","140","","2","","","","","","","","","","","","","","","","","","","","","","","","","","","","","","","","","","","","","","","","","","","","","","","","","","","","","","","","","","","","","","","","","","","","","","","","","","","","","","","","","","","","","","","","","","","SYN06482445 31697 71402 10312 20251 30070 40122 71722 83570 333 58008=","","","","","","","","","",""
"82445099999","2021-05-30T20:00:00","-4.2666666","-55.9833333","45.0","ITAITUBA, BR","FM-12","4","","82","86","","","","","88","","29.91","29.75","6.21","83","000","","0","","","","","","","","","","","","","","","","","","","","","","","","","","","","","","","","","","","","","","","","","","","","","","","","","","","","","","","","","","","","","","","","","","","","","","","","","","","","","","","","","","","","","","","","","","","SYN07082445 32997 00000 10300 20278 30075 40127 333 10353 29083 55091 59004=","","","","","","","","","",""
"82445099999","2021-05-31T08:00:00","-4.2666666","-55.9833333","45.0","ITAITUBA, BR","FM-12","4","","77","82","","","","9","85","74","29.99","29.85","12.43","78","000","","0","","","","","","","","","","","","","","","","","","","","","","","","","","","","","","","","","","","","","","","","","","","","","","","","","","","","","","","","","","","","","","","","","","","","","","","","","","","","","","","","","","","","","","","","","","","SYN07082445 21898 20000 10276 20248 30107 40157 80250 333 20253 58009 69934=","","","","","","","","","",""
"82445099999","2021-05-31T14:00:00","-4.2666666","-55.9833333","45.0","ITAITUBA, BR","FM-12","4","","72","95","","","","9","47","BKN:06 26","29.99","29.83","12.43","79","000","","0","","","","","","","","","","","","","","","","","","","","","","","","","","","","","","","","","","","","","","","","","","","","","","","","","","","","","","","","","","","","","","","","","","","","","","","","","","","","","","","","","","","","","","","","","","","SYN05882445 32598 60000 10350 20220 30103 40155 86200 333 58032=","","","","","","","","","",""
"82445099999","2021-05-31T20:00:00","-4.2666666","-55.9833333","45.0","ITAITUBA, BR","FM-12","4","","81","87","","","","","83","","29.89","29.74","6.21","83","000","","0","","","","","","","","","","","","","","","","","","","","","","","","","","","","","","","","","","","","","","","","","","","","","","","","","","","","","","","","","","","","","","","","","","","","","","","","","","","","","","","","","","","","","","","","","","","SYN07082445 32997 00000 10306 20274 30071 40123 333 10363 29074 55/// 59004=","","","","","","","","","",""
"82445099999","2021-06-01T08:00:00","-4.2666666","-55.9833333","45.0","ITAITUBA, BR","FM-12","4","","78","81","","","","9","91","SCT:03 74","29.96","29.80","12.43","79","000","","0","","","","","","","","","","","","","","","","","","","","","","","","","","","","","","","","","","","","","","","","","","","","","","","","","","","","","","","","","","","","","","","","","","","","","","","","","","","","","","","","","","","","","","","","","","","SYN06482445 32898 60000 10272 20256 30092 40144 83051 333 20240 59015=","","","","","","","","","",""
"82445099999","2021-06-01T14:00:00","-4.2666666","-55.9833333","45.0","ITAITUBA, BR","FM-12","4","","77","92","","","","9","60","BKN:05 26","29.84","29.70","12.43","81","140","","1","","","","","","","","","","","","","","","","","","","","","","","","","","","","","","","","","","","","","","","","","","","","","","","","","","","","","","","","","","","","","","","","","","","","","","","","","","","","","","","","","","","","","","","","","","","SYN05882445 32598 61401 10336 20248 30058 40104 85201 333 59014=","","","","","","","","","",""
"82445099999","2021-06-01T20:00:00","-4.2666666","-55.9833333","45.0","ITAITUBA, BR","FM-12","4","","80","87","","","","","82","SCT:04 74","29.88","29.73","2.49","82","000","","0","","","","","","","","","","","","","","","","","","","","","","","","","","","","","","","","","","","","","","","","","","","","","","","","","","","","","","","","","","","","","","","","","","","","","","","","","","","","","","","","","","","","","","","","","","","SYN07682445 32896 40000 10303 20268 30068 40120 84050 333 10358 29079 55082 59003=","","","","","","","","","",""
"82445099999","2021-06-02T08:00:00","-4.2666666","-55.9833333","45.0","ITAITUBA, BR","FM-12","4","","77","82","","","","9","86","FEW:02 26","29.94","29.79","6.21","78","000","","0","","","","","","","","","","","","","","","","","","","","","","","","","","","","","","","","","","","","","","","","","","","","","","","","","","","","","","","","","","","","","","","","","","","","","","","","","","","","","","","","","","","","","","","","","","","SYN06482445 32597 60000 10278 20252 30088 40140 82151 333 20249 59004=","","","","","","","","","",""
"82445099999","2021-06-02T14:00:00","-4.2666666","-55.9833333","45.0","ITAITUBA, BR","FM-12","4","","76","94","","","","9","57","SCT:03 26","29.85","29.70","6.21","81","320","","5","","","","","","","","","","","","","","","","","","","","","","","","","","","","","","","","","","","","","","","","","","","","","","","","","","","","","","","","","","","","","","","","","","","","","","","","","","","","","","","","","","","","","","","","","","","SYN05882445 32597 63204 10342 20245 30056 40108 83201 333 58000=","","","","","","","","","",""
"82445099999","2021-06-02T20:00:00","-4.2666666","-55.9833333","45.0","ITAITUBA, BR","FM-12","4","","80","86","","","","","84","SCT:03 26","29.90","29.75","2.49","82","000","","0","","","","","","","","","","","","","","","","","","","","","","","","","","","","","","","","","","","","","","","","","","","","","","","","","","","","","","","","","","","","","","","","","","","","","","","","","","","","","","","","","","","","","","","","","","","SYN07682445 32596 50000 10298 20268 30074 40126 83550 333 10358 29080 55094 58006=","","","","","","","","","",""
"82445099999","2021-06-03T08:00:00","-4.2666666","-55.9833333","45.0","ITAITUBA, BR","FM-12","4","","78","81","","","","9","92","SCT:03 41","29.90","29.75","6.21","79","000","","0","","","","","","","","","","","","","","","","","","","","","","","","","","","","","","","","","","","","","","","","","","","","","","","","","","","","","","","","","","","","","","","","","","","","","","","","","","","","","","","","","","","","","","","","","","","SYN07682445 21697 70000 10270 20256 30074 40126 70261 83580 333 20244 59014 60034=","","","","","","","","","",""
"82445099999","2021-06-03T14:00:00","-4.2666666","-55.9833333","45.0","ITAITUBA, BR","FM-12","4","","75","84","","||SHRA","","9","74","SCT:04 26","29.85","29.69","1.24","78","050","","7","","","","","","","","","","","","","","","","","","","","","","","","","","","","","","","","","","","","","","","","","","","","","","","","","","","","","","","","","","","","","","","","","","","","","","","","","","","","","","","","","","","","","","","","","","","SYN07082445 21595 70506 10290 20239 30055 40107 78162 84380 333 59001 60041=","","","","","","","","","",""
"82445099999","2021-06-03T20:00:00","-4.2666666","-55.9833333","45.0","ITAITUBA, BR","FM-12","4","","78","80","","","","","94","SCT:04 15","29.93","29.78","1.24","79","000","","0","","","","","","","","","","","","","","","","","","","","","","","","","","","","","","","","","","","","","","","","","","","","","","","","","","","","","","","","","","","","","","","","","","","","","","","","","","","","","","","","","","","","","","","","","","","SYN08882445 21495 80000 10264 20254 30083 40135 70266 8477/ 333 10343 29088 55062 58009 60031=","","","","","","","","","",""
"82445099999","2021-06-04T08:00:00","-4.2666666","-55.9833333","45.0","ITAITUBA, BR","FM-12","4","","78","82","","","","9","90","BKN:06 15","30.01","29.86","6.21","79","000","","0","","","","","","","","","","","","","","","","","","","","","","","","","","","","","","","","","","","","","","","","","","","","","","","","","","","","","","","","","","","","","","","","","","","","","","","","","","","","","","","","","","","","","","","","","","","SYN07682445 21497 70000 10276 20258 30111 40163 70352 86751 333 20241 58037 60074=","","","","","","","","","",""
"82445099999","2021-06-04T14:00:00","-4.2666666","-55.9833333","45.0","ITAITUBA, BR","FM-12","4","","78","92","","","","9","65","SCT:03 26","29.90","29.75","12.43","82","090","","3","","","","","","","","","","","","","","","","","","","","","","","","","","","","","","","","","","","","","","","","","","","","","","","","","","","","","","","","","","","","","","","","","","","","","","","","","","","","","","","","","","","","","","","","","","","SYN05882445 32598 40903 10332 20257 30074 40126 83206 333 58019=","","","","","","","","","",""
"82445099999","2021-06-04T20:00:00","-4.2666666","-55.9833333","45.0","ITAITUBA, BR","FM-12","4","","77","83","","","","","83","SCT:04 26","29.92","29.77","2.49","79","000","","0","","","","","","","","","","","","","","","","","","","","","","","","","","","","","","","","","","","","","","","","","","","","","","","","","","","","","","","","","","","","","","","","","","","","","","","","","","","","","","","","","","","","","","","","","","","SYN07682445 32596 40000 10284 20252 30080 40132 84200 333 10350 29080 55089 59003=","","","","","","","","","",""
"82445099999","2021-06-05T08:00:00","-4.2666666","-55.9833333","45.0","ITAITUBA, BR","FM-12","4","","77","83","","","","9","82","FEW:01 26","29.98","29.83","31.07","79","050","","1","","","","","","","","","","","","","","","","","","","","","","","","","","","","","","","","","","","","","","","","","","","","","","","","","","","","","","","","","","","","","","","","","","","","","","","","","","","","","","","","","","","","","","","","","","","SYN06482445 32599 20501 10284 20250 30100 40152 81101 333 20243 59011=","","","","","","","","","",""
"82445099999","2021-06-05T14:00:00","-4.2666666","-55.9833333","45.0","ITAITUBA, BR","FM-12","4","","78","92","","","","9","63","SCT:03 26","29.88","29.72","12.43","82","050","","5","","","","","","","","","","","","","","","","","","","","","","","","","","","","","","","","","","","","","","","","","","","","","","","","","","","","","","","","","","","","","","","","","","","","","","","","","","","","","","","","","","","","","","","","","","","SYN05882445 32598 40504 10336 20256 30066 40118 83236 333 59008=","","","","","","","","","",""
"82445099999","2021-06-05T20:00:00","-4.2666666","-55.9833333","45.0","ITAITUBA, BR","FM-12","4","","77","81","","","","","87","BKN:05 41","29.93","29.78","1.24","78","000","","0","","","","","","","","","","","","","","","","","","","","","","","","","","","","","","","","","","","","","","","","","","","","","","","","","","","","","","","","","","","","","","","","","","","","","","","","","","","","","","","","","","","","","","","","","","","SYN08882445 21695 80000 10274 20250 30084 40136 70296 8552/ 333 10347 29080 55098 59004 60021=","","","","","","","","","",""
"82445099999","2021-06-06T08:00:00","-4.2666666","-55.9833333","45.0","ITAITUBA, BR","FM-12","4","","77","81","","","","9","89","FEW:01 26","29.96","29.80","12.43","78","000","","0","","","","","","","","","","","","","","","","","","","","","","","","","","","","","","","","","","","","","","","","","","","","","","","","","","","","","","","","","","","","","","","","","","","","","","","","","","","","","","","","","","","","","","","","","","","SYN07082445 22598 50000 10270 20250 30092 40144 81102 333 20233 59008 60024=","","","","","","","","","",""
"82445099999","2021-06-06T14:00:00","-4.2666666","-55.9833333","45.0","ITAITUBA, BR","FM-12","4","","78","92","","","","9","64","SCT:03 26","29.86","29.71","12.43","82","050","","2","","","","","","","","","","","","","","","","","","","","","","","","","","","","","","","","","","","","","","","","","","","","","","","","","","","","","","","","","","","","","","","","","","","","","","","","","","","","","","","","","","","","","","","","","","","SYN05882445 32598 40502 10336 20258 30060 40112 83201 333 59006=","","","","","","","","","",""
"82445099999","2021-06-06T20:00:00","-4.2666666","-55.9833333","45.0","ITAITUBA, BR","FM-12","4","","78","82","","","","","88","SCT:03 41","29.88","29.73","2.49","79","000","","0","","","","","","","","","","","","","","","","","","","","","","","","","","","","","","","","","","","","","","","","","","","","","","","","","","","","","","","","","","","","","","","","","","","","","","","","","","","","","","","","","","","","","","","","","","","SYN07682445 32696 70000 10279 20258 30067 40119 83530 333 10342 29082 55073 59017=","","","","","","","","","",""
"82445099999","2021-06-07T08:00:00","-4.2666666","-55.9833333","45.0","ITAITUBA, BR","FM-12","4","","75","80","","","","9","86","BKN:06 26","29.94","29.79","2.49","77","000","","0","","","","","","","","","","","","","","","","","","","","","","","","","","","","","","","","","","","","","","","","","","","","","","","","","","","","","","","","","","","","","","","","","","","","","","","","","","","","","","","","","","","","","","","","","","","SYN07082445 31596 80000 10264 20239 30087 40139 71622 8627/ 333 20237 59005=","","","","","","","","","",""
"82445099999","2021-06-07T14:00:00","-4.2666666","-55.9833333","45.0","ITAITUBA, BR","FM-12","4","","79","91","","","","9","69","SCT:03 26","29.89","29.74","6.21","82","050","","5","","","","","","","","","","","","","","","","","","","","","","","","","","","","","","","","","","","","","","","","","","","","","","","","","","","","","","","","","","","","","","","","","","","","","","","","","","","","","","","","","","","","","","","","","","","SYN05882445 32597 80504 10326 20262 30071 40123 83271 333 58004=","","","","","","","","","",""
"82445099999","2021-06-07T20:00:00","-4.2666666","-55.9833333","45.0","ITAITUBA, BR","FM-12","4","","82","83","","","","","95","OVC:08 74","29.89","29.75","2.49","82","000","","0","","","","","","","","","","","","","","","","","","","","","","","","","","","","","","","","","","","","","","","","","","","","","","","","","","","","","","","","","","","","","","","","","","","","","","","","","","","","","","","","","","","","","","","","","","","SYN07682445 32896 80000 10286 20277 30076 40122 8807/ 333 10247 29086 55044 58003=","","","","","","","","","",""
"82445099999","2021-06-08T08:00:00","-4.2666666","-55.9833333","45.0","ITAITUBA, BR","FM-12","4","","76","81","","","","9","86","SCT:03 26","29.96","29.81","6.21","77","360","","2","","","","","","","","","","","","","","","","","","","","","","","","","","","","","","","","","","","","","","","","","","","","","","","","","","","","","","","","","","","","","","","","","","","","","","","","","","","","","","","","","","","","","","","","","","","SYN06482445 32597 73602 10270 20245 30095 40147 83571 333 20239 58008=","","","","","","","","","",""
"82445099999","2021-06-08T14:00:00","-4.2666666","-55.9833333","45.0","ITAITUBA, BR","FM-12","4","","79","91","","","","9","67","SCT:03 26","29.86","29.70","6.21","82","320","","2","","","","","","","","","","","","","","","","","","","","","","","","","","","","","","","","","","","","","","","","","","","","","","","","","","","","","","","","","","","","","","","","","","","","","","","","","","","","","","","","","","","","","","","","","","","SYN05882445 32597 63202 10330 20260 30059 40111 83202 333 59012=","","","","","","","","","",""
"82445099999","2021-06-08T20:00:00","-4.2666666","-55.9833333","45.0","ITAITUBA, BR","FM-12","4","","84","86","","","","","94","SCT:03 41","29.88","29.73","2.49","84","000","","0","","","","","","","","","","","","","","","","","","","","","","","","","","","","","","","","","","","","","","","","","","","","","","","","","","","","","","","","","","","","","","","","","","","","","","","","","","","","","","","","","","","","","","","","","","","SYN07682445 32696 60000 10298 20287 30068 40120 83570 333 10348 29086 55083 59002=","","","","","","","","","",""
"82445099999","2021-06-09T08:00:00","-4.2666666","-55.9833333","45.0","ITAITUBA, BR","FM-12","4","","77","81","","","","9","90","OVC:08 74","29.97","29.81","6.21","78","000","","0","","","","","","","","","","","","","","","","","","","","","","","","","","","","","","","","","","","","","","","","","","","","","","","","","","","","","","","","","","","","","","","","","","","","","","","","","","","","","","","","","","","","","","","","","","","SYN06482445 32897 80000 10270 20252 30096 40148 8808/ 333 20247 58001=","","","","","","","","","",""
"82445099999","2021-06-09T14:00:00","-4.2666666","-55.9833333","45.0","ITAITUBA, BR","FM-12","4","","82","90","","","","9","75","SCT:03 26","29.87","29.71","6.21","84","230","","1","","","","","","","","","","","","","","","","","","","","","","","","","","","","","","","","","","","","","","","","","","","","","","","","","","","","","","","","","","","","","","","","","","","","","","","","","","","","","","","","","","","","","","","","","","","SYN05882445 32597 72301 10325 20276 30062 40114 83202 333 58003=","","","","","","","","","",""
"82445099999","2021-06-09T20:00:00","-4.2666666","-55.9833333","45.0","ITAITUBA, BR","FM-12","4","","79","84","","","","","86","SCT:03 41","29.91","29.76","2.49","80","000","","0","","","","","","","","","","","","","","","","","","","","","","","","","","","","","","","","","","","","","","","","","","","","","","","","","","","","","","","","","","","","","","","","","","","","","","","","","","","","","","","","","","","","","","","","","","","SYN07682445 32696 60000 10288 20262 30078 40130 83572 333 10342 29084 55027 58010=","","","","","","","","","",""
"82445099999","2021-06-10T08:00:00","-4.2666666","-55.9833333","45.0","ITAITUBA, BR","FM-12","4","","77","79","","","","9","93","SCT:04 41","29.99","29.84","2.49","78","260","","1","","","","","","","","","","","","","","","","","","","","","","","","","","","","","","","","","","","","","","","","","","","","","","","","","","","","","","","","","","","","","","","","","","","","","","","","","","","","","","","","","","","","","","","","","","","SYN07682445 21696 82601 10262 20250 30104 40156 70296 8457/ 333 20241 58008 60034=","","","","","","","","","",""
"82445099999","2021-06-10T14:00:00","-4.2666666","-55.9833333","45.0","ITAITUBA, BR","FM-12","4","","79","83","","","","9","87","SCT:03 41","29.93","29.78","6.21","80","360","","2","","","","","","","","","","","","","","","","","","","","","","","","","","","","","","","","","","","","","","","","","","","","","","","","","","","","","","","","","","","","","","","","","","","","","","","","","","","","","","","","","","","","","","","","","","","SYN05882445 32697 83602 10284 20260 30084 40136 8357/ 333 58022=","","","","","","","","","",""
"82445099999","2021-06-10T20:00:00","-4.2666666","-55.9833333","45.0","ITAITUBA, BR","FM-12","4","","75","78","","","","","90","SCT:04 41","29.96","29.81","1.24","76","320","","2","","","","","","","","","","","","","","","","","","","","","","","","","","","","","","","","","","","","","","","","","","","","","","","","","","","","","","","","","","","","","","","","","","","","","","","","","","","","","","","","","","","","","","","","","","","SYN07682445 32695 83202 10256 20238 30095 40147 8457/ 333 10297 29090 55000 58017=","","","","","","","","","",""
"82445099999","2021-06-11T08:00:00","-4.2666666","-55.9833333","45.0","ITAITUBA, BR","FM-12","4","","75","77","","","","9","94","SCT:04 41","30.04","29.88","6.21","76","000","","0","","","","","","","","","","","","","","","","","","","","","","","","","","","","","","","","","","","","","","","","","","","","","","","","","","","","","","","","","","","","","","","","","","","","","","","","","","","","","","","","","","","","","","","","","","","SYN06482445 32697 70000 10249 20239 30120 40173 84520 333 20229 58016=","","","","","","","","","",""
"82445099999","2021-06-11T14:00:00","-4.2666666","-55.9833333","45.0","ITAITUBA, BR","FM-12","4","","79","89","","","","9","74","SCT:03 26","29.93","29.78","6.21","82","050","","1","","","","","","","","","","","","","","","","","","","","","","","","","","","","","","","","","","","","","","","","","","","","","","","","","","","","","","","","","","","","","","","","","","","","","","","","","","","","","","","","","","","","","","","","","","","SYN05882445 32597 50501 10314 20262 30084 40136 83206 333 58000=","","","","","","","","","",""
"82445099999","2021-06-11T20:00:00","-4.2666666","-55.9833333","45.0","ITAITUBA, BR","FM-12","4","","77","80","","","","","92","SCT:03 41","29.97","29.81","2.49","78","000","","0","","","","","","","","","","","","","","","","","","","","","","","","","","","","","","","","","","","","","","","","","","","","","","","","","","","","","","","","","","","","","","","","","","","","","","","","","","","","","","","","","","","","","","","","","","","SYN08882445 21696 70000 10266 20252 30096 40148 70365 83520 333 10339 29088 55061 58001 60041=","","","","","","","","","",""
"82445099999","2021-06-12T08:00:00","-4.2666666","-55.9833333","45.0","ITAITUBA, BR","FM-12","4","","77","80","","","","9","89","BKN:05 26","30.01","29.86","6.21","78","090","","1","","","","","","","","","","","","","","","","","","","","","","","","","","","","","","","","","","","","","","","","","","","","","","","","","","","","","","","","","","","","","","","","","","","","","","","","","","","","","","","","","","","","","","","","","","","SYN07082445 22597 60901 10268 20248 30111 40163 85201 333 20227 59009 60044=","","","","","","","","","",""
"82445099999","2021-06-12T14:00:00","-4.2666666","-55.9833333","45.0","ITAITUBA, BR","FM-12","4","","79","90","","","","9","70","SCT:03 26","29.90","29.75","6.21","82","090","","1","","","","","","","","","","","","","","","","","","","","","","","","","","","","","","","","","","","","","","","","","","","","","","","","","","","","","","","","","","","","","","","","","","","","","","","","","","","","","","","","","","","","","","","","","","","SYN05882445 32597 60901 10322 20260 30074 40126 83271 333 59010=","","","","","","","","","",""
"82445099999","2021-06-12T20:00:00","-4.2666666","-55.9833333","45.0","ITAITUBA, BR","FM-12","4","","81","83","","","","","93","","29.91","29.75","6.21","82","000","","0","","","","","","","","","","","","","","","","","","","","","","","","","","","","","","","","","","","","","","","","","","","","","","","","","","","","","","","","","","","","","","","","","","","","","","","","","","","","","","","","","","","","","","","","","","","SYN07082445 32997 00000 10286 20274 30076 40128 333 10340 29086 55077 59020=","","","","","","","","","",""
"82445099999","2021-06-13T08:00:00","-4.2666666","-55.9833333","45.0","ITAITUBA, BR","FM-12","4","","78","81","","","","9","91","FEW:02 26","30.00","29.85","6.21","79","140","","2","","","","","","","","","","","","","","","","","","","","","","","","","","","","","","","","","","","","","","","","","","","","","","","","","","","","","","","","","","","","","","","","","","","","","","","","","","","","","","","","","","","","","","","","","","","SYN06482445 32597 61402 10274 20258 30108 40160 82230 333 20241 59003=","","","","","","","","","",""
"82445099999","2021-06-13T14:00:00","-4.2666666","-55.9833333","45.0","ITAITUBA, BR","FM-12","4","","77","87","","","","9","72","SCT:03 41","29.91","29.76","6.21","80","180","","2","","","","","","","","","","","","","","","","","","","","","","","","","","","","","","","","","","","","","","","","","","","","","","","","","","","","","","","","","","","","","","","","","","","","","","","","","","","","","","","","","","","","","","","","","","","SYN05882445 32697 61802 10308 20252 30078 40130 83575 333 58004=","","","","","","","","","",""
"82445099999","2021-06-13T20:00:00","-4.2666666","-55.9833333","45.0","ITAITUBA, BR","FM-12","4","","79","82","","","","","91","SCT:03 41","29.96","29.81","2.49","80","320","","1","","","","","","","","","","","","","","","","","","","","","","","","","","","","","","","","","","","","","","","","","","","","","","","","","","","","","","","","","","","","","","","","","","","","","","","","","","","","","","","","","","","","","","","","","","","SYN08882445 21696 73201 10279 20262 30094 40146 70352 83520 333 10346 29086 55060 58018 69911=","","","","","","","","","",""
"82445099999","2021-06-14T08:00:00","-4.2666666","-55.9833333","45.0","ITAITUBA, BR","FM-12","4","","79","80","","","","9","98","SCT:03 26","29.99","29.83","6.21","79","000","","0","","","","","","","","","","","","","","","","","","","","","","","","","","","","","","","","","","","","","","","","","","","","","","","","","","","","","","","","","","","","","","","","","","","","","","","","","","","","","","","","","","","","","","","","","","","SYN07082445 22597 60000 10266 20263 30103 40155 83250 333 20241 59005 69914=","","","","","","","","","",""
"82445099999","2021-06-14T14:00:00","-4.2666666","-55.9833333","45.0","ITAITUBA, BR","FM-12","4","","79","87","","","","9","76","SCT:04 26","29.88","29.73","1.24","81","180","","5","","","","","","","","","","","","","","","","","","","","","","","","","","","","","","","","","","","","","","","","","","","","","","","","","","","","","","","","","","","","","","","","","","","","","","","","","","","","","","","","","","","","","","","","","","","SYN05882445 32595 71804 10306 20259 30068 40120 84270 333 58010=","","","","","","","","","",""
"82445099999","2021-06-14T20:00:00","-4.2666666","-55.9833333","45.0","ITAITUBA, BR","FM-12","4","","77","80","","","","","92","BKN:06 26","29.97","29.81","1.24","78","000","","0","","","","","","","","","","","","","","","","","","","","","","","","","","","","","","","","","","","","","","","","","","","","","","","","","","","","","","","","","","","","","","","","","","","","","","","","","","","","","","","","","","","","","","","","","","","SYN08882445 21595 80000 10264 20250 30096 40148 72196 8637/ 333 10348 29090 55055 58002 60121=","","","","","","","","","",""
"82445099999","2021-06-15T08:00:00","-4.2666666","-55.9833333","45.0","ITAITUBA, BR","FM-12","4","","75","77","","","","9","95","BKN:05 15","30.01","29.86","1.24","76","000","","0","","","","","","","","","","","","","","","","","","","","","","","","","","","","","","","","","","","","","","","","","","","","","","","","","","","","","","","","","","","","","","","","","","","","","","","","","","","","","","","","","","","","","","","","","","","SYN07682445 21495 60000 10250 20241 30112 40164 72166 85650 333 20227 58009 60154=","","","","","","","","","",""
"82445099999","2021-06-15T14:00:00","-4.2666666","-55.9833333","45.0","ITAITUBA, BR","FM-12","4","","80","86","","||TS","","9","81","SCT:04 26","29.91","29.76","1.24","82","140","","5","","","","","","","","","","","","","","","","","","","","","","","","","","","","","","","","","","","","","","","","","","","","","","","","","","","","","","","","","","","","","","","","","","","","","","","","","","","","","","","","","","","","","","","","","","","SYN06482445 31595 71404 10301 20264 30078 40130 71722 84270 333 58010=","","","","","","","","","",""
"82445099999","2021-06-15T20:00:00","-4.2666666","-55.9833333","45.0","ITAITUBA, BR","FM-12","4","","76","78","","","","","94","SCT:04 15","29.98","29.83","2.49","77","000","","0","","","","","","","","","","","","","","","","","","","","","","","","","","","","","","","","","","","","","","","","","","","","","","","","","","","","","","","","","","","","","","","","","","","","","","","","","","","","","","","","","","","","","","","","","","","SYN08882445 21496 70000 10254 20244 30100 40152 70262 8477/ 333 10317 29091 55037 58006 60021=","","","","","","","","","",""
"82445099999","2021-06-16T08:00:00","-4.2666666","-55.9833333","45.0","ITAITUBA, BR","FM-12","4","","77","78","","","","9","94","OVC:08 15","30.01","29.85","1.24","77","000","","0","","","","","","","","","","","","","","","","","","","","","","","","","","","","","","","","","","","","","","","","","","","","","","","","","","","","","","","","","","","","","","","","","","","","","","","","","","","","","","","","","","","","","","","","","","","SYN07082445 22495 80000 10258 20248 30110 40162 887// 333 20233 58002 60024=","","","","","","","","","",""
"82445099999","2021-06-16T14:00:00","-4.2666666","-55.9833333","45.0","ITAITUBA, BR","FM-12","4","","77","89","","||TS","","9","69","SCT:04 26","29.91","29.75","1.24","80","180","","7","","","","","","","","","","","","","","","","","","","","","","","","","","","","","","","","","","","","","","","","","","","","","","","","","","","","","","","","","","","","","","","","","","","","","","","","","","","","","","","","","","","","","","","","","","","SYN06482445 31595 81806 10316 20252 30075 40127 71722 8438/ 333 59003=","","","","","","","","","",""
"82445099999","2021-06-16T20:00:00","-4.2666666","-55.9833333","45.0","ITAITUBA, BR","FM-12","4","","76","77","","","","","96","74","29.95","29.80","6.21","76","000","","0","","","","","","","","","","","","","","","","","","","","","","","","","","","","","","","","","","","","","","","","","","","","","","","","","","","","","","","","","","","","","","","","","","","","","","","","","","","","","","","","","","","","","","","","","","","SYN08882445 21897 40000 10252 20245 30091 40143 70361 80009 333 10329 29089 55041 59009 60081=","","","","","","","","","",""
"82445099999","2021-06-17T08:00:00","-4.2666666","-55.9833333","45.0","ITAITUBA, BR","FM-12","4","","75","77","","","","9","95","SCT:04 15","30.03","29.87","1.24","76","000","","0","","","","","","","","","","","","","","","","","","","","","","","","","","","","","","","","","","","","","","","","","","","","","","","","","","","","","","","","","","","","","","","","","","","","","","","","","","","","","","","","","","","","","","","","","","","SYN07682445 21495 80000 10250 20241 30115 40168 70296 8477/ 333 20225 58005 60354=","","","","","","","","","",""
"82445099999","2021-06-17T14:00:00","-4.2666666","-55.9833333","45.0","ITAITUBA, BR","FM-12","4","","79","90","","","","9","71","FEW:02 26","29.93","29.77","6.21","82","050","","5","","","","","","","","","","","","","","","","","","","","","","","","","","","","","","","","","","","","","","","","","","","","","","","","","","","","","","","","","","","","","","","","","","","","","","","","","","","","","","","","","","","","","","","","","","","SYN05882445 32597 40504 10320 20261 30082 40134 82202 333 58007=","","","","","","","","","",""
"82445099999","2021-06-17T20:00:00","-4.2666666","-55.9833333","45.0","ITAITUBA, BR","FM-12","4","","78","82","","","","","88","FEW:02 41","29.94","29.79","6.21","79","140","","1","","","","","","","","","","","","","","","","","","","","","","","","","","","","","","","","","","","","","","","","","","","","","","","","","","","","","","","","","","","","","","","","","","","","","","","","","","","","","","","","","","","","","","","","","","","SYN07682445 32697 31401 10278 20256 30087 40139 82500 333 10333 29086 55081 59004=","","","","","","","","","",""
"82445099999","2021-06-18T08:00:00","-4.2666666","-55.9833333","45.0","ITAITUBA, BR","FM-12","4","","76","79","","","","9","92","SCT:04 26","30.06","29.90","6.21","77","270","","1","","","","","","","","","","","","","","","","","","","","","","","","","","","","","","","","","","","","","","","","","","","","","","","","","","","","","","","","","","","","","","","","","","","","","","","","","","","","","","","","","","","","","","","","","","","SYN06482445 32597 62701 10260 20246 30126 40178 84501 333 20231 58011=","","","","","","","","","",""
"82445099999","2021-06-18T14:00:00","-4.2666666","-55.9833333","45.0","ITAITUBA, BR","FM-12","4","","77","80","","","","9","90","SCT:04 26","29.93","29.78","2.49","78","000","","0","","","","","","","","","","","","","","","","","","","","","","","","","","","","","","","","","","","","","","","","","","","","","","","","","","","","","","","","","","","","","","","","","","","","","","","","","","","","","","","","","","","","","","","","","","","SYN07082445 21596 70000 10266 20248 30084 40137 70396 8427/ 333 58002 60111=","","","","","","","","","",""
"82445099999","2021-06-18T20:00:00","-4.2666666","-55.9833333","45.0","ITAITUBA, BR","FM-12","4","","77","78","","","","","97","FEW:02 26","29.99","29.84","2.49","77","000","","0","","","","","","","","","","","","","","","","","","","","","","","","","","","","","","","","","","","","","","","","","","","","","","","","","","","","","","","","","","","","","","","","","","","","","","","","","","","","","","","","","","","","","","","","","","","SYN07682445 32596 60000 10254 20249 30104 40157 82205 333 10325 29094 55051 58007=","","","","","","","","","",""
"82445099999","2021-06-19T08:00:00","-4.2666666","-55.9833333","45.0","ITAITUBA, BR","FM-12","4","","76","79","","","","9","91","SCT:03 26","30.07","29.91","6.21","77","050","","5","","","","","","","","","","","","","","","","","","","","","","","","","","","","","","","","","","","","","","","","","","","","","","","","","","","","","","","","","","","","","","","","","","","","","","","","","","","","","","","","","","","","","","","","","","","SYN07082445 22597 70504 10260 20244 30130 40182 83535 333 20225 58004 60114=","","","","","","","","","",""
"82445099999","2021-06-19T14:00:00","-4.2666666","-55.9833333","45.0","ITAITUBA, BR","FM-12","4","","78","86","","","","9","76","FEW:02 26","29.98","29.83","12.43","80","050","","3","","","","","","","","","","","","","","","","","","","","","","","","","","","","","","","","","","","","","","","","","","","","","","","","","","","","","","","","","","","","","","","","","","","","","","","","","","","","","","","","","","","","","","","","","","","SYN05882445 32598 60503 10302 20255 30102 40152 82241 333 58018=","","","","","","","","","",""
"82445099999","2021-06-19T20:00:00","-4.2666666","-55.9833333","45.0","ITAITUBA, BR","FM-12","4","","80","82","","","","","92","","29.99","29.84","6.21","81","000","","0","","","","","","","","","","","","","","","","","","","","","","","","","","","","","","","","","","","","","","","","","","","","","","","","","","","","","","","","","","","","","","","","","","","","","","","","","","","","","","","","","","","","","","","","","","","SYN07082445 32997 00000 10280 20266 30104 40156 333 10325 29088 55075 58000=","","","","","","","","","",""
"82445099999","2021-06-20T08:00:00","-4.2666666","-55.9833333","45.0","ITAITUBA, BR","FM-12","4","","76","79","","","","9","90","FEW:01 26","30.06","29.91","31.07","77","180","","1","","","","","","","","","","","","","","","","","","","","","","","","","","","","","","","","","","","","","","","","","","","","","","","","","","","","","","","","","","","","","","","","","","","","","","","","","","","","","","","","","","","","","","","","","","","SYN06482445 32599 11801 10262 20244 30127 40179 81100 333 20225 59003=","","","","","","","","","",""
"82445099999","2021-06-20T14:00:00","-4.2666666","-55.9833333","45.0","ITAITUBA, BR","FM-12","4","","78","89","","","","9","71","FEW:02 26","29.96","29.81","12.43","81","140","","2","","","","","","","","","","","","","","","","","","","","","","","","","","","","","","","","","","","","","","","","","","","","","","","","","","","","","","","","","","","","","","","","","","","","","","","","","","","","","","","","","","","","","","","","","","","SYN07082445 21598 51402 10314 20255 30094 40146 70352 82246 333 59008 69921=","","","","","","","","","",""
"82445099999","2021-06-20T20:00:00","-4.2666666","-55.9833333","45.0","ITAITUBA, BR","FM-12","4","","79","83","","","","","87","SCT:04 26","29.98","29.83","2.49","80","000","","0","","","","","","","","","","","","","","","","","","","","","","","","","","","","","","","","","","","","","","","","","","","","","","","","","","","","","","","","","","","","","","","","","","","","","","","","","","","","","","","","","","","","","","","","","","","SYN08282445 31596 60000 10284 20260 30100 40152 71322 84240 333 10336 29084 55090 59004=","","","","","","","","","",""
"82445099999","2021-06-21T08:00:00","-4.2666666","-55.9833333","45.0","ITAITUBA, BR","FM-12","4","","75","77","","","","9","94","BKN:06 41","29.57","29.86","6.21","76","000","","0","","","","","","","","","","","","","","","","","","","","","","","","","","","","","","","","","","","","","","","","","","","","","","","","","","","","","","","","","","","","","","","","","","","","","","","","","","","","","","","","","","","","","","","","","","","SYN07082445 22697 60000 10251 20240 30112 40015 86500 333 20221 59015 69924=","","","","","","","","","",""
"82445099999","2021-06-21T14:00:00","-4.2666666","-55.9833333","45.0","ITAITUBA, BR","FM-12","4","","77","82","","","","9","86","SCT:03 26","29.96s","29.81","1.24","78","000","","0","","","","","","","","","","","","","","","","","","","","","","","","","","","","","","","","","","","","","","","","","","","","","","","","","","","","","","","","","","","","","","","","","","","","","","","","","","","","","","","","","","","","","","","","","","","SYN07082445 21595 60000 10276 20250 30095 40147 70396 83270 333 58001 60121=","","","","","","","","","",""
"82445099999","2021-06-21T20:00:00","-4.2666666","-55.9833333","45.0","ITAITUBA, BR","FM-12","4","","79","80","","","","","98","","29.96","29.80","12.43","79","000","","0","","","","","","","","","","","","","","","","","","","","","","","","","","","","","","","","","","","","","","","","","","","","","","","","","","","","","","","","","","","","","","","","","","","","","","","","","","","","","","","","","","","","","","","","","","","SYN07082445 32998 00000 10264 20261 30092 40144 333 10338 29094 55067 59008=","","","","","","","","","",""
"82445099999","2021-06-22T08:00:00","-4.2666666","-55.9833333","45.0","ITAITUBA, BR","FM-12","4","","75","76","","","","9","95","","30.05","29.90","0.62","75","000","","0","","","","","","","","","","","","","","","","","","","","","","","","","","","","","","","","","","","","","","","","","","","","","","","","","","","","","","","","","","","","","","","","","","","","","","","","","","","","","","","","","","","","","","","","","","","SYN07082445 21994 00000 10246 20237 30124 40177 72811 333 20219 58012 60124=","","","","","","","","","",""
"82445099999","2021-06-22T14:00:00","-4.2666666","-55.9833333","45.0","ITAITUBA, BR","FM-12","4","","78","90","","","","9","68","BKN:05 26","29.93","29.77","6.21","81","050","","5","","","","","","","","","","","","","","","","","","","","","","","","","","","","","","","","","","","","","","","","","","","","","","","","","","","","","","","","","","","","","","","","","","","","","","","","","","","","","","","","","","","","","","","","","","","SYN05882445 32597 60504 10320 20253 30082 40134 85201 333 59013=","","","","","","","","","",""
"82445099999","2021-06-22T20:00:00","-4.2666666","-55.9833333","45.0","ITAITUBA, BR","FM-12","4","","82","84","","","","","94","","29.94","29.79","6.21","83","000","","0","","","","","","","","","","","","","","","","","","","","","","","","","","","","","","","","","","","","","","","","","","","","","","","","","","","","","","","","","","","","","","","","","","","","","","","","","","","","","","","","","","","","","","","","","","","SYN07082445 32997 00000 10290 20279 30088 40140 333 10343 29088 55083 59004=","","","","","","","","","",""
"82445099999","2021-06-23T08:00:00","-4.2666666","-55.9833333","45.0","ITAITUBA, BR","FM-12","4","","76","78","","","","9","95","SCT:04 41","30.03","29.87","6.21","77","140","","2","","","","","","","","","","","","","","","","","","","","","","","","","","","","","","","","","","","","","","","","","","","","","","","","","","","","","","","","","","","","","","","","","","","","","","","","","","","","","","","","","","","","","","","","","","","SYN06482445 32697 71402 10256 20247 30116 40168 84570 333 20228 59008=","","","","","","","","","",""
"82445099999","2021-06-23T14:00:00","-4.2666666","-55.9833333","45.0","ITAITUBA, BR","FM-12","4","","80","90","","||TS","","9","71","SCT:04 26","29.92","29.77","6.21","83","140","","5","","","","","","","","","","","","","","","","","","","","","","","","","","","","","","","","","","","","","","","","","","","","","","","","","","","","","","","","","","","","","","","","","","","","","","","","","","","","","","","","","","","","","","","","","","","SYN06482445 31597 71404 10324 20265 30080 40132 71722 84341 333 59002=","","","","","","","","","",""
"82445099999","2021-06-23T20:00:00","-4.2666666","-55.9833333","45.0","ITAITUBA, BR","FM-12","4","","78","83","","","","","84","FEW:02 41","29.97","29.82","2.49","79","000","","0","","","","","","","","","","","","","","","","","","","","","","","","","","","","","","","","","","","","","","","","","","","","","","","","","","","","","","","","","","","","","","","","","","","","","","","","","","","","","","","","","","","","","","","","","","","SYN08282445 31696 70000 10284 20254 30098 40150 71322 82536 333 10341 29084 55074 58010=","","","","","","","","","",""
"82445099999","2021-06-24T08:00:00","-4.2666666","-55.9833333","45.0","ITAITUBA, BR","FM-12","4","","76","80","","","","9","89","FEW:02 15","30.03","29.88","12.43","77","140","","2","","","","","","","","","","","","","","","","","","","","","","","","","","","","","","","","","","","","","","","","","","","","","","","","","","","","","","","","","","","","","","","","","","","","","","","","","","","","","","","","","","","","","","","","","","","SYN06482445 32498 51402 10266 20246 30119 40171 82230 333 20228 58003=","","","","","","","","","",""
"82445099999","2021-06-24T14:00:00","-4.2666666","-55.9833333","45.0","ITAITUBA, BR","FM-12","4","","79","90","","","","9","69","SCT:03 26","29.91","29.76","12.43","82","050","","3","","","","","","","","","","","","","","","","","","","","","","","","","","","","","","","","","","","","","","","","","","","","","","","","","","","","","","","","","","","","","","","","","","","","","","","","","","","","","","","","","","","","","","","","","","","SYN05882445 32598 40503 10324 20260 30078 40130 83245 333 59002=","","","","","","","","","",""
"82445099999","2021-06-24T20:00:00","-4.2666666","-55.9833333","45.0","ITAITUBA, BR","FM-12","4","","81","84","","","","","91","FEW:01","29.92","29.77","6.21","82","000","","0","","","","","","","","","","","","","","","","","","","","","","","","","","","","","","","","","","","","","","","","","","","","","","","","","","","","","","","","","","","","","","","","","","","","","","","","","","","","","","","","","","","","","","","","","","","SYN07682445 32997 10000 10287 20270 30080 40132 81040 333 10340 29084 55092 59018=","","","","","","","","","",""
"82445099999","2021-06-25T08:00:00","-4.2666666","-55.9833333","45.0","ITAITUBA, BR","FM-12","4","","77","81","","","","9","89","FEW:01 26","30.00","29.85","31.07","78","050","","1","","","","","","","","","","","","","","","","","","","","","","","","","","","","","","","","","","","","","","","","","","","","","","","","","","","","","","","","","","","","","","","","","","","","","","","","","","","","","","","","","","","","","","","","","","","SYN06482445 32599 20501 10272 20252 30107 40159 81101 333 20233 59012=","","","","","","","","","",""
"82445099999","2021-06-25T14:00:00","-4.2666666","-55.9833333","45.0","ITAITUBA, BR","FM-12","4","","80","90","","||TS","","9","73","BKN:05 26","29.92","29.77","6.21","83","230","","7","","","","","","","","","","","","","","","","","","","","","","","","","","","","","","","","","","","","","","","","","","","","","","","","","","","","","","","","","","","","","","","","","","","","","","","","","","","","","","","","","","","","","","","","","","","SYN06482445 31597 72306 10322 20267 30080 40132 71722 85340 333 58002=","","","","","","","","","",""
"82445099999","2021-06-25T20:00:00","-4.2666666","-55.9833333","45.0","ITAITUBA, BR","FM-12","4","","81","83","","","","","93","","29.92","29.76","6.21","82","000","","0","","","","","","","","","","","","","","","","","","","","","","","","","","","","","","","","","","","","","","","","","","","","","","","","","","","","","","","","","","","","","","","","","","","","","","","","","","","","","","","","","","","","","","","","","","","SYN07082445 32997 00000 10286 20274 30079 40131 333 10347 29087 55097 59001=","","","","","","","","","",""
"82445099999","2021-06-26T08:00:00","-4.2666666","-55.9833333","45.0","ITAITUBA, BR","FM-12","4","","78","81","","","","9","91","FEW:02 15","29.96","29.81","12.43","79","000","","0","","","","","","","","","","","","","","","","","","","","","","","","","","","","","","","","","","","","","","","","","","","","","","","","","","","","","","","","","","","","","","","","","","","","","","","","","","","","","","","","","","","","","","","","","","","SYN06482445 32498 30000 10274 20258 30095 40147 82101 333 20234 59012=","","","","","","","","","",""
"82445099999","2021-06-26T14:00:00","-4.2666666","-55.9833333","45.0","ITAITUBA, BR","FM-12","4","","78","92","","","","9","64","SCT:04 26","29.89","29.74","12.43","82","360","","5","","","","","","","","","","","","","","","","","","","","","","","","","","","","","","","","","","","","","","","","","","","","","","","","","","","","","","","","","","","","","","","","","","","","","","","","","","","","","","","","","","","","","","","","","","","SYN05882445 32598 53604 10332 20255 30071 40123 84201 333 59009=","","","","","","","","","",""
"82445099999","2021-06-26T20:00:00","-4.2666666","-55.9833333","45.0","ITAITUBA, BR","FM-12","4","","78","83","","","","","86","FEW:01","29.90","29.75","6.21","79","000","","0","","","","","","","","","","","","","","","","","","","","","","","","","","","","","","","","","","","","","","","","","","","","","","","","","","","","","","","","","","","","","","","","","","","","","","","","","","","","","","","","","","","","","","","","","","","SYN07682445 32997 20000 10284 20258 30074 40126 81061 333 10348 29082 55098 59005=","","","","","","","","","",""
"82445099999","2021-06-27T08:00:00","-4.2666666","-55.9833333","45.0","ITAITUBA, BR","FM-12","4","","77","81","","","","9","88","FEW:01 26","29.97","29.82","31.07","78","090","","1","","","","","","","","","","","","","","","","","","","","","","","","","","","","","","","","","","","","","","","","","","","","","","","","","","","","","","","","","","","","","","","","","","","","","","","","","","","","","","","","","","","","","","","","","","","SYN06482445 32599 10901 10272 20250 30098 40150 81100 333 20230 58003=","","","","","","","","","",""
"82445099999","2021-06-27T14:00:00","-4.2666666","-55.9833333","45.0","ITAITUBA, BR","FM-12","4","","78","91","","","","9","65","BKN:05 26","29.89","29.74","6.21","81","050","","7","","","","","","","","","","","","","","","","","","","","","","","","","","","","","","","","","","","","","","","","","","","","","","","","","","","","","","","","","","","","","","","","","","","","","","","","","","","","","","","","","","","","","","","","","","","SYN05882445 32597 60506 10330 20255 30071 40123 85340 333 58000=","","","","","","","","","",""
"82445099999","2021-06-27T20:00:00","-4.2666666","-55.9833333","45.0","ITAITUBA, BR","FM-12","4","","79","83","","","","","89","FEW:01 74","29.92","29.76","6.21","80","000","","0","","","","","","","","","","","","","","","","","","","","","","","","","","","","","","","","","","","","","","","","","","","","","","","","","","","","","","","","","","","","","","","","","","","","","","","","","","","","","","","","","","","","","","","","","","","SYN07682445 32897 10000 10282 20262 30079 40131 81080 333 10346 29083 55099 58004=","","","","","","","","","",""
"82445099999","2021-06-28T08:00:00","-4.2666666","-55.9833333","45.0","ITAITUBA, BR","FM-12","4","","77","80","","","","9","89","FEW:02 26","30.03","29.87","12.43","78","000","","0","","","","","","","","","","","","","","","","","","","","","","","","","","","","","","","","","","","","","","","","","","","","","","","","","","","","","","","","","","","","","","","","","","","","","","","","","","","","","","","","","","","","","","","","","","","SYN06482445 32598 40000 10268 20248 30116 40168 82101 333 20229 58018=","","","","","","","","","",""
"82445099999","2021-06-28T14:00:00","-4.2666666","-55.9833333","45.0","ITAITUBA, BR","FM-12","4","","78","86","","","","9","79","SCT:03 41","29.93","29.77","6.21","80","180","","1","","","","","","","","","","","","","","","","","","","","","","","","","","","","","","","","","","","","","","","","","","","","","","","","","","","","","","","","","","","","","","","","","","","","","","","","","","","","","","","","","","","","","","","","","","","SYN07082445 21697 61801 10298 20258 30082 40134 70365 83570 333 58011 60021=","","","","","","","","","",""
"82445099999","2021-06-29T08:00:00","-4.2666666","-55.9833333","45.0","ITAITUBA, BR","FM-12","4","","75","77","","","","9","93","SCT:03 41","30.06","29.90","6.21","76","000","","0","","","","","","","","","","","","","","","","","","","","","","","","","","","","","","","","","","","","","","","","","","","","","","","","","","","","","","","","","","","","","","","","","","","","","","","","","","","","","","","","","","","","","","","","","","","SYN07082445 22697 60000 10250 20238 30126 40178 83551 333 20225 58010 60024=","","","","","","","","","",""
"82445099999","2021-06-29T14:00:00","-4.2666666","-55.9833333","45.0","ITAITUBA, BR","FM-12","4","","75","90","","","","9","63","FEW:01 26","29.98","29.83","12.43","79","230","","1","","","","","","","","","","","","","","","","","","","","","","","","","","","","","","","","","","","","","","","","","","","","","","","","","","","","","","","","","","","","","","","","","","","","","","","","","","","","","","","","","","","","","","","","","","","SYN05882445 32598 22301 10320 20241 30102 40154 81201 333 58020=","","","","","","","","","",""
"82445099999","2021-06-29T20:00:00","-4.2666666","-55.9833333","45.0","ITAITUBA, BR","FM-12","4","","75","82","","","","","81","FEW:02 26","29.98","29.83","12.43","77","230","","1","","","","","","","","","","","","","","","","","","","","","","","","","","","","","","","","","","","","","","","","","","","","","","","","","","","","","","","","","","","","","","","","","","","","","","","","","","","","","","","","","","","","","","","","","","","SYN07682445 32598 42301 10276 20241 30102 40154 82201 333 10341 29084 55080 58020=","","","","","","","","","",""
"82445099999","2021-06-30T08:00:00","-4.2666666","-55.9833333","45.0","ITAITUBA, BR","FM-12","4","","67","75","","","","9","77","FEW:01 26","30.08","29.92","12.43","70","230","","2","","","","","","","","","","","","","","","","","","","","","","","","","","","","","","","","","","","","","","","","","","","","","","","","","","","","","","","","","","","","","","","","","","","","","","","","","","","","","","","","","","","","","","","","","","","SYN06482445 32598 12302 10238 20195 30132 40185 81100 333 20209 58006=","","","","","","","","","",""
"82445099999","2021-06-30T14:00:00","-4.2666666","-55.9833333","45.0","ITAITUBA, BR","FM-12","4","","72","87","","","","9","62","BKN:05 26","29.96","29.81","6.21","77","230","","1","","","","","","","","","","","","","","","","","","","","","","","","","","","","","","","","","","","","","","","","","","","","","","","","","","","","","","","","","","","","","","","","","","","","","","","","","","","","","","","","","","","","","","","","","","","SYN05882445 32597 52301 10306 20225 30095 40147 85100 333 59007=","","","","","","","","","",""
"82445099999","2021-06-30T20:00:00","-4.2666666","-55.9833333","45.0","ITAITUBA, BR","FM-12","4","","76","81","","","","","85","","30.00","29.85","6.21","77","000","","0","","","","","","","","","","","","","","","","","","","","","","","","","","","","","","","","","","","","","","","","","","","","","","","","","","","","","","","","","","","","","","","","","","","","","","","","","","","","","","","","","","","","","","","","","","","SYN07082445 32997 00000 10272 20245 30108 40160 333 10327 29077 55105 59002=","","","","","","","","","",""
"82445099999","2021-07-01T08:00:00","-4.2666666","-55.9833333","45.0","ITAITUBA, BR","FM-12","4","","71","76","","","","9","85","FEW:02 26","30.06","29.91","31.07","73","180","","2","","","","","","","","","","","","","","","","","","","","","","","","","","","","","","","","","","","","","","","","","","","","","","","","","","","","","","","","","","","","","","","","","","","","","","","","","","","","","","","","","","","","","","","","","","","SYN06482445 32599 21802 10246 20219 30127 40180 82100 333 20209 59005=","","","","","","","","","",""
"82445099999","2021-07-01T20:00:00","-4.2666666","-55.9833333","45.0","ITAITUBA, BR","FM-12","4","","76","82","","","","","83","FEW:02 15","30.02","29.87","2.49","78","270","","2","","","","","","","","","","","","","","","","","","","","","","","","","","","","","","","","","","","","","","","","","","","","","","","","","","","","","","","","","","","","","","","","","","","","","","","","","","","","","","","","","","","","","","","","","","","SYN07682445 32496 52702 10278 20246 30114 40166 82150 333 10332 29084 55097 58006=","","","","","","","","","",""
"82445099999","2021-07-02T08:00:00","-4.2666666","-55.9833333","45.0","ITAITUBA, BR","FM-12","4","","75","79","","","","9","86","FEW:01","30.07","29.92","31.07","76","320","","2","","","","","","","","","","","","","","","","","","","","","","","","","","","","","","","","","","","","","","","","","","","","","","","","","","","","","","","","","","","","","","","","","","","","","","","","","","","","","","","","","","","","","","","","","","","SYN06482445 32999 53202 10262 20237 30132 40184 81041 333 20226 58005=","","","","","","","","","",""
"82445099999","2021-07-02T20:00:00","-4.2666666","-55.9833333","45.0","ITAITUBA, BR","FM-12","4","","77","80","","","","","92","FEW:02","30.04","29.89","6.21","78","320","","1","","","","","","","","","","","","","","","","","","","","","","","","","","","","","","","","","","","","","","","","","","","","","","","","","","","","","","","","","","","","","","","","","","","","","","","","","","","","","","","","","","","","","","","","","","","SYN07682445 32997 23201 10266 20252 30122 40174 82030 333 10319 29090 55059 58008=","","","","","","","","","",""
"82445099999","2021-07-03T08:00:00","-4.2666666","-55.9833333","45.0","ITAITUBA, BR","FM-12","4","","75","78","","","","9","92","SCT:03 41","30.12","29.96","6.21","76","090","","1","","","","","","","","","","","","","","","","","","","","","","","","","","","","","","","","","","","","","","","","","","","","","","","","","","","","","","","","","","","","","","","","","","","","","","","","","","","","","","","","","","","","","","","","","","","SYN06482445 32697 70901 10254 20240 30146 40199 83530 333 20233 58014=","","","","","","","","","",""
"82445099999","2021-07-03T20:00:00","-4.2666666","-55.9833333","45.0","ITAITUBA, BR","FM-12","4","","76","78","","||TS","","","93","SCT:04 26","30.07","29.92","0.62","77","140","","7","","","","","","","","","","","","","","","","","","","","","","","","","","","","","","","","","","","","","","","","","","","","","","","","","","","","","","","","","","","","","","","","","","","","","","","","","","","","","","","","","","","","","","","","","","","SYN08882445 21594 81406 10256 20244 30131 40184 71762 8472/ 333 10312 29093 55010 58009 69931=","","","","","","","","","",""
"82445099999","2021-07-05T08:00:00","-4.2666666","-55.9833333","45.0","ITAITUBA, BR","FM-12","4","","74","76","","","","9","95","SCT:04 15","30.09","29.93","6.21","75","000","","0","","","","","","","","","","","","","","","","","","","","","","","","","","","","","","","","","","","","","","","","","","","","","","","","","","","","","","","","","","","","","","","","","","","","","","","","","","","","","","","","","","","","","","","","","","","SYN07682445 21497 70000 10244 20235 30136 40189 70365 84730 333 20213 59010 60204=","","","","","","","","","",""
"82445099999","2021-07-05T20:00:00","-4.2666666","-55.9833333","45.0","ITAITUBA, BR","FM-12","4","","77","79","","","","","93","FEW:02 26","30.05","29.90","2.49","78","050","","1","","","","","","","","","","","","","","","","","","","","","","","","","","","","","","","","","","","","","","","","","","","","","","","","","","","","","","","","","","","","","","","","","","","","","","","","","","","","","","","","","","","","","","","","","","","SYN07682445 32596 70501 10262 20250 30124 40176 82220 333 10320 29094 55051 59007=","","","","","","","","","",""
"82445099999","2021-07-06T08:00:00","-4.2666666","-55.9833333","45.0","ITAITUBA, BR","FM-12","4","","75","77","","","","9","93","SCT:03 41","30.07","29.91","6.21","76","000","","0","","","","","","","","","","","","","","","","","","","","","","","","","","","","","","","","","","","","","","","","","","","","","","","","","","","","","","","","","","","","","","","","","","","","","","","","","","","","","","","","","","","","","","","","","","","SYN07082445 22697 70000 10252 20240 30130 40183 83531 333 20225 59006 69904=","","","","","","","","","",""
"82445099999","2021-07-06T20:00:00","-4.2666666","-55.9833333","45.0","ITAITUBA, BR","FM-12","4","","74","80","","","","","83","SCT:03 41","29.98","29.83","1.24","76","360","","2","","","","","","","","","","","","","","","","","","","","","","","","","","","","","","","","","","","","","","","","","","","","","","","","","","","","","","","","","","","","","","","","","","","","","","","","","","","","","","","","","","","","","","","","","","","SYN07682445 32695 83602 10266 20235 30100 40152 8352/ 333 10335 29086 55048 59024=","","","","","","","","","",""
"82445099999","2021-07-07T08:00:00","-4.2666666","-55.9833333","45.0","ITAITUBA, BR","FM-12","4","","76","78","","","","9","94","BKN:05 15","30.01","29.86","6.21","77","000","","0","","","","","","","","","","","","","","","","","","","","","","","","","","","","","","","","","","","","","","","","","","","","","","","","","","","","","","","","","","","","","","","","","","","","","","","","","","","","","","","","","","","","","","","","","","","SYN07682445 21497 50000 10254 20244 30111 40164 70352 85200 333 20221 59019 69914=","","","","","","","","","",""
"82445099999","2021-07-07T20:00:00","-4.2666666","-55.9833333","45.0","ITAITUBA, BR","FM-12","4","","79","81","","","","","92","FEW:01","29.94","29.79","6.21","80","000","","0","","","","","","","","","","","","","","","","","","","","","","","","","","","","","","","","","","","","","","","","","","","","","","","","","","","","","","","","","","","","","","","","","","","","","","","","","","","","","","","","","","","","","","","","","","","SYN07682445 32997 10000 10274 20260 30087 40139 81040 333 10341 29093 55065 59013=","","","","","","","","","",""
"82445099999","2021-07-08T08:00:00","-4.2666666","-55.9833333","45.0","ITAITUBA, BR","FM-12","4","","76","78","","","","9","95","FEW:02 15","30.00","29.85","6.21","77","000","","0","","","","","","","","","","","","","","","","","","","","","","","","","","","","","","","","","","","","","","","","","","","","","","","","","","","","","","","","","","","","","","","","","","","","","","","","","","","","","","","","","","","","","","","","","","","SYN06482445 32497 70000 10254 20245 30107 40160 82731 333 20229 59004=","","","","","","","","","",""
"82445099999","2021-07-08T20:00:00","-4.2666666","-55.9833333","45.0","ITAITUBA, BR","FM-12","4","","79","81","","","","","92","","29.92","29.77","6.21","80","000","","0","","","","","","","","","","","","","","","","","","","","","","","","","","","","","","","","","","","","","","","","","","","","","","","","","","","","","","","","","","","","","","","","","","","","","","","","","","","","","","","","","","","","","","","","","","","SYN08282445 21997 00000 10274 20260 30080 40132 70065 333 10327 29093 55055 59007 60091=","","","","","","","","","",""
"82445099999","2021-07-09T08:00:00","-4.2666666","-55.9833333","45.0","ITAITUBA, BR","FM-12","4","","77","80","","","","9","90","FEW:01 15","29.98","29.83","12.43","78","090","","2","","","","","","","","","","","","","","","","","","","","","","","","","","","","","","","","","","","","","","","","","","","","","","","","","","","","","","","","","","","","","","","","","","","","","","","","","","","","","","","","","","","","","","","","","","","SYN07082445 22498 50902 10266 20248 30100 40152 81131 333 20225 59007 60094=","","","","","","","","","",""
"82445099999","2021-07-09T20:00:00","-4.2666666","-55.9833333","45.0","ITAITUBA, BR","FM-12","4","","79","83","","","","","87","SCT:04 26","29.92","29.77","1.24","80","000","","0","","","","","","","","","","","","","","","","","","","","","","","","","","","","","","","","","","","","","","","","","","","","","","","","","","","","","","","","","","","","","","","","","","","","","","","","","","","","","","","","","","","","","","","","","","","SYN08882445 21595 70000 10285 20262 30080 40132 70365 84270 333 10346 29089 55085 58000 60101=","","","","","","","","","",""
"82445099999","2021-07-10T08:00:00","-4.2666666","-55.9833333","45.0","ITAITUBA, BR","FM-12","4","","77","81","","","","9","89","FEW:01 26","29.99","29.84","31.07","78","000","","0","","","","","","","","","","","","","","","","","","","","","","","","","","","","","","","","","","","","","","","","","","","","","","","","","","","","","","","","","","","","","","","","","","","","","","","","","","","","","","","","","","","","","","","","","","","SYN07682445 21599 20000 10272 20252 30104 40156 70165 81131 333 20230 58004 60224=","","","","","","","","","",""
"82445099999","2021-07-10T20:00:00","-4.2666666","-55.9833333","45.0","ITAITUBA, BR","FM-12","4","","81","83","","","","","93","SCT:04 15","29.92","29.77","1.24","82","000","","0","","","","","","","","","","","","","","","","","","","","","","","","","","","","","","","","","","","","","","","","","","","","","","","","","","","","","","","","","","","","","","","","","","","","","","","","","","","","","","","","","","","","","","","","","","","SYN07682445 32495 80000 10286 20274 30080 40132 8472/ 333 10346 29092 55097 58000=","","","","","","","","","",""
"82445099999","2021-07-12T08:00:00","-4.2666666","-55.9833333","45.0","ITAITUBA, BR","FM-12","4","","77","79","","","","9","93","FEW:02 15","29.98","29.83","12.43","78","180","","2","","","","","","","","","","","","","","","","","","","","","","","","","","","","","","","","","","","","","","","","","","","","","","","","","","","","","","","","","","","","","","","","","","","","","","","","","","","","","","","","","","","","","","","","","","","SYN07682445 21498 51802 10262 20250 30100 40152 70365 82781 333 20228 59004 60274=","","","","","","","","","",""
"82445099999","2021-07-12T20:00:00","-4.2666666","-55.9833333","45.0","ITAITUBA, BR","FM-12","4","","80","82","","","","","92","FEW:02 26","29.96","29.80","2.49","81","180","","2","","","","","","","","","","","","","","","","","","","","","","","","","","","","","","","","","","","","","","","","","","","","","","","","","","","","","","","","","","","","","","","","","","","","","","","","","","","","","","","","","","","","","","","","","","","SYN08882445 21596 71802 10280 20266 30092 40144 70365 82270 333 10348 29092 55084 58012 60031=","","","","","","","","","",""
"82445099999","2021-07-13T08:00:00","-4.2666666","-55.9833333","45.0","ITAITUBA, BR","FM-12","4","","76","78","","","","9","96","SCT:04 15","30.03","29.87","6.21","77","000","","0","","","","","","","","","","","","","","","","","","","","","","","","","","","","","","","","","","","","","","","","","","","","","","","","","","","","","","","","","","","","","","","","","","","","","","","","","","","","","","","","","","","","","","","","","","","SYN07682445 21497 80000 10254 20247 30115 40168 70396 8477/ 333 20235 58015 60084=","","","","","","","","","",""
"82445099999","2021-07-13T20:00:00","-4.2666666","-55.9833333","45.0","ITAITUBA, BR","FM-12","4","","80","81","","","","","97","BKN:07 15","29.96","29.81","1.24","80","000","","0","","","","","","","","","","","","","","","","","","","","","","","","","","","","","","","","","","","","","","","","","","","","","","","","","","","","","","","","","","","","","","","","","","","","","","","","","","","","","","","","","","","","","","","","","","","SYN08282445 22495 70000 10272 20266 30095 40147 87700 333 10333 29093 55051 58003 60101=","","","","","","","","","",""
"82445099999","2021-07-14T08:00:00","-4.2666666","-55.9833333","45.0","ITAITUBA, BR","FM-12","4","","78","81","","","","9","92","BKN:05 15","30.02","29.87","6.21","79","000","","0","","","","","","","","","","","","","","","","","","","","","","","","","","","","","","","","","","","","","","","","","","","","","","","","","","","","","","","","","","","","","","","","","","","","","","","","","","","","","","","","","","","","","","","","","","","SYN07082445 22497 60000 10270 20256 30115 40167 85201 333 20234 58000 60104=","","","","","","","","","",""
"82445099999","2021-07-14T20:00:00","-4.2666666","-55.9833333","45.0","ITAITUBA, BR","FM-12","4","","78","82","","","","","89","","29.93","29.77","6.21","79","000","","0","","","","","","","","","","","","","","","","","","","","","","","","","","","","","","","","","","","","","","","","","","","","","","","","","","","","","","","","","","","","","","","","","","","","","","","","","","","","","","","","","","","","","","","","","","","SYN07082445 32997 00000 10276 20256 30082 40134 333 10346 29090 55071 59013=","","","","","","","","","",""
"82445099999","2021-07-15T08:00:00","-4.2666666","-55.9833333","45.0","ITAITUBA, BR","FM-12","4","","76","78","","","","9","95","BKN:06","30.01","29.85","6.21","77","000","","0","","","","","","","","","","","","","","","","","","","","","","","","","","","","","","","","","","","","","","","","","","","","","","","","","","","","","","","","","","","","","","","","","","","","","","","","","","","","","","","","","","","","","","","","","","","SYN06482445 32997 70000 10254 20245 30110 40163 86031 333 20227 59005=","","","","","","","","","",""
"82445099999","2021-07-15T20:00:00","-4.2666666","-55.9833333","45.0","ITAITUBA, BR","FM-12","4","","81","83","","","","","93","","29.93","29.78","6.21","82","000","","0","","","","","","","","","","","","","","","","","","","","","","","","","","","","","","","","","","","","","","","","","","","","","","","","","","","","","","","","","","","","","","","","","","","","","","","","","","","","","","","","","","","","","","","","","","","SYN07082445 32997 00000 10286 20274 30083 40135 333 10340 29093 55056 58001=","","","","","","","","","",""
"82445099999","2021-07-16T08:00:00","-4.2666666","-55.9833333","45.0","ITAITUBA, BR","FM-12","4","","77","80","","","","9","92","FEW:01 26","30.00","29.84","6.21","78","000","","0","","","","","","","","","","","","","","","","","","","","","","","","","","","","","","","","","","","","","","","","","","","","","","","","","","","","","","","","","","","","","","","","","","","","","","","","","","","","","","","","","","","","","","","","","","","SYN06482445 32597 70000 10264 20250 30106 40158 81130 333 20229 59004=","","","","","","","","","",""
"82445099999","2021-07-16T20:00:00","-4.2666666","-55.9833333","45.0","ITAITUBA, BR","FM-12","4","","78","81","","","","","89","","29.94","29.79","6.21","79","360","","2","","","","","","","","","","","","","","","","","","","","","","","","","","","","","","","","","","","","","","","","","","","","","","","","","","","","","","","","","","","","","","","","","","","","","","","","","","","","","","","","","","","","","","","","","","","SYN08282445 21997 03602 10274 20254 30088 40140 70065 333 10340 29090 55056 58005 60011=","","","","","","","","","",""
"82445099999","2021-07-17T08:00:00","-4.2666666","-55.9833333","45.0","ITAITUBA, BR","FM-12","4","","76","80","","","","9","89","FEW:02 15","30.01","29.86","12.43","77","090","","1","","","","","","","","","","","","","","","","","","","","","","","","","","","","","","","","","","","","","","","","","","","","","","","","","","","","","","","","","","","","","","","","","","","","","","","","","","","","","","","","","","","","","","","","","","","SYN07082445 22498 40901 10266 20246 30112 40164 82151 333 20222 58006 60014=","","","","","","","","","",""
"82445099999","2021-07-17T20:00:00","-4.2666666","-55.9833333","45.0","ITAITUBA, BR","FM-12","4","","78","79","","","","","97","FEW:01 26","29.96","29.81","6.21","78","000","","0","","","","","","","","","","","","","","","","","","","","","","","","","","","","","","","","","","","","","","","","","","","","","","","","","","","","","","","","","","","","","","","","","","","","","","","","","","","","","","","","","","","","","","","","","","","SYN08882445 21597 10000 10260 20255 30095 40147 70196 81100 333 10343 29094 55097 58007 60231=","","","","","","","","","",""
"82445099999","2021-07-19T08:00:00","-4.2666666","-55.9833333","45.0","ITAITUBA, BR","FM-12","4","","75","77","","||FG","","9","93","BKN:06 15","30.03","29.87","6.21","76","000","","0","","","","","","","","","","","","","","","","","","","","","","","","","","","","","","","","","","","","","","","","","","","","","","","","","","","","","","","","","","","","","","","","","","","","","","","","","","","","","","","","","","","","","","","","","","","SYN07682445 21497 60000 10252 20240 30115 40168 74265 86200 333 20210 58003 60244=","","","","","","","","","",""
"82445099999","2021-07-19T20:00:00","-4.2666666","-55.9833333","45.0","ITAITUBA, BR","FM-12","4","","78","83","","","","","84","","29.93","29.78","6.21","79","050","","2","","","","","","","","","","","","","","","","","","","","","","","","","","","","","","","","","","","","","","","","","","","","","","","","","","","","","","","","","","","","","","","","","","","","","","","","","","","","","","","","","","","","","","","","","","","SYN07082445 32997 00502 10284 20254 30084 40136 333 10346 29087 55095 59011=","","","","","","","","","",""
"82445099999","2021-07-20T08:00:00","-4.2666666","-55.9833333","45.0","ITAITUBA, BR","FM-12","4","","76","80","","","","9","89","","30.00","29.84","31.07","77","050","","2","","","","","","","","","","","","","","","","","","","","","","","","","","","","","","","","","","","","","","","","","","","","","","","","","","","","","","","","","","","","","","","","","","","","","","","","","","","","","","","","","","","","","","","","","","","SYN05882445 32999 00502 10266 20246 30106 40158 333 20223 59009=","","","","","","","","","",""
"82445099999","2021-07-20T20:00:00","-4.2666666","-55.9833333","45.0","ITAITUBA, BR","FM-12","4","","80","84","","","","","88","FEW:02 26","29.96","29.81","2.49","81","000","","0","","","","","","","","","","","","","","","","","","","","","","","","","","","","","","","","","","","","","","","","","","","","","","","","","","","","","","","","","","","","","","","","","","","","","","","","","","","","","","","","","","","","","","","","","","","SYN07682445 32596 30000 10288 20266 30094 40146 82250 333 10346 29088 55086 58010=","","","","","","","","","",""
"82445099999","2021-07-21T08:00:00","-4.2666666","-55.9833333","45.0","ITAITUBA, BR","FM-12","4","","77","80","","","","9","92","SCT:03 41","30.03","29.88","6.21","78","000","","0","","","","","","","","","","","","","","","","","","","","","","","","","","","","","","","","","","","","","","","","","","","","","","","","","","","","","","","","","","","","","","","","","","","","","","","","","","","","","","","","","","","","","","","","","","","SYN07682445 21697 70000 10266 20252 30119 40171 70365 83570 333 20235 58013 69984=","","","","","","","","","",""
"82445099999","2021-07-21T20:00:00","-4.2666666","-55.9833333","45.0","ITAITUBA, BR","FM-12","4","","80","82","","","","","92","BKN:07","30.00","29.85","2.49","81","000","","0","","","","","","","","","","","","","","","","","","","","","","","","","","","","","","","","","","","","","","","","","","","","","","","","","","","","","","","","","","","","","","","","","","","","","","","","","","","","","","","","","","","","","","","","","","","SYN07682445 32996 70000 10279 20264 30108 40160 87010 333 10325 29091 55069 58014=","","","","","","","","","",""
"82445099999","2021-07-22T08:00:00","-4.2666666","-55.9833333","45.0","ITAITUBA, BR","FM-12","4","","77","79","","","","9","95","BKN:07 15","30.07","29.92","6.21","78","140","","1","","","","","","","","","","","","","","","","","","","","","","","","","","","","","","","","","","","","","","","","","","","","","","","","","","","","","","","","","","","","","","","","","","","","","","","","","","","","","","","","","","","","","","","","","","","SYN06482445 32497 71401 10260 20251 30131 40183 87700 333 20232 58012=","","","","","","","","","",""
"82445099999","2021-07-22T20:00:00","-4.2666666","-55.9833333","45.0","ITAITUBA, BR","FM-12","4","","79","82","","","","","92","SCT:03","29.98","29.83","2.49","80","000","","0","","","","","","","","","","","","","","","","","","","","","","","","","","","","","","","","","","","","","","","","","","","","","","","","","","","","","","","","","","","","","","","","","","","","","","","","","","","","","","","","","","","","","","","","","","","SYN08882445 21996 70000 10276 20262 30102 40154 70396 83016 333 10346 29093 55063 59006 60051=","","","","","","","","","",""
"82445099999","2021-07-23T08:00:00","-4.2666666","-55.9833333","45.0","ITAITUBA, BR","FM-12","4","","77","79","","","","9","95","SCT:03 15","30.01","29.86","6.21","78","180","","1","","","","","","","","","","","","","","","","","","","","","","","","","","","","","","","","","","","","","","","","","","","","","","","","","","","","","","","","","","","","","","","","","","","","","","","","","","","","","","","","","","","","","","","","","","","SYN07082445 22497 41801 10259 20251 30112 40164 83240 333 20230 59019 60054=","","","","","","","","","",""
"82445099999","2021-07-23T20:00:00","-4.2666666","-55.9833333","45.0","ITAITUBA, BR","FM-12","4","","82","85","","","","","90","BKN:05 74","29.93","29.78","6.21","83","000","","0","","","","","","","","","","","","","","","","","","","","","","","","","","","","","","","","","","","","","","","","","","","","","","","","","","","","","","","","","","","","","","","","","","","","","","","","","","","","","","","","","","","","","","","","","","","SYN07682445 32897 50000 10296 20278 30083 40135 85090 333 10347 29092 55076 59019=","","","","","","","","","",""
"82445099999","2021-07-24T08:00:00","-4.2666666","-55.9833333","45.0","ITAITUBA, BR","FM-12","4","","77","80","","","","9","91","FEW:01 26","30.01","29.85","31.07","78","180","","2","","","","","","","","","","","","","","","","","","","","","","","","","","","","","","","","","","","","","","","","","","","","","","","","","","","","","","","","","","","","","","","","","","","","","","","","","","","","","","","","","","","","","","","","","","","SYN06482445 32599 21802 10268 20252 30110 40162 81101 333 20223 58012=","","","","","","","","","",""
"82445099999","2021-07-24T20:00:00","-4.2666666","-55.9833333","45.0","ITAITUBA, BR","FM-12","4","","80","85","","","","","86","","29.93","29.78","6.21","81","000","","0","","","","","","","","","","","","","","","","","","","","","","","","","","","","","","","","","","","","","","","","","","","","","","","","","","","","","","","","","","","","","","","","","","","","","","","","","","","","","","","","","","","","","","","","","","","SYN07082445 32997 00000 10292 20266 30083 40135 333 10353 29088 55099 58000=","","","","","","","","","",""
"82445099999","2021-07-26T08:00:00","-4.2666666","-55.9833333","45.0","ITAITUBA, BR","FM-12","4","","74","79","","","","9","85","FEW:02 26","30.00","29.85","12.43","76","000","","0","","","","","","","","","","","","","","","","","","","","","","","","","","","","","","","","","","","","","","","","","","","","","","","","","","","","","","","","","","","","","","","","","","","","","","","","","","","","","","","","","","","","","","","","","","","SYN06482445 32598 60000 10262 20235 30107 40159 82141 333 20214 59003=","","","","","","","","","",""
"82445099999","2021-07-26T20:00:00","-4.2666666","-55.9833333","45.0","ITAITUBA, BR","FM-12","4","","81","85","","","","","87","","29.93","29.77","6.21","82","000","","0","","","","","","","","","","","","","","","","","","","","","","","","","","","","","","","","","","","","","","","","","","","","","","","","","","","","","","","","","","","","","","","","","","","","","","","","","","","","","","","","","","","","","","","","","","","SYN07082445 32997 00000 10294 20270 30082 40134 333 10346 29086 55095 59001=","","","","","","","","","",""
"82445099999","2021-07-27T08:00:00","-4.2666666","-55.9833333","45.0","ITAITUBA, BR","FM-12","4","","75","80","","","","9","85","","30.00","29.85","31.07","77","000","","0","","","","","","","","","","","","","","","","","","","","","","","","","","","","","","","","","","","","","","","","","","","","","","","","","","","","","","","","","","","","","","","","","","","","","","","","","","","","","","","","","","","","","","","","","","","SYN05882445 32999 00000 10266 20239 30108 40160 333 20225 58001=","","","","","","","","","",""
"82445099999","2021-07-27T20:00:00","-4.2666666","-55.9833333","45.0","ITAITUBA, BR","FM-12","4","","81","87","","","","","83","","29.92","29.77","6.21","83","000","","0","","","","","","","","","","","","","","","","","","","","","","","","","","","","","","","","","","","","","","","","","","","","","","","","","","","","","","","","","","","","","","","","","","","","","","","","","","","","","","","","","","","","","","","","","","","SYN07082445 32997 00000 10304 20272 30080 40132 333 10363 29084 55102 59002=","","","","","","","","","",""
"82445099999","2021-07-28T08:00:00","-4.2666666","-55.9833333","45.0","ITAITUBA, BR","FM-12","4","","76","80","","","","9","89","","30.00","29.84","31.07","77","140","","2","","","","","","","","","","","","","","","","","","","","","","","","","","","","","","","","","","","","","","","","","","","","","","","","","","","","","","","","","","","","","","","","","","","","","","","","","","","","","","","","","","","","","","","","","","","SYN05882445 32999 01402 10264 20244 30106 40158 333 20218 59002=","","","","","","","","","",""
"82445099999","2021-07-28T20:00:00","-4.2666666","-55.9833333","45.0","ITAITUBA, BR","FM-12","4","","82","85","","","","","90","","29.92","29.77","6.21","83","000","","0","","","","","","","","","","","","","","","","","","","","","","","","","","","","","","","","","","","","","","","","","","","","","","","","","","","","","","","","","","","","","","","","","","","","","","","","","","","","","","","","","","","","","","","","","","","SYN07082445 32997 00000 10296 20278 30080 40132 333 10360 29090 55101 58000=","","","","","","","","","",""
"82445099999","2021-07-29T08:00:00","-4.2666666","-55.9833333","45.0","ITAITUBA, BR","FM-12","4","","74","79","","","","9","86","BKN:06","30.02","29.87","12.43","76","140","","1","","","","","","","","","","","","","","","","","","","","","","","","","","","","","","","","","","","","","","","","","","","","","","","","","","","","","","","","","","","","","","","","","","","","","","","","","","","","","","","","","","","","","","","","","","","SYN06482445 32998 61401 10260 20235 30115 40167 86030 333 20227 58009=","","","","","","","","","",""
"82445099999","2021-07-29T20:00:00","-4.2666666","-55.9833333","45.0","ITAITUBA, BR","FM-12","4","","81","85","","","","","86","FEW:02 26","29.96","29.81","6.21","82","000","","0","","","","","","","","","","","","","","","","","","","","","","","","","","","","","","","","","","","","","","","","","","","","","","","","","","","","","","","","","","","","","","","","","","","","","","","","","","","","","","","","","","","","","","","","","","","SYN07682445 32597 20000 10296 20270 30095 40147 82200 333 10350 29086 55074 58015=","","","","","","","","","",""
"82445099999","2021-07-30T08:00:00","-4.2666666","-55.9833333","45.0","ITAITUBA, BR","FM-12","4","","72","78","","","","9","81","SCT:03 41","30.06","29.91","6.21","74","140","","1","","","","","","","","","","","","","","","","","","","","","","","","","","","","","","","","","","","","","","","","","","","","","","","","","","","","","","","","","","","","","","","","","","","","","","","","","","","","","","","","","","","","","","","","","","","SYN06482445 32697 71401 10256 20221 30127 40180 83570 333 20230 58012=","","","","","","","","","",""
"82445099999","2021-07-30T20:00:00","-4.2666666","-55.9833333","45.0","ITAITUBA, BR","FM-12","4","","78","81","","","","","92","FEW:02 26","30.02","29.87","2.49","79","000","","0","","","","","","","","","","","","","","","","","","","","","","","","","","","","","","","","","","","","","","","","","","","","","","","","","","","","","","","","","","","","","","","","","","","","","","","","","","","","","","","","","","","","","","","","","","","SYN07682445 32596 50000 10271 20256 30114 40166 82270 333 10336 29088 55029 59019=","","","","","","","","","",""
"82445099999","2021-07-31T08:00:00","-4.2666666","-55.9833333","45.0","ITAITUBA, BR","FM-12","4","","77","80","","","","9","90","SCT:03 26","30.09","29.93","6.21","78","000","","0","","","","","","","","","","","","","","","","","","","","","","","","","","","","","","","","","","","","","","","","","","","","","","","","","","","","","","","","","","","","","","","","","","","","","","","","","","","","","","","","","","","","","","","","","","","SYN06482445 32597 60000 10266 20248 30136 40188 83230 333 20230 58009=","","","","","","","","","",""
"82445099999","2021-07-31T14:00:00","-4.2666666","-55.9833333","45.0","ITAITUBA, BR","FM-12","4","","79","86","","","","","80","SCT:03 41","30.01","29.86","6.21","81","360","","2","","","","","","","","","","","","","","","","","","","","","","","","","","","","","","","","","","","","","","","","","","","","","","","","","","","","","","","","","","","","","","","","","","","","","","","","","","","","","","","","","","","","","","","","","","","SYN05882445 32697 63602 10300 20262 30111 40163 83571 333 5////=","","","","","","","","","",""
"82445099999","2021-07-31T20:00:00","-4.2666666","-55.9833333","45.0","ITAITUBA, BR","FM-12","4","","77","81","","","","","90","SCT:03 41","30.04","29.88","1.24","78","000","","0","","","","","","","","","","","","","","","","","","","","","","","","","","","","","","","","","","","","","","","","","","","","","","","","","","","","","","","","","","","","","","","","","","","","","","","","","","","","","","","","","","","","","","","","","","","SYN07682445 32695 80000 10270 20252 30120 40172 8352/ 333 10310 29088 55026 58006=","","","","","","","","","",""
"82445099999","2021-08-02T08:00:00","-4.2666666","-55.9833333","45.0","ITAITUBA, BR","FM-12","4","","76","80","","","","9","89","BKN:05 26","29.80","29.95","2.49","77","000","","0","","","","","","","","","","","","","","","","","","","","","","","","","","","","","","","","","","","","","","","","","","","","","","","","","","","","","","","","","","","","","","","","","","","","","","","","","","","","","","","","","","","","","","","","","","","SYN07682445 21596 80000 10264 20244 30142 40090 70352 8578/ 333 20224 58006 60024=","","","","","","","","","",""
"82445099999","2021-08-02T20:00:00","-4.2666666","-55.9833333","45.0","ITAITUBA, BR","FM-12","4","","78","79","","","","","98","SCT:03 41","30.05","29.88","2.49","78","000","","0","","","","","","","","","","","","","","","","","","","","","","","","","","","","","","","","","","","","","","","","","","","","","","","","","","","","","","","","","","","","","","","","","","","","","","","","","","","","","","","","","","","","","","","","","","","SYN08882445 21696 60000 10260 20257 30118 40176 70352 83570 333 10317 29095 55056 59024 60381=","","","","","","","","","",""
"82445099999","2021-08-03T08:00:00","-4.2666666","-55.9833333","45.0","ITAITUBA, BR","FM-12","4","","75","77","","","","9","96","OVC:08 15","30.09","29.93","1.24","76","000","","0","","","","","","","","","","","","","","","","","","","","","","","","","","","","","","","","","","","","","","","","","","","","","","","","","","","","","","","","","","","","","","","","","","","","","","","","","","","","","","","","","","","","","","","","","","","SYN07082445 22495 80000 10248 20241 30136 40189 886// 333 20217 59006 60384=","","","","","","","","","",""
"82445099999","2021-08-03T20:00:00","-4.2666666","-55.9833333","45.0","ITAITUBA, BR","FM-12","4","","80","83","","","","","89","SCT:04 41","30.01","29.85","2.49","81","000","","0","","","","","","","","","","","","","","","","","","","","","","","","","","","","","","","","","","","","","","","","","","","","","","","","","","","","","","","","","","","","","","","","","","","","","","","","","","","","","","","","","","","","","","","","","","","SYN07682445 32696 80000 10284 20264 30110 40162 8457/ 333 10337 29091 55074 59008=","","","","","","","","","",""
"82445099999","2021-08-04T08:00:00","-4.2666666","-55.9833333","45.0","ITAITUBA, BR","FM-12","4","","76","79","","","","9","92","FEW:01 26","30.06","29.90","12.43","77","000","","0","","","","","","","","","","","","","","","","","","","","","","","","","","","","","","","","","","","","","","","","","","","","","","","","","","","","","","","","","","","","","","","","","","","","","","","","","","","","","","","","","","","","","","","","","","","SYN06482445 32598 40000 10260 20246 30126 40178 81180 333 20227 59010=","","","","","","","","","",""
"82445099999","2021-08-04T20:00:00","-4.2666666","-55.9833333","45.0","ITAITUBA, BR","FM-12","4","","84","87","","","","","91","SCT:04 74","29.98","29.83","2.49","85","000","","0","","","","","","","","","","","","","","","","","","","","","","","","","","","","","","","","","","","","","","","","","","","","","","","","","","","","","","","","","","","","","","","","","","","","","","","","","","","","","","","","","","","","","","","","","","","SYN07682445 32896 40000 10305 20289 30100 40152 84250 333 10358 29091 55097 59010=","","","","","","","","","",""
"82445099999","2021-08-05T08:00:00","-4.2666666","-55.9833333","45.0","ITAITUBA, BR","FM-12","4","","76","79","","","","9","90","FEW:01 26","30.07","29.93","6.21","77","000","","0","","","","","","","","","","","","","","","","","","","","","","","","","","","","","","","","","","","","","","","","","","","","","","","","","","","","","","","","","","","","","","","","","","","","","","","","","","","","","","","","","","","","","","","","","","","SYN06482445 32597 40000 10260 20242 30135 40183 81109 333 20221 59005=","","","","","","","","","",""
"82445099999","2021-08-05T20:00:00","-4.2666666","-55.9833333","45.0","ITAITUBA, BR","FM-12","4","","81","86","","","","","85","SCT:03 41","30.00","29.85","1.24","82","360","","1","","","","","","","","","","","","","","","","","","","","","","","","","","","","","","","","","","","","","","","","","","","","","","","","","","","","","","","","","","","","","","","","","","","","","","","","","","","","","","","","","","","","","","","","","","","SYN07682445 32695 53601 10302 20274 30108 40160 83570 333 10356 29087 55099 58008=","","","","","","","","","",""
"82445099999","2021-08-06T08:00:00","-4.2666666","-55.9833333","45.0","ITAITUBA, BR","FM-12","4","","76","80","","","","9","88","BKN:05 41","30.08","29.93","6.21","77","000","","0","","","","","","","","","","","","","","","","","","","","","","","","","","","","","","","","","","","","","","","","","","","","","","","","","","","","","","","","","","","","","","","","","","","","","","","","","","","","","","","","","","","","","","","","","","","SYN06482445 32697 50000 10267 20246 30135 40187 85400 333 20225 58004=","","","","","","","","","",""
"82445099999","2021-08-07T08:00:00","-4.2666666","-55.9833333","45.0","ITAITUBA, BR","FM-12","4","","77","80","","","","9","90","74","30.01","29.86","6.21","78","000","","0","","","","","","","","","","","","","","","","","","","","","","","","","","","","","","","","","","","","","","","","","","","","","","","","","","","","","","","","","","","","","","","","","","","","","","","","","","","","","","","","","","","","","","","","","","","SYN06482445 32897 50000 10266 20248 30111 40163 80009 333 20231 59024=","","","","","","","","","",""
"82445099999","2021-08-07T20:00:00","-4.2666666","-55.9833333","45.0","ITAITUBA, BR","FM-12","4","","84","86","","","","","93","","30.04","29.79","6.21","84","000","","0","","","","","","","","","","","","","","","","","","","","","","","","","","","","","","","","","","","","","","","","","","","","","","","","","","","","","","","","","","","","","","","","","","","","","","","","","","","","","","","","","","","","","","","","","","","SYN07082445 32997 80000 10300 20287 30087 40172 333 10348 29092 55095 59013=","","","","","","","","","",""
"82445099999","2021-08-09T08:00:00","-4.2666666","-55.9833333","45.0","ITAITUBA, BR","FM-12","4","","74","80","","","","9","82","","30.03","29.87","12.43","76","000","","0","","","","","","","","","","","","","","","","","","","","","","","","","","","","","","","","","","","","","","","","","","","","","","","","","","","","","","","","","","","","","","","","","","","","","","","","","","","","","","","","","","","","","","","","","","","SYN05882445 32998 00000 10268 20235 30116 40168 333 20235 58012=","","","","","","","","","",""
"82445099999","2021-08-09T20:00:00","-4.2666666","-55.9833333","45.0","ITAITUBA, BR","FM-12","4","","83","89","","","","","85","FEW:02 41","29.94","29.79","2.49","84","000","","0","","","","","","","","","","","","","","","","","","","","","","","","","","","","","","","","","","","","","","","","","","","","","","","","","","","","","","","","","","","","","","","","","","","","","","","","","","","","","","","","","","","","","","","","","","","SYN07682445 32696 50000 10314 20286 30087 40139 82550 333 10361 29084 55101 58000=","","","","","","","","","",""
"82445099999","2021-08-10T08:00:00","-4.2666666","-55.9833333","45.0","ITAITUBA, BR","FM-12","4","","74","81","","","","9","79","SCT:04 74","30.03","29.87","2.49","76","090","","1","","","","","","","","","","","","","","","","","","","","","","","","","","","","","","","","","","","","","","","","","","","","","","","","","","","","","","","","","","","","","","","","","","","","","","","","","","","","","","","","","","","","","","","","","","","SYN07082445 31896 40901 10274 20234 30116 40168 71011 84080 333 20265 58000=","","","","","","","","","",""
"82445099999","2021-08-11T08:00:00","-4.2666666","-55.9833333","45.0","ITAITUBA, BR","FM-12","4","","78","81","","","","9","89","BKN:07 74","29.98","29.83","6.21","79","000","","0","","","","","","","","","","","","","","","","","","","","","","","","","","","","","","","","","","","","","","","","","","","","","","","","","","","","","","","","","","","","","","","","","","","","","","","","","","","","","","","","","","","","","","","","","","","SYN06482445 32897 70000 10273 20254 30102 40154 87080 333 20239 59014=","","","","","","","","","",""
"82445099999","2021-08-11T20:00:00","-4.2666666","-55.9833333","45.0","ITAITUBA, BR","FM-12","4","","82","84","","","","","94","SCT:03 26","29.91","29.75","2.49","83","000","","0","","","","","","","","","","","","","","","","","","","","","","","","","","","","","","","","","","","","","","","","","","","","","","","","","","","","","","","","","","","","","","","","","","","","","","","","","","","","","","","","","","","","","","","","","","","SYN07682445 32596 60000 10288 20277 30076 40128 83380 333 10378 29093 55085 58008=","","","","","","","","","",""
"82445099999","2021-08-12T08:00:00","-4.2666666","-55.9833333","45.0","ITAITUBA, BR","FM-12","4","","78","82","","","","9","86","74","29.99","29.83","6.21","79","000","","0","","","","","","","","","","","","","","","","","","","","","","","","","","","","","","","","","","","","","","","","","","","","","","","","","","","","","","","","","","","","","","","","","","","","","","","","","","","","","","","","","","","","","","","","","","","SYN07082445 31897 60000 10280 20254 30103 40155 71011 80001 333 20235 59001=","","","","","","","","","",""
"82445099999","2021-08-12T14:00:00","-4.2666666","-55.9833333","45.0","ITAITUBA, BR","FM-12","4","","81","86","","","","9","85","BKN:06 26","29.92","29.77","1.24","82","140","","5","","","","","","","","","","","","","","","","","","","","","","","","","","","","","","","","","","","","","","","","","","","","","","","","","","","","","","","","","","","","","","","","","","","","","","","","","","","","","","","","","","","","","","","","","","","SYN07082445 21595 61404 10302 20274 30080 40132 72922 863// 333 58004 60071=","","","","","","","","","",""
"82445099999","2021-08-12T20:00:00","-4.2666666","-55.9833333","45.0","ITAITUBA, BR","FM-12","4","","77","80","","","","","91","SCT:04 41","29.89","29.74","1.24","78","000","","0","","","","","","","","","","","","","","","","","","","","","","","","","","","","","","","","","","","","","","","","","","","","","","","","","","","","","","","","","","","","","","","","","","","","","","","","","","","","","","","","","","","","","","","","","","","SYN08882445 21695 80000 10268 20252 30070 40122 70262 8457/ 333 10368 29089 55077 59008 60021=","","","","","","","","","",""
"82445099999","2021-08-13T08:00:00","-4.2666666","-55.9833333","45.0","ITAITUBA, BR","FM-12","4","","76","78","","","","9","94","OVC:08 74","30.00","29.84","2.49","77","000","","0","","","","","","","","","","","","","","","","","","","","","","","","","","","","","","","","","","","","","","","","","","","","","","","","","","","","","","","","","","","","","","","","","","","","","","","","","","","","","","","","","","","","","","","","","","","SYN07082445 22896 80000 10254 20244 30106 40158 8807/ 333 20227 58003 60094=","","","","","","","","","",""
"82445099999","2021-08-13T20:00:00","-4.2666666","-55.9833333","45.0","ITAITUBA, BR","FM-12","4","","77","80","","||TS","","","92","SCT:03 26","29.97","29.82","1.24","78","000","","0","","","","","","","","","","","","","","","","","","","","","","","","","","","","","","","","","","","","","","","","","","","","","","","","","","","","","","","","","","","","","","","","","","","","","","","","","","","","","","","","","","","","","","","","","","","SYN08282445 31595 60000 10266 20252 30098 40150 71711 83570 333 10333 29093 55021 58028=","","","","","","","","","",""
"82445099999","2021-08-14T08:00:00","-4.2666666","-55.9833333","45.0","ITAITUBA, BR","FM-12","4","","73","75","","","","9","94","SCT:04 15","30.06","29.91","1.24","74","000","","0","","","","","","","","","","","","","","","","","","","","","","","","","","","","","","","","","","","","","","","","","","","","","","","","","","","","","","","","","","","","","","","","","","","","","","","","","","","","","","","","","","","","","","","","","","","SYN07682445 21495 80000 10240 20230 30128 40181 70396 8477/ 333 20215 58022 60044=","","","","","","","","","",""
"82445099999","2021-08-14T20:00:00","-4.2666666","-55.9833333","45.0","ITAITUBA, BR","FM-12","4","","82","83","","","","","95","BKN:06 74","29.97","29.81","2.49","82","000","","0","","","","","","","","","","","","","","","","","","","","","","","","","","","","","","","","","","","","","","","","","","","","","","","","","","","","","","","","","","","","","","","","","","","","","","","","","","","","","","","","","","","","","","","","","","","SYN07682445 32896 80000 10286 20277 30096 40148 86071 333 10333 29095 55047 59002=","","","","","","","","","",""
"82445099999","2021-08-16T08:00:00","-4.2666666","-55.9833333","45.0","ITAITUBA, BR","FM-12","4","","77","78","","","","9","94","OVC:08 26","30.00","29.85","2.49","77","000","","0","","","","","","","","","","","","","","","","","","","","","","","","","","","","","","","","","","","","","","","","","","","","","","","","","","","","","","","","","","","","","","","","","","","","","","","","","","","","","","","","","","","","","","","","","","","SYN06482445 32596 80000 10258 20248 30107 40159 88200 333 20229 58001=","","","","","","","","","",""
"82445099999","2021-08-16T20:00:00","-4.2666666","-55.9833333","45.0","ITAITUBA, BR","FM-12","4","","80","82","","","","","92","SCT:03 26","29.92","29.77","2.49","81","000","","0","","","","","","","","","","","","","","","","","","","","","","","","","","","","","","","","","","","","","","","","","","","","","","","","","","","","","","","","","","","","","","","","","","","","","","","","","","","","","","","","","","","","","","","","","","","SYN07682445 32596 60000 10280 20266 30080 40132 83550 333 10338 29095 55048 59003=","","","","","","","","","",""
"82445099999","2021-08-17T08:00:00","-4.2666666","-55.9833333","45.0","ITAITUBA, BR","FM-12","4","","77","80","","","","9","92","SCT:04 26","29.97","29.81","6.21","78","000","","0","","","","","","","","","","","","","","","","","","","","","","","","","","","","","","","","","","","","","","","","","","","","","","","","","","","","","","","","","","","","","","","","","","","","","","","","","","","","","","","","","","","","","","","","","","","SYN06482445 32597 60000 10264 20250 30096 40148 84102 333 20226 59011=","","","","","","","","","",""
"82445099999","2021-08-17T20:00:00","-4.2666666","-55.9833333","45.0","ITAITUBA, BR","FM-12","4","","83","87","","","","","88","","29.90","29.75","6.21","84","000","","0","","","","","","","","","","","","","","","","","","","","","","","","","","","","","","","","","","","","","","","","","","","","","","","","","","","","","","","","","","","","","","","","","","","","","","","","","","","","","","","","","","","","","","","","","","","SYN07082445 32997 00000 10308 20286 30074 40125 333 10358 29089 55096 59006=","","","","","","","","","",""
"82445099999","2021-08-18T08:00:00","-4.2666666","-55.9833333","45.0","ITAITUBA, BR","FM-12","4","","78","81","","","","9","92","","30.01","29.85","12.43","79","000","","0","","","","","","","","","","","","","","","","","","","","","","","","","","","","","","","","","","","","","","","","","","","","","","","","","","","","","","","","","","","","","","","","","","","","","","","","","","","","","","","","","","","","","","","","","","","SYN05882445 32998 00000 10272 20258 30110 40162 333 20229 58014=","","","","","","","","","",""
"82445099999","2021-08-18T20:00:00","-4.2666666","-55.9833333","45.0","ITAITUBA, BR","FM-12","4","","85","88","","","","","92","OVC:08s","29.88","29.73","6.21","86","000","","0","","","","","","","","","","","","","","","","","","","","","","","","","","","","","","","","","","","","","","","","","","","","","","","","","","","","","","","","","","","","","","","","","","","","","","","","","","","","","","","","","","","","","","","","","","","SYN07682445 32997 70000 10312 20297 30067 40118 88000 333 10368 29092 55102 58007=","","","","","","","","","",""
"82445099999","2021-08-19T08:00:00","-4.2666666","-55.9833333","45.0","ITAITUBA, BR","FM-12","4","","77","80","","","","9","91","FEW:02 26","30.10","29.80","2.49","78","000","","0","","","","","","","","","","","","","","","","","","","","","","","","","","","","","","","","","","","","","","","","","","","","","","","","","","","","","","","","","","","","","","","","","","","","","","","","","","","","","","","","","","","","","","","","","","","SYN07082445 31596 50000 10268 20252 30091 40193 71011 82102 333 20258 59019=","","","","","","","","","",""
"82445099999","2021-08-19T20:00:00","-4.2666666","-55.9833333","45.0","ITAITUBA, BR","FM-12","4","","82","89","","","","","82","FEW:02 26","29.83","29.68","2.49","84","000","","0","","","","","","","","","","","","","","","","","","","","","","","","","","","","","","","","","","","","","","","","","","","","","","","","","","","","","","","","","","","","","","","","","","","","","","","","","","","","","","","","","","","","","","","","","","","SYN07682445 32596 60000 10314 20279 30051 40102 82570 333 10368 29085 55099 59016=","","","","","","","","","",""
"82445099999","2021-08-20T08:00:00","-4.2666666","-55.9833333","45.0","ITAITUBA, BR","FM-12","4","","78","81","","","","9","90","","29.92","29.77","6.21","79","090","","1","","","","","","","","","","","","","","","","","","","","","","","","","","","","","","","","","","","","","","","","","","","","","","","","","","","","","","","","","","","","","","","","","","","","","","","","","","","","","","","","","","","","","","","","","","","SYN06482445 31997 00901 10274 20256 30080 40132 71011 333 20242 59011=","","","","","","","","","",""
"82445099999","2021-08-20T20:00:00","-4.2666666","-55.9833333","45.0","ITAITUBA, BR","FM-12","4","","85","88","","","","","89","","29.83","29.68","2.49","86","000","","0","","","","","","","","","","","","","","","","","","","","","","","","","","","","","","","","","","","","","","","","","","","","","","","","","","","","","","","","","","","","","","","","","","","","","","","","","","","","","","","","","","","","","","","","","","","SYN07682445 31996 00000 10312 20292 30052 40103 71011 333 10358 29089 55103 58001=","","","","","","","","","",""
"82445099999","2021-08-21T20:00:00","-4.2666666","-55.9833333","45.0","ITAITUBA, BR","FM-12","4","","83","89","","","","","82","","29.83","29.68","12.43","84","000","","0","","","","","","","","","","","","","","","","","","","","","","","","","","","","","","","","","","","","","","","","","","","","","","","","","","","","","","","","","","","","","","","","","","","","","","","","","","","","","","","","","","","","","","","","","","","SYN07082445 32998 00000 10318 20283 30051 40103 333 10370 29076 55100 59001=","","","","","","","","","",""
"82445099999","2021-08-23T08:00:00","-4.2666666","-55.9833333","45.0","ITAITUBA, BR","FM-12","4","","78","83","","","","9","84","","29.87","29.72","12.43","79","090","","5","","","","","","","","","","","","","","","","","","","","","","","","","","","","","","","","","","","","","","","","","","","","","","","","","","","","","","","","","","","","","","","","","","","","","","","","","","","","","","","","","","","","","","","","","","","SYN05882445 32998 00904 10284 20254 30064 40116 333 20245 59006=","","","","","","","","","",""
"82445099999","2021-08-23T20:00:00","-4.2666666","-55.9833333","45.0","ITAITUBA, BR","FM-12","4","","81","83","","","","","95","SCT:03 26","29.80","29.65","1.24","82","000","","0","","","","","","","","","","","","","","","","","","","","","","","","","","","","","","","","","","","","","","","","","","","","","","","","","","","","","","","","","","","","","","","","","","","","","","","","","","","","","","","","","","","","","","","","","","","SYN08282445 31595 70000 10284 20275 30040 40092 72992 83570 333 10363 29091 55088 59006=","","","","","","","","","",""
"82445099999","2021-08-24T08:00:00","-4.2666666","-55.9833333","45.0","ITAITUBA, BR","FM-12","4","","77","81","","","","9","86","74","29.92","29.77","6.21","78","000","","0","","","","","","","","","","","","","","","","","","","","","","","","","","","","","","","","","","","","","","","","","","","","","","","","","","","","","","","","","","","","","","","","","","","","","","","","","","","","","","","","","","","","","","","","","","","SYN07082445 31897 20000 10275 20250 30080 40132 71011 80001 333 20231 58016=","","","","","","","","","",""
"82445099999","2021-08-24T20:00:00","-4.2666666","-55.9833333","45.0","ITAITUBA, BR","FM-12","4","","83","86","","","","","92","FEW:02 26","29.81","29.65","2.49","84","000","","0","","","","","","","","","","","","","","","","","","","","","","","","","","","","","","","","","","","","","","","","","","","","","","","","","","","","","","","","","","","","","","","","","","","","","","","","","","","","","","","","","","","","","","","","","","","SYN08282445 31596 50000 10300 20286 30040 40096 71011 82270 333 10363 29088 55091 58000=","","","","","","","","","",""
"82445099999","2021-08-25T08:00:00","-4.2666666","-55.9833333","45.0","ITAITUBA, BR","FM-12","4","","77","83","","","","9","83","SCT:03 41","29.89","29.74","6.21","79","090","","5","","","","","","","","","","","","","","","","","","","","","","","","","","","","","","","","","","","","","","","","","","","","","","","","","","","","","","","","","","","","","","","","","","","","","","","","","","","","","","","","","","","","","","","","","","","SYN06482445 32697 50904 10284 20252 30070 40122 83501 333 20235 59010=","","","","","","","","","",""
"82445099999","2021-08-25T20:00:00","-4.2666666","-55.9833333","45.0","ITAITUBA, BR","FM-12","4","","83","86","","","","","89","","29.85","29.70","31.07","84","000","","0","","","","","","","","","","","","","","","","","","","","","","","","","","","","","","","","","","","","","","","","","","","","","","","","","","","","","","","","","","","","","","","","","","","","","","","","","","","","","","","","","","","","","","","","","","","SYN07082445 32999 00000 10302 20282 30056 40108 333 10358 29087 55100 58016=","","","","","","","","","",""
"82445099999","2021-08-26T08:00:00","-4.2666666","-55.9833333","45.0","ITAITUBA, BR","FM-12","4","","79","84","","","","9","85","BKN:05 41","29.94","29.79","6.21","80","050","","2","","","","","","","","","","","","","","","","","","","","","","","","","","","","","","","","","","","","","","","","","","","","","","","","","","","","","","","","","","","","","","","","","","","","","","","","","","","","","","","","","","","","","","","","","","","SYN06482445 32697 50502 10290 20262 30088 40140 85500 333 20241 58018=","","","","","","","","","",""
"82445099999","2021-08-26T20:00:00","-4.2666666","-55.9833333","45.0","ITAITUBA, BR","FM-12","4","","81","86","","","","","83","FEW:02 26","29.83","29.68","2.49","82","050","","1","","","","","","","","","","","","","","","","","","","","","","","","","","","","","","","","","","","","","","","","","","","","","","","","","","","","","","","","","","","","","","","","","","","","","","","","","","","","","","","","","","","","","","","","","","","SYN07682445 32596 60501 10302 20270 30051 40103 82571 333 10353 29084 55100 59005=","","","","","","","","","",""
"82445099999","2021-08-27T08:00:00","-4.2666666","-55.9833333","45.0","ITAITUBA, BR","FM-12","4","","79","81","","","","9","94","FEW:02 26","29.93","29.78","2.49","80","000","","0","","","","","","","","","","","","","","","","","","","","","","","","","","","","","","","","","","","","","","","","","","","","","","","","","","","","","","","","","","","","","","","","","","","","","","","","","","","","","","","","","","","","","","","","","","","SYN06482445 32596 80000 10274 20263 30083 40135 82272 333 20247 59005=","","","","","","","","","",""
"82445099999","2021-08-27T20:00:00","-4.2666666","-55.9833333","45.0","ITAITUBA, BR","FM-12","4","","81","84","","","","","92","SCT:04 26","29.87","29.71","2.49","82","230","","1","","","","","","","","","","","","","","","","","","","","","","","","","","","","","","","","","","","","","","","","","","","","","","","","","","","","","","","","","","","","","","","","","","","","","","","","","","","","","","","","","","","","","","","","","","","SYN08282445 31596 42301 10288 20274 30062 40114 72911 84200 333 10327 29093 55000 58011=","","","","","","","","","",""
"82445099999","2021-08-28T20:00:00","-4.2666666","-55.9833333","45.0","ITAITUBA, BR","FM-12","4","","78","82","","","","","89","SCT:03 41","29.92","29.77","2.49","79","000","","0","","","","","","","","","","","","","","","","","","","","","","","","","","","","","","","","","","","","","","","","","","","","","","","","","","","","","","","","","","","","","","","","","","","","","","","","","","","","","","","","","","","","","","","","","","","SYN07682445 32696 40000 10276 20256 30080 40132 83052 333 10343 29091 55076 58002=","","","","","","","","","",""
"82445099999","2021-08-29T20:00:00","-4.2666666","-55.9833333","45.0","ITAITUBA, BR","FM-12","4","","78","84","","","","","83","SCT:04 26","29.91","29.75","1.24","80","050","","6","","","","","","","","","","","","","","","","","","","","","","","","","","","","","","","","","","","","","","","","","","","","","","","","","","","","","","","","","","","","","","","","","","","","","","","","","","","","","","","","","","","","","","","","","","","SYN08282445 31595 70505 10290 20258 30076 40128 72911 8427/ 333 10353 29084 55095 58004=","","","","","","","","","",""
"82445099999","2021-08-30T08:00:00","-4.2666666","-55.9833333","45.0","ITAITUBA, BR","FM-12","4","","72","74","","","","9","93","OVC:08 74","29.97","29.81","6.21","73","000","","0","","","","","","","","","","","","","","","","","","","","","","","","","","","","","","","","","","","","","","","","","","","","","","","","","","","","","","","","","","","","","","","","","","","","","","","","","","","","","","","","","","","","","","","","","","","SYN07682445 21897 80000 10232 20220 30095 40148 70362 8807/ 333 20211 59012 60164=","","","","","","","","","",""
"82445099999","2021-08-30T20:00:00","-4.2666666","-55.9833333","45.0","ITAITUBA, BR","FM-12","4","","79","85","","","","","84","SCT:03 26","29.89","29.74","1.24","81","000","","0","","","","","","","","","","","","","","","","","","","","","","","","","","","","","","","","","","","","","","","","","","","","","","","","","","","","","","","","","","","","","","","","","","","","","","","","","","","","","","","","","","","","","","","","","","","SYN08282445 31595 50000 10292 20262 30070 40122 71311 83270 333 10343 29087 55049 59006=","","","","","","","","","",""
"82445099999","2021-08-31T08:00:00","-4.2666666","-55.9833333","45.0","ITAITUBA, BR","FM-12","4","","74","76","","||RA","","9","96","OVC:08 15","30.00","29.85","0.62","75","140","","1","","","","","","","","","","","","","","","","","","","","","","","","","","","","","","","","","","","","","","","","","","","","","","","","","","","","","","","","","","","","","","","","","","","","","","","","","","","","","","","","","","","","","","","","","","","SYN07682445 21494 81401 10242 20235 30107 40160 76292 887// 333 20217 58012 60464=","","","","","","","","","",""
"82445099999","2021-08-31T14:00:00","-4.2666666","-55.9833333","45.0","ITAITUBA, BR","FM-12","4","","79","86","","","","9","80","SCT:04 26","29.88","29.73","12.43","81","140","","5","","","","","","","","","","","","","","","","","","","","","","","","","","","","","","","","","","","","","","","","","","","","","","","","","","","","","","","","","","","","","","","","","","","","","","","","","","","","","","","","","","","","","","","","","","","SYN07082445 21598 51404 10300 20262 30068 40120 70365 84201 333 58014 60071=","","","","","","","","","",""
"82445099999","2021-08-31T20:00:00","-4.2666666","-55.9833333","45.0","ITAITUBA, BR","FM-12","4","","77","81","","","","","89","SCT:03 41","29.94","29.78","1.24","78","140","","2","","","","","","","","","","","","","","","","","","","","","","","","","","","","","","","","","","","","","","","","","","","","","","","","","","","","","","","","","","","","","","","","","","","","","","","","","","","","","","","","","","","","","","","","","","","SYN08882445 21695 81402 10272 20252 30086 40138 71352 8352/ 333 10326 29088 55030 58016 69911=","","","","","","","","","",""
"82445099999","2021-09-01T08:00:00","-4.2666666","-55.9833333","45.0","ITAITUBA, BR","FM-12","4","","75","77","","","","9","94","SCT:03 41","30.01","29.85","6.21","76","140","","2","","","","","","","","","","","","","","","","","","","","","","","","","","","","","","","","","","","","","","","","","","","","","","","","","","","","","","","","","","","","","","","","","","","","","","","","","","","","","","","","","","","","","","","","","","","SYN07682445 21697 71402 10250 20240 30108 40161 70396 83530 333 20218 58001 60434=","","","","","","","","","",""
"82445099999","2021-09-01T14:00:00","-4.2666666","-55.9833333","45.0","ITAITUBA, BR","FM-12","4","","79","87","","","","9","77","FEW:02 26","29.91","29.75","12.43","81","180","","1","","","","","","","","","","","","","","","","","","","","","","","","","","","","","","","","","","","","","","","","","","","","","","","","","","","","","","","","","","","","","","","","","","","","","","","","","","","","","","","","","","","","","","","","","","","SYN07082445 21598 31801 10306 20261 30075 40127 70152 82240 333 58007 69911=","","","","","","","","","",""
"82445099999","2021-09-01T20:00:00","-4.2666666","-55.9833333","45.0","ITAITUBA, BR","FM-12","4","","79","81","","","","","93","SCT:03 41","29.95","29.80","1.24","80","000","","0","","","","","","","","","","","","","","","","","","","","","","","","","","","","","","","","","","","","","","","","","","","","","","","","","","","","","","","","","","","","","","","","","","","","","","","","","","","","","","","","","","","","","","","","","","","SYN08882445 21695 80000 10272 20260 30090 40142 70252 8352/ 333 10331 29089 55048 58004 69911=","","","","","","","","","",""
"82445099999","2021-09-02T08:00:00","-4.2666666","-55.9833333","45.0","ITAITUBA, BR","FM-12","4","","77","80","","","","9","90","FEW:01 26","30.01","29.85","12.43","78","140","","1","","","","","","","","","","","","","","","","","","","","","","","","","","","","","","","","","","","","","","","","","","","","","","","","","","","","","","","","","","","","","","","","","","","","","","","","","","","","","","","","","","","","","","","","","","","SYN07082445 22598 31401 10266 20248 30110 40162 81131 333 20231 58002 69924=","","","","","","","","","",""
"82445099999","2021-09-02T14:00:00","-4.2666666","-55.9833333","45.0","ITAITUBA, BR","FM-12","4","","80","92","","","","9","69","SCT:04 26","29.88","29.73","6.21","83","140","","5","","","","","","","","","","","","","","","","","","","","","","","","","","","","","","","","","","","","","","","","","","","","","","","","","","","","","","","","","","","","","","","","","","","","","","","","","","","","","","","","","","","","","","","","","","","SYN05882445 32597 51404 10334 20269 30068 40120 84340 333 59007=","","","","","","","","","",""
"82445099999","2021-09-02T20:00:00","-4.2666666","-55.9833333","45.0","ITAITUBA, BR","FM-12","4","","81","84","","","","","92","SCT:03 26","29.95","29.80","1.24","82","000","","0","","","","","","","","","","","","","","","","","","","","","","","","","","","","","","","","","","","","","","","","","","","","","","","","","","","","","","","","","","","","","","","","","","","","","","","","","","","","","","","","","","","","","","","","","","","SYN08282445 31595 80000 10288 20274 30091 40143 71322 8327/ 333 10348 29086 55101 58001=","","","","","","","","","",""
"82445099999","2021-09-03T08:00:00","-4.2666666","-55.9833333","45.0","ITAITUBA, BR","FM-12","4","","77","80","","","","9","90","SCT:03 26","29.99","29.84","6.21","78","180","","2","","","","","","","","","","","","","","","","","","","","","","","","","","","","","","","","","","","","","","","","","","","","","","","","","","","","","","","","","","","","","","","","","","","","","","","","","","","","","","","","","","","","","","","","","","","SYN06482445 32597 61802 10266 20248 30104 40156 83270 333 20239 59006=","","","","","","","","","",""
"82445099999","2021-09-03T14:00:00","-4.2666666","-55.9833333","45.0","ITAITUBA, BR","FM-12","4","","81","92","","","","9","71","SCT:03 26","29.91","29.76","6.21","84","140","","2","","","","","","","","","","","","","","","","","","","","","","","","","","","","","","","","","","","","","","","","","","","","","","","","","","","","","","","","","","","","","","","","","","","","","","","","","","","","","","","","","","","","","","","","","","","SYN05882445 32597 51402 10334 20274 30078 40130 83241 333 58010=","","","","","","","","","",""
"82445099999","2021-09-03T20:00:00","-4.2666666","-55.9833333","45.0","ITAITUBA, BR","FM-12","4","","78","84","","","","","84","SCT:03 26","29.90","29.74","2.49","80","360","","2","","","","","","","","","","","","","","","","","","","","","","","","","","","","","","","","","","","","","","","","","","","","","","","","","","","","","","","","","","","","","","","","","","","","","","","","","","","","","","","","","","","","","","","","","","","SYN07682445 32596 53602 10288 20258 30072 40124 83270 333 10351 29082 55059 59019=","","","","","","","","","",""
"82445099999","2021-09-04T08:00:00","-4.2666666","-55.9833333","45.0","ITAITUBA, BR","FM-12","4","","78","82","","","","9","89","FEW:02 26","29.96","29.81","12.43","79","140","","2","","","","","","","","","","","","","","","","","","","","","","","","","","","","","","","","","","","","","","","","","","","","","","","","","","","","","","","","","","","","","","","","","","","","","","","","","","","","","","","","","","","","","","","","","","","SYN06482445 32598 41402 10276 20256 30094 40146 82150 333 20241 59010=","","","","","","","","","",""
"82445099999","2021-09-04T14:00:00","-4.2666666","-55.9833333","45.0","ITAITUBA, BR","FM-12","4","","79","92","","","","9","65","FEW:02 26","29.85","29.70","12.43","82","090","","7","","","","","","","","","","","","","","","","","","","","","","","","","","","","","","","","","","","","","","","","","","","","","","","","","","","","","","","","","","","","","","","","","","","","","","","","","","","","","","","","","","","","","","","","","","","SYN05882445 32598 30906 10336 20261 30058 40110 82206 333 59020=","","","","","","","","","",""
"82445099999","2021-09-04T20:00:00","-4.2666666","-55.9833333","45.0","ITAITUBA, BR","FM-12","4","","78","83","","||TS","","","85","SCT:04 15","29.88","29.73","1.24","79","170","","2","","","","","","","","","","","","","","","","","","","","","","","","","","","","","","","","","","","","","","","","","","","","","","","","","","","","","","","","","","","","","","","","","","","","","","","","","","","","","","","","","","","","","","","","","","","SYN08282445 31495 81702 10282 20254 30068 40120 71792 8437/ 333 10350 29081 55098 59004=","","","","","","","","","",""
"82445099999","2021-09-05T08:00:00","-4.2666666","-55.9833333","45.0","ITAITUBA, BR","FM-12","4","","77","82","","","","9","85","FEW:02 15","30.00","29.85","12.43","78","090","","5","","","","","","","","","","","","","","","","","","","","","","","","","","","","","","","","","","","","","","","","","","","","","","","","","","","","","","","","","","","","","","","","","","","","","","","","","","","","","","","","","","","","","","","","","","","SYN06482445 32498 20904 10280 20252 30108 40160 82100 333 20241 58014=","","","","","","","","","",""
"82445099999","2021-09-05T14:00:00","-4.2666666","-55.9833333","45.0","ITAITUBA, BR","FM-12","4","","79","92","","","","9","66","SCT:03 26","29.89","29.74","12.43","82","200","","57","","","","","","","","","","","","","","","","","","","","","","","","","","","","","","","","","","","","","","","","","","","","","","","","","","","","","","","","","","","","","","","","","","","","","","","","","","","","","","","","","","","","","","","","","","","SYN05882445 32598 32050 10332 20260 30070 40122 83200 333 59012=","","","","","","","","","",""
"82445099999","2021-09-05T20:00:00","-4.2666666","-55.9833333","45.0","ITAITUBA, BR","FM-12","4","","78","86","","||TS","","","77","BKN:05 15","29.90","29.75","2.49","80","090","","2","","","","","","","","","","","","","","","","","","","","","","","","","","","","","","","","","","","","","","","","","","","","","","","","","","","","","","","","","","","","","","","","","","","","","","","","","","","","","","","","","","","","","","","","","","","SYN08282445 31496 50902 10298 20253 30074 40126 71722 85300 333 10346 29076 55098 58006=","","","","","","","","","",""
"82445099999","2021-09-06T08:00:00","-4.2666666","-55.9833333","45.0","ITAITUBA, BR","FM-12","4","","77","83","","||HZ","","9","84","","29.99","29.84","12.43","79","050","","2","","","","","","","","","","","","","","","","","","","","","","","","","","","","","","","","","","","","","","","","","","","","","","","","","","","","","","","","","","","","","","","","","","","","","","","","","","","","","","","","","","","","","","","","","","","SYN07082445 31998 30502 10282 20252 30104 40156 70511 80001 333 20237 59004=","","","","","","","","","",""
"82445099999","2021-09-06T14:00:00","-4.2666666","-55.9833333","45.0","ITAITUBA, BR","FM-12","4","","79","92","","","","9","65","SCT:03 26","29.89","29.74","12.43","82","090","","5","","","","","","","","","","","","","","","","","","","","","","","","","","","","","","","","","","","","","","","","","","","","","","","","","","","","","","","","","","","","","","","","","","","","","","","","","","","","","","","","","","","","","","","","","","","SYN05882445 32598 30904 10336 20261 30072 40123 83200 333 58002=","","","","","","","","","",""
"82445099999","2021-09-06T20:00:00","-4.2666666","-55.9833333","45.0","ITAITUBA, BR","FM-12","4","","80","87","","","","","80","BKN:06 15","29.90","29.74","2.49","82","090","","7","","","","","","","","","","","","","","","","","","","","","","","","","","","","","","","","","","","","","","","","","","","","","","","","","","","","","","","","","","","","","","","","","","","","","","","","","","","","","","","","","","","","","","","","","","","SYN08282445 31496 60906 10304 20266 30072 40124 71322 86700 333 10351 29077 55103 59002=","","","","","","","","","",""
"82445099999","2021-09-07T08:00:00","-4.2666666","-55.9833333","45.0","ITAITUBA, BR","FM-12","4","","76","81","","","","9","84","","29.95","29.80","31.07","77","000","","0","","","","","","","","","","","","","","","","","","","","","","","","","","","","","","","","","","","","","","","","","","","","","","","","","","","","","","","","","","","","","","","","","","","","","","","","","","","","","","","","","","","","","","","","","","","SYN05882445 32999 00000 10274 20245 30091 40143 333 20232 59013=","","","","","","","","","",""
"82445099999","2021-09-07T14:00:00","-4.2666666","-55.9833333","45.0","ITAITUBA, BR","FM-12","4","","77","94","","","","9","59","SCT:04 26","29.85","29.70","12.43","81","090","","2","","","","","","","","","","","","","","","","","","","","","","","","","","","","","","","","","","","","","","","","","","","","","","","","","","","","","","","","","","","","","","","","","","","","","","","","","","","","","","","","","","","","","","","","","","","SYN05882445 32598 40902 10344 20252 30056 40107 84200 333 59016=","","","","","","","","","",""
"82445099999","2021-09-07T20:00:00","-4.2666666","-55.9833333","45.0","ITAITUBA, BR","FM-12","4","","81","89","","","","","77","SCT:04 26","29.87","29.72","2.49","83","000","","0","","","","","","","","","","","","","","","","","","","","","","","","","","","","","","","","","","","","","","","","","","","","","","","","","","","","","","","","","","","","","","","","","","","","","","","","","","","","","","","","","","","","","","","","","","","SYN08282445 31596 40000 10316 20271 30063 40115 71311 84200 333 10351 29074 55104 59009=","","","","","","","","","",""
"82445099999","2021-09-08T08:00:00","-4.2666666","-55.9833333","45.0","ITAITUBA, BR","FM-12","4","","77","81","","","","9","87","FEW:01 26","29.97","29.81","12.43","78","090","","2","","","","","","","","","","","","","","","","","","","","","","","","","","","","","","","","","","","","","","","","","","","","","","","","","","","","","","","","","","","","","","","","","","","","","","","","","","","","","","","","","","","","","","","","","","","SYN07682445 21598 60902 10274 20250 30096 40148 70396 81101 333 20239 58005 60084=","","","","","","","","","",""
"82445099999","2021-09-08T14:00:00","-4.2666666","-55.9833333","45.0","ITAITUBA, BR","FM-12","4","","81","92","","","","9","70","FEW:02 26","29.91","29.72","6.21","84","140","","2","","","","","","","","","","","","","","","","","","","","","","","","","","","","","","","","","","","","","","","","","","","","","","","","","","","","","","","","","","","","","","","","","","","","","","","","","","","","","","","","","","","","","","","","","","","SYN05882445 32597 71402 10332 20270 30066 40127 82275 333 58010=","","","","","","","","","",""
"82445099999","2021-09-08T20:00:00","-4.2666666","-55.9833333","45.0","ITAITUBA, BR","FM-12","4","","82","87","","","","","85","SCT:03 26","29.90","29.74","2.49","83","090","","2","","","","","","","","","","","","","","","","","","","","","","","","","","","","","","","","","","","","","","","","","","","","","","","","","","","","","","","","","","","","","","","","","","","","","","","","","","","","","","","","","","","","","","","","","","","SYN08282445 31596 50902 10304 20276 30072 40124 71322 83230 333 10352 29081 55089 58009=","","","","","","","","","",""
"82445099999","2021-09-09T08:00:00","-4.2666666","-55.9833333","45.0","ITAITUBA, BR","FM-12","4","","77","84","","","","9","81","SCT:04 8","30.00","29.84","6.21","79","050","","2","","","","","","","","","","","","","","","","","","","","","","","","","","","","","","","","","","","","","","","","","","","","","","","","","","","","","","","","","","","","","","","","","","","","","","","","","","","","","","","","","","","","","","","","","","","SYN06482445 32397 60502 10288 20252 30106 40158 84140 333 20249 58010=","","","","","","","","","",""
"82445099999","2021-09-09T14:00:00","-4.2666666","-55.9833333","45.0","ITAITUBA, BR","FM-12","4","","79","93","","","","9","65","SCT:03 26","29.87","29.72","6.21","83","050","","7","","","","","","","","","","","","","","","","","","","","","","","","","","","","","","","","","","","","","","","","","","","","","","","","","","","","","","","","","","","","","","","","","","","","","","","","","","","","","","","","","","","","","","","","","","","SYN05882445 32597 70506 10338 20263 30064 40115 83216 333 59002=","","","","","","","","","",""
"82445099999","2021-09-09T20:00:00","-4.2666666","-55.9833333","45.0","ITAITUBA, BR","FM-12","4","","81","83","","","","","93","SCT:03 26","29.88","29.72","2.49","82","000","","0","","","","","","","","","","","","","","","","","","","","","","","","","","","","","","","","","","","","","","","","","","","","","","","","","","","","","","","","","","","","","","","","","","","","","","","","","","","","","","","","","","","","","","","","","","","SYN07682445 32596 60000 10282 20270 30066 40118 83210 333 10351 29083 55072 59006=","","","","","","","","","",""
"82445099999","2021-09-10T08:00:00","-4.2666666","-55.9833333","45.0","ITAITUBA, BR","FM-12","4","","78","80","","","","9","92","SCT:03 26","30.01","29.85","6.21","79","140","","1","","","","","","","","","","","","","","","","","","","","","","","","","","","","","","","","","","","","","","","","","","","","","","","","","","","","","","","","","","","","","","","","","","","","","","","","","","","","","","","","","","","","","","","","","","","SYN06482445 32597 71401 10269 20254 30110 40162 83270 333 20240 58004=","","","","","","","","","",""
"82445099999","2021-09-10T14:00:00","-4.2666666","-55.9833333","45.0","ITAITUBA, BR","FM-12","4","","79","94","","","","9","62","SCT:04 26","29.91","29.75","6.21","83","050","","6","","","","","","","","","","","","","","","","","","","","","","","","","","","","","","","","","","","","","","","","","","","","","","","","","","","","","","","","","","","","","","","","","","","","","","","","","","","","","","","","","","","","","","","","","","","SYN05882445 32597 60505 10342 20259 30075 40127 84206 333 58011=","","","","","","","","","",""
"82445099999","2021-09-10T20:00:00","-4.2666666","-55.9833333","45.0","ITAITUBA, BR","FM-12","4","","80","85","","","","","85","FEW:02 26","29.90","29.75","2.49","81","000","","0","","","","","","","","","","","","","","","","","","","","","","","","","","","","","","","","","","","","","","","","","","","","","","","","","","","","","","","","","","","","","","","","","","","","","","","","","","","","","","","","","","","","","","","","","","","SYN07682445 32596 30000 10296 20268 30074 40126 82150 333 10356 29083 55068 58008=","","","","","","","","","",""
"82445099999","2021-09-11T08:00:00","-4.2666666","-55.9833333","45.0","ITAITUBA, BR","FM-12","4","","78","82","","","","9","89","SCT:04 26","30.00","29.84","6.21","79","000","","0","","","","","","","","","","","","","","","","","","","","","","","","","","","","","","","","","","","","","","","","","","","","","","","","","","","","","","","","","","","","","","","","","","","","","","","","","","","","","","","","","","","","","","","","","","","SYN06482445 32597 70000 10276 20256 30106 40158 84235 333 20242 59004=","","","","","","","","","",""
"82445099999","2021-09-11T14:00:00","-4.2666666","-55.9833333","45.0","ITAITUBA, BR","FM-12","4","","80","92","","","","9","66","FEW:02 26","29.91","29.75","6.21","83","090","","7","","","","","","","","","","","","","","","","","","","","","","","","","","","","","","","","","","","","","","","","","","","","","","","","","","","","","","","","","","","","","","","","","","","","","","","","","","","","","","","","","","","","","","","","","","","SYN05882445 32597 70906 10336 20264 30076 40128 82276 333 58001=","","","","","","","","","",""
"82445099999","2021-09-11T20:00:00","-4.2666666","-55.9833333","45.0","ITAITUBA, BR","FM-12","4","","81","86","","","","","83","SCT:03 41","29.93","29.78","2.49","82","140","","5","","","","","","","","","","","","","","","","","","","","","","","","","","","","","","","","","","","","","","","","","","","","","","","","","","","","","","","","","","","","","","","","","","","","","","","","","","","","","","","","","","","","","","","","","","","SYN08282445 31696 61404 10302 20270 30083 40135 71322 83520 333 10356 29080 55058 58009=","","","","","","","","","",""
"82445099999","2021-09-12T08:00:00","-4.2666666","-55.9833333","45.0","ITAITUBA, BR","FM-12","4","","76","80","","","","9","89","","29.98","29.83","12.43","77","320","","2","","","","","","","","","","","","","","","","","","","","","","","","","","","","","","","","","","","","","","","","","","","","","","","","","","","","","","","","","","","","","","","","","","","","","","","","","","","","","","","","","","","","","","","","","","","SYN06482445 32998 73202 10264 20244 30100 40152 80006 333 20231 59006=","","","","","","","","","",""
"82445099999","2021-09-12T14:00:00","-4.2666666","-55.9833333","45.0","ITAITUBA, BR","FM-12","4","","77","92","","","","9","61","SCT:03 26","29.92","29.77","12.43","81","140","","5","","","","","","","","","","","","","","","","","","","","","","","","","","","","","","","","","","","","","","","","","","","","","","","","","","","","","","","","","","","","","","","","","","","","","","","","","","","","","","","","","","","","","","","","","","","SYN05882445 32598 31404 10334 20248 30080 40132 83200 333 58004=","","","","","","","","","",""
"82445099999","2021-09-12T20:00:00","-4.2666666","-55.9833333","45.0","ITAITUBA, BR","FM-12","4","","81","87","","","","","83","","29.94","29.78","6.21","83","050","","1","","","","","","","","","","","","","","","","","","","","","","","","","","","","","","","","","","","","","","","","","","","","","","","","","","","","","","","","","","","","","","","","","","","","","","","","","","","","","","","","","","","","","","","","","","","SYN07082445 32997 00501 10304 20272 30086 40138 333 10356 29079 55078 58003=","","","","","","","","","",""
"82445099999","2021-09-13T08:00:00","-4.2666666","-55.9833333","45.0","ITAITUBA, BR","FM-12","4","","77","81","","","","9","89","FEW:02 41","30.03","29.87","6.21","78","000","","0","","","","","","","","","","","","","","","","","","","","","","","","","","","","","","","","","","","","","","","","","","","","","","","","","","","","","","","","","","","","","","","","","","","","","","","","","","","","","","","","","","","","","","","","","","","SYN06482445 32697 70000 10272 20252 30116 40168 82530 333 20238 58016=","","","","","","","","","",""
"82445099999","2021-09-13T14:00:00","-4.2666666","-55.9833333","45.0","ITAITUBA, BR","FM-12","4","","79","91","","","","9","68","FEW:02 26","29.92","29.76","12.43","82","140","","7","","","","","","","","","","","","","","","","","","","","","","","","","","","","","","","","","","","","","","","","","","","","","","","","","","","","","","","","","","","","","","","","","","","","","","","","","","","","","","","","","","","","","","","","","","","SYN05882445 32598 31406 10326 20259 30079 40131 82240 333 59001=","","","","","","","","","",""
"82445099999","2021-09-13T20:00:00","-4.2666666","-55.9833333","45.0","ITAITUBA, BR","FM-12","4","","82","86","","","","","87","BKN:05 74","29.91","29.76","2.49","83","000","","0","","","","","","","","","","","","","","","","","","","","","","","","","","","","","","","","","","","","","","","","","","","","","","","","","","","","","","","","","","","","","","","","","","","","","","","","","","","","","","","","","","","","","","","","","","","SYN07682445 32896 50000 10300 20276 30079 40130 85072 333 10341 29082 55049 59007=","","","","","","","","","",""
"82445099999","2021-09-14T08:00:00","-4.2666666","-55.9833333","45.0","ITAITUBA, BR","FM-12","4","","77","81","","","","9","90","SCT:04 26","30.00","29.84","12.43","78","090","","2","","","","","","","","","","","","","","","","","","","","","","","","","","","","","","","","","","","","","","","","","","","","","","","","","","","","","","","","","","","","","","","","","","","","","","","","","","","","","","","","","","","","","","","","","","","SYN06482445 32598 40902 10270 20252 30106 40158 84100 333 20240 59010=","","","","","","","","","",""
"82445099999","2021-09-14T14:00:00","-4.2666666","-55.9833333","45.0","ITAITUBA, BR","FM-12","4","","77","93","","||HZ","","9","60","SCT:04 26","29.87","29.72","6.21","81","140","","5","","","","","","","","","","","","","","","","","","","","","","","","","","","","","","","","","","","","","","","","","","","","","","","","","","","","","","","","","","","","","","","","","","","","","","","","","","","","","","","","","","","","","","","","","","","SYN06482445 31597 41404 10340 20251 30063 40114 70511 84200 333 59016=","","","","","","","","","",""
"82445099999","2021-09-14T20:00:00","-4.2666666","-55.9833333","45.0","ITAITUBA, BR","FM-12","4","","73","86","","","","","67","SCT:04 26","29.93","29.78","1.24","77","090","","7","","","","","","","","","","","","","","","","","","","","","","","","","","","","","","","","","","","","","","","","","","","","","","","","","","","","","","","","","","","","","","","","","","","","","","","","","","","","","","","","","","","","","","","","","","","SYN08282445 31595 80906 10298 20230 30084 40136 72922 84471 333 10353 29071 55099 58005=","","","","","","","","","",""
"82445099999","2021-09-15T08:00:00","-4.2666666","-55.9833333","45.0","ITAITUBA, BR","FM-12","4","","76","80","","","","9","86","FEW:02 26","30.01","29.86","6.21","77","000","","0","","","","","","","","","","","","","","","","","","","","","","","","","","","","","","","","","","","","","","","","","","","","","","","","","","","","","","","","","","","","","","","","","","","","","","","","","","","","","","","","","","","","","","","","","","","SYN06482445 32597 20000 10268 20243 30111 40163 82100 333 20234 58005=","","","","","","","","","",""
"82445099999","2021-09-15T14:00:00","-4.2666666","-55.9833333","45.0","ITAITUBA, BR","FM-12","4","","76","94","","||HZ","","9","58","BKN:05 26","29.93","29.78","6.21","81","140","","3","","","","","","","","","","","","","","","","","","","","","","","","","","","","","","","","","","","","","","","","","","","","","","","","","","","","","","","","","","","","","","","","","","","","","","","","","","","","","","","","","","","","","","","","","","","SYN06482445 31597 51403 10342 20247 30086 40137 70511 85200 333 58023=","","","","","","","","","",""
"82445099999","2021-09-15T20:00:00","-4.2666666","-55.9833333","45.0","ITAITUBA, BR","FM-12","4","","78","87","","","","","75","SCT:04 26","29.94","29.79","1.24","80","050","","5","","","","","","","","","","","","","","","","","","","","","","","","","","","","","","","","","","","","","","","","","","","","","","","","","","","","","","","","","","","","","","","","","","","","","","","","","","","","","","","","","","","","","","","","","","","SYN08282445 31595 80504 10308 20258 30088 40140 72922 8427/ 333 10348 29074 55096 58004=","","","","","","","","","",""
"82445099999","2021-09-16T08:00:00","-4.2666666","-55.9833333","45.0","ITAITUBA, BR","FM-12","4","","75","81","","","","9","81","SCT:03 26","30.06","29.91","6.21","77","000","","0","","","","","","","","","","","","","","","","","","","","","","","","","","","","","","","","","","","","","","","","","","","","","","","","","","","","","","","","","","","","","","","","","","","","","","","","","","","","","","","","","","","","","","","","","","","SYN07082445 31597 30000 10272 20237 30127 40179 71011 83100 333 20235 58016=","","","","","","","","","",""
"82445099999","2021-09-16T14:00:00","-4.2666666","-55.9833333","45.0","ITAITUBA, BR","FM-12","4","","79","93","","","","9","64","BKN:06s 26","29.95","29.80","2.49","83","140","","5","","","","","","","","","","","","","","","","","","","","","","","","","","","","","","","","","","","","","","","","","","","","","","","","","","","","","","","","","","","","","","","","","","","","","","","","","","","","","","","","","","","","","","","","","","","SYN06482445 31596 51404 10340 20262 30091 40142 71421 86300 333 58005=","","","","","","","","","",""
"82445099999","2021-09-17T08:00:00","-4.2666666","-55.9833333","45.0","ITAITUBA, BR","FM-12","4","","74","79","","","","9","85","FEW:02 41","30.02","29.87","6.21","76","000","","0","","","","","","","","","","","","","","","","","","","","","","","","","","","","","","","","","","","","","","","","","","","","","","","","","","","","","","","","","","","","","","","","","","","","","","","","","","","","","","","","","","","","","","","","","","","SYN07682445 21697 40000 10262 20235 30114 40166 72151 82550 333 20219 59012 60424=","","","","","","","","","",""
"82445099999","2021-09-17T14:00:00","-4.2666666","-55.9833333","45.0","ITAITUBA, BR","FM-12","4","","78","92","","","","9","65","FEW:02 26","29.91","29.75","12.43","82","140","","5","","","","","","","","","","","","","","","","","","","","","","","","","","","","","","","","","","","","","","","","","","","","","","","","","","","","","","","","","","","","","","","","","","","","","","","","","","","","","","","","","","","","","","","","","","","SYN05882445 32598 21404 10331 20257 30076 40128 82200 333 59015=","","","","","","","","","",""
"82445099999","2021-09-17T20:00:00","-4.2666666","-55.9833333","45.0","ITAITUBA, BR","FM-12","4","","76","84","","","","","76","SCT:03 26","29.88","29.73","1.24","78","140","","5","","","","","","","","","","","","","","","","","","","","","","","","","","","","","","","","","","","","","","","","","","","","","","","","","","","","","","","","","","","","","","","","","","","","","","","","","","","","","","","","","","","","","","","","","","","SYN08282445 31595 61404 10290 20243 30068 40120 71321 83270 333 10353 29076 55096 59019=","","","","","","","","","",""
"82445099999","2021-09-18T08:00:00","-4.2666666","-55.9833333","45.0","ITAITUBA, BR","FM-12","4","","76","81","","","","9","87","FEW:02 26","29.97","29.82","6.21","77","050","","1","","","","","","","","","","","","","","","","","","","","","","","","","","","","","","","","","","","","","","","","","","","","","","","","","","","","","","","","","","","","","","","","","","","","","","","","","","","","","","","","","","","","","","","","","","","SYN07082445 31597 50501 10270 20246 30098 40150 71011 82250 333 20236 59016=","","","","","","","","","",""
"82445099999","2021-09-19T08:00:00","-4.2666666","-55.9833333","45.0","ITAITUBA, BR","FM-12","4","","76","81","","","","9","84","FEW:02 15","29.98","29.83","6.21","77","000","","0","","","","","","","","","","","","","","","","","","","","","","","","","","","","","","","","","","","","","","","","","","","","","","","","","","","","","","","","","","","","","","","","","","","","","","","","","","","","","","","","","","","","","","","","","","","SYN06482445 32497 60000 10274 20245 30102 40154 82180 333 20240 58004=","","","","","","","","","",""
"82445099999","2021-09-19T14:00:00","-4.2666666","-55.9833333","45.0","ITAITUBA, BR","FM-12","4","","75","89","","","","9","64","SCT:03 26","29.85","29.70","6.21","79","180","","5","","","","","","","","","","","","","","","","","","","","","","","","","","","","","","","","","","","","","","","","","","","","","","","","","","","","","","","","","","","","","","","","","","","","","","","","","","","","","","","","","","","","","","","","","","","SYN05882445 32597 61804 10316 20239 30056 40108 83276 333 59003=","","","","","","","","","",""
"82445099999","2021-09-19T20:00:00","-4.2666666","-55.9833333","45.0","ITAITUBA, BR","FM-12","4","","81","85","","","","","87","SCT:03 74","29.88","29.73","2.49","82","000","","0","","","","","","","","","","","","","","","","","","","","","","","","","","","","","","","","","","","","","","","","","","","","","","","","","","","","","","","","","","","","","","","","","","","","","","","","","","","","","","","","","","","","","","","","","","","SYN07682445 32896 30000 10294 20270 30068 40120 83050 333 10341 29080 55072 58001=","","","","","","","","","",""
"82445099999","2021-09-20T08:00:00","-4.2666666","-55.9833333","45.0","ITAITUBA, BR","FM-12","4","","76","80","","","","9","86","SCT:03 41","29.98","29.83","2.49","77","000","","0","","","","","","","","","","","","","","","","","","","","","","","","","","","","","","","","","","","","","","","","","","","","","","","","","","","","","","","","","","","","","","","","","","","","","","","","","","","","","","","","","","","","","","","","","","","SYN07082445 31696 80000 10268 20243 30102 40154 72922 8348/ 333 20241 58000=","","","","","","","","","",""
"82445099999","2021-09-20T14:00:00","-4.2666666","-55.9833333","45.0","ITAITUBA, BR","FM-12","4","","79","92","","||HZ","","9","66","SCT:04 26","29.86","29.71","6.21","82","090","","2","","","","","","","","","","","","","","","","","","","","","","","","","","","","","","","","","","","","","","","","","","","","","","","","","","","","","","","","","","","","","","","","","","","","","","","","","","","","","","","","","","","","","","","","","","","SYN06482445 31597 60902 10332 20260 30060 40112 70511 84202 333 58006=","","","","","","","","","",""
"82445099999","2021-09-20T20:00:00","-4.2666666","-55.9833333","45.0","ITAITUBA, BR","FM-12","4","","78","86","","","","","79","FEW:02 41","29.89","29.74","2.49","80","000","","0","","","","","","","","","","","","","","","","","","","","","","","","","","","","","","","","","","","","","","","","","","","","","","","","","","","","","","","","","","","","","","","","","","","","","","","","","","","","","","","","","","","","","","","","","","","SYN07682445 32696 30000 10298 20258 30070 40122 82502 333 10348 29078 55077 58002=","","","","","","","","","",""
"82445099999","2021-09-21T08:00:00","-4.2666666","-55.9833333","45.0","ITAITUBA, BR","FM-12","4","","76","81","","","","9","86","FEW:02 41","29.96","29.81","2.49","77","000","","0","","","","","","","","","","","","","","","","","","","","","","","","","","","","","","","","","","","","","","","","","","","","","","","","","","","","","","","","","","","","","","","","","","","","","","","","","","","","","","","","","","","","","","","","","","","SYN07682445 21696 50000 10270 20245 30095 40147 72191 82502 333 20235 59007 60164=","","","","","","","","","",""
"82445099999","2021-09-21T14:00:00","-4.2666666","-55.9833333","45.0","ITAITUBA, BR","FM-12","4","","75","93","","||HZ","","9","56","SCT:04 26","29.87","29.72","6.21","80","050","","2","","","","","","","","","","","","","","","","","","","","","","","","","","","","","","","","","","","","","","","","","","","","","","","","","","","","","","","","","","","","","","","","","","","","","","","","","","","","","","","","","","","","","","","","","","","SYN06482445 31597 60502 10337 20237 30064 40115 70511 84202 333 58004=","","","","","","","","","",""
"82445099999","2021-09-21T20:00:00","-4.2666666","-55.9833333","45.0","ITAITUBA, BR","FM-12","4","","83","88","","","","","87","SCT:04 26","29.85","29.70","1.24","84","000","","0","","","","","","","","","","","","","","","","","","","","","","","","","","","","","","","","","","","","","","","","","","","","","","","","","","","","","","","","","","","","","","","","","","","","","","","","","","","","","","","","","","","","","","","","","","","SYN08882445 21595 80000 10309 20284 30058 40109 72122 8427/ 333 10353 29081 55100 59002 60011=","","","","","","","","","",""
"82445099999","2021-09-22T08:00:00","-4.2666666","-55.9833333","45.0","ITAITUBA, BR","FM-12","4","","77","82","","","","9","86","SCT:03 15","29.96","29.80","0.62","78","000","","0","","","","","","","","","","","","","","","","","","","","","","","","","","","","","","","","","","","","","","","","","","","","","","","","","","","","","","","","","","","","","","","","","","","","","","","","","","","","","","","","","","","","","","","","","","","SYN07682445 21494 80000 10276 20250 30092 40144 72096 83611 333 20237 59003 60014=","","","","","","","","","",""
"82445099999","2021-09-22T14:00:00","-4.2666666","-55.9833333","45.0","ITAITUBA, BR","FM-12","4","","78","91","","","","9","65","SCT:04 26","29.83","29.68","6.21","81","050","","7","","","","","","","","","","","","","","","","","","","","","","","","","","","","","","","","","","","","","","","","","","","","","","","","","","","","","","","","","","","","","","","","","","","","","","","","","","","","","","","","","","","","","","","","","","","SYN05882445 32597 40506 10330 20255 30051 40102 84200 333 59013=","","","","","","","","","",""
"82445099999","2021-09-22T20:00:00","-4.2666666","-55.9833333","45.0","ITAITUBA, BR","FM-12","4","","83","87","","","","","90","SCT:03 41","29.84","29.69","1.24","84","000","","0","","","","","","","","","","","","","","","","","","","","","","","","","","","","","","","","","","","","","","","","","","","","","","","","","","","","","","","","","","","","","","","","","","","","","","","","","","","","","","","","","","","","","","","","","","","SYN08282445 31695 30000 10304 20286 30054 40106 71010 83050 333 10348 29083 55094 59004=","","","","","","","","","",""
"82445099999","2021-09-23T08:00:00","-4.2666666","-55.9833333","45.0","ITAITUBA, BR","FM-12","4","","78","83","","","","9","84","74","29.93","29.78","6.21","79","050","","5","","","","","","","","","","","","","","","","","","","","","","","","","","","","","","","","","","","","","","","","","","","","","","","","","","","","","","","","","","","","","","","","","","","","","","","","","","","","","","","","","","","","","","","","","","","SYN07082445 31897 60504 10284 20254 30083 40135 71011 80002 333 20249 59009=","","","","","","","","","",""
"82445099999","2021-09-23T14:00:00","-4.2666666","-55.9833333","45.0","ITAITUBA, BR","FM-12","4","","78","93","","","","9","62","FEW:02 26","29.83","29.69","6.21","82","090","","5","","","","","","","","","","","","","","","","","","","","","","","","","","","","","","","","","","","","","","","","","","","","","","","","","","","","","","","","","","","","","","","","","","","","","","","","","","","","","","","","","","","","","","","","","","","SYN05882445 32597 60904 10340 20257 30055 40103 82277 333 58004=","","","","","","","","","",""
"82445099999","2021-09-23T20:00:00","-4.2666666","-55.9833333","45.0","ITAITUBA, BR","FM-12","4","","81","88","","","","","80","74","29.83","29.68","2.49","83","000","","0","","","","","","","","","","","","","","","","","","","","","","","","","","","","","","","","","","","","","","","","","","","","","","","","","","","","","","","","","","","","","","","","","","","","","","","","","","","","","","","","","","","","","","","","","","","SYN08282445 31896 50000 10312 20273 30052 40103 71011 80002 333 10353 29077 55097 59004=","","","","","","","","","",""
"82445099999","2021-09-24T08:00:00","-4.2666666","-55.9833333","45.0","ITAITUBA, BR","FM-12","4","","77","80","","","","9","90","FEW:02 57","29.99","29.83","1.24","78","000","","0","","","","","","","","","","","","","","","","","","","","","","","","","","","","","","","","","","","","","","","","","","","","","","","","","","","","","","","","","","","","","","","","","","","","","","","","","","","","","","","","","","","","","","","","","","","SYN07082445 31795 60000 10266 20248 30103 40155 71021 82012 333 20247 58020=","","","","","","","","","",""
"82445099999","2021-09-24T14:00:00","-4.2666666","-55.9833333","45.0","ITAITUBA, BR","FM-12","4","","78","92","","","","9","62","FEW:02 26","29.90","29.75","6.21","82","090","","5","","","","","","","","","","","","","","","","","","","","","","","","","","","","","","","","","","","","","","","","","","","","","","","","","","","","","","","","","","","","","","","","","","","","","","","","","","","","","","","","","","","","","","","","","","","SYN05882445 32597 60904 10336 20253 30075 40126 82272 333 58020=","","","","","","","","","",""
"82445099999","2021-09-24T20:00:00","-4.2666666","-55.9833333","45.0","ITAITUBA, BR","FM-12","4","","75","84","","","","","73","SCT:04 26","29.96","29.81","1.24","78","320","","2","","","","","","","","","","","","","","","","","","","","","","","","","","","","","","","","","","","","","","","","","","","","","","","","","","","","","","","","","","","","","","","","","","","","","","","","","","","","","","","","","","","","","","","","","","","SYN08282445 31595 83202 10290 20237 30094 40146 71322 8437/ 333 10347 29074 55062 58042=","","","","","","","","","",""
"82445099999","2021-09-25T08:00:00","-4.2666666","-55.9833333","45.0","ITAITUBA, BR","FM-12","4","","75","81","","","","9","83","SCT:04 26","30.01","29.86","6.21","77","000","","0","","","","","","","","","","","","","","","","","","","","","","","","","","","","","","","","","","","","","","","","","","","","","","","","","","","","","","","","","","","","","","","","","","","","","","","","","","","","","","","","","","","","","","","","","","","SYN06482445 32597 40000 10272 20241 30111 40163 84500 333 20231 58008=","","","","","","","","","",""
"82445099999","2021-09-25T20:00:00","-4.2666666","-55.9833333","45.0","ITAITUBA, BR","FM-12","4","","75","79","","","","","88","SCT:04 26","29.95","29.80","1.24","76","000","","0","","","","","","","","","","","","","","","","","","","","","","","","","","","","","","","","","","","","","","","","","","","","","","","","","","","","","","","","","","","","","","","","","","","","","","","","","","","","","","","","","","","","","","","","","","","SYN08882445 21595 80000 10262 20241 30091 40143 72092 8457/ 333 10353 29086 55090 59003 69931=","","","","","","","","","",""
"82445099999","2021-09-27T08:00:00","-4.2666666","-55.9833333","45.0","ITAITUBA, BR","FM-12","4","","71","75","","","","9","86","BKN:06 15","30.06","29.91","1.24","72","000","","0","","","","","","","","","","","","","","","","","","","","","","","","","","","","","","","","","","","","","","","","","","","","","","","","","","","","","","","","","","","","","","","","","","","","","","","","","","","","","","","","","","","","","","","","","","","SYN07682445 21495 80000 10240 20215 30127 40180 72096 8677/ 333 20225 58012 60124=","","","","","","","","","",""
"82445099999","2021-09-27T14:00:00","-4.2666666","-55.9833333","45.0","ITAITUBA, BR","FM-12","4","","76","85","","","","9","75","FEW:02 41","29.97","29.81","6.21","79","000","","0","","","","","","","","","","","","","","","","","","","","","","","","","","","","","","","","","","","","","","","","","","","","","","","","","","","","","","","","","","","","","","","","","","","","","","","","","","","","","","","","","","","","","","","","","","","SYN07082445 21697 60000 10296 20247 30096 40148 72021 82552 333 58011 69921=","","","","","","","","","",""
"82445099999","2021-09-27T20:00:00","-4.2666666","-55.9833333","45.0","ITAITUBA, BR","FM-12","4","","79","81","","","","","94","SCT:03 41","29.92","29.77","2.49","80","000","","0","","","","","","","","","","","","","","","","","","","","","","","","","","","","","","","","","","","","","","","","","","","","","","","","","","","","","","","","","","","","","","","","","","","","","","","","","","","","","","","","","","","","","","","","","","","SYN07682445 32696 60000 10270 20259 30080 40132 83571 333 10322 29087 55039 58000=","","","","","","","","","",""
"82445099999","2021-09-28T08:00:00","-4.2666666","-55.9833333","45.0","ITAITUBA, BR","FM-12","4","","74","76","","","","9","95","SCT:04 15","30.02","29.87","1.24","75","000","","0","","","","","","","","","","","","","","","","","","","","","","","","","","","","","","","","","","","","","","","","","","","","","","","","","","","","","","","","","","","","","","","","","","","","","","","","","","","","","","","","","","","","","","","","","","","SYN07682445 21495 80000 10244 20235 30114 40167 72196 8475/ 333 20226 59013 60044=","","","","","","","","","",""
"82445099999","2021-09-28T14:00:00","-4.2666666","-55.9833333","45.0","ITAITUBA, BR","FM-12","4","","76","82","","","","9","83","SCT:04 41","29.91","29.76","6.21","78","000","","0","","","","","","","","","","","","","","","","","","","","","","","","","","","","","","","","","","","","","","","","","","","","","","","","","","","","","","","","","","","","","","","","","","","","","","","","","","","","","","","","","","","","","","","","","","","SYN05882445 32697 80000 10278 20246 30078 40130 8457/ 333 59018=","","","","","","","","","",""
"82445099999","2021-09-28T20:00:00","-4.2666666","-55.9833333","45.0","ITAITUBA, BR","FM-12","4","","80","82","","","","","92","FEW:02 41","29.85","29.70","2.49","81","000","","0","","","","","","","","","","","","","","","","","","","","","","","","","","","","","","","","","","","","","","","","","","","","","","","","","","","","","","","","","","","","","","","","","","","","","","","","","","","","","","","","","","","","","","","","","","","SYN07682445 32696 40000 10280 20266 30058 40110 82550 333 10317 29090 55023 59022=","","","","","","","","","",""
"82445099999","2021-09-29T08:00:00","-4.2666666","-55.9833333","45.0","ITAITUBA, BR","FM-12","4","","73","74","","","","9","95","SCT:04 15","29.96","29.81","1.24","73","000","","0","","","","","","","","","","","","","","","","","","","","","","","","","","","","","","","","","","","","","","","","","","","","","","","","","","","","","","","","","","","","","","","","","","","","","","","","","","","","","","","","","","","","","","","","","","","SYN07082445 21495 80000 10236 20228 30094 40147 8477/ 333 20220 59020 60264=","","","","","","","","","",""
"82445099999","2021-09-29T20:00:00","-4.2666666","-55.9833333","45.0","ITAITUBA, BR","FM-12","4","","78","84","","","","","84","FEW:02 41","29.85","29.70","2.49","80","000","","0","","","","","","","","","","","","","","","","","","","","","","","","","","","","","","","","","","","","","","","","","","","","","","","","","","","","","","","","","","","","","","","","","","","","","","","","","","","","","","","","","","","","","","","","","","","SYN07682445 32696 40000 10288 20258 30058 40110 82502 333 10333 29088 55060 58000=","","","","","","","","","",""
"82445099999","2021-09-30T08:00:00","-4.2666666","-55.9833333","45.0","ITAITUBA, BR","FM-12","4","","77","81","","","","9","87","74","29.96","29.81","6.21","78","000","","0","","","","","","","","","","","","","","","","","","","","","","","","","","","","","","","","","","","","","","","","","","","","","","","","","","","","","","","","","","","","","","","","","","","","","","","","","","","","","","","","","","","","","","","","","","","SYN06482445 32897 60000 10274 20250 30094 40146 80002 333 20221 58000=","","","","","","","","","",""
"82445099999","2021-09-30T20:00:00","-4.2666666","-55.9833333","45.0","ITAITUBA, BR","FM-12","4","","79","87","","||DU","","","78","SCT:04 26","29.90","29.72","2.49","81","320","","7","","","","","","","","","","","","","","","","","","","","","","","","","","","","","","","","","","","","","","","","","","","","","","","","","","","","","","","","","","","","","","","","","","","","","","","","","","","","","","","","","","","","","","","","","","","SYN08882445 21596 83206 10304 20261 30063 40125 73132 84271 333 10353 29081 55098 58005 60131=","","","","","","","","","",""
"82445099999","2021-10-01T08:00:00","-4.2666666","-55.9833333","45.0","ITAITUBA, BR","FM-12","4","","77","80","","","","9","91","SCT:03 41","29.57","29.80","6.21","78","000","","0","","","","","","","","","","","","","","","","","","","","","","","","","","","","","","","","","","","","","","","","","","","","","","","","","","","","","","","","","","","","","","","","","","","","","","","","","","","","","","","","","","","","","","","","","","","SYN07082445 22697 80000 10268 20252 30092 40014 8358/ 333 20239 59002 60134=","","","","","","","","","",""
"82445099999","2021-10-01T20:00:00","-4.2666666","-55.9833333","45.0","ITAITUBA, BR","FM-12","4","","80","83","","||RA","","","90","BKN:06 26","29.87","29.71","1.24","81","360","","14","","","","","","","","","","","","","","","","","","","","","","","","","","","","","","","","","","","","","","","","","","","","","","","","","","","","","","","","","","","","","","","","","","","","","","","","","","","","","","","","","","","","","","","","","","","SYN08882445 21595 83612 10286 20268 30062 40114 79292 8647/ 333 10338 29090 55041 59001 60051=","","","","","","","","","",""
"82445099999","2021-10-02T08:00:00","-4.2666666","-55.9833333","45.0","ITAITUBA, BR","FM-12","4","","74","78","","","","9","89","SCT:04 41","29.94","29.79","2.49","75","000","","0","","","","","","","","","","","","","","","","","","","","","","","","","","","","","","","","","","","","","","","","","","","","","","","","","","","","","","","","","","","","","","","","","","","","","","","","","","","","","","","","","","","","","","","","","","","SYN07082445 21696 80000 10254 20235 30087 72092 8458/ 333 20222 59005 60104=","","","","","","","","","",""
"82445099999","2021-10-02T20:00:00","-4.2666666","-55.9833333","45.0","ITAITUBA, BR","FM-12","4","","73","77","","","","","89","SCT:03 41","29.85","29.70","1.24","74","000","","0","","","","","","","","","","","","","","","","","","","","","","","","","","","","","","","","","","","","","","","","","","","","","","","","","","","","","","","","","","","","","","","","","","","","","","","","","","","","","","","","","","","","","","","","","","","SYN08882445 21695 60000 10248 20229 30056 40109 72192 83370 333 10309 29089 55022 59006 60261=","","","","","","","","","",""
"82445099999","2021-10-04T08:00:00","-4.2666666","-55.9833333","45.0","ITAITUBA, BR","FM-12","4","","75","80","","","","9","86","74","29.91","29.76","6.21","77","000","","0","","","","","","","","","","","","","","","","","","","","","","","","","","","","","","","","","","","","","","","","","","","","","","","","","","","","","","","","","","","","","","","","","","","","","","","","","","","","","","","","","","","","","","","","","","","SYN07682445 21897 30000 10266 20241 30078 40130 72110 80001 333 20227 59006 60104=","","","","","","","","","",""
"82445099999","2021-10-04T20:00:00","-4.2666666","-55.9833333","45.0","ITAITUBA, BR","FM-12","4","","77","85","","||RA","","","75","BKN:06 15","29.86","29.71","1.24","79","090","","13","","","","","","","","","","","","","","","","","","","","","","","","","","","","","","","","","","","","","","","","","","","","","","","","","","","","","","","","","","","","","","","","","","","","","","","","","","","","","","","","","","","","","","","","","","","SYN08882445 21495 80911 10297 20249 30062 40112 79296 8647/ 333 10348 29079 55097 59016 60161=","","","","","","","","","",""
"82445099999","2021-10-05T08:00:00","-4.2666666","-55.9833333","45.0","ITAITUBA, BR","FM-12","4","","77","81","","","","9","89","74","29.92","29.76","12.43","78","000","","0","","","","","","","","","","","","","","","","","","","","","","","","","","","","","","","","","","","","","","","","","","","","","","","","","","","","","","","","","","","","","","","","","","","","","","","","","","","","","","","","","","","","","","","","","","","SYN07682445 21898 60000 10270 20250 30079 40131 72011 80002 333 20229 58001 60174=","","","","","","","","","",""
"82445099999","2021-10-05T20:00:00","-4.2666666","-55.9833333","45.0","ITAITUBA, BR","FM-12","4","","79","85","","","","","84","74","29.84","29.69","2.49","81","000","","0","","","","","","","","","","","","","","","","","","","","","","","","","","","","","","","","","","","","","","","","","","","","","","","","","","","","","","","","","","","","","","","","","","","","","","","","","","","","","","","","","","","","","","","","","","","SYN07682445 32896 40000 10292 20262 30054 40106 80002 333 10348 29086 55098 59006=","","","","","","","","","",""
"82445099999","2021-10-06T08:00:00","-4.2666666","-55.9833333","45.0","ITAITUBA, BR","FM-12","4","","78","83","","","","9","85","74","29.94","29.78","6.21","79","230","","1","","","","","","","","","","","","","","","","","","","","","","","","","","","","","","","","","","","","","","","","","","","","","","","","","","","","","","","","","","","","","","","","","","","","","","","","","","","","","","","","","","","","","","","","","","","SYN06482445 32897 72301 10286 20258 30086 40138 80002 333 20241 58007=","","","","","","","","","",""
"82445099999","2021-10-06T20:00:00","-4.2666666","-55.9833333","45.0","ITAITUBA, BR","FM-12","4","","79","87","","","","","78","FEW:02 26","29.84","29.69","1.24","81","000","","0","","","","","","","","","","","","","","","","","","","","","","","","","","","","","","","","","","","","","","","","","","","","","","","","","","","","","","","","","","","","","","","","","","","","","","","","","","","","","","","","","","","","","","","","","","","SYN07682445 32595 60000 10306 20263 30054 40106 82202 333 10358 29080 55097 58000=","","","","","","","","","",""
"82445099999","2021-10-07T08:00:00","-4.2666666","-55.9833333","45.0","ITAITUBA, BR","FM-12","4","","78","84","","","","9","83","74","29.90","29.74","6.21","80","050","","1","","","","","","","","","","","","","","","","","","","","","","","","","","","","","","","","","","","","","","","","","","","","","","","","","","","","","","","","","","","","","","","","","","","","","","","","","","","","","","","","","","","","","","","","","","","SYN07082445 31897 60501 10290 20258 30072 40124 71011 80002 333 20241 59014=","","","","","","","","","",""
"82445099999","2021-10-07T20:00:00","-4.2666666","-55.9833333","45.0","ITAITUBA, BR","FM-12","4","","77","80","","","","","91","OVC:08 26","29.82","29.65","1.24","78","000","","0","","","","","","","","","","","","","","","","","","","","","","","","","","","","","","","","","","","","","","","","","","","","","","","","","","","","","","","","","","","","","","","","","","","","","","","","","","","","","","","","","","","","","","","","","","","SYN08882445 21595 80000 10264 20248 30042 40099 72192 8827/ 333 10363 29088 55084 59012 60071=","","","","","","","","","",""
"82445099999","2021-10-08T08:00:00","-4.2666666","-55.9833333","45.0","ITAITUBA, BR","FM-12","4","","77","80","","","","9","90","SCT:04 41","29.93","29.78","2.49","78","000","","0","","","","","","","","","","","","","","","","","","","","","","","","","","","","","","","","","","","","","","","","","","","","","","","","","","","","","","","","","","","","","","","","","","","","","","","","","","","","","","","","","","","","","","","","","","","SYN07082445 22696 80000 10269 20252 30084 40136 8457/ 333 20239 58012 60074=","","","","","","","","","",""
"82445099999","2021-10-08T20:00:00","-4.2666666","-55.9833333","45.0","ITAITUBA, BR","FM-12","4","","83","86","","","","","90","FEW:02 41","29.81","29.65","2.49","84","000","","0","","","","","","","","","","","","","","","","","","","","","","","","","","","","","","","","","","","","","","","","","","","","","","","","","","","","","","","","","","","","","","","","","","","","","","","","","","","","","","","","","","","","","","","","","","","SYN07682445 32696 50000 10300 20282 30042 40094 82502 333 10343 29090 55053 58000=","","","","","","","","","",""
"82445099999","2021-10-09T08:00:00","-4.2666666","-55.9833333","45.0","ITAITUBA, BR","FM-12","4","","77","81","","","","9","87","BKN:07 74","29.94","29.79","6.21","78","000","","0","","","","","","","","","","","","","","","","","","","","","","","","","","","","","","","","","","","","","","","","","","","","","","","","","","","","","","","","","","","","","","","","","","","","","","","","","","","","","","","","","","","","","","","","","","","SYN06482445 32897 70000 10274 20250 30088 40140 87080 333 20239 58004=","","","","","","","","","",""
"82445099999","2021-10-09T20:00:00","-4.2666666","-55.9833333","45.0","ITAITUBA, BR","FM-12","4","","80","86","","||FU","","","83","","29.86","29.71","2.49","82","000","","0","","","","","","","","","","","","","","","","","","","","","","","","","","","","","","","","","","","","","","","","","","","","","","","","","","","","","","","","","","","","","","","","","","","","","","","","","","","","","","","","","","","","","","","","","","","SYN07682445 31996 00000 10300 20268 30061 40113 70411 333 10358 29084 55086 58019=","","","","","","","","","",""
"82445099999","2021-10-10T08:00:00","-4.2666666","-55.9833333","45.0","ITAITUBA, BR","FM-12","4","","77","83","","","","9","82","FEW:01 26","29.92","29.77","6.21","79","140","","2","","","","","","","","","","","","","","","","","","","","","","","","","","","","","","","","","","","","","","","","","","","","","","","","","","","","","","","","","","","","","","","","","","","","","","","","","","","","","","","","","","","","","","","","","","","SYN07082445 31597 31402 10286 20252 30080 40132 70211 81105 333 20245 59008=","","","","","","","","","",""
"82445099999","2021-10-10T14:00:00","-4.2666666","-55.9833333","45.0","ITAITUBA, BR","FM-12","4","","78","93","","||HZ","","","61","FEW:02 26","29.83","29.68","6.21","82","090","","5","","","","","","","","","","","","","","","","","","","","","","","","","","","","","","","","","","","","","","","","","","","","","","","","","","","","","","","","","","","","","","","","","","","","","","","","","","","","","","","","","","","","","","","","","","","SYN06482445 31597 50904 10340 20254 30050 40101 70544 82246 333 5////=","","","","","","","","","",""
"82445099999","2021-10-10T20:00:00","-4.2666666","-55.9833333","45.0","ITAITUBA, BR","FM-12","4","","82","87","","","","","87","","29.85","29.70","2.49","83","000","","0","","","","","","","","","","","","","","","","","","","","","","","","","","","","","","","","","","","","","","","","","","","","","","","","","","","","","","","","","","","","","","","","","","","","","","","","","","","","","","","","","","","","","","","","","","","SYN07682445 31996 00000 10304 20280 30058 40110 71044 333 10355 29079 55093 59003=","","","","","","","","","",""
"82445099999","2021-10-11T08:00:00","-4.2666666","-55.9833333","45.0","ITAITUBA, BR","FM-12","4","","77","82","","","","9","85","FEW:02 26","29.97","29.81","2.49","78","050","","5","","","","","","","","","","","","","","","","","","","","","","","","","","","","","","","","","","","","","","","","","","","","","","","","","","","","","","","","","","","","","","","","","","","","","","","","","","","","","","","","","","","","","","","","","","","SYN06482445 32596 80504 10280 20252 30096 40148 82282 333 20252 58016=","","","","","","","","","",""
"82445099999","2021-10-11T14:00:00","-4.2666666","-55.9833333","45.0","ITAITUBA, BR","FM-12","4","","79","90","","||HZ","","9","69","BKN:06 26","29.88","29.72","2.49","82","090","","5","","","","","","","","","","","","","","","","","","","","","","","","","","","","","","","","","","","","","","","","","","","","","","","","","","","","","","","","","","","","","","","","","","","","","","","","","","","","","","","","","","","","","","","","","","","SYN06482445 31596 70904 10324 20260 30066 40118 70521 86142 333 58016=","","","","","","","","","",""
"82445099999","2021-10-11T20:00:00","-4.2666666","-55.9833333","45.0","ITAITUBA, BR","FM-12","4","","81","86","","","","","86","SCT:04 41","29.88","29.73","1.24","82","000","","0","","","","","","","","","","","","","","","","","","","","","","","","","","","","","","","","","","","","","","","","","","","","","","","","","","","","","","","","","","","","","","","","","","","","","","","","","","","","","","","","","","","","","","","","","","","SYN07682445 32695 40000 10298 20272 30068 40120 84500 333 10338 29082 55014 58010=","","","","","","","","","",""
"82445099999","2021-10-12T08:00:00","-4.2666666","-55.9833333","45.0","ITAITUBA, BR","FM-12","4","","78","82","","","","9","89","OVC:08 74","29.95","29.80","6.21","79","000","","0","","","","","","","","","","","","","","","","","","","","","","","","","","","","","","","","","","","","","","","","","","","","","","","","","","","","","","","","","","","","","","","","","","","","","","","","","","","","","","","","","","","","","","","","","","","SYN07682445 21897 80000 10278 20258 30090 40142 72162 88080 333 20244 59006 60044=","","","","","","","","","",""
"82445099999","2021-10-12T14:00:00","-4.2666666","-55.9833333","45.0","ITAITUBA, BR","FM-12","4","","76","93","","","","9","58","SCT:04 26","29.84","29.69","12.43","81","090","","5","","","","","","","","","","","","","","","","","","","","","","","","","","","","","","","","","","","","","","","","","","","","","","","","","","","","","","","","","","","","","","","","","","","","","","","","","","","","","","","","","","","","","","","","","","","SYN05882445 32598 50904 10338 20244 30055 40106 84202 333 59011=","","","","","","","","","",""
"82445099999","2021-10-12T20:00:00","-4.2666666","-55.9833333","45.0","ITAITUBA, BR","FM-12","4","","83","87","","","","","86","74","29.85","29.69","2.49","84","000","","0","","","","","","","","","","","","","","","","","","","","","","","","","","","","","","","","","","","","","","","","","","","","","","","","","","","","","","","","","","","","","","","","","","","","","","","","","","","","","","","","","","","","","","","","","","","SYN08282445 31896 30000 10308 20282 30055 40107 71010 80002 333 10353 29080 55078 59013=","","","","","","","","","",""
"82445099999","2021-10-13T08:00:00","-4.2666666","-55.9833333","45.0","ITAITUBA, BR","FM-12","4","","78","83","","","","9","84","BKN:06","29.94","29.78","6.21","79","090","","1","","","","","","","","","","","","","","","","","","","","","","","","","","","","","","","","","","","","","","","","","","","","","","","","","","","","","","","","","","","","","","","","","","","","","","","","","","","","","","","","","","","","","","","","","","","SYN06482445 32997 70901 10285 20256 30086 40138 86038 333 20243 59003=","","","","","","","","","",""
"82445099999","2021-10-13T14:00:00","-4.2666666","-55.9833333","45.0","ITAITUBA, BR","FM-12","4","","74","94","","||HZ","","9","53","FEW:02 26","29.80","29.65","6.21","80","090","","5","","","","","","","","","","","","","","","","","","","","","","","","","","","","","","","","","","","","","","","","","","","","","","","","","","","","","","","","","","","","","","","","","","","","","","","","","","","","","","","","","","","","","","","","","","","SYN06482445 31597 20904 10346 20236 30042 40093 70544 82200 333 59013=","","","","","","","","","",""
"82445099999","2021-10-13T20:00:00","-4.2666666","-55.9833333","45.0","ITAITUBA, BR","FM-12","4","","78","84","","","","","82","BKN:05","29.83","29.67","2.49","80","000","","0","","","","","","","","","","","","","","","","","","","","","","","","","","","","","","","","","","","","","","","","","","","","","","","","","","","","","","","","","","","","","","","","","","","","","","","","","","","","","","","","","","","","","","","","","","","SYN08282445 31996 50000 10290 20256 30048 40100 71044 85010 333 10366 29076 55084 59007=","","","","","","","","","",""
"82445099999","2021-10-14T08:00:00","-4.2666666","-55.9833333","45.0","ITAITUBA, BR","FM-12","4","","77","84","","","","9","81","FEW:01 26","29.90","29.74","6.21","79","090","","2","","","","","","","","","","","","","","","","","","","","","","","","","","","","","","","","","","","","","","","","","","","","","","","","","","","","","","","","","","","","","","","","","","","","","","","","","","","","","","","","","","","","","","","","","","","SYN07082445 31597 50902 10288 20252 30072 40124 71011 81135 333 20252 59014=","","","","","","","","","",""
"82445099999","2021-10-14T14:00:00","-4.2666666","-55.9833333","45.0","ITAITUBA, BR","FM-12","4","","78","94","","||HZ","","9","59","SCT:03 26","29.79","29.64","6.21","82","140","","2","","","","","","","","","","","","","","","","","","","","","","","","","","","","","","","","","","","","","","","","","","","","","","","","","","","","","","","","","","","","","","","","","","","","","","","","","","","","","","","","","","","","","","","","","","","SYN06482445 31597 51402 10346 20254 30036 40087 70544 83241 333 59006=","","","","","","","","","",""
"82445099999","2021-10-14T20:00:00","-4.2666666","-55.9833333","45.0","ITAITUBA, BR","FM-12","4","","78","82","","","","","89","SCT:03 41","29.84","29.68","1.24","79","000","","0","","","","","","","","","","","","","","","","","","","","","","","","","","","","","","","","","","","","","","","","","","","","","","","","","","","","","","","","","","","","","","","","","","","","","","","","","","","","","","","","","","","","","","","","","","","SYN08882445 21695 70000 10276 20256 30052 40104 70296 83520 333 10366 29080 55078 58004 60161=","","","","","","","","","",""
"82445099999","2021-10-15T08:00:00","-4.2666666","-55.9833333","45.0","ITAITUBA, BR","FM-12","4","","78","83","","","","9","84","FEW:01 26","29.98","29.83","6.21","79","140","","1","","","","","","","","","","","","","","","","","","","","","","","","","","","","","","","","","","","","","","","","","","","","","","","","","","","","","","","","","","","","","","","","","","","","","","","","","","","","","","","","","","","","","","","","","","","SYN07682445 21597 41401 10284 20254 30100 40152 71011 81101 333 20238 58028 60164=","","","","","","","","","",""
"82445099999","2021-10-15T14:00:00","-4.2666666","-55.9833333","45.0","ITAITUBA, BR","FM-12","4","","78","94","","||HZ","","9","61","FEW:02 26","29.85","29.70","6.21","82","090","","2","","","","","","","","","","","","","","","","","","","","","","","","","","","","","","","","","","","","","","","","","","","","","","","","","","","","","","","","","","","","","","","","","","","","","","","","","","","","","","","","","","","","","","","","","","","SYN06482445 31597 30902 10342 20256 30058 40110 70544 82201 333 58022=","","","","","","","","","",""
"82445099999","2021-10-15T20:00:00","-4.2666666","-55.9833333","45.0","ITAITUBA, BR","FM-12","4","","85","88","","","","","89","FEW:01 26","29.85","29.69","2.49","86","000","","0","","","","","","","","","","","","","","","","","","","","","","","","","","","","","","","","","","","","","","","","","","","","","","","","","","","","","","","","","","","","","","","","","","","","","","","","","","","","","","","","","","","","","","","","","","","SYN08282445 31596 20000 10312 20292 30055 40107 71044 81205 333 10358 29081 55084 58003=","","","","","","","","","",""
"82445099999","2021-10-16T08:00:00","-4.2666666","-55.9833333","45.0","ITAITUBA, BR","FM-12","4","","81","85","","","","9","87","","29.96","29.80","6.21","82","090","","5","","","","","","","","","","","","","","","","","","","","","","","","","","","","","","","","","","","","","","","","","","","","","","","","","","","","","","","","","","","","","","","","","","","","","","","","","","","","","","","","","","","","","","","","","","","SYN06482445 31997 00904 10296 20272 30092 40144 71000 333 20251 59008=","","","","","","","","","",""
"82445099999","2021-10-16T14:00:00","-4.2666666","-55.9833333","45.0","ITAITUBA, BR","FM-12","4","","80","94","","||HZ","","9","64","FEW:02 26","29.85","29.70","6.21","83","230","","1","","","","","","","","","","","","","","","","","","","","","","","","","","","","","","","","","","","","","","","","","","","","","","","","","","","","","","","","","","","","","","","","","","","","","","","","","","","","","","","","","","","","","","","","","","","SYN06482445 31597 22301 10346 20268 30056 40107 70544 82200 333 59002=","","","","","","","","","",""
"82445099999","2021-10-16T20:00:00","-4.2666666","-55.9833333","45.0","ITAITUBA, BR","FM-12","4","","81","87","","","","","81","FEW:02 26","29.86","29.71","2.49","83","000","","0","","","","","","","","","","","","","","","","","","","","","","","","","","","","","","","","","","","","","","","","","","","","","","","","","","","","","","","","","","","","","","","","","","","","","","","","","","","","","","","","","","","","","","","","","","","SYN08282445 31596 20000 10306 20270 30060 40112 71344 82200 333 10361 29078 55083 58005=","","","","","","","","","",""
"82445099999","2021-10-17T08:00:00","-4.2666666","-55.9833333","45.0","ITAITUBA, BR","FM-12","4","","75","80","","","","9","87","FEW:02 26","29.96","29.81","6.21","77","230","","2","","","","","","","","","","","","","","","","","","","","","","","","","","","","","","","","","","","","","","","","","","","","","","","","","","","","","","","","","","","","","","","","","","","","","","","","","","","","","","","","","","","","","","","","","","","SYN07682445 21597 52302 10264 20241 30094 40146 71065 82270 333 20233 58002 60034=","","","","","","","","","",""
"82445099999","2021-10-17T14:00:00","-4.2666666","-55.9833333","45.0","ITAITUBA, BR","FM-12","4","","80","92","","||HZ","","9","68","SCT:04 26","29.83","29.67","6.21","83","180","","2","","","","","","","","","","","","","","","","","","","","","","","","","","","","","","","","","","","","","","","","","","","","","","","","","","","","","","","","","","","","","","","","","","","","","","","","","","","","","","","","","","","","","","","","","","","SYN06482445 31597 51802 10332 20265 30048 40100 70544 84205 333 59008=","","","","","","","","","",""
"82445099999","2021-10-17T20:00:00","-4.2666666","-55.9833333","45.0","ITAITUBA, BR","FM-12","4","","75","78","","","","","89","SCT:03 41","29.90","29.74","1.24","76","000","","0","","","","","","","","","","","","","","","","","","","","","","","","","","","","","","","","","","","","","","","","","","","","","","","","","","","","","","","","","","","","","","","","","","","","","","","","","","","","","","","","","","","","","","","","","","","SYN08882445 21695 70000 10257 20237 30072 40124 71024 83530 333 10346 29083 55038 58012 69911=","","","","","","","","","",""
"82445099999","2021-10-18T08:00:00","-4.2666666","-55.9833333","45.0","ITAITUBA, BR","FM-12","4","","73","76","","","","9","92","SCT:04 15","30.03","29.87","2.49","74","050","","2","","","","","","","","","","","","","","","","","","","","","","","","","","","","","","","","","","","","","","","","","","","","","","","","","","","","","","","","","","","","","","","","","","","","","","","","","","","","","","","","","","","","","","","","","","","SYN07682445 21496 80502 10244 20230 30115 40168 72165 8472/ 333 20225 58021 60064=","","","","","","","","","",""
"82445099999","2021-10-18T14:00:00","-4.2666666","-55.9833333","45.0","ITAITUBA, BR","FM-12","4","","76","83","","","","9","79","SCT:04 41","29.93","29.77","6.21","78","050","","2","","","","","","","","","","","","","","","","","","","","","","","","","","","","","","","","","","","","","","","","","","","","","","","","","","","","","","","","","","","","","","","","","","","","","","","","","","","","","","","","","","","","","","","","","","","SYN07082445 21697 70502 10286 20246 30082 40134 70352 84570 333 58034 69921=","","","","","","","","","",""
"82445099999","2021-10-18T20:00:00","-4.2666666","-55.9833333","45.0","ITAITUBA, BR","FM-12","4","","76","80","","","","","88","FEW:01 26","29.93","29.78","2.49","77","000","","0","","","","","","","","","","","","","","","","","","","","","","","","","","","","","","","","","","","","","","","","","","","","","","","","","","","","","","","","","","","","","","","","","","","","","","","","","","","","","","","","","","","","","","","","","","","SYN07682445 32596 50000 10268 20246 30083 40135 81130 333 10294 29087 55000 58010=","","","","","","","","","",""
"82445099999","2021-10-19T08:00:00","-4.2666666","-55.9833333","45.0","ITAITUBA, BR","FM-12","4","","77","84","","","","9","79","BKN:05 26","30.02","29.87","2.49","79","180","","5","","","","","","","","","","","","","","","","","","","","","","","","","","","","","","","","","","","","","","","","","","","","","","","","","","","","","","","","","","","","","","","","","","","","","","","","","","","","","","","","","","","","","","","","","","","SYN07082445 22596 61804 10288 20248 30114 40166 85202 333 20229 59001 69934=","","","","","","","","","",""
"82445099999","2021-10-19T14:00:00","-4.2666666","-55.9833333","45.0","ITAITUBA, BR","FM-12","4","","77","92","","","","9","60","SCT:03 26","29.88","29.72","6.21","81","230","","5","","","","","","","","","","","","","","","","","","","","","","","","","","","","","","","","","","","","","","","","","","","","","","","","","","","","","","","","","","","","","","","","","","","","","","","","","","","","","","","","","","","","","","","","","","","SYN05882445 32597 62304 10336 20248 30066 40117 83201 333 59016=","","","","","","","","","",""
"82445099999","2021-10-19T20:00:00","-4.2666666","-55.9833333","45.0","ITAITUBA, BR","FM-12","4","","78","83","","","","","86","SCT:04 74","29.93","29.77","2.49","79","000","","0","","","","","","","","","","","","","","","","","","","","","","","","","","","","","","","","","","","","","","","","","","","","","","","","","","","","","","","","","","","","","","","","","","","","","","","","","","","","","","","","","","","","","","","","","","","SYN08282445 31896 50000 10282 20256 30082 40134 72921 84051 333 10343 29078 55077 59001=","","","","","","","","","",""
"82445099999","2021-10-20T08:00:00","-4.2666666","-55.9833333","45.0","ITAITUBA, BR","FM-12","4","","78","83","","","","9","86","FEW:02 26","29.97","29.82","6.21","79","090","","2","","","","","","","","","","","","","","","","","","","","","","","","","","","","","","","","","","","","","","","","","","","","","","","","","","","","","","","","","","","","","","","","","","","","","","","","","","","","","","","","","","","","","","","","","","","SYN06482445 32597 50902 10282 20256 30098 40150 82150 333 20234 59016=","","","","","","","","","",""
"82445099999","2021-10-20T14:00:00","-4.2666666","-55.9833333","45.0","ITAITUBA, BR","FM-12","4","","78","89","","","","9","70","SCT:04 26","29.84","29.69","2.49","81","320","","5","","","","","","","","","","","","","","","","","","","","","","","","","","","","","","","","","","","","","","","","","","","","","","","","","","","","","","","","","","","","","","","","","","","","","","","","","","","","","","","","","","","","","","","","","","","SYN06482445 31596 63204 10318 20256 30054 40105 71622 84202 333 59012=","","","","","","","","","",""
"82445099999","2021-10-20T20:00:00","-4.2666666","-55.9833333","45.0","ITAITUBA, BR","FM-12","4","","77","80","","","","","92","SCT:04 15","29.89","29.74","0.62","78","140","","7","","","","","","","","","","","","","","","","","","","","","","","","","","","","","","","","","","","","","","","","","","","","","","","","","","","","","","","","","","","","","","","","","","","","","","","","","","","","","","","","","","","","","","","","","","","SYN08882445 21494 81406 10266 20252 30071 40123 72192 8447/ 333 10354 29085 55066 59011 60021=","","","","","","","","","",""
"82445099999","2021-10-21T08:00:00","-4.2666666","-55.9833333","45.0","ITAITUBA, BR","FM-12","4","","78","80","","","","9","92","BKN:05 15","29.98","29.82","1.24","79","000","","0","","","","","","","","","","","","","","","","","","","","","","","","","","","","","","","","","","","","","","","","","","","","","","","","","","","","","","","","","","","","","","","","","","","","","","","","","","","","","","","","","","","","","","","","","","","SYN07082445 22495 80000 10268 20254 30099 40151 8577/ 333 20239 58001 60024=","","","","","","","","","",""
"82445099999","2021-10-21T14:00:00","-4.2666666","-55.9833333","45.0","ITAITUBA, BR","FM-12","4","","79","90","","","","9","70","BKN:05s 26","29.88","29.72","1.24","82","360","","26","","","","","","","","","","","","","","","","","","","","","","","","","","","","","","","","","","","","","","","","","","","","","","","","","","","","","","","","","","","","","","","","","","","","","","","","","","","","","","","","","","","","","","","","","","","SYN05882445 32595 23623 10324 20262 30066 40117 85274 333 58012=","","","","","","","","","",""
"82445099999","2021-10-21T20:00:00","-4.2666666","-55.9833333","45.0","ITAITUBA, BR","FM-12","4","","79","83","","","","","89","OVC:08 74","29.88","29.72","1.24","80","000","","0","","","","","","","","","","","","","","","","","","","","","","","","","","","","","","","","","","","","","","","","","","","","","","","","","","","","","","","","","","","","","","","","","","","","","","","","","","","","","","","","","","","","","","","","","","","SYN07682445 32895 80000 10282 20262 30066 40118 8807/ 333 10338 29085 55056 59005=","","","","","","","","","",""
"82445099999","2021-10-22T08:00:00","-4.2666666","-55.9833333","45.0","ITAITUBA, BR","FM-12","4","","76","79","","","","9","92","SCT:04 15","29.95","29.80","2.49","77","000","","0","","","","","","","","","","","","","","","","","","","","","","","","","","","","","","","","","","","","","","","","","","","","","","","","","","","","","","","","","","","","","","","","","","","","","","","","","","","","","","","","","","","","","","","","","","","SYN06482445 32496 80000 10260 20246 30091 40143 8477/ 333 20237 59008=","","","","","","","","","",""
"82445099999","2021-10-22T14:00:00","-4.2666666","-55.9833333","45.0","ITAITUBA, BR","FM-12","4","","78","87","","","","9","73","SCT:04 26","29.88","29.73","12.43","80","000","","0","","","","","","","","","","","","","","","","","","","","","","","","","","","","","","","","","","","","","","","","","","","","","","","","","","","","","","","","","","","","","","","","","","","","","","","","","","","","","","","","","","","","","","","","","","","SYN05882445 32598 70000 10308 20254 30067 40118 84270 333 58001=","","","","","","","","","",""
"82445099999","2021-10-22T20:00:00","-4.2666666","-55.9833333","45.0","ITAITUBA, BR","FM-12","4","","70","78","","","","","75","SCT:04 15","29.80","29.67","1.24","73","320","","2","","","","","","","","","","","","","","","","","","","","","","","","","","","","","","","","","","","","","","","","","","","","","","","","","","","","","","","","","","","","","","","","","","","","","","","","","","","","","","","","","","","","","","","","","","","SYN07682445 32495 83202 10258 20211 30046 40093 8477/ 333 10318 29087 55012 59020=","","","","","","","","","",""
"82445099999","2021-10-23T08:00:00","-4.2666666","-55.9833333","45.0","ITAITUBA, BR","FM-12","4","","76","79","","","","9","92","SCT:04 15","29.96","29.80","1.24","77","360","","1","","","","","","","","","","","","","","","","","","","","","","","","","","","","","","","","","","","","","","","","","","","","","","","","","","","","","","","","","","","","","","","","","","","","","","","","","","","","","","","","","","","","","","","","","","","SYN07682445 21495 83601 10260 20246 30092 40144 72062 8477/ 333 20231 58001 69954=","","","","","","","","","",""
"82445099999","2021-10-23T14:00:00","-4.2666666","-55.9833333","45.0","ITAITUBA, BR","FM-12","4","","77","84","","","","9","78","SCT:04 41","29.88","29.73","6.21","79","320","","2","","","","","","","","","","","","","","","","","","","","","","","","","","","","","","","","","","","","","","","","","","","","","","","","","","","","","","","","","","","","","","","","","","","","","","","","","","","","","","","","","","","","","","","","","","","SYN05882445 32697 73202 10290 20248 30067 40119 84570 333 58000=","","","","","","","","","",""
"82445099999","2021-10-23T20:00:00","-4.2666666","-55.9833333","45.0","ITAITUBA, BR","FM-12","4","","77","80","","","","","92","SCT:04 74","29.91","29.75","2.49","78","140","","2","","","","","","","","","","","","","","","","","","","","","","","","","","","","","","","","","","","","","","","","","","","","","","","","","","","","","","","","","","","","","","","","","","","","","","","","","","","","","","","","","","","","","","","","","","","SYN07682445 32896 41402 10264 20250 30076 40128 84070 333 10336 29088 55015 58030=","","","","","","","","","",""
"82445099999","2021-10-24T08:00:00","-4.2666666","-55.9833333","45.0","ITAITUBA, BR","FM-12","4","","76","81","","","","9","86","FEW:01 26","29.97","29.82","6.21","77","000","","0","","","","","","","","","","","","","","","","","","","","","","","","","","","","","","","","","","","","","","","","","","","","","","","","","","","","","","","","","","","","","","","","","","","","","","","","","","","","","","","","","","","","","","","","","","","SYN07082445 22597 60000 10272 20247 30098 40150 81182 333 20229 58006 69904=","","","","","","","","","",""
"82445099999","2021-10-24T14:00:00","-4.2666666","-55.9833333","45.0","ITAITUBA, BR","FM-12","4","","78","92","","","","9","63","SCT:03 26","29.85","29.70","6.21","82","090","","6","","","","","","","","","","","","","","","","","","","","","","","","","","","","","","","","","","","","","","","","","","","","","","","","","","","","","","","","","","","","","","","","","","","","","","","","","","","","","","","","","","","","","","","","","","","SYN05882445 32597 60905 10334 20254 30056 40108 83206 333 59011=","","","","","","","","","",""
"82445099999","2021-10-24T20:00:00","-4.2666666","-55.9833333","45.0","ITAITUBA, BR","FM-12","4","","78","82","","","","","88","FEW:01 26","29.93","29.78","6.21","79","000","","0","","","","","","","","","","","","","","","","","","","","","","","","","","","","","","","","","","","","","","","","","","","","","","","","","","","","","","","","","","","","","","","","","","","","","","","","","","","","","","","","","","","","","","","","","","","SYN07682445 32597 20000 10279 20258 30083 40135 81101 333 10350 29081 55073 58007=","","","","","","","","","",""
"82445099999","2021-10-25T08:00:00","-4.2666666","-55.9833333","45.0","ITAITUBA, BR","FM-12","4","","76","80","","","","9","89","SCT:03 26","30.00","29.85","6.21","77","000","","0","","","","","","","","","","","","","","","","","","","","","","","","","","","","","","","","","","","","","","","","","","","","","","","","","","","","","","","","","","","","","","","","","","","","","","","","","","","","","","","","","","","","","","","","","","","SYN07682445 21597 70000 10264 20244 30107 40159 72162 83180 333 20241 58009 60024=","","","","","","","","","",""
"82445099999","2021-10-25T14:00:00","-4.2666666","-55.9833333","45.0","ITAITUBA, BR","FM-12","4","","76","93","","","","9","58","SCT:03 26","29.88","29.73","6.21","81","360","","5","","","","","","","","","","","","","","","","","","","","","","","","","","","","","","","","","","","","","","","","","","","","","","","","","","","","","","","","","","","","","","","","","","","","","","","","","","","","","","","","","","","","","","","","","","","SYN05882445 32597 63604 10338 20244 30067 40118 83204 333 58011=","","","","","","","","","",""
"82445099999","2021-10-25T20:00:00","-4.2666666","-55.9833333","45.0","ITAITUBA, BR","FM-12","4","","79","86","","","","","80","74","29.89","29.74","6.21","81","000","","0","","","","","","","","","","","","","","","","","","","","","","","","","","","","","","","","","","","","","","","","","","","","","","","","","","","","","","","","","","","","","","","","","","","","","","","","","","","","","","","","","","","","","","","","","","","SYN07682445 32897 50000 10300 20262 30071 40123 80002 333 10353 29077 55074 58012=","","","","","","","","","",""
"82445099999","2021-10-26T08:00:00","-4.2666666","-55.9833333","45.0","ITAITUBA, BR","FM-12","4","","79","84","","","","9","85","FEW:01 26","29.98","29.83","12.43","80","180","","1","","","","","","","","","","","","","","","","","","","","","","","","","","","","","","","","","","","","","","","","","","","","","","","","","","","","","","","","","","","","","","","","","","","","","","","","","","","","","","","","","","","","","","","","","","","SYN07682445 21598 61801 10290 20262 30102 40154 70365 81101 333 20247 59005 69984=","","","","","","","","","",""
"82445099999","2021-10-26T14:00:00","-4.2666666","-55.9833333","45.0","ITAITUBA, BR","FM-12","4","","79","94","","","","9","61","SCT:03 26","29.84","29.69","6.21","83","320","","2","","","","","","","","","","","","","","","","","","","","","","","","","","","","","","","","","","","","","","","","","","","","","","","","","","","","","","","","","","","","","","","","","","","","","","","","","","","","","","","","","","","","","","","","","","","SYN05882445 32597 63202 10346 20260 30054 40105 83246 333 59013=","","","","","","","","","",""
"82445099999","2021-10-26T20:00:00","-4.2666666","-55.9833333","45.0","ITAITUBA, BR","FM-12","4","","73","77","","","","","89","SCT:04 41","29.95","29.79","1.24","74","230","","1","","","","","","","","","","","","","","","","","","","","","","","","","","","","","","","","","","","","","","","","","","","","","","","","","","","","","","","","","","","","","","","","","","","","","","","","","","","","","","","","","","","","","","","","","","","SYN08882445 21695 82301 10249 20230 30088 40141 71396 8457/ 333 10366 29082 55082 58017 60071=","","","","","","","","","",""
"82445099999","2021-10-27T08:00:00","-4.2666666","-55.9833333","45.0","ITAITUBA, BR","FM-12","4","","76","80","","","","9","87","FEW:02 41","29.99","29.83","6.21","77","140","","1","","","","","","","","","","","","","","","","","","","","","","","","","","","","","","","","","","","","","","","","","","","","","","","","","","","","","","","","","","","","","","","","","","","","","","","","","","","","","","","","","","","","","","","","","","","SYN07082445 22697 71401 10266 20243 30103 40155 82531 333 20227 58001 60074=","","","","","","","","","",""
"82445099999","2021-10-27T14:00:00","-4.2666666","-55.9833333","45.0","ITAITUBA, BR","FM-12","4","","79","91","","","","9","67","BKN:05 26","29.88","29.72","6.21","82","090","","5","","","","","","","","","","","","","","","","","","","","","","","","","","","","","","","","","","","","","","","","","","","","","","","","","","","","","","","","","","","","","","","","","","","","","","","","","","","","","","","","","","","","","","","","","","","SYN05882445 32597 60904 10328 20259 30066 40118 85201 333 58012=","","","","","","","","","",""
"82445099999","2021-10-27T20:00:00","-4.2666666","-55.9833333","45.0","ITAITUBA, BR","FM-12","4","","76","79","","","","","92","SCT:03 15","29.97","29.82","0.62","77","000","","0","","","","","","","","","","","","","","","","","","","","","","","","","","","","","","","","","","","","","","","","","","","","","","","","","","","","","","","","","","","","","","","","","","","","","","","","","","","","","","","","","","","","","","","","","","","SYN08882445 21494 80000 10260 20246 30098 40150 71396 8372/ 333 10346 29084 55064 58010 60191=","","","","","","","","","",""
"82445099999","2021-10-28T08:00:00","-4.2666666","-55.9833333","45.0","ITAITUBA, BR","FM-12","4","","77","80","","","","9","90","BKN:05 26","30.06","29.90","6.21","78","000","","0","","","","","","","","","","","","","","","","","","","","","","","","","","","","","","","","","","","","","","","","","","","","","","","","","","","","","","","","","","","","","","","","","","","","","","","","","","","","","","","","","","","","","","","","","","","SYN07082445 22597 60000 10266 20248 30126 40178 85240 333 20227 58023 60194=","","","","","","","","","",""
"82445099999","2021-10-28T14:00:00","-4.2666666","-55.9833333","45.0","ITAITUBA, BR","FM-12","4","","78","86","","","","9","77","SCT:03 26","29.95","29.80","6.21","80","090","","5","","","","","","","","","","","","","","","","","","","","","","","","","","","","","","","","","","","","","","","","","","","","","","","","","","","","","","","","","","","","","","","","","","","","","","","","","","","","","","","","","","","","","","","","","","","SYN05882445 32597 60904 10300 20255 30090 40142 83246 333 58024=","","","","","","","","","",""
"82445099999","2021-10-28T20:00:00","-4.2666666","-55.9833333","45.0","ITAITUBA, BR","FM-12","4","","77","80","","","","","91","","29.96","29.80","6.21","78","320","","1","","","","","","","","","","","","","","","","","","","","","","","","","","","","","","","","","","","","","","","","","","","","","","","","","","","","","","","","","","","","","","","","","","","","","","","","","","","","","","","","","","","","","","","","","","","SYN07682445 32997 13201 10268 20252 30092 40144 80001 333 10315 29087 55038 59006=","","","","","","","","","",""
"82445099999","2021-10-29T08:00:00","-4.2666666","-55.9833333","45.0","ITAITUBA, BR","FM-12","4","","77","78","","","","9","94","SCT:03 41","30.03","29.88","6.21","77","000","","0","","","","","","","","","","","","","","","","","","","","","","","","","","","","","","","","","","","","","","","","","","","","","","","","","","","","","","","","","","","","","","","","","","","","","","","","","","","","","","","","","","","","","","","","","","","SYN06482445 32697 70000 10258 20248 30118 40170 83529 333 20225 59008=","","","","","","","","","",""
"82445099999","2021-10-29T14:00:00","-4.2666666","-55.9833333","45.0","ITAITUBA, BR","FM-12","4","","80","92","","","","9","66","SCT:03 15","29.91","29.75","6.21","83","270","","1","","","","","","","","","","","","","","","","","","","","","","","","","","","","","","","","","","","","","","","","","","","","","","","","","","","","","","","","","","","","","","","","","","","","","","","","","","","","","","","","","","","","","","","","","","","SYN05882445 32497 72701 10336 20264 30075 40127 83375 333 59015=","","","","","","","","","",""
"82445099999","2021-10-29T20:00:00","-4.2666666","-55.9833333","45.0","ITAITUBA, BR","FM-12","4","","75","83","","","","","76","FEW:02 41","29.90","29.74","2.49","77","090","","1","","","","","","","","","","","","","","","","","","","","","","","","","","","","","","","","","","","","","","","","","","","","","","","","","","","","","","","","","","","","","","","","","","","","","","","","","","","","","","","","","","","","","","","","","","","SYN08882445 21696 50901 10286 20239 30072 40124 70365 82230 333 10346 29082 55061 59020 60021=","","","","","","","","","",""
"82445099999","2021-10-30T08:00:00","-4.2666666","-55.9833333","45.0","ITAITUBA, BR","FM-12","4","","76","83","","","","9","79","SCT:03 26","29.97","29.81","12.43","78","360","","1","","","","","","","","","","","","","","","","","","","","","","","","","","","","","","","","","","","","","","","","","","","","","","","","","","","","","","","","","","","","","","","","","","","","","","","","","","","","","","","","","","","","","","","","","","","SYN07082445 22598 33601 10284 20244 30096 40148 83100 333 20224 59022 60024=","","","","","","","","","",""
"82445099999","2021-10-30T14:00:00","-4.2666666","-55.9833333","45.0","ITAITUBA, BR","FM-12","4","","73","92","","","","9","54","FEW:02 26","29.83","29.68","12.43","78","090","","6","","","","","","","","","","","","","","","","","","","","","","","","","","","","","","","","","","","","","","","","","","","","","","","","","","","","","","","","","","","","","","","","","","","","","","","","","","","","","","","","","","","","","","","","","","","SYN05882445 32598 30905 10336 20230 30050 40102 82201 333 59025=","","","","","","","","","",""
"82445099999","2021-10-30T20:00:00","-4.2666666","-55.9833333","45.0","ITAITUBA, BR","FM-12","4","","76","82","","","","","83","SCT:03 26","29.87","29.72","1.24","78","140","","2","","","","","","","","","","","","","","","","","","","","","","","","","","","","","","","","","","","","","","","","","","","","","","","","","","","","","","","","","","","","","","","","","","","","","","","","","","","","","","","","","","","","","","","","","","","SYN08282445 31595 71402 10276 20244 30064 40116 71322 83210 333 10361 29075 55096 59008=","","","","","","","","","",""
"82445099999","2021-10-31T08:00:00","-4.2666666","-55.9833333","45.0","ITAITUBA, BR","FM-12","4","","77","83","","","","9","83","FEW:01 26","29.98","29.82","31.07","79","140","","1","","","","","","","","","","","","","","","","","","","","","","","","","","","","","","","","","","","","","","","","","","","","","","","","","","","","","","","","","","","","","","","","","","","","","","","","","","","","","","","","","","","","","","","","","","","SYN06482445 32599 21401 10284 20252 30099 40151 81101 333 20237 58003=","","","","","","","","","",""
"82445099999","2021-10-31T14:00:00","-4.2666666","-55.9833333","45.0","ITAITUBA, BR","FM-12","4","","80","94","","","","9","64","SCT:03 26","29.84","29.69","12.43","83","140","","2","","","","","","","","","","","","","","","","","","","","","","","","","","","","","","","","","","","","","","","","","","","","","","","","","","","","","","","","","","","","","","","","","","","","","","","","","","","","","","","","","","","","","","","","","","","SYN05882445 32598 31402 10346 20268 30055 40106 83200 333 58005=","","","","","","","","","",""
"82445099999","2021-10-31T20:00:00","-4.2666666","-55.9833333","45.0","ITAITUBA, BR","FM-12","4","","81","84","","","","","90","","29.87","29.71","6.21","82","000","","0","","","","","","","","","","","","","","","","","","","","","","","","","","","","","","","","","","","","","","","","","","","","","","","","","","","","","","","","","","","","","","","","","","","","","","","","","","","","","","","","","","","","","","","","","","","SYN07082445 32997 00000 10290 20272 30062 40114 333 10361 29082 55093 59002=","","","","","","","","","",""
"82445099999","2021-11-01T08:00:00","-4.2666666","-55.9833333","45.0","ITAITUBA, BR","FM-12","4","","75","77","","","","9","94","SCT:04 26","29.98","29.82","1.24","76","000","","0","","","","","","","","","","","","","","","","","","","","","","","","","","","","","","","","","","","","","","","","","","","","","","","","","","","","","","","","","","","","","","","","","","","","","","","","","","","","","","","","","","","","","","","","","","","SYN07682445 21595 80000 10250 20240 30099 40152 72192 8427/ 333 20241 58000 61114=","","","","","","","","","",""
"82445099999","2021-11-01T14:00:00","-4.2666666","-55.9833333","45.0","ITAITUBA, BR","FM-12","4","","78","89","","","","9","72","SCT:04 26","29.84","29.69","1.24","81","000","","0","","","","","","","","","","","","","","","","","","","","","","","","","","","","","","","","","","","","","","","","","","","","","","","","","","","","","","","","","","","","","","","","","","","","","","","","","","","","","","","","","","","","","","","","","","","SYN06482445 31595 80000 10314 20257 30055 40106 72922 84272 333 58000=","","","","","","","","","",""
"82445099999","2021-11-01T20:00:00","-4.2666666","-55.9833333","45.0","ITAITUBA, BR","FM-12","4","","74","77","","","","","92","SCT:04 26","29.94","29.78","1.24","75","000","","0","","","","","","","","","","","","","","","","","","","","","","","","","","","","","","","","","","","","","","","","","","","","","","","","","","","","","","","","","","","","","","","","","","","","","","","","","","","","","","","","","","","","","","","","","","","SYN08882445 21595 80000 10250 20236 30086 40138 71362 8427/ 333 10333 29088 55032 58024 60031=","","","","","","","","","",""
"82445099999","2021-11-02T08:00:00","-4.2666666","-55.9833333","45.0","ITAITUBA, BR","FM-12","4","","76","78","","","","9","93","OVC:08 41","29.98","29.83","1.24","77","000","","0","","","","","","","","","","","","","","","","","","","","","","","","","","","","","","","","","","","","","","","","","","","","","","","","","","","","","","","","","","","","","","","","","","","","","","","","","","","","","","","","","","","","","","","","","","","SYN07082445 22695 80000 10256 20244 30102 40154 885// 333 20229 58003 60034=","","","","","","","","","",""
"82445099999","2021-11-02T14:00:00","-4.2666666","-55.9833333","45.0","ITAITUBA, BR","FM-12","4","","78","80","","||DZ","","9","92","SCT:04 26","29.86","29.71","1.24","79","000","","0","","","","","","","","","","","","","","","","","","","","","","","","","","","","","","","","","","","","","","","","","","","","","","","","","","","","","","","","","","","","","","","","","","","","","","","","","","","","","","","","","","","","","","","","","","","SYN07082445 21595 80000 10268 20254 30060 40112 75092 8427/ 333 58005 60201=","","","","","","","","","",""
"82445099999","2021-11-02T20:00:00","-4.2666666","-55.9833333","45.0","ITAITUBA, BR","FM-12","4","","78","80","","","","","94","SCT:03 41","30.00","29.85","1.24","79","000","","0","","","","","","","","","","","","","","","","","","","","","","","","","","","","","","","","","","","","","","","","","","","","","","","","","","","","","","","","","","","","","","","","","","","","","","","","","","","","","","","","","","","","","","","","","","","SYN08882445 21695 80000 10264 20254 30107 40159 72022 8357/ 333 10312 29093 55017 58008 69911=","","","","","","","","","",""
"82445099999","2021-11-03T08:00:00","-4.2666666","-55.9833333","45.0","ITAITUBA, BR","FM-12","4","","78","80","","","","9","93","SCT:03 26","29.94","29.79","6.21","79","000","","0","","","","","","","","","","","","","","","","","","","","","","","","","","","","","","","","","","","","","","","","","","","","","","","","","","","","","","","","","","","","","","","","","","","","","","","","","","","","","","","","","","","","","","","","","","","SYN07082445 22597 70000 10266 20254 30088 40140 83150 333 20227 59014 60204=","","","","","","","","","",""
"82445099999","2021-11-03T14:00:00","-4.2666666","-55.9833333","45.0","ITAITUBA, BR","FM-12","4","","79","92","","","","9","67","SCT:04 26","29.80","29.65","6.21","82","050","","2","","","","","","","","","","","","","","","","","","","","","","","","","","","","","","","","","","","","","","","","","","","","","","","","","","","","","","","","","","","","","","","","","","","","","","","","","","","","","","","","","","","","","","","","","","","SYN06482445 31597 70502 10331 20262 30040 40091 71622 84202 333 59020=","","","","","","","","","",""
"82445099999","2021-11-03T20:00:00","-4.2666666","-55.9833333","45.0","ITAITUBA, BR","FM-12","4","","79","81","","","","","94","SCT:04 26","29.87","29.72","1.24","80","000","","0","","","","","","","","","","","","","","","","","","","","","","","","","","","","","","","","","","","","","","","","","","","","","","","","","","","","","","","","","","","","","","","","","","","","","","","","","","","","","","","","","","","","","","","","","","","SYN08882445 21595 70000 10274 20263 30063 40115 71351 84270 333 10343 29087 55071 59004 69981=","","","","","","","","","",""
"82445099999","2021-11-04T08:00:00","-4.2666666","-55.9833333","45.0","ITAITUBA, BR","FM-12","4","","77","80","","","","9","92","FEW:02 26","29.94","29.79","6.21","78","090","","5","","","","","","","","","","","","","","","","","","","","","","","","","","","","","","","","","","","","","","","","","","","","","","","","","","","","","","","","","","","","","","","","","","","","","","","","","","","","","","","","","","","","","","","","","","","SYN07082445 22597 70904 10266 20252 30087 40139 82192 333 20229 59001 69984=","","","","","","","","","",""
"82445099999","2021-11-04T14:00:00","-4.2666666","-55.9833333","45.0","ITAITUBA, BR","FM-12","4","","79","91","","","","9","69","SCT:03 26","29.82","29.67","6.21","82","050","","7","","","","","","","","","","","","","","","","","","","","","","","","","","","","","","","","","","","","","","","","","","","","","","","","","","","","","","","","","","","","","","","","","","","","","","","","","","","","","","","","","","","","","","","","","","","SYN05882445 32597 70506 10326 20262 30048 40099 83272 333 58008=","","","","","","","","","",""
"82445099999","2021-11-04T20:00:00","-4.2666666","-55.9833333","45.0","ITAITUBA, BR","FM-12","4","","79","83","","","","","88","SCT:03 26","29.85","29.70","1.24","80","000","","0","","","","","","","","","","","","","","","","","","","","","","","","","","","","","","","","","","","","","","","","","","","","","","","","","","","","","","","","","","","","","","","","","","","","","","","","","","","","","","","","","","","","","","","","","","","SYN07682445 32595 80000 10282 20260 30056 40108 8327/ 333 10338 29084 55045 59007=","","","","","","","","","",""
"82445099999","2021-11-05T08:00:00","-4.2666666","-55.9833333","45.0","ITAITUBA, BR","FM-12","4","","78","84","","","","9","81","FEW:02 74","29.92","29.76","12.43","80","000","","0","","","","","","","","","","","","","","","","","","","","","","","","","","","","","","","","","","","","","","","","","","","","","","","","","","","","","","","","","","","","","","","","","","","","","","","","","","","","","","","","","","","","","","","","","","","SYN06482445 32898 50000 10290 20254 30079 40131 82150 333 20231 59008=","","","","","","","","","",""
"82445099999","2021-11-05T14:00:00","-4.2666666","-55.9833333","45.0","ITAITUBA, BR","FM-12","4","","78","91","","","","9","66","SCT:03 26","29.83","29.68","2.49","81","090","","5","","","","","","","","","","","","","","","","","","","","","","","","","","","","","","","","","","","","","","","","","","","","","","","","","","","","","","","","","","","","","","","","","","","","","","","","","","","","","","","","","","","","","","","","","","","SYN05882445 32596 80904 10330 20258 30052 40103 83280 333 58004=","","","","","","","","","",""
"82445099999","2021-11-05T20:00:00","-4.2666666","-55.9833333","45.0","ITAITUBA, BR","FM-12","4","","82","85","","","","","90","74","29.84","29.68","6.21","83","000","","0","","","","","","","","","","","","","","","","","","","","","","","","","","","","","","","","","","","","","","","","","","","","","","","","","","","","","","","","","","","","","","","","","","","","","","","","","","","","","","","","","","","","","","","","","","","SYN07682445 32897 60000 10295 20276 30052 40104 80001 333 10343 29081 55053 59004=","","","","","","","","","",""
"82445099999","2021-11-06T08:00:00","-4.2666666","-55.9833333","45.0","ITAITUBA, BR","FM-12","4","","76","80","","||TS","","9","89","SCT:04 26","29.95","29.80","1.24","77","140","","1","","","","","","","","","","","","","","","","","","","","","","","","","","","","","","","","","","","","","","","","","","","","","","","","","","","","","","","","","","","","","","","","","","","","","","","","","","","","","","","","","","","","","","","","","","","SYN07082445 31595 81401 10266 20246 30091 40143 71722 8427/ 333 20253 58012=","","","","","","","","","",""
"82445099999","2021-11-06T14:00:00","-4.2666666","-55.9833333","45.0","ITAITUBA, BR","FM-12","4","","78","82","","","","9","88","SCT:03 41","29.87","29.71","6.21","79","180","","5","","","","","","","","","","","","","","","","","","","","","","","","","","","","","","","","","","","","","","","","","","","","","","","","","","","","","","","","","","","","","","","","","","","","","","","","","","","","","","","","","","","","","","","","","","","SYN05882445 32697 71804 10278 20256 30062 40114 83521 333 58010=","","","","","","","","","",""
"82445099999","2021-11-06T20:00:00","-4.2666666","-55.9833333","45.0","ITAITUBA, BR","FM-12","4","","78","80","","","","","94","FEW:02 15","29.91","29.75","1.24","79","000","","0","","","","","","","","","","","","","","","","","","","","","","","","","","","","","","","","","","","","","","","","","","","","","","","","","","","","","","","","","","","","","","","","","","","","","","","","","","","","","","","","","","","","","","","","","","","SYN07682445 32495 80000 10264 20254 30076 40128 8272/ 333 10295 29092 55000 58024=","","","","","","","","","",""
"82445099999","2021-11-07T08:00:00","-4.2666666","-55.9833333","45.0","ITAITUBA, BR","FM-12","4","","77","80","","","","9","91","SCT:03 41","29.96","29.81","6.21","78","000","","0","","","","","","","","","","","","","","","","","","","","","","","","","","","","","","","","","","","","","","","","","","","","","","","","","","","","","","","","","","","","","","","","","","","","","","","","","","","","","","","","","","","","","","","","","","","SYN06482445 32697 70000 10268 20252 30095 40147 83570 333 20236 58004=","","","","","","","","","",""
"82445099999","2021-11-07T14:00:00","-4.2666666","-55.9833333","45.0","ITAITUBA, BR","FM-12","4","","79","90","","","","9","71","SCT:03 26","29.83","29.68","6.21","82","230","","1","","","","","","","","","","","","","","","","","","","","","","","","","","","","","","","","","","","","","","","","","","","","","","","","","","","","","","","","","","","","","","","","","","","","","","","","","","","","","","","","","","","","","","","","","","","SYN05882445 32597 72301 10322 20263 30051 40103 83231 333 59011=","","","","","","","","","",""
"82445099999","2021-11-07T20:00:00","-4.2666666","-55.9833333","45.0","ITAITUBA, BR","FM-12","4","","80","83","","","","","88","FEW:01","29.85","29.70","6.21","81","000","","0","","","","","","","","","","","","","","","","","","","","","","","","","","","","","","","","","","","","","","","","","","","","","","","","","","","","","","","","","","","","","","","","","","","","","","","","","","","","","","","","","","","","","","","","","","","SYN07682445 32597 ///// 10286 20264 30056 40108 81101 333 10350 29094 55022 59020=","","","","","","","","","",""
"82445099999","2021-11-08T08:00:00","-4.2666666","-55.9833333","45.0","ITAITUBA, BR","FM-12","4","","77","82","","","","9","85","FEW:02 26","29.93","29.78","6.21","78","180","","1","","","","","","","","","","","","","","","","","","","","","","","","","","","","","","","","","","","","","","","","","","","","","","","","","","","","","","","","","","","","","","","","","","","","","","","","","","","","","","","","","","","","","","","","","","","SYN06482445 32597 61801 10280 20252 30084 40136 82151 333 20244 59011=","","","","","","","","","",""
"82445099999","2021-11-08T14:00:00","-4.2666666","-55.9833333","45.0","ITAITUBA, BR","FM-12","4","","80","87","","","","9","81","SCT:03 26","29.82","29.67","2.49","82","000","","0","","","","","","","","","","","","","","","","","","","","","","","","","","","","","","","","","","","","","","","","","","","","","","","","","","","","","","","","","","","","","","","","","","","","","","","","","","","","","","","","","","","","","","","","","","","SYN07082445 21596 70000 10304 20268 30046 40098 72122 83271 333 59005 69911=","","","","","","","","","",""
"82445099999","2021-11-08T20:00:00","-4.2666666","-55.9833333","45.0","ITAITUBA, BR","FM-12","4","","77","79","","||RA","","","92","SCT:04 26","29.93","29.78","0.62","78","000","","0","","","","","","","","","","","","","","","","","","","","","","","","","","","","","","","","","","","","","","","","","","","","","","","","","","","","","","","","","","","","","","","","","","","","","","","","","","","","","","","","","","","","","","","","","","","SYN08882445 21594 80000 10262 20248 30084 40136 76292 8427/ 333 10338 29088 55046 58028 69971=","","","","","","","","","",""
"82445099999","2021-11-09T08:00:00","-4.2666666","-55.9833333","45.0","ITAITUBA, BR","FM-12","4","","76","78","","","","9","93","SCT:04 15","29.96","29.81","6.21","77","360","","1","","","","","","","","","","","","","","","","","","","","","","","","","","","","","","","","","","","","","","","","","","","","","","","","","","","","","","","","","","","","","","","","","","","","","","","","","","","","","","","","","","","","","","","","","","","SYN07682445 21497 83601 10256 20244 30095 40147 70365 8472/ 333 20233 58011 60114=","","","","","","","","","",""
"82445099999","2021-11-09T14:00:00","-4.2666666","-55.9833333","45.0","ITAITUBA, BR","FM-12","4","","75","81","","","","9","82","SCT:04 15","29.88","29.73","1.24","77","260","","7","","","","","","","","","","","","","","","","","","","","","","","","","","","","","","","","","","","","","","","","","","","","","","","","","","","","","","","","","","","","","","","","","","","","","","","","","","","","","","","","","","","","","","","","","","","SYN05882445 32495 82606 10272 20239 30068 40120 8477/ 333 59022=","","","","","","","","","",""
"82445099999","2021-11-09T20:00:00","-4.2666666","-55.9833333","45.0","ITAITUBA, BR","FM-12","4","","76","78","","","","","94","SCT:04 26","29.92","29.77","1.24","77","000","","0","","","","","","","","","","","","","","","","","","","","","","","","","","","","","","","","","","","","","","","","","","","","","","","","","","","","","","","","","","","","","","","","","","","","","","","","","","","","","","","","","","","","","","","","","","","SYN07682445 32595 80000 10254 20244 30080 40132 8457/ 333 10292 29091 55001 59004=","","","","","","","","","",""
"82445099999","2021-11-10T08:00:00","-4.2666666","-55.9833333","45.0","ITAITUBA, BR","FM-12","4","","77","82","","","","9","85","SCT:03 26","29.93","29.77","12.43","78","360","","1","","","","","","","","","","","","","","","","","","","","","","","","","","","","","","","","","","","","","","","","","","","","","","","","","","","","","","","","","","","","","","","","","","","","","","","","","","","","","","","","","","","","","","","","","","","SYN06482445 32598 63601 10276 20248 30082 40134 83230 333 20235 59013=","","","","","","","","","",""
"82445099999","2021-11-10T14:00:00","-4.2666666","-55.9833333","45.0","ITAITUBA, BR","FM-12","4","","79","87","","","","9","77","SCT:04 26","29.81","29.66","12.43","81","140","","2","","","","","","","","","","","","","","","","","","","","","","","","","","","","","","","","","","","","","","","","","","","","","","","","","","","","","","","","","","","","","","","","","","","","","","","","","","","","","","","","","","","","","","","","","","","SYN05882445 32598 51402 10306 20261 30044 40096 84201 333 59024=","","","","","","","","","",""
"82445099999","2021-11-10T20:00:00","-4.2666666","-55.9833333","45.0","ITAITUBA, BR","FM-12","4","","78","80","","","","","92","BKN:05 41","29.89","29.74","1.24","79","000","","0","","","","","","","","","","","","","","","","","","","","","","","","","","","","","","","","","","","","","","","","","","","","","","","","","","","","","","","","","","","","","","","","","","","","","","","","","","","","","","","","","","","","","","","","","","","SYN08882445 21695 80000 10268 20254 30070 40122 70265 8552/ 333 10334 29086 55039 59010 60021=","","","","","","","","","",""
"82445099999","2021-11-11T08:00:00","-4.2666666","-55.9833333","45.0","ITAITUBA, BR","FM-12","4","","77","81","","","","9","89","SCT:03 26","29.96","29.81","12.43","78","140","","2","","","","","","","","","","","","","","","","","","","","","","","","","","","","","","","","","","","","","","","","","","","","","","","","","","","","","","","","","","","","","","","","","","","","","","","","","","","","","","","","","","","","","","","","","","","SYN07082445 22598 61402 10272 20252 30095 40147 83238 333 20237 58013 60024=","","","","","","","","","",""
"82445099999","2021-11-11T14:00:00","-4.2666666","-55.9833333","45.0","ITAITUBA, BR","FM-12","4","","77","91","","","","9","63","SCT:03 26","29.82","29.67","12.43","81","050","","9","","","","","","","","","","","","","","","","","","","","","","","","","","","","","","","","","","","","","","","","","","","","","","","","","","","","","","","","","","","","","","","","","","","","","","","","","","","","","","","","","","","","","","","","","","","SYN05882445 32598 60508 10328 20248 30047 40099 83241 333 58003=","","","","","","","","","",""
"82445099999","2021-11-11T20:00:00","-4.2666666","-55.9833333","45.0","ITAITUBA, BR","FM-12","4","","77","78","","||TS","","","94","SCT:03 15","29.92","29.76","1.24","77","270","","5","","","","","","","","","","","","","","","","","","","","","","","","","","","","","","","","","","","","","","","","","","","","","","","","","","","","","","","","","","","","","","","","","","","","","","","","","","","","","","","","","","","","","","","","","","","SYN08882445 21495 82704 10258 20248 30079 40131 79565 8372/ 333 10340 29085 55068 58009 60101=","","","","","","","","","",""
"82445099999","2021-11-12T08:00:00","-4.2666666","-55.9833333","45.0","ITAITUBA, BR","FM-12","4","","76","78","","","","9","94","FEW:01 15","29.96","29.80","6.21","77","000","","0","","","","","","","","","","","","","","","","","","","","","","","","","","","","","","","","","","","","","","","","","","","","","","","","","","","","","","","","","","","","","","","","","","","","","","","","","","","","","","","","","","","","","","","","","","","SYN07682445 21497 70000 10254 20244 30092 40145 70365 81730 333 20222 59003 60454=","","","","","","","","","",""
"82445099999","2021-11-12T14:00:00","-4.2666666","-55.9833333","45.0","ITAITUBA, BR","FM-12","4","","79","91","","","","9","68","SCT:03 26","29.84","29.68","12.43","82","140","","2","","","","","","","","","","","","","","","","","","","","","","","","","","","","","","","","","","","","","","","","","","","","","","","","","","","","","","","","","","","","","","","","","","","","","","","","","","","","","","","","","","","","","","","","","","","SYN05882445 32598 61402 10326 20259 30052 40104 83201 333 58005=","","","","","","","","","",""
"82445099999","2021-11-12T20:00:00","-4.2666666","-55.9833333","45.0","ITAITUBA, BR","FM-12","4","","79","82","","","","","91","FEW:01","29.87","29.72","6.21","80","000","","0","","","","","","","","","","","","","","","","","","","","","","","","","","","","","","","","","","","","","","","","","","","","","","","","","","","","","","","","","","","","","","","","","","","","","","","","","","","","","","","","","","","","","","","","","","","SYN07682445 32997 20000 10278 20262 30063 40115 81041 333 10343 29086 55060 59016=","","","","","","","","","",""
"82445099999","2021-11-13T08:00:00","-4.2666666","-55.9833333","45.0","ITAITUBA, BR","FM-12","4","","77","79","","","","9","93","FEW:02 26","29.92","29.77","2.49","78","140","","2","","","","","","","","","","","","","","","","","","","","","","","","","","","","","","","","","","","","","","","","","","","","","","","","","","","","","","","","","","","","","","","","","","","","","","","","","","","","","","","","","","","","","","","","","","","SYN06482445 32596 81402 10262 20250 30080 40132 82271 333 20243 59012=","","","","","","","","","",""
"82445099999","2021-11-13T14:00:00","-4.2666666","-55.9833333","45.0","ITAITUBA, BR","FM-12","4","","79","85","","","","9","81","SCT:03 26","29.80","29.66","2.49","81","050","","2","","","","","","","","","","","","","","","","","","","","","","","","","","","","","","","","","","","","","","","","","","","","","","","","","","","","","","","","","","","","","","","","","","","","","","","","","","","","","","","","","","","","","","","","","","","SYN05882445 32596 70502 10296 20260 30043 40092 83252 333 59009=","","","","","","","","","",""
"82445099999","2021-11-13T20:00:00","-4.2666666","-55.9833333","45.0","ITAITUBA, BR","FM-12","4","","79","81","","","","","92","SCT:03 26","29.87","29.72","2.49","80","000","","0","","","","","","","","","","","","","","","","","","","","","","","","","","","","","","","","","","","","","","","","","","","","","","","","","","","","","","","","","","","","","","","","","","","","","","","","","","","","","","","","","","","","","","","","","","","SYN07682445 32596 70000 10274 20260 30063 40114 83580 333 10307 29090 55015 58000=","","","","","","","","","",""
"82445099999","2021-11-14T08:00:00","-4.2666666","-55.9833333","45.0","ITAITUBA, BR","FM-12","4","","77","79","","","","9","95","SCT:04 41","29.93","29.78","2.49","78","140","","1","","","","","","","","","","","","","","","","","","","","","","","","","","","","","","","","","","","","","","","","","","","","","","","","","","","","","","","","","","","","","","","","","","","","","","","","","","","","","","","","","","","","","","","","","","","SYN06482445 32696 81401 10260 20251 30084 40136 8457/ 333 20241 58004=","","","","","","","","","",""
"82445099999","2021-11-14T14:00:00","-4.2666666","-55.9833333","45.0","ITAITUBA, BR","FM-12","4","","80","85","","||TS","","9","86","SCT:03 26","29.81","29.66","2.49","81","000","","0","","","","","","","","","","","","","","","","","","","","","","","","","","","","","","","","","","","","","","","","","","","","","","","","","","","","","","","","","","","","","","","","","","","","","","","","","","","","","","","","","","","","","","","","","","","SYN06482445 31596 60000 10294 20268 30044 40096 71792 8327/ 333 58001=","","","","","","","","","",""
"82445099999","2021-11-14T20:00:00","-4.2666666","-55.9833333","45.0","ITAITUBA, BR","FM-12","4","","77","81","","","","","89","BKN:07 74","29.85","29.70","2.49","78","000","","0","","","","","","","","","","","","","","","","","","","","","","","","","","","","","","","","","","","","","","","","","","","","","","","","","","","","","","","","","","","","","","","","","","","","","","","","","","","","","","","","","","","","","","","","","","","SYN07682445 32896 70000 10272 20252 30058 40109 87080 333 10312 29091 55019 59005=","","","","","","","","","",""
"82445099999","2021-11-15T08:00:00","-4.2666666","-55.9833333","45.0","ITAITUBA, BR","FM-12","4","","77","79","","","","9","95","SCT:04 41","29.89","29.74","6.21","78","000","","0","","","","","","","","","","","","","","","","","","","","","","","","","","","","","","","","","","","","","","","","","","","","","","","","","","","","","","","","","","","","","","","","","","","","","","","","","","","","","","","","","","","","","","","","","","","SYN06482445 32697 80000 10260 20251 30070 40122 84581 333 20237 59014=","","","","","","","","","",""
"82445099999","2021-11-15T14:00:00","-4.2666666","-55.9833333","45.0","ITAITUBA, BR","FM-12","4","","80","90","","","","9","71","SCT:03 41","29.79","29.63","6.21","83","090","","5","","","","","","","","","","","","","","","","","","","","","","","","","","","","","","","","","","","","","","","","","","","","","","","","","","","","","","","","","","","","","","","","","","","","","","","","","","","","","","","","","","","","","","","","","","","SYN05882445 32697 70904 10324 20265 30035 40087 83576 333 59009=","","","","","","","","","",""
"82445099999","2021-11-15T20:00:00","-4.2666666","-55.9833333","45.0","ITAITUBA, BR","FM-12","4","","76","77","","","","","96","FEW:02 41","29.88","29.72","1.24","76","000","","0","","","","","","","","","","","","","","","","","","","","","","","","","","","","","","","","","","","","","","","","","","","","","","","","","","","","","","","","","","","","","","","","","","","","","","","","","","","","","","","","","","","","","","","","","","","SYN08882445 21695 80000 10252 20245 30066 40119 70296 8252/ 333 10340 29090 55053 58008 60321=","","","","","","","","","",""
"82445099999","2021-11-16T08:00:00","-4.2666666","-55.9833333","45.0","ITAITUBA, BR","FM-12","4","","76","79","","","","9","89","SCT:03 15","29.93","29.78","1.24","77","000","","0","","","","","","","","","","","","","","","","","","","","","","","","","","","","","","","","","","","","","","","","","","","","","","","","","","","","","","","","","","","","","","","","","","","","","","","","","","","","","","","","","","","","","","","","","","","SYN07682445 21495 80000 10262 20243 30083 40136 70262 8377/ 333 20221 58013 60324=","","","","","","","","","",""
"82445099999","2021-11-16T14:00:00","-4.2666666","-55.9833333","45.0","ITAITUBA, BR","FM-12","4","","80","89","","","","9","73","SCT:03 26","29.81","29.66","6.21","82","050","","7","","","","","","","","","","","","","","","","","","","","","","","","","","","","","","","","","","","","","","","","","","","","","","","","","","","","","","","","","","","","","","","","","","","","","","","","","","","","","","","","","","","","","","","","","","","SYN05882445 32597 60506 10318 20264 30043 40094 83280 333 58008=","","","","","","","","","",""
"82445099999","2021-11-16T20:00:00","-4.2666666","-55.9833333","45.0","ITAITUBA, BR","FM-12","4","","78","81","","","","","92","SCT:03 41","29.85","29.70","2.49","79","140","","1","","","","","","","","","","","","","","","","","","","","","","","","","","","","","","","","","","","","","","","","","","","","","","","","","","","","","","","","","","","","","","","","","","","","","","","","","","","","","","","","","","","","","","","","","","","SYN07682445 32696 61401 10270 20256 30058 40110 83580 333 10338 29088 55060 59008=","","","","","","","","","",""
"82445099999","2021-11-17T08:00:00","-4.2666666","-55.9833333","45.0","ITAITUBA, BR","FM-12","4","","77","84","","","","9","81","SCT:04 26","29.87","29.72","6.21","79","050","","2","","","","","","","","","","","","","","","","","","","","","","","","","","","","","","","","","","","","","","","","","","","","","","","","","","","","","","","","","","","","","","","","","","","","","","","","","","","","","","","","","","","","","","","","","","","SYN06482445 32597 70502 10288 20252 30064 40116 84580 333 20231 59018=","","","","","","","","","",""
"82445099999","2021-11-17T14:00:00","-4.2666666","-55.9833333","45.0","ITAITUBA, BR","FM-12","4","","79","92","","","","9","66","FEW:01 26","29.76","29.61","2.49","82","050","","7","","","","","","","","","","","","","","","","","","","","","","","","","","","","","","","","","","","","","","","","","","","","","","","","","","","","","","","","","","","","","","","","","","","","","","","","","","","","","","","","","","","","","","","","","","","SYN06482445 31596 60506 10332 20260 30026 40077 71622 81202 333 59017=","","","","","","","","","",""
"82445099999","2021-11-17T20:00:00","-4.2666666","-55.9833333","45.0","ITAITUBA, BR","FM-12","4","","76","79","","","","","92","SCT:04 26","29.85","29.70","1.24","77","140","","2","","","","","","","","","","","","","","","","","","","","","","","","","","","","","","","","","","","","","","","","","","","","","","","","","","","","","","","","","","","","","","","","","","","","","","","","","","","","","","","","","","","","","","","","","","","SYN08882445 21595 81402 10260 20246 30058 40110 72092 8427/ 333 10287 29083 55068 58000 69941=","","","","","","","","","",""
"82445099999","2021-11-18T08:00:00","-4.2666666","-55.9833333","45.0","ITAITUBA, BR","FM-12","4","","76","78","","","","9","92","SCT:03 26","29.93","29.77","6.21","77","000","","0","","","","","","","","","","","","","","","","","","","","","","","","","","","","","","","","","","","","","","","","","","","","","","","","","","","","","","","","","","","","","","","","","","","","","","","","","","","","","","","","","","","","","","","","","","","SYN07682445 21597 70000 10258 20244 30082 40134 70262 83190 333 20225 58018 60124=","","","","","","","","","",""
"82445099999","2021-11-18T14:00:00","-4.2666666","-55.9833333","45.0","ITAITUBA, BR","FM-12","4","","77","87","","","","9","73","SCT:03 26","29.90","29.67","2.49","80","360","","7","","","","","","","","","","","","","","","","","","","","","","","","","","","","","","","","","","","","","","","","","","","","","","","","","","","","","","","","","","","","","","","","","","","","","","","","","","","","","","","","","","","","","","","","","","","SYN05882445 32596 73606 10306 20252 30048 40125 83570 333 58022=","","","","","","","","","",""
"82445099999","2021-11-18T20:00:00","-4.2666666","-55.9833333","45.0","ITAITUBA, BR","FM-12","4","","76","78","","","","","94","SCT:04 15","29.86","29.70","1.24","77","000","","0","","","","","","","","","","","","","","","","","","","","","","","","","","","","","","","","","","","","","","","","","","","","","","","","","","","","","","","","","","","","","","","","","","","","","","","","","","","","","","","","","","","","","","","","","","","SYN07682445 32495 80000 10256 20246 30059 40112 8477/ 333 10317 29088 55000 58001=","","","","","","","","","",""
"82445099999","2021-11-19T08:00:00","-4.2666666","-55.9833333","45.0","ITAITUBA, BR","FM-12","4","","76","81","","","","9","85","FEW:02 26","29.93","29.77","6.21","77","000","","0","","","","","","","","","","","","","","","","","","","","","","","","","","","","","","","","","","","","","","","","","","","","","","","","","","","","","","","","","","","","","","","","","","","","","","","","","","","","","","","","","","","","","","","","","","","SYN07082445 22597 50000 10272 20245 30082 40134 82150 333 20229 58000 69904=","","","","","","","","","",""
"82445099999","2021-11-19T14:00:00","-4.2666666","-55.9833333","45.0","ITAITUBA, BR","FM-12","4","","78","92","","","","9","66","SCT:03 26","29.80","29.65","6.21","82","360","","2","","","","","","","","","","","","","","","","","","","","","","","","","","","","","","","","","","","","","","","","","","","","","","","","","","","","","","","","","","","","","","","","","","","","","","","","","","","","","","","","","","","","","","","","","","","SYN05882445 32597 63602 10331 20258 30039 40091 83276 333 59009=","","","","","","","","","",""
"82445099999","2021-11-19T20:00:00","-4.2666666","-55.9833333","45.0","ITAITUBA, BR","FM-12","4","","78","83","","","","","86","","29.86","29.71","6.21","79","000","","0","","","","","","","","","","","","","","","","","","","","","","","","","","","","","","","","","","","","","","","","","","","","","","","","","","","","","","","","","","","","","","","","","","","","","","","","","","","","","","","","","","","","","","","","","","","SYN07682445 32997 30000 10282 20256 30060 40112 80006 333 10348 29081 55077 58001=","","","","","","","","","",""
"82445099999","2021-11-20T08:00:00","-4.2666666","-55.9833333","45.0","ITAITUBA, BR","FM-12","4","","76","80","","","","9","89","FEW:01 41","29.88","29.73","12.43","77","230","","1","","","","","","","","","","","","","","","","","","","","","","","","","","","","","","","","","","","","","","","","","","","","","","","","","","","","","","","","","","","","","","","","","","","","","","","","","","","","","","","","","","","","","","","","","","","SYN06482445 32698 62301 10266 20246 30068 40120 81556 333 20240 59014=","","","","","","","","","",""
"82445099999","2021-11-20T14:00:00","-4.2666666","-55.9833333","45.0","ITAITUBA, BR","FM-12","4","","76","81","","||TS","","9","86","SCT:04 26","29.86","29.70","2.49","77","000","","0","","","","","","","","","","","","","","","","","","","","","","","","","","","","","","","","","","","","","","","","","","","","","","","","","","","","","","","","","","","","","","","","","","","","","","","","","","","","","","","","","","","","","","","","","","","SYN07082445 21596 80000 10270 20245 30059 40111 79596 8437/ 333 58020 60111=","","","","","","","","","",""
"82445099999","2021-11-20T20:00:00","-4.2666666","-55.9833333","45.0","ITAITUBA, BR","FM-12","4","","76","77","","","","","96","SCT:03 41","29.86","29.71","2.49","76","000","","0","","","","","","","","","","","","","","","","","","","","","","","","","","","","","","","","","","","","","","","","","","","","","","","","","","","","","","","","","","","","","","","","","","","","","","","","","","","","","","","","","","","","","","","","","","","SYN08882445 21696 70000 10252 20245 30060 40113 70365 83530 333 10331 29092 55037 58000 60041=","","","","","","","","","",""
"82445099999","2021-11-21T08:00:00","-4.2666666","-55.9833333","45.0","ITAITUBA, BR","FM-12","4","","77","78","","","","9","94","SCT:04 15","29.94","29.79","6.21","77","000","","0","","","","","","","","","","","","","","","","","","","","","","","","","","","","","","","","","","","","","","","","","","","","","","","","","","","","","","","","","","","","","","","","","","","","","","","","","","","","","","","","","","","","","","","","","","","SYN07082445 22497 70000 10258 20248 30088 40140 84720 333 20232 58020 60144=","","","","","","","","","",""
"82445099999","2021-11-21T14:00:00","-4.2666666","-55.9833333","45.0","ITAITUBA, BR","FM-12","4","","78","89","","","","9","71","SCT:03 26","29.81","29.65","12.43","81","140","","2","","","","","","","","","","","","","","","","","","","","","","","","","","","","","","","","","","","","","","","","","","","","","","","","","","","","","","","","","","","","","","","","","","","","","","","","","","","","","","","","","","","","","","","","","","","SYN05882445 32598 51402 10316 20257 30042 40094 83201 333 59017=","","","","","","","","","",""
"82445099999","2021-11-21T20:00:00","-4.2666666","-55.9833333","45.0","ITAITUBA, BR","FM-12","4","","80","85","","","","","87","FEW:01 15","29.85","29.70","2.49","81","000","","0","","","","","","","","","","","","","","","","","","","","","","","","","","","","","","","","","","","","","","","","","","","","","","","","","","","","","","","","","","","","","","","","","","","","","","","","","","","","","","","","","","","","","","","","","","","SYN07682445 32496 50000 10292 20268 30056 40108 81710 333 10343 29085 55054 59004=","","","","","","","","","",""
"82445099999","2021-11-22T08:00:00","-4.2666666","-55.9833333","45.0","ITAITUBA, BR","FM-12","4","","77","80","","","","9","92","BKN:05 41","29.94","29.78","6.21","78","000","","0","","","","","","","","","","","","","","","","","","","","","","","","","","","","","","","","","","","","","","","","","","","","","","","","","","","","","","","","","","","","","","","","","","","","","","","","","","","","","","","","","","","","","","","","","","","SYN06482445 32697 80000 10266 20252 30086 40138 8552/ 333 20243 59002=","","","","","","","","","",""
"82445099999","2021-11-22T14:00:00","-4.2666666","-55.9833333","45.0","ITAITUBA, BR","FM-12","4","","77","82","","","","9","84","SCT:04 41","29.87","29.72","2.49","78","320","","2","","","","","","","","","","","","","","","","","","","","","","","","","","","","","","","","","","","","","","","","","","","","","","","","","","","","","","","","","","","","","","","","","","","","","","","","","","","","","","","","","","","","","","","","","","","SYN07082445 21696 83202 10278 20248 30064 40116 72162 8457/ 333 58022 60181=","","","","","","","","","",""
"82445099999","2021-11-22T20:00:00","-4.2666666","-55.9833333","45.0","ITAITUBA, BR","FM-12","4","","72","79","","","","","81","FEW:02 26","29.88","29.73","1.24","74","000","","0","","","","","","","","","","","","","","","","","","","","","","","","","","","","","","","","","","","","","","","","","","","","","","","","","","","","","","","","","","","","","","","","","","","","","","","","","","","","","","","","","","","","","","","","","","","SYN07682445 32595 80000 10259 20223 30067 40119 8217/ 333 10290 29084 55004 58011=","","","","","","","","","",""
"82445099999","2021-11-23T08:00:00","-4.2666666","-55.9833333","45.0","ITAITUBA, BR","FM-12","4","","76","81","","","","9","87","BKN:05 41","29.95","29.80","6.21","77","000","","0","","","","","","","","","","","","","","","","","","","","","","","","","","","","","","","","","","","","","","","","","","","","","","","","","","","","","","","","","","","","","","","","","","","","","","","","","","","","","","","","","","","","","","","","","","","SYN07082445 22697 50000 10270 20246 30091 40143 85500 333 20233 58005 60184=","","","","","","","","","",""
"82445099999","2021-11-23T14:00:00","-4.2666666","-55.9833333","45.0","ITAITUBA, BR","FM-12","4","","78","90","","","","9","68","SCT:04 26","29.89","29.74","6.21","81","090","","5","","","","","","","","","","","","","","","","","","","","","","","","","","","","","","","","","","","","","","","","","","","","","","","","","","","","","","","","","","","","","","","","","","","","","","","","","","","","","","","","","","","","","","","","","","","SYN05882445 32597 60904 10322 20255 30072 40123 84202 333 58008=","","","","","","","","","",""
"82445099999","2021-11-23T20:00:00","-4.2666666","-55.9833333","45.0","ITAITUBA, BR","FM-12","4","","81","83","","","","","94","74","29.84","29.68","6.21","82","000","","0","","","","","","","","","","","","","","","","","","","","","","","","","","","","","","","","","","","","","","","","","","","","","","","","","","","","","","","","","","","","","","","","","","","","","","","","","","","","","","","","","","","","","","","","","","","SYN07682445 32897 30000 10286 20275 30052 40104 80002 333 10338 29086 55078 59015=","","","","","","","","","",""
"82445099999","2021-11-24T08:00:00","-4.2666666","-55.9833333","45.0","ITAITUBA, BR","FM-12","4","","76","82","","","","9","83","FEW:02 26","29.93","29.78","6.21","78","000","","0","","","","","","","","","","","","","","","","","","","","","","","","","","","","","","","","","","","","","","","","","","","","","","","","","","","","","","","","","","","","","","","","","","","","","","","","","","","","","","","","","","","","","","","","","","","SYN06482445 32597 60000 10276 20244 30084 40136 82152 333 20237 59007=","","","","","","","","","",""
"82445099999","2021-11-24T14:00:00","-4.2666666","-55.9833333","45.0","ITAITUBA, BR","FM-12","4","","76","92","","","","9","59","SCT:03 26","29.81","29.67","6.21","80","090","","5","","","","","","","","","","","","","","","","","","","","","","","","","","","","","","","","","","","","","","","","","","","","","","","","","","","","","","","","","","","","","","","","","","","","","","","","","","","","","","","","","","","","","","","","","","","SYN05882445 32597 60904 10335 20245 30046 40094 83292 333 59026=","","","","","","","","","",""
"82445099999","2021-11-24T20:00:00","-4.2666666","-55.9833333","45.0","ITAITUBA, BR","FM-12","4","","79","83","","","","","87","","29.83","29.67","6.21","80","000","","0","","","","","","","","","","","","","","","","","","","","","","","","","","","","","","","","","","","","","","","","","","","","","","","","","","","","","","","","","","","","","","","","","","","","","","","","","","","","","","","","","","","","","","","","","","","SYN07082445 32997 00000 10285 20262 30048 40100 333 10348 29079 55076 59004=","","","","","","","","","",""
"82445099999","2021-11-25T08:00:00","-4.2666666","-55.9833333","45.0","ITAITUBA, BR","FM-12","4","","76","81","","","","9","87","OVC:08 15","29.95","29.80","2.49","77","000","","0","","","","","","","","","","","","","","","","","","","","","","","","","","","","","","","","","","","","","","","","","","","","","","","","","","","","","","","","","","","","","","","","","","","","","","","","","","","","","","","","","","","","","","","","","","","SYN07682445 21496 80000 10270 20246 30091 40143 72152 88872 333 20237 58007 60044=","","","","","","","","","",""
"82445099999","2021-11-25T14:00:00","-4.2666666","-55.9833333","45.0","ITAITUBA, BR","FM-12","4","","76","92","","","","9","61","FEW:02 26","29.80","29.65","6.21","80","090","","5","","","","","","","","","","","","","","","","","","","","","","","","","","","","","","","","","","","","","","","","","","","","","","","","","","","","","","","","","","","","","","","","","","","","","","","","","","","","","","","","","","","","","","","","","","","SYN05882445 32597 70904 10332 20247 30040 40091 82272 333 59006=","","","","","","","","","",""
"82445099999","2021-11-25T20:00:00","-4.2666666","-55.9833333","45.0","ITAITUBA, BR","FM-12","4","","77","83","","||TS","","","82","SCT:04 26","29.88","29.72","1.24","79","050","","2","","","","","","","","","","","","","","","","","","","","","","","","","","","","","","","","","","","","","","","","","","","","","","","","","","","","","","","","","","","","","","","","","","","","","","","","","","","","","","","","","","","","","","","","","","","SYN08282445 31595 80502 10286 20252 30066 40118 71722 8447/ 333 10343 29078 55058 58018=","","","","","","","","","",""
"82445099999","2021-11-26T08:00:00","-4.2666666","-55.9833333","45.0","ITAITUBA, BR","FM-12","4","","77","80","","","","9","90","SCT:04 41","29.95","29.80","2.49","78","000","","0","","","","","","","","","","","","","","","","","","","","","","","","","","","","","","","","","","","","","","","","","","","","","","","","","","","","","","","","","","","","","","","","","","","","","","","","","","","","","","","","","","","","","","","","","","","SYN07682445 21696 80000 10266 20248 30091 40143 70222 8457/ 333 20233 58000 60084=","","","","","","","","","",""
"82445099999","2021-11-26T14:00:00","-4.2666666","-55.9833333","45.0","ITAITUBA, BR","FM-12","4","","79","90","","","","9","70","SCT:03 26","29.80","29.65","2.49","82","050","","5","","","","","","","","","","","","","","","","","","","","","","","","","","","","","","","","","","","","","","","","","","","","","","","","","","","","","","","","","","","","","","","","","","","","","","","","","","","","","","","","","","","","","","","","","","","SYN05882445 32596 50504 10322 20260 30042 40093 83272 333 58002=","","","","","","","","","",""
"82445099999","2021-11-27T08:00:00","-4.2666666","-55.9833333","45.0","ITAITUBA, BR","FM-12","4","","78","82","","","","9","86","SCT:03 26","29.94","29.79","12.43","79","230","","1","","","","","","","","","","","","","","","","","","","","","","","","","","","","","","","","","","","","","","","","","","","","","","","","","","","","","","","","","","","","","","","","","","","","","","","","","","","","","","","","","","","","","","","","","","","SYN07682445 21598 62301 10279 20254 30087 40139 70352 83230 333 20240 59004 69914=","","","","","","","","","",""
"82445099999","2021-11-27T14:00:00","-4.2666666","-55.9833333","45.0","ITAITUBA, BR","FM-12","4","","78","82","","||TS","","9","89","SCT:04 15","29.85","29.70","6.21","79","000","","0","","","","","","","","","","","","","","","","","","","","","","","","","","","","","","","","","","","","","","","","","","","","","","","","","","","","","","","","","","","","","","","","","","","","","","","","","","","","","","","","","","","","","","","","","","","SYN07082445 21497 80000 10278 20258 30056 40108 71765 8432/ 333 58014 60121=","","","","","","","","","",""
"82445099999","2021-11-27T20:00:00","-4.2666666","-55.9833333","45.0","ITAITUBA, BR","FM-12","4","","76","78","","","","","95","FEW:01 15","29.86","29.71","2.49","77","000","","0","","","","","","","","","","","","","","","","","","","","","","","","","","","","","","","","","","","","","","","","","","","","","","","","","","","","","","","","","","","","","","","","","","","","","","","","","","","","","","","","","","","","","","","","","","","SYN08882445 21496 70000 10254 20245 30060 40113 70365 81110 333 10320 29091 55023 58004 69991=","","","","","","","","","",""
"82445099999","2021-11-28T08:00:00","-4.2666666","-55.9833333","45.0","ITAITUBA, BR","FM-12","4","","77","80","","","","9","90","BKN:07 15","29.94","29.79","6.21","78","000","","0","","","","","","","","","","","","","","","","","","","","","","","","","","","","","","","","","","","","","","","","","","","","","","","","","","","","","","","","","","","","","","","","","","","","","","","","","","","","","","","","","","","","","","","","","","","SYN07082445 22497 70000 10266 20248 30088 40140 87700 333 20233 58001 60134=","","","","","","","","","",""
"82445099999","2021-11-28T14:00:00","-4.2666666","-55.9833333","45.0","ITAITUBA, BR","FM-12","4","","79","92","","","","9","67","BKN:05 41","29.81","29.66","6.21","82","140","","2","","","","","","","","","","","","","","","","","","","","","","","","","","","","","","","","","","","","","","","","","","","","","","","","","","","","","","","","","","","","","","","","","","","","","","","","","","","","","","","","","","","","","","","","","","","SYN05882445 32697 61402 10332 20262 30044 40096 85505 333 59012=","","","","","","","","","",""
"82445099999","2021-11-28T20:00:00","-4.2666666","-55.9833333","45.0","ITAITUBA, BR","FM-12","4","","78","85","","||DZ","","","81","SCT:04 15","29.87","29.72","1.24","80","000","","0","","","","","","","","","","","","","","","","","","","","","","","","","","","","","","","","","","","","","","","","","","","","","","","","","","","","","","","","","","","","","","","","","","","","","","","","","","","","","","","","","","","","","","","","","","","SYN08882445 21495 80000 10294 20258 30064 40116 75122 8472/ 333 10346 29080 55061 58004 69911=","","","","","","","","","",""
"82445099999","2021-11-29T08:00:00","-4.2666666","-55.9833333","45.0","ITAITUBA, BR","FM-12","4","","78","83","","","","9","84","FEW:01 26","29.93","29.78","31.07","79","140","","2","","","","","","","","","","","","","","","","","","","","","","","","","","","","","","","","","","","","","","","","","","","","","","","","","","","","","","","","","","","","","","","","","","","","","","","","","","","","","","","","","","","","","","","","","","","SYN07682445 21599 21402 10284 20254 30084 40136 70352 81140 333 20239 59004 69934=","","","","","","","","","",""
"82445099999","2021-11-29T14:00:00","-4.2666666","-55.9833333","45.0","ITAITUBA, BR","FM-12","4","","79","93","","","","9","64","SCT:04 26","29.80","29.65","12.43","83","090","","7","","","","","","","","","","","","","","","","","","","","","","","","","","","","","","","","","","","","","","","","","","","","","","","","","","","","","","","","","","","","","","","","","","","","","","","","","","","","","","","","","","","","","","","","","","","SYN05882445 32598 50906 10340 20262 30039 40091 84206 333 59005=","","","","","","","","","",""
"82445099999","2021-11-29T20:00:00","-4.2666666","-55.9833333","45.0","ITAITUBA, BR","FM-12","4","","77","86","","","","","75","FEW:01 26","29.85","29.69","6.21","80","050","","2","","","","","","","","","","","","","","","","","","","","","","","","","","","","","","","","","","","","","","","","","","","","","","","","","","","","","","","","","","","","","","","","","","","","","","","","","","","","","","","","","","","","","","","","","","","SYN07682445 32597 20502 10302 20252 30055 40107 81105 333 10356 29077 55091 59009=","","","","","","","","","",""
"82445099999","2021-11-30T08:00:00","-4.2666666","-55.9833333","45.0","ITAITUBA, BR","FM-12","4","","77","85","","","","9","77","SCT:03 26","29.93","29.78","12.43","79","090","","5","","","","","","","","","","","","","","","","","","","","","","","","","","","","","","","","","","","","","","","","","","","","","","","","","","","","","","","","","","","","","","","","","","","","","","","","","","","","","","","","","","","","","","","","","","","SYN06482445 32598 50904 10294 20249 30083 40135 83230 333 20254 59001=","","","","","","","","","",""
"82445099999","2021-11-30T14:00:00","-4.2666666","-55.9833333","45.0","ITAITUBA, BR","FM-12","4","","79","91","","","","9","67","SCT:03 26","29.81","29.65","12.43","82","090","","2","","","","","","","","","","","","","","","","","","","","","","","","","","","","","","","","","","","","","","","","","","","","","","","","","","","","","","","","","","","","","","","","","","","","","","","","","","","","","","","","","","","","","","","","","","","SYN05882445 32598 50902 10328 20259 30042 40094 83205 333 58003=","","","","","","","","","",""
"82445099999","2021-11-30T20:00:00","-4.2666666","-55.9833333","45.0","ITAITUBA, BR","FM-12","4","","79","83","","","","","86","SCT:03","29.82","29.67","6.21","80","000","","0","","","","","","","","","","","","","","","","","","","","","","","","","","","","","","","","","","","","","","","","","","","","","","","","","","","","","","","","","","","","","","","","","","","","","","","","","","","","","","","","","","","","","","","","","","","SYN07682445 32997 30000 10286 20260 30049 40099 83010 333 10346 29079 55090 59008=","","","","","","","","","",""
"82445099999","2021-12-01T08:00:00","-4.2666666","-55.9833333","45.0","ITAITUBA, BR","FM-12","4","","78","81","","","","9","91","SCT:03 41","29.93","29.78","6.21","79","000","","0","","","","","","","","","","","","","","","","","","","","","","","","","","","","","","","","","","","","","","","","","","","","","","","","","","","","","","","","","","","","","","","","","","","","","","","","","","","","","","","","","","","","","","","","","","","SYN06482445 32697 70000 10272 20256 30083 40135 83570 333 20245 58000=","","","","","","","","","",""
"82445099999","2021-12-01T14:00:00","-4.2666666","-55.9833333","45.0","ITAITUBA, BR","FM-12","4","","80","91","","","","9","71","SCT:03 41","29.82","29.67","6.21","83","270","","2","","","","","","","","","","","","","","","","","","","","","","","","","","","","","","","","","","","","","","","","","","","","","","","","","","","","","","","","","","","","","","","","","","","","","","","","","","","","","","","","","","","","","","","","","","","SYN05882445 32697 72702 10326 20266 30046 40098 83570 333 58005=","","","","","","","","","",""
"82445099999","2021-12-01T20:00:00","-4.2666666","-55.9833333","45.0","ITAITUBA, BR","FM-12","4","","74","76","","||DZ","","","95","SCT:04 15","29.91","29.75","1.24","75","000","","0","","","","","","","","","","","","","","","","","","","","","","","","","","","","","","","","","","","","","","","","","","","","","","","","","","","","","","","","","","","","","","","","","","","","","","","","","","","","","","","","","","","","","","","","","","","SYN08882445 21495 80000 10244 20235 30074 40127 75066 8472/ 333 10341 29088 55026 58027 60921=","","","","","","","","","",""
"82445099999","2021-12-02T08:00:00","-4.2666666","-55.9833333","45.0","ITAITUBA, BR","FM-12","4","","76","78","","","","9","92","SCT:03 41","29.96","29.80","6.21","77","180","","2","","","","","","","","","","","","","","","","","","","","","","","","","","","","","","","","","","","","","","","","","","","","","","","","","","","","","","","","","","","","","","","","","","","","","","","","","","","","","","","","","","","","","","","","","","","SYN07682445 21697 71802 10258 20244 30091 40144 70352 83570 333 20229 58008 60924=","","","","","","","","","",""
"82445099999","2021-12-02T14:00:00","-4.2666666","-55.9833333","45.0","ITAITUBA, BR","FM-12","4","","80","90","","","","9","71","BKN:05 41","29.81","29.66","6.21","83","270","","2","","","","","","","","","","","","","","","","","","","","","","","","","","","","","","","","","","","","","","","","","","","","","","","","","","","","","","","","","","","","","","","","","","","","","","","","","","","","","","","","","","","","","","","","","","","SYN05882445 32697 62702 10324 20265 30043 40095 85501 333 59003=","","","","","","","","","",""
"82445099999","2021-12-02T20:00:00","-4.2666666","-55.9833333","45.0","ITAITUBA, BR","FM-12","4","","78","80","","","","","92","SCT:03 26","29.87","29.71","2.49","79","000","","0","","","","","","","","","","","","","","","","","","","","","","","","","","","","","","","","","","","","","","","","","","","","","","","","","","","","","","","","","","","","","","","","","","","","","","","","","","","","","","","","","","","","","","","","","","","SYN08882445 21596 40000 10269 20254 30062 40114 71365 83240 333 10340 29086 55024 59012 69991=","","","","","","","","","",""
"82445099999","2021-12-03T08:00:00","-4.2666666","-55.9833333","45.0","ITAITUBA, BR","FM-12","4","","76","78","","","","9","95","SCT:04 41","29.92","29.76","6.21","77","000","","0","","","","","","","","","","","","","","","","","","","","","","","","","","","","","","","","","","","","","","","","","","","","","","","","","","","","","","","","","","","","","","","","","","","","","","","","","","","","","","","","","","","","","","","","","","","SYN07682445 21697 80000 10254 20246 30078 40131 70265 8452/ 333 20237 59013 60044=","","","","","","","","","",""
"82445099999","2021-12-03T14:00:00","-4.2666666","-55.9833333","45.0","ITAITUBA, BR","FM-12","4","","76","79","","","","9","89","SCT:03 41","29.83","29.68","6.21","77","000","","0","","","","","","","","","","","","","","","","","","","","","","","","","","","","","","","","","","","","","","","","","","","","","","","","","","","","","","","","","","","","","","","","","","","","","","","","","","","","","","","","","","","","","","","","","","","SYN07082445 21697 70000 10262 20242 30051 40103 70365 83570 333 58008 60031=","","","","","","","","","",""
"82445099999","2021-12-03T20:00:00","-4.2666666","-55.9833333","45.0","ITAITUBA, BR","FM-12","4","","75","78","","","","","91","SCT:03 15","29.88","29.72","1.24","76","230","","1","","","","","","","","","","","","","","","","","","","","","","","","","","","","","","","","","","","","","","","","","","","","","","","","","","","","","","","","","","","","","","","","","","","","","","","","","","","","","","","","","","","","","","","","","","","SYN07682445 32495 72301 10254 20238 30064 40117 83720 333 10284 29091 55000 58002=","","","","","","","","","",""
"82445099999","2021-12-04T08:00:00","-4.2666666","-55.9833333","45.0","ITAITUBA, BR","FM-12","4","","75","77","","","","9","94","SCT:04 41","29.97","29.81","6.21","76","140","","1","","","","","","","","","","","","","","","","","","","","","","","","","","","","","","","","","","","","","","","","","","","","","","","","","","","","","","","","","","","","","","","","","","","","","","","","","","","","","","","","","","","","","","","","","","","SYN07082445 22697 71401 10250 20240 30096 40149 84570 333 20225 58018 60034=","","","","","","","","","",""
"82445099999","2021-12-04T14:00:00","-4.2666666","-55.9833333","45.0","ITAITUBA, BR","FM-12","4","","79","90","","","","9","70","BKN:06 26","29.84","29.69","1.24","82","360","","7","","","","","","","","","","","","","","","","","","","","","","","","","","","","","","","","","","","","","","","","","","","","","","","","","","","","","","","","","","","","","","","","","","","","","","","","","","","","","","","","","","","","","","","","","","","SYN06482445 31595 83606 10322 20260 30055 40106 71622 8627/ 333 58004=","","","","","","","","","",""
"82445099999","2021-12-04T20:00:00","-4.2666666","-55.9833333","45.0","ITAITUBA, BR","FM-12","4","","77","78","","","","","94","SCT:04 15","29.91","29.75","1.24","77","000","","0","","","","","","","","","","","","","","","","","","","","","","","","","","","","","","","","","","","","","","","","","","","","","","","","","","","","","","","","","","","","","","","","","","","","","","","","","","","","","","","","","","","","","","","","","","","SYN08882445 21495 80000 10258 20248 30075 40127 70262 8477/ 333 10338 29088 55048 58011 60031=","","","","","","","","","",""
"82445099999","2021-12-05T08:00:00","-4.2666666","-55.9833333","45.0","ITAITUBA, BR","FM-12","4","","76","79","","","","9","92","SCT:03 41","29.97","29.82","2.49","77","000","","0","","","","","","","","","","","","","","","","","","","","","","","","","","","","","","","","","","","","","","","","","","","","","","","","","","","","","","","","","","","","","","","","","","","","","","","","","","","","","","","","","","","","","","","","","","","SYN07082445 22696 80000 10260 20246 30098 40150 8358/ 333 20239 58002 60034=","","","","","","","","","",""
"82445099999","2021-12-05T14:00:00","-4.2666666","-55.9833333","45.0","ITAITUBA, BR","FM-12","4","","79","89","","","","9","73","SCT:04 26","29.88","29.70","2.49","82","090","","2","","","","","","","","","","","","","","","","","","","","","","","","","","","","","","","","","","","","","","","","","","","","","","","","","","","","","","","","","","","","","","","","","","","","","","","","","","","","","","","","","","","","","","","","","","","SYN06482445 31596 70902 10315 20262 30059 40118 71522 84270 333 58004=","","","","","","","","","",""
"82445099999","2021-12-05T20:00:00","-4.2666666","-55.9833333","45.0","ITAITUBA, BR","FM-12","4","","75","81","","","","","84","SCT:04 41","29.91","29.74","1.24","77","090","","2","","","","","","","","","","","","","","","","","","","","","","","","","","","","","","","","","","","","","","","","","","","","","","","","","","","","","","","","","","","","","","","","","","","","","","","","","","","","","","","","","","","","","","","","","","","SYN07682445 32695 80902 10270 20241 30072 40129 8457/ 333 10327 29083 55012 59003=","","","","","","","","","",""
"82445099999","2021-12-06T08:00:00","-4.2666666","-55.9833333","45.0","ITAITUBA, BR","FM-12","4","","76","81","","","","9","87","SCT:04 41","29.96","29.81","2.49","77","090","","5","","","","","","","","","","","","","","","","","","","","","","","","","","","","","","","","","","","","","","","","","","","","","","","","","","","","","","","","","","","","","","","","","","","","","","","","","","","","","","","","","","","","","","","","","","","SYN07682445 21696 80904 10270 20246 30094 40146 70362 8458/ 333 20241 59004 69924=","","","","","","","","","",""
"82445099999","2021-12-06T14:00:00","-4.2666666","-55.9833333","45.0","ITAITUBA, BR","FM-12","4","","78","91","","","","9","67","SCT:03 26","29.82","29.67","12.43","81","050","","5","","","","","","","","","","","","","","","","","","","","","","","","","","","","","","","","","","","","","","","","","","","","","","","","","","","","","","","","","","","","","","","","","","","","","","","","","","","","","","","","","","","","","","","","","","","SYN05882445 32598 60504 10326 20257 30048 40099 83202 333 59011=","","","","","","","","","",""
"82445099999","2021-12-06T20:00:00","-4.2666666","-55.9833333","45.0","ITAITUBA, BR","FM-12","4","","81","84","","","","","91","SCT:04 41","29.89","29.74","2.49","82","000","","0","","","","","","","","","","","","","","","","","","","","","","","","","","","","","","","","","","","","","","","","","","","","","","","","","","","","","","","","","","","","","","","","","","","","","","","","","","","","","","","","","","","","","","","","","","","SYN07682445 32696 70000 10288 20272 30071 40123 84570 333 10343 29084 55047 59001=","","","","","","","","","",""
"82445099999","2021-12-07T08:00:00","-4.2666666","-55.9833333","45.0","ITAITUBA, BR","FM-12","4","","75","77","","||DZ","","9","96","SCT:04 15","29.94","29.79","1.24","76","230","","1","","","","","","","","","","","","","","","","","","","","","","","","","","","","","","","","","","","","","","","","","","","","","","","","","","","","","","","","","","","","","","","","","","","","","","","","","","","","","","","","","","","","","","","","","","","SYN07682445 21495 82301 10248 20241 30087 40139 75162 8477/ 333 20235 59007 60214=","","","","","","","","","",""
"82445099999","2021-12-07T14:00:00","-4.2666666","-55.9833333","45.0","ITAITUBA, BR","FM-12","4","","76","83","","","","9","80","SCT:04 41","29.87","29.72","2.49","78","000","","0","","","","","","","","","","","","","","","","","","","","","","","","","","","","","","","","","","","","","","","","","","","","","","","","","","","","","","","","","","","","","","","","","","","","","","","","","","","","","","","","","","","","","","","","","","","SYN07082445 21696 80000 10284 20246 30063 40115 72122 8457/ 333 58015 60011=","","","","","","","","","",""
"82445099999","2021-12-07T20:00:00","-4.2666666","-55.9833333","45.0","ITAITUBA, BR","FM-12","4","","76","78","","","","","93","SCT:03 41","29.88","29.72","1.24","77","360","","1","","","","","","","","","","","","","","","","","","","","","","","","","","","","","","","","","","","","","","","","","","","","","","","","","","","","","","","","","","","","","","","","","","","","","","","","","","","","","","","","","","","","","","","","","","","SYN07682445 32695 83601 10256 20244 30066 40119 8352/ 333 10305 29090 55000 59005=","","","","","","","","","",""
"82445099999","2021-12-08T08:00:00","-4.2666666","-55.9833333","45.0","ITAITUBA, BR","FM-12","4","","76","78","","","","9","95","SCT:04 41","29.94","29.79","2.49","77","360","","1","","","","","","","","","","","","","","","","","","","","","","","","","","","","","","","","","","","","","","","","","","","","","","","","","","","","","","","","","","","","","","","","","","","","","","","","","","","","","","","","","","","","","","","","","","","SYN07682445 21696 83601 10254 20246 30088 40140 72022 8457/ 333 20233 58001 60024=","","","","","","","","","",""
"82445099999","2021-12-08T14:00:00","-4.2666666","-55.9833333","45.0","ITAITUBA, BR","FM-12","4","","78","86","","","","9","77","BKN:06 26","29.85","29.70","12.43","80","140","","2","","","","","","","","","","","","","","","","","","","","","","","","","","","","","","","","","","","","","","","","","","","","","","","","","","","","","","","","","","","","","","","","","","","","","","","","","","","","","","","","","","","","","","","","","","","SYN05882445 32598 61402 10300 20255 30058 40110 86200 333 59005=","","","","","","","","","",""
"82445099999","2021-12-08T20:00:00","-4.2666666","-55.9833333","45.0","ITAITUBA, BR","FM-12","4","","80","83","","","","","89","SCT:04 41","29.87","29.71","2.49","81","360","","1","","","","","","","","","","","","","","","","","","","","","","","","","","","","","","","","","","","","","","","","","","","","","","","","","","","","","","","","","","","","","","","","","","","","","","","","","","","","","","","","","","","","","","","","","","","SYN07682445 32696 43601 10284 20264 30062 40114 84500 333 10331 29087 55018 59004=","","","","","","","","","",""
"82445099999","2021-12-09T08:00:00","-4.2666666","-55.9833333","45.0","ITAITUBA, BR","FM-12","4","","78","82","","","","9","88","SCT:03 41","29.93","29.78","6.21","79","050","","2","","","","","","","","","","","","","","","","","","","","","","","","","","","","","","","","","","","","","","","","","","","","","","","","","","","","","","","","","","","","","","","","","","","","","","","","","","","","","","","","","","","","","","","","","","","SYN06482445 32697 70502 10276 20254 30083 40135 83550 333 20239 59005=","","","","","","","","","",""
"82445099999","2021-12-09T14:00:00","-4.2666666","-55.9833333","45.0","ITAITUBA, BR","FM-12","4","","76","82","","","","9","83","BKN:06 15","29.88","29.70","1.24","78","320","","2","","","","","","","","","","","","","","","","","","","","","","","","","","","","","","","","","","","","","","","","","","","","","","","","","","","","","","","","","","","","","","","","","","","","","","","","","","","","","","","","","","","","","","","","","","","SYN07082445 21495 83202 10276 20244 30058 40118 72162 8677/ 333 58000 60021=","","","","","","","","","",""
"82445099999","2021-12-09T20:00:00","-4.2666666","-55.9833333","45.0","ITAITUBA, BR","FM-12","4","","76","78","","","","","93","SCT:03 41","29.86","29.71","2.49","77","090","","6","","","","","","","","","","","","","","","","","","","","","","","","","","","","","","","","","","","","","","","","","","","","","","","","","","","","","","","","","","","","","","","","","","","","","","","","","","","","","","","","","","","","","","","","","","","SYN08882445 21696 60905 10254 20242 30060 40112 72052 83550 333 10328 29089 55025 59002 69931=","","","","","","","","","",""
"82445099999","2021-12-10T08:00:00","-4.2666666","-55.9833333","45.0","ITAITUBA, BR","FM-12","4","","77","80","","","","9","90","BKN:06 74","29.89","29.74","6.21","78","140","","1","","","","","","","","","","","","","","","","","","","","","","","","","","","","","","","","","","","","","","","","","","","","","","","","","","","","","","","","","","","","","","","","","","","","","","","","","","","","","","","","","","","","","","","","","","","SYN07082445 22897 61401 10266 20248 30070 40122 86050 333 20236 59013 60024=","","","","","","","","","",""
"82445099999","2021-12-10T14:00:00","-4.2666666","-55.9833333","45.0","ITAITUBA, BR","FM-12","4","","80","86","","||TS","","9","81","SCT:04 26","29.79","29.63","2.49","82","140","","1","","","","","","","","","","","","","","","","","","","","","","","","","","","","","","","","","","","","","","","","","","","","","","","","","","","","","","","","","","","","","","","","","","","","","","","","","","","","","","","","","","","","","","","","","","","SYN06482445 31596 71401 10300 20264 30035 40087 71722 84270 333 59023=","","","","","","","","","",""
"82445099999","2021-12-10T20:00:00","-4.2666666","-55.9833333","45.0","ITAITUBA, BR","FM-12","4","","78","79","","","","","95","74","29.78","29.62","6.21","78","000","","0","","","","","","","","","","","","","","","","","","","","","","","","","","","","","","","","","","","","","","","","","","","","","","","","","","","","","","","","","","","","","","","","","","","","","","","","","","","","","","","","","","","","","","","","","","","SYN07682445 32897 40000 10262 20253 30032 40084 80002 333 10338 29090 55042 59028=","","","","","","","","","",""
"82445099999","2021-12-11T08:00:00","-4.2666666","-55.9833333","45.0","ITAITUBA, BR","FM-12","4","","78","80","","","","9","93","BKN:05 15","29.86","29.71","2.49","79","090","","2","","","","","","","","","","","","","","","","","","","","","","","","","","","","","","","","","","","","","","","","","","","","","","","","","","","","","","","","","","","","","","","","","","","","","","","","","","","","","","","","","","","","","","","","","","","SYN06482445 32496 80902 10266 20254 30060 40112 8572/ 333 20242 59010=","","","","","","","","","",""
"82445099999","2021-12-11T14:00:00","-4.2666666","-55.9833333","45.0","ITAITUBA, BR","FM-12","4","","80","88","","","","9","78","SCT:03 41","29.74","29.58","6.21","82","140","","1","","","","","","","","","","","","","","","","","","","","","","","","","","","","","","","","","","","","","","","","","","","","","","","","","","","","","","","","","","","","","","","","","","","","","","","","","","","","","","","","","","","","","","","","","","","SYN07082445 21697 71401 10312 20269 30018 40070 70365 83570 333 59017 60011=","","","","","","","","","",""
"82445099999","2021-12-11T20:00:00","-4.2666666","-55.9833333","45.0","ITAITUBA, BR","FM-12","4","","80","82","","","","","93","BKN:05 26","29.79","29.64","2.49","81","000","","0","","","","","","","","","","","","","","","","","","","","","","","","","","","","","","","","","","","","","","","","","","","","","","","","","","","","","","","","","","","","","","","","","","","","","","","","","","","","","","","","","","","","","","","","","","","SYN07682445 32596 50000 10276 20264 30036 40088 85200 333 10325 29089 55011 58004=","","","","","","","","","",""
"82445099999","2021-12-12T08:00:00","-4.2666666","-55.9833333","45.0","ITAITUBA, BR","FM-12","4","","78","82","","","","9","88","FEW:02 26","29.87","29.71","12.43","79","000","","0","","","","","","","","","","","","","","","","","","","","","","","","","","","","","","","","","","","","","","","","","","","","","","","","","","","","","","","","","","","","","","","","","","","","","","","","","","","","","","","","","","","","","","","","","","","SYN07082445 22598 60000 10276 20254 30062 40114 82241 333 20244 58002 60014=","","","","","","","","","",""
"82445099999","2021-12-12T14:00:00","-4.2666666","-55.9833333","45.0","ITAITUBA, BR","FM-12","4","","80","91","","","","9","70","SCT:03 41","29.83","29.68","12.43","83","090","","3","","","","","","","","","","","","","","","","","","","","","","","","","","","","","","","","","","","","","","","","","","","","","","","","","","","","","","","","","","","","","","","","","","","","","","","","","","","","","","","","","","","","","","","","","","","SYN05882445 32698 60903 10328 20266 30050 40102 83575 333 58032=","","","","","","","","","",""
"82445099999","2021-12-12T20:00:00","-4.2666666","-55.9833333","45.0","ITAITUBA, BR","FM-12","4","","78","79","","||RA","","","97","SCT:04 15","29.84","29.69","0.62","78","000","","0","","","","","","","","","","","","","","","","","","","","","","","","","","","","","","","","","","","","","","","","","","","","","","","","","","","","","","","","","","","","","","","","","","","","","","","","","","","","","","","","","","","","","","","","","","","SYN08882445 21494 80000 10260 20255 30054 40106 76193 8472/ 333 10346 29088 55053 58018 60611=","","","","","","","","","",""
"82445099999","2021-12-13T08:00:00","-4.2666666","-55.9833333","45.0","ITAITUBA, BR","FM-12","4","","78","79","","","","9","97","SCT:03 26","29.90","29.74","6.21","78","000","","0","","","","","","","","","","","","","","","","","","","","","","","","","","","","","","","","","","","","","","","","","","","","","","","","","","","","","","","","","","","","","","","","","","","","","","","","","","","","","","","","","","","","","","","","","","","SYN07682445 21597 70000 10260 20255 30072 40124 72162 83152 333 20245 58010 60624=","","","","","","","","","",""
"82445099999","2021-12-13T14:00:00","-4.2666666","-55.9833333","45.0","ITAITUBA, BR","FM-12","4","","78","88","","","","9","72","SCT:03 26","29.81","29.66","2.49","81","090","","2","","","","","","","","","","","","","","","","","","","","","","","","","","","","","","","","","","","","","","","","","","","","","","","","","","","","","","","","","","","","","","","","","","","","","","","","","","","","","","","","","","","","","","","","","","","SYN05882445 32596 60902 10310 20254 30044 40096 83272 333 59006=","","","","","","","","","",""
"82445099999","2021-12-13T20:00:00","-4.2666666","-55.9833333","45.0","ITAITUBA, BR","FM-12","4","","78","80","","","","","94","OVC:08 15","29.91","29.75","0.62","79","000","","0","","","","","","","","","","","","","","","","","","","","","","","","","","","","","","","","","","","","","","","","","","","","","","","","","","","","","","","","","","","","","","","","","","","","","","","","","","","","","","","","","","","","","","","","","","","SYN08882445 21494 80000 10265 20254 30076 40128 72052 887// 333 10333 29089 55050 58022 69961=","","","","","","","","","",""
"82445099999","2021-12-14T08:00:00","-4.2666666","-55.9833333","45.0","ITAITUBA, BR","FM-12","4","","77","79","","","","9","92","SCT:04 41","29.89","29.74","2.49","78","000","","0","","","","","","","","","","","","","","","","","","","","","","","","","","","","","","","","","","","","","","","","","","","","","","","","","","","","","","","","","","","","","","","","","","","","","","","","","","","","","","","","","","","","","","","","","","","SYN07082445 22696 80000 10262 20248 30070 40122 8457/ 333 20240 59002 69964=","","","","","","","","","",""
"82445099999","2021-12-14T14:00:00","-4.2666666","-55.9833333","45.0","ITAITUBA, BR","FM-12","4","","78","93","","","","9","63","SCT:03 26","29.80","29.65","6.21","82","050","","5","","","","","","","","","","","","","","","","","","","","","","","","","","","","","","","","","","","","","","","","","","","","","","","","","","","","","","","","","","","","","","","","","","","","","","","","","","","","","","","","","","","","","","","","","","","SYN05882445 32597 60504 10338 20258 30039 40090 83250 333 59005=","","","","","","","","","",""
"82445099999","2021-12-14T20:00:00","-4.2666666","-55.9833333","45.0","ITAITUBA, BR","FM-12","4","","82","85","","","","","91","FEW:02 26","29.82","29.67","1.24","83","000","","0","","","","","","","","","","","","","","","","","","","","","","","","","","","","","","","","","","","","","","","","","","","","","","","","","","","","","","","","","","","","","","","","","","","","","","","","","","","","","","","","","","","","","","","","","","","SYN08282445 31595 60000 10294 20278 30046 40098 71311 82282 333 10353 29084 55050 58030=","","","","","","","","","",""
"82445099999","2021-12-15T08:00:00","-4.2666666","-55.9833333","45.0","ITAITUBA, BR","FM-12","4","","77","83","","","","9","81","FEW:01 15","29.89","29.74","12.43","79","140","","2","","","","","","","","","","","","","","","","","","","","","","","","","","","","","","","","","","","","","","","","","","","","","","","","","","","","","","","","","","","","","","","","","","","","","","","","","","","","","","","","","","","","","","","","","","","SYN06482445 32498 61402 10286 20250 30071 40123 81101 333 20244 58001=","","","","","","","","","",""
"82445099999","2021-12-15T14:00:00","-4.2666666","-55.9833333","45.0","ITAITUBA, BR","FM-12","4","","80","92","","","","9","68","SCT:03 41","29.78","29.62","6.21","83","320","","2","","","","","","","","","","","","","","","","","","","","","","","","","","","","","","","","","","","","","","","","","","","","","","","","","","","","","","","","","","","","","","","","","","","","","","","","","","","","","","","","","","","","","","","","","","","SYN06482445 31697 73202 10332 20265 30031 40083 70392 83545 333 59008=","","","","","","","","","",""
"82445099999","2021-12-15T20:00:00","-4.2666666","-55.9833333","45.0","ITAITUBA, BR","FM-12","4","","80","82","","","","","92","FEW:02 41","29.82","29.67","2.49","81","000","","0","","","","","","","","","","","","","","","","","","","","","","","","","","","","","","","","","","","","","","","","","","","","","","","","","","","","","","","","","","","","","","","","","","","","","","","","","","","","","","","","","","","","","","","","","","","SYN07682445 32696 50000 10278 20264 30047 40099 82515 333 10350 29085 55071 58001=","","","","","","","","","",""
"82445099999","2021-12-16T08:00:00","-4.2666666","-55.9833333","45.0","ITAITUBA, BR","FM-12","4","","77","80","","","","9","92","SCT:04 41","29.89","29.74","6.21","78","180","","1","","","","","","","","","","","","","","","","","","","","","","","","","","","","","","","","","","","","","","","","","","","","","","","","","","","","","","","","","","","","","","","","","","","","","","","","","","","","","","","","","","","","","","","","","","","SYN06482445 32697 71801 10266 20252 30070 40122 84530 333 20246 59001=","","","","","","","","","",""
"82445099999","2021-12-16T14:00:00","-4.2666666","-55.9833333","45.0","ITAITUBA, BR","FM-12","4","","78","80","","||DZ","","9","94","SCT:03 41","29.83","29.68","6.21","79","000","","0","","","","","","","","","","","","","","","","","","","","","","","","","","","","","","","","","","","","","","","","","","","","","","","","","","","","","","","","","","","","","","","","","","","","","","","","","","","","","","","","","","","","","","","","","","","SYN07082445 21697 70000 10264 20254 30051 40103 75065 83520 333 58020 60031=","","","","","","","","","",""
"82445099999","2021-12-16T20:00:00","-4.2666666","-55.9833333","45.0","ITAITUBA, BR","FM-12","4","","77","80","","","","","92","FEW:02 15","29.85","29.70","1.24","78","090","","1","","","","","","","","","","","","","","","","","","","","","","","","","","","","","","","","","","","","","","","","","","","","","","","","","","","","","","","","","","","","","","","","","","","","","","","","","","","","","","","","","","","","","","","","","","","SYN08882445 21495 70901 10266 20252 30056 40108 70252 82770 333 10287 29092 55000 58009 69911=","","","","","","","","","",""
"82445099999","2021-12-17T08:00:00","-4.2666666","-55.9833333","45.0","ITAITUBA, BR","FM-12","4","","76","79","","","","9","92","SCT:03 41","29.92","29.76","6.21","77","000","","0","","","","","","","","","","","","","","","","","","","","","","","","","","","","","","","","","","","","","","","","","","","","","","","","","","","","","","","","","","","","","","","","","","","","","","","","","","","","","","","","","","","","","","","","","","","SYN07082445 22697 70000 10260 20246 30079 40131 83570 333 20240 58009 60034=","","","","","","","","","",""
"82445099999","2021-12-17T14:00:00","-4.2666666","-55.9833333","45.0","ITAITUBA, BR","FM-12","4","","79","89","","","","9","72","SCT:03 26","29.81","29.66","12.43","82","050","","5","","","","","","","","","","","","","","","","","","","","","","","","","","","","","","","","","","","","","","","","","","","","","","","","","","","","","","","","","","","","","","","","","","","","","","","","","","","","","","","","","","","","","","","","","","","SYN05882445 32598 60504 10318 20261 30043 40095 83230 333 59008=","","","","","","","","","",""
"82445099999","2021-12-17T20:00:00","-4.2666666","-55.9833333","45.0","ITAITUBA, BR","FM-12","4","","82","85","","","","","91","FEW:01 26","29.84","29.68","6.21","83","000","","0","","","","","","","","","","","","","","","","","","","","","","","","","","","","","","","","","","","","","","","","","","","","","","","","","","","","","","","","","","","","","","","","","","","","","","","","","","","","","","","","","","","","","","","","","","","SYN07682445 32597 50000 10294 20278 30052 40104 81106 333 10322 29086 55032 59004=","","","","","","","","","",""
"82445099999","2021-12-18T08:00:00","-4.2666666","-55.9833333","45.0","ITAITUBA, BR","FM-12","4","","76","77","","","","9","95","FEW:02 15","29.92","29.76","6.21","76","140","","2","","","","","","","","","","","","","","","","","","","","","","","","","","","","","","","","","","","","","","","","","","","","","","","","","","","","","","","","","","","","","","","","","","","","","","","","","","","","","","","","","","","","","","","","","","","SYN07682445 21497 81402 10252 20243 30078 40131 72066 8272/ 333 20235 59001 60314=","","","","","","","","","",""
"82445099999","2021-12-18T14:00:00","-4.2666666","-55.9833333","45.0","ITAITUBA, BR","FM-12","4","","81","87","","","","9","82","SCT:03 41","29.82","29.67","6.21","83","090","","2","","","","","","","","","","","","","","","","","","","","","","","","","","","","","","","","","","","","","","","","","","","","","","","","","","","","","","","","","","","","","","","","","","","","","","","","","","","","","","","","","","","","","","","","","","","SYN07082445 21697 70902 10306 20272 30047 40099 70352 83571 333 58003 69911=","","","","","","","","","",""
"82445099999","2021-12-18T20:00:00","-4.2666666","-55.9833333","45.0","ITAITUBA, BR","FM-12","4","","81","83","","","","","96","FEW:02 41","29.85","29.70","1.24","82","000","","0","","","","","","","","","","","","","","","","","","","","","","","","","","","","","","","","","","","","","","","","","","","","","","","","","","","","","","","","","","","","","","","","","","","","","","","","","","","","","","","","","","","","","","","","","","","SYN07682445 32695 80000 10282 20275 30056 40108 8251/ 333 10319 29092 55005 58004=","","","","","","","","","",""
"82445099999","2021-12-19T08:00:00","-4.2666666","-55.9833333","45.0","ITAITUBA, BR","FM-12","4","","78","80","","","","9","95","SCT:03 41","29.88","29.73","6.21","79","000","","0","","","","","","","","","","","","","","","","","","","","","","","","","","","","","","","","","","","","","","","","","","","","","","","","","","","","","","","","","","","","","","","","","","","","","","","","","","","","","","","","","","","","","","","","","","","SYN07082445 22697 70000 10266 20257 30068 40120 83570 333 20241 59010 69914=","","","","","","","","","",""
"82445099999","2021-12-19T14:00:00","-4.2666666","-55.9833333","45.0","ITAITUBA, BR","FM-12","4","","80","87","","","","9","79","SCT:03 41","29.80","29.65","6.21","82","090","","2","","","","","","","","","","","","","","","","","","","","","","","","","","","","","","","","","","","","","","","","","","","","","","","","","","","","","","","","","","","","","","","","","","","","","","","","","","","","","","","","","","","","","","","","","","","SYN05882445 32697 70902 10306 20265 30040 40092 83520 333 59007=","","","","","","","","","",""
"82445099999","2021-12-19T20:00:00","-4.2666666","-55.9833333","45.0","ITAITUBA, BR","FM-12","4","","80","82","","","","","93","SCT:03 41","29.85","29.69","2.49","81","000","","0","","","","","","","","","","","","","","","","","","","","","","","","","","","","","","","","","","","","","","","","","","","","","","","","","","","","","","","","","","","","","","","","","","","","","","","","","","","","","","","","","","","","","","","","","","","SYN07682445 32696 70000 10276 20264 30055 40107 83536 333 10316 29090 55008 59001=","","","","","","","","","",""
"82445099999","2021-12-20T08:00:00","-4.2666666","-55.9833333","45.0","ITAITUBA, BR","FM-12","4","","77","78","","||DZ","","9","97","BKN:06 15","29.92","29.76","0.62","77","000","","0","","","","","","","","","","","","","","","","","","","","","","","","","","","","","","","","","","","","","","","","","","","","","","","","","","","","","","","","","","","","","","","","","","","","","","","","","","","","","","","","","","","","","","","","","","","SYN07682445 21494 80000 10254 20249 30078 40131 75052 8677/ 333 20243 58010 69984=","","","","","","","","","",""
"82445099999","2021-12-20T14:00:00","-4.2666666","-55.9833333","45.0","ITAITUBA, BR","FM-12","4","","79","81","","","","9","94","SCT:04 15","29.84","29.69","1.24","80","000","","0","","","","","","","","","","","","","","","","","","","","","","","","","","","","","","","","","","","","","","","","","","","","","","","","","","","","","","","","","","","","","","","","","","","","","","","","","","","","","","","","","","","","","","","","","","","SYN07082445 21495 80000 10274 20263 30054 40106 70266 8477/ 333 58014 60081=","","","","","","","","","",""
"82445099999","2021-12-20T20:00:00","-4.2666666","-55.9833333","45.0","ITAITUBA, BR","FM-12","4","","77","78","","","","","96","SCT:04 15","29.85","29.70","0.62","77","000","","0","","","","","","","","","","","","","","","","","","","","","","","","","","","","","","","","","","","","","","","","","","","","","","","","","","","","","","","","","","","","","","","","","","","","","","","","","","","","","","","","","","","","","","","","","","","SYN08882445 21494 80000 10255 20249 30056 40108 72166 8477/ 333 10292 29096 55000 58001 60071=","","","","","","","","","",""
"82445099999","2021-12-21T08:00:00","-4.2666666","-55.9833333","45.0","ITAITUBA, BR","FM-12","4","","76","78","","","","9","96","SCT:03 41","29.88","29.72","6.21","77","000","","0","","","","","","","","","","","","","","","","","","","","","","","","","","","","","","","","","","","","","","","","","","","","","","","","","","","","","","","","","","","","","","","","","","","","","","","","","","","","","","","","","","","","","","","","","","","SYN07082445 22697 60000 10253 20247 30066 40118 83550 333 20224 59012 60154=","","","","","","","","","",""
"82445099999","2021-12-21T14:00:00","-4.2666666","-55.9833333","45.0","ITAITUBA, BR","FM-12","4","","78","89","","","","9","72","SCT:03 26","29.80","29.65","6.21","81","050","","7","","","","","","","","","","","","","","","","","","","","","","","","","","","","","","","","","","","","","","","","","","","","","","","","","","","","","","","","","","","","","","","","","","","","","","","","","","","","","","","","","","","","","","","","","","","SYN05882445 32597 60506 10314 20257 30042 40093 83251 333 59012=","","","","","","","","","",""
"82445099999","2021-12-21T20:00:00","-4.2666666","-55.9833333","45.0","ITAITUBA, BR","FM-12","4","","80","83","","","","","91","FEW:01 41","29.83","29.67","2.49","81","000","","0","","","","","","","","","","","","","","","","","","","","","","","","","","","","","","","","","","","","","","","","","","","","","","","","","","","","","","","","","","","","","","","","","","","","","","","","","","","","","","","","","","","","","","","","","","","SYN07682445 32696 40000 10282 20266 30048 40100 81571 333 10327 29087 55053 59008=","","","","","","","","","",""
"82445099999","2021-12-22T08:00:00","-4.2666666","-55.9833333","45.0","ITAITUBA, BR","FM-12","4","","78","82","","","","9","87","74","29.89","29.74","12.43","79","090","","1","","","","","","","","","","","","","","","","","","","","","","","","","","","","","","","","","","","","","","","","","","","","","","","","","","","","","","","","","","","","","","","","","","","","","","","","","","","","","","","","","","","","","","","","","","","SYN06482445 32898 50901 10280 20256 30071 40123 80002 333 20241 58005=","","","","","","","","","",""
"82445099999","2021-12-22T14:00:00","-4.2666666","-55.9833333","45.0","ITAITUBA, BR","FM-12","4","","80","92","","","","9","66","SCT:04 26","29.80","29.65","12.43","83","090","","5","","","","","","","","","","","","","","","","","","","","","","","","","","","","","","","","","","","","","","","","","","","","","","","","","","","","","","","","","","","","","","","","","","","","","","","","","","","","","","","","","","","","","","","","","","","SYN05882445 32598 60904 10336 20264 30039 40090 84202 333 59003=","","","","","","","","","",""
"82445099999","2021-12-22T20:00:00","-4.2666666","-55.9833333","45.0","ITAITUBA, BR","FM-12","4","","81","85","","","","","89","SCT:03 41","29.85","29.69","2.49","82","000","","0","","","","","","","","","","","","","","","","","","","","","","","","","","","","","","","","","","","","","","","","","","","","","","","","","","","","","","","","","","","","","","","","","","","","","","","","","","","","","","","","","","","","","","","","","","","SYN07682445 32696 50000 10294 20274 30055 40107 83502 333 10348 29083 55096 58007=","","","","","","","","","",""
"82445099999","2021-12-23T08:00:00","-4.2666666","-55.9833333","45.0","ITAITUBA, BR","FM-12","4","","78","82","","","","9","90","SCT:04 41","29.93","29.78","2.49","79","000","","0","","","","","","","","","","","","","","","","","","","","","","","","","","","","","","","","","","","","","","","","","","","","","","","","","","","","","","","","","","","","","","","","","","","","","","","","","","","","","","","","","","","","","","","","","","","SYN06482445 32696 80000 10276 20258 30084 40136 8457/ 333 20253 58013=","","","","","","","","","",""
"82445099999","2021-12-23T14:00:00","-4.2666666","-55.9833333","45.0","ITAITUBA, BR","FM-12","4","","80","88","","","","9","76","SCT:04 41","29.87","29.71","2.49","82","090","","5","","","","","","","","","","","","","","","","","","","","","","","","","","","","","","","","","","","","","","","","","","","","","","","","","","","","","","","","","","","","","","","","","","","","","","","","","","","","","","","","","","","","","","","","","","","SYN05882445 32696 80904 10312 20265 30062 40114 8457/ 333 58023=","","","","","","","","","",""
"82445099999","2021-12-23T20:00:00","-4.2666666","-55.9833333","45.0","ITAITUBA, BR","FM-12","4","","80","82","","","","","94","FEW:02 41","29.86","29.70","2.49","81","000","","0","","","","","","","","","","","","","","","","","","","","","","","","","","","","","","","","","","","","","","","","","","","","","","","","","","","","","","","","","","","","","","","","","","","","","","","","","","","","","","","","","","","","","","","","","","","SYN07682445 32696 40000 10278 20267 30059 40111 82502 333 10322 29088 55009 58004=","","","","","","","","","",""
"82445099999","2021-12-24T08:00:00","-4.2666666","-55.9833333","45.0","ITAITUBA, BR","FM-12","4","","79","81","","","","9","92","SCT:04 41","29.91","29.75","2.49","80","320","","1","","","","","","","","","","","","","","","","","","","","","","","","","","","","","","","","","","","","","","","","","","","","","","","","","","","","","","","","","","","","","","","","","","","","","","","","","","","","","","","","","","","","","","","","","","","SYN06482445 32696 73201 10274 20260 30076 40128 84550 333 20249 59008=","","","","","","","","","",""
"82445099999","2021-12-24T14:00:00","-4.2666666","-55.9833333","45.0","ITAITUBA, BR","FM-12","4","","79","86","","","","9","80","SCT:03 26","29.82","29.67","2.49","81","320","","5","","","","","","","","","","","","","","","","","","","","","","","","","","","","","","","","","","","","","","","","","","","","","","","","","","","","","","","","","","","","","","","","","","","","","","","","","","","","","","","","","","","","","","","","","","","SYN05882445 32596 73204 10300 20262 30046 40098 83280 333 59016=","","","","","","","","","",""
"82445099999","2021-12-24T20:00:00","-4.2666666","-55.9833333","45.0","ITAITUBA, BR","FM-12","4","","74","77","","","","","92","41","29.90","29.74","1.24","75","000","","0","","","","","","","","","","","","","","","","","","","","","","","","","","","","","","","","","","","","","","","","","","","","","","","","","","","","","","","","","","","","","","","","","","","","","","","","","","","","","","","","","","","","","","","","","","","SYN07682445 32695 80000 10250 20236 30072 40124 80222 333 10329 29089 55034 58013=","","","","","","","","","",""
"82445099999","2021-12-25T08:00:00","-4.2666666","-55.9833333","45.0","ITAITUBA, BR","FM-12","4","","74","77","","","","9","92","SCT:04 41","29.96","29.80","2.49","75","000","","0","","","","","","","","","","","","","","","","","","","","","","","","","","","","","","","","","","","","","","","","","","","","","","","","","","","","","","","","","","","","","","","","","","","","","","","","","","","","","","","","","","","","","","","","","","","SYN07682445 21696 80000 10250 20236 30092 40144 72052 8455/ 333 20226 58020 69944=","","","","","","","","","",""
"82445099999","2021-12-25T14:00:00","-4.2666666","-55.9833333","45.0","ITAITUBA, BR","FM-12","4","","77","87","","","","9","72","SCT:03 26","29.86","29.71","6.21","80","360","","5","","","","","","","","","","","","","","","","","","","","","","","","","","","","","","","","","","","","","","","","","","","","","","","","","","","","","","","","","","","","","","","","","","","","","","","","","","","","","","","","","","","","","","","","","","","SYN05882445 32597 73604 10306 20250 30062 40113 83252 333 58016=","","","","","","","","","",""
"82445099999","2021-12-25T20:00:00","-4.2666666","-55.9833333","45.0","ITAITUBA, BR","FM-12","4","","80","84","","","","","88","SCT:03 41","29.87","29.72","2.49","81","000","","0","","","","","","","","","","","","","","","","","","","","","","","","","","","","","","","","","","","","","","","","","","","","","","","","","","","","","","","","","","","","","","","","","","","","","","","","","","","","","","","","","","","","","","","","","","","SYN07682445 32696 60000 10288 20266 30063 40115 83502 333 10322 29085 55024 59009=","","","","","","","","","",""
"82445099999","2021-12-26T08:00:00","-4.2666666","-55.9833333","45.0","ITAITUBA, BR","FM-12","4","","75","78","","","","9","92","SCT:04 41","29.94","29.78","1.24","76","000","","0","","","","","","","","","","","","","","","","","","","","","","","","","","","","","","","","","","","","","","","","","","","","","","","","","","","","","","","","","","","","","","","","","","","","","","","","","","","","","","","","","","","","","","","","","","","SYN06482445 32695 80000 10254 20240 30086 40138 8457/ 333 20232 59006=","","","","","","","","","",""
"82445099999","2021-12-26T14:00:00","-4.2666666","-55.9833333","45.0","ITAITUBA, BR","FM-12","4","","79","86","","","","9","81","SCT:04 41","29.87","29.72","2.49","81","090","","5","","","","","","","","","","","","","","","","","","","","","","","","","","","","","","","","","","","","","","","","","","","","","","","","","","","","","","","","","","","","","","","","","","","","","","","","","","","","","","","","","","","","","","","","","","","SYN05882445 32696 70904 10298 20262 30063 40115 84570 333 58001=","","","","","","","","","",""
"82445099999","2021-12-26T20:00:00","-4.2666666","-55.9833333","45.0","ITAITUBA, BR","FM-12","4","","78","81","","","","","92","SCT:04 26","29.87","29.71","1.24","79","230","","1","","","","","","","","","","","","","","","","","","","","","","","","","","","","","","","","","","","","","","","","","","","","","","","","","","","","","","","","","","","","","","","","","","","","","","","","","","","","","","","","","","","","","","","","","","","SYN08282445 31595 82301 10272 20258 30062 40114 71322 8427/ 333 10312 29089 55031 59001=","","","","","","","","","",""
"82445099999","2021-12-27T08:00:00","-4.2666666","-55.9833333","45.0","ITAITUBA, BR","FM-12","4","","77","79","","","","9","94","SCT:03 41","29.92","29.77","6.21","78","050","","1","","","","","","","","","","","","","","","","","","","","","","","","","","","","","","","","","","","","","","","","","","","","","","","","","","","","","","","","","","","","","","","","","","","","","","","","","","","","","","","","","","","","","","","","","","","SYN06482445 32697 80501 10260 20250 30080 40132 8357/ 333 20244 59006=","","","","","","","","","",""
"82445099999","2021-12-27T14:00:00","-4.2666666","-55.9833333","45.0","ITAITUBA, BR","FM-12","4","","77","79","","||DZ","","9","94","SCT:04 15","29.91","29.75","2.49","78","000","","0","","","","","","","","","","","","","","","","","","","","","","","","","","","","","","","","","","","","","","","","","","","","","","","","","","","","","","","","","","","","","","","","","","","","","","","","","","","","","","","","","","","","","","","","","","","SYN07082445 21496 80000 10260 20250 30075 40127 75165 8472/ 333 58012 60011=","","","","","","","","","",""
"82445099999","2021-12-27T20:00:00","-4.2666666","-55.9833333","45.0","ITAITUBA, BR","FM-12","4","","76","77","","","","","95","SCT:03 41","29.85","29.69","1.24","76","050","","2","","","","","","","","","","","","","","","","","","","","","","","","","","","","","","","","","","","","","","","","","","","","","","","","","","","","","","","","","","","","","","","","","","","","","","","","","","","","","","","","","","","","","","","","","","","SYN08882445 21695 70502 10252 20243 30055 40108 70265 83520 333 10279 29094 55000 59007 60051=","","","","","","","","","",""
"82445099999","2021-12-28T08:00:00","-4.2666666","-55.9833333","45.0","ITAITUBA, BR","FM-12","4","","75","77","","","","9","95","SCT:03 41","29.97","29.81","6.21","76","090","","2","","","","","","","","","","","","","","","","","","","","","","","","","","","","","","","","","","","","","","","","","","","","","","","","","","","","","","","","","","","","","","","","","","","","","","","","","","","","","","","","","","","","","","","","","","","SYN07682445 21697 70902 10250 20241 30096 40149 70352 83570 333 20235 58016 60064=","","","","","","","","","",""
"82445099999","2021-12-28T14:00:00","-4.2666666","-55.9833333","45.0","ITAITUBA, BR","FM-12","4","","77","80","","","","9","90","FEW:02 41","29.91","29.75","6.21","78","140","","2","","","","","","","","","","","","","","","","","","","","","","","","","","","","","","","","","","","","","","","","","","","","","","","","","","","","","","","","","","","","","","","","","","","","","","","","","","","","","","","","","","","","","","","","","","","SYN07082445 21697 71402 10266 20248 30075 40127 70365 82536 333 58000 60041=","","","","","","","","","",""
"82445099999","2021-12-28T20:00:00","-4.2666666","-55.9833333","45.0","ITAITUBA, BR","FM-12","4","","79","81","","","","","94","","29.91","29.75","6.21","80","090","","1","","","","","","","","","","","","","","","","","","","","","","","","","","","","","","","","","","","","","","","","","","","","","","","","","","","","","","","","","","","","","","","","","","","","","","","","","","","","","","","","","","","","","","","","","","","SYN07082445 32997 00901 10270 20259 30075 40127 333 10295 29093 55010 58020=","","","","","","","","","",""
"82445099999","2021-12-29T08:00:00","-4.2666666","-55.9833333","45.0","ITAITUBA, BR","FM-12","4","","77","81","","","","9","87","FEW:01 26","29.96","29.81","31.07","78","090","","2","","","","","","","","","","","","","","","","","","","","","","","","","","","","","","","","","","","","","","","","","","","","","","","","","","","","","","","","","","","","","","","","","","","","","","","","","","","","","","","","","","","","","","","","","","","SYN07082445 22599 20902 10274 20250 30094 40146 81150 333 20235 59002 60054=","","","","","","","","","",""
"82445099999","2021-12-29T14:00:00","-4.2666666","-55.9833333","45.0","ITAITUBA, BR","FM-12","4","","79","91","","","","9","68","FEW:02 26","29.86","29.71","31.07","82","050","","5","","","","","","","","","","","","","","","","","","","","","","","","","","","","","","","","","","","","","","","","","","","","","","","","","","","","","","","","","","","","","","","","","","","","","","","","","","","","","","","","","","","","","","","","","","","SYN05882445 32599 20504 10328 20261 30061 40113 82200 333 59014=","","","","","","","","","",""
"82445099999","2021-12-29T20:00:00","-4.2666666","-55.9833333","45.0","ITAITUBA, BR","FM-12","4","","82","86","","","","","88","FEW:02 26","29.85","29.70","6.21","83","090","","2","","","","","","","","","","","","","","","","","","","","","","","","","","","","","","","","","","","","","","","","","","","","","","","","","","","","","","","","","","","","","","","","","","","","","","","","","","","","","","","","","","","","","","","","","","","SYN07682445 32597 20902 10300 20278 30056 40108 82200 333 10346 29083 55100 59019=","","","","","","","","","",""
"82445099999","2021-12-30T08:00:00","-4.2666666","-55.9833333","45.0","ITAITUBA, BR","FM-12","4","","77","81","","","","9","87","SCT:04 41","29.92","29.77","6.21","78","050","","2","","","","","","","","","","","","","","","","","","","","","","","","","","","","","","","","","","","","","","","","","","","","","","","","","","","","","","","","","","","","","","","","","","","","","","","","","","","","","","","","","","","","","","","","","","","SYN06482445 32697 70502 10274 20250 30080 40132 84570 333 20243 59014=","","","","","","","","","",""
"82445099999","2021-12-30T14:00:00","-4.2666666","-55.9833333","45.0","ITAITUBA, BR","FM-12","4","","81","90","","","","9","77","SCT:03 41","29.80","29.65","6.21","83","050","","2","","","","","","","","","","","","","","","","","","","","","","","","","","","","","","","","","","","","","","","","","","","","","","","","","","","","","","","","","","","","","","","","","","","","","","","","","","","","","","","","","","","","","","","","","","","SYN05882445 32697 70502 10320 20275 30040 40092 83520 333 59021=","","","","","","","","","",""
"82445099999","2021-12-30T20:00:00","-4.2666666","-55.9833333","45.0","ITAITUBA, BR","FM-12","4","","77","79","","","","","92","SCT:03 15","29.89","29.74","1.24","78","230","","2","","","","","","","","","","","","","","","","","","","","","","","","","","","","","","","","","","","","","","","","","","","","","","","","","","","","","","","","","","","","","","","","","","","","","","","","","","","","","","","","","","","","","","","","","","","SYN08882445 21495 82302 10262 20248 30070 40122 71365 8377/ 333 10332 29087 55042 58014 60011=","","","","","","","","","",""
"82445099999","2021-12-31T08:00:00","-4.2666666","-55.9833333","45.0","ITAITUBA, BR","FM-12","4","","77","78","","||RA","","9","94","SCT:04 15","29.94","29.79","2.49","77","050","","11","","","","","","","","","","","","","","","","","","","","","","","","","","","","","","","","","","","","","","","","","","","","","","","","","","","","","","","","","","","","","","","","","","","","","","","","","","","","","","","","","","","","","","","","","","","SYN07682445 21496 80510 10258 20248 30088 40140 76065 8472/ 333 20239 58008 60024=","","","","","","","","","",""
"82445099999","2021-12-31T14:00:00","-4.2666666","-55.9833333","45.0","ITAITUBA, BR","FM-12","4","","78","84","","","","9","83","SCT:04 15","29.85","29.69","2.49","80","050","","2","","","","","","","","","","","","","","","","","","","","","","","","","","","","","","","","","","","","","","","","","","","","","","","","","","","","","","","","","","","","","","","","","","","","","","","","","","","","","","","","","","","","","","","","","","","SYN07082445 21496 80502 10288 20256 30055 40107 70265 8472/ 333 58015 60071=","","","","","","","","","",""
"82445099999","2021-12-31T20:00:00","-4.2666666","-55.9833333","45.0","ITAITUBA, BR","FM-12","4","","77","79","","||DZ","","","94","SCT:03 41","29.90","29.75","1.24","78","270","","2","","","","","","","","","","","","","","","","","","","","","","","","","","","","","","","","","","","","","","","","","","","","","","","","","","","","","","","","","","","","","","","","","","","","","","","","","","","","","","","","","","","","","","","","","","","SYN08882445 21695 82702 10260 20250 30074 40126 75065 8352/ 333 10299 29091 55005 58004 69971=","","","","","","","","","",""
