"STATION","DATE","LATITUDE","LONGITUDE","ELEVATION","NAME","REPORT_TYPE","SOURCE","HourlyAltimeterSetting","HourlyDewPointTemperature","HourlyDryBulbTemperature","HourlyPrecipitation","HourlyPresentWeatherType","HourlyPressureChange","HourlyPressureTendency","HourlyRelativeHumidity","HourlySkyConditions","HourlySeaLevelPressure","HourlyStationPressure","HourlyVisibility","HourlyWetBulbTemperature","HourlyWindDirection","HourlyWindGustSpeed","HourlyWindSpeed","Sunrise","Sunset","DailyAverageDewPointTemperature","DailyAverageDryBulbTemperature","DailyAverageRelativeHumidity","DailyAverageSeaLevelPressure","DailyAverageStationPressure","DailyAverageWetBulbTemperature","DailyAverageWindSpeed","DailyCoolingDegreeDays","DailyDepartureFromNormalAverageTemperature","DailyHeatingDegreeDays","DailyMaximumDryBulbTemperature","DailyMinimumDryBulbTemperature","DailyPeakWindDirection","DailyPeakWindSpeed","DailyPrecipitation","DailySnowDepth","DailySnowfall","DailySustainedWindDirection","DailySustainedWindSpeed","DailyWeather","MonthlyAverageRH","MonthlyDaysWithGT001Precip","MonthlyDaysWithGT010Precip","MonthlyDaysWithGT32Temp","MonthlyDaysWithGT90Temp","MonthlyDaysWithLT0Temp","MonthlyDaysWithLT32Temp","MonthlyDepartureFromNormalAverageTemperature","MonthlyDepartureFromNormalCoolingDegreeDays","MonthlyDepartureFromNormalHeatingDegreeDays","MonthlyDepartureFromNormalMaximumTemperature","MonthlyDepartureFromNormalMinimumTemperature","MonthlyDepartureFromNormalPrecipitation","MonthlyDewpointTemperature","MonthlyGreatestPrecip","MonthlyGreatestPrecipDate","MonthlyGreatestSnowDepth","MonthlyGreatestSnowDepthDate","MonthlyGreatestSnowfall","MonthlyGreatestSnowfallDate","MonthlyMaxSeaLevelPressureValue","MonthlyMaxSeaLevelPressureValueDate","MonthlyMaxSeaLevelPressureValueTime","MonthlyMaximumTemperature","MonthlyMeanTemperature","MonthlyMinSeaLevelPressureValue","MonthlyMinSeaLevelPressureValueDate","MonthlyMinSeaLevelPressureValueTime","MonthlyMinimumTemperature","MonthlySeaLevelPressure","MonthlyStationPressure","MonthlyTotalLiquidPrecipitation","MonthlyTotalSnowfall","MonthlyWetBulb","AWND","CDSD","CLDD","DSNW","HDSD","HTDD","DYTS","DYHF","NormalsCoolingDegreeDay","NormalsHeatingDegreeDay","ShortDurationEndDate005","ShortDurationEndDate010","ShortDurationEndDate015","ShortDurationEndDate020","ShortDurationEndDate030","ShortDurationEndDate045","ShortDurationEndDate060","ShortDurationEndDate080","ShortDurationEndDate100","ShortDurationEndDate120","ShortDurationEndDate150","ShortDurationEndDate180","ShortDurationPrecipitationValue005","ShortDurationPrecipitationValue010","ShortDurationPrecipitationValue015","ShortDurationPrecipitationValue020","ShortDurationPrecipitationValue030","ShortDurationPrecipitationValue045","ShortDurationPrecipitationValue060","ShortDurationPrecipitationValue080","ShortDurationPrecipitationValue100","ShortDurationPrecipitationValue120","ShortDurationPrecipitationValue150","ShortDurationPrecipitationValue180","REM","BackupDirection","BackupDistance","BackupDistanceUnit","BackupElements","BackupElevation","BackupEquipment","BackupLatitude","BackupLongitude","BackupName","WindEquipmentChangeDate"
"83184099999","2021-01-01T09:00:00","-11.2166666","-41.2166666","1005.0","MORRO DO CHAPEU, BR","FM-12","4","","62","69","","","","9","77","BKN:07 20","29.93","26.72","6.21","65","140","","7","","","","","","","","","","","","","","","","","","","","","","","","","","","","","","","","","","","","","","","","","","","","","","","","","","","","","","","","","","","","","","","","","","","","","","","","","","","","","","","","","","","","","","","","","","","SYN004BUFR","","","","","","","","","",""
"83184099999","2021-01-01T15:00:00","-11.2166666","-41.2166666","1005.0","MORRO DO CHAPEU, BR","FM-12","4","","62","81","","","","9","51","SCT:04 20","29.83","26.65","6.21","68","140","","7","","","","","","","","","","","","","","","","","","","","","","","","","","","","","","","","","","","","","","","","","","","","","","","","","","","","","","","","","","","","","","","","","","","","","","","","","","","","","","","","","","","","","","","","","","","SYN004BUFR","","","","","","","","","",""
"83184099999","2021-01-02T09:00:00","-11.2166666","-41.2166666","1005.0","MORRO DO CHAPEU, BR","FM-12","4","","63","74","","","","9","70","SCT:04 20","29.85","26.67","6.21","67","140","","7","","","","","","","","","","","","","","","","","","","","","","","","","","","","","","","","","","","","","","","","","","","","","","","","","","","","","","","","","","","","","","","","","","","","","","","","","","","","","","","","","","","","","","","","","","","SYN004BUFR","","","","","","","","","",""
"83184099999","2021-01-02T15:00:00","-11.2166666","-41.2166666","1005.0","MORRO DO CHAPEU, BR","FM-12","4","","64","77","","","","9","65","SCT:04 20","29.80","26.61","6.21","68","140","","7","","","","","","","","","","","","","","","","","","","","","","","","","","","","","","","","","","","","","","","","","","","","","","","","","","","","","","","","","","","","","","","","","","","","","","","","","","","","","","","","","","","","","","","","","","","SYN004BUFR","","","","","","","","","",""
"83184099999","2021-01-03T09:00:00","-11.2166666","-41.2166666","1005.0","MORRO DO CHAPEU, BR","FM-12","4","","63","67","","","","9","87","OVC:08 20","29.88","26.66","6.21","64","140","","9","","","","","","","","","","","","","","","","","","","","","","","","","","","","","","","","","","","","","","","","","","","","","","","","","","","","","","","","","","","","","","","","","","","","","","","","","","","","","","","","","","","","","","","","","","","SYN004BUFR","","","","","","","","","",""
"83184099999","2021-01-03T15:00:00","-11.2166666","-41.2166666","1005.0","MORRO DO CHAPEU, BR","FM-12","4","","63","80","","","","9","56","BKN:05 20","29.76","26.59","6.21","69","140","","7","","","","","","","","","","","","","","","","","","","","","","","","","","","","","","","","","","","","","","","","","","","","","","","","","","","","","","","","","","","","","","","","","","","","","","","","","","","","","","","","","","","","","","","","","","","SYN004BUFR","","","","","","","","","",""
"83184099999","2021-01-04T09:00:00","-11.2166666","-41.2166666","1005.0","MORRO DO CHAPEU, BR","FM-12","4","","63","68","","","","9","82","OVC:08 20","29.90","26.68","6.21","65","140","","7","","","","","","","","","","","","","","","","","","","","","","","","","","","","","","","","","","","","","","","","","","","","","","","","","","","","","","","","","","","","","","","","","","","","","","","","","","","","","","","","","","","","","","","","","","","SYN004BUFR","","","","","","","","","",""
"83184099999","2021-01-04T15:00:00","-11.2166666","-41.2166666","1005.0","MORRO DO CHAPEU, BR","FM-12","4","","60","81","","","","9","49","SCT:04 20","29.81","26.63","6.21","67","140","","9","","","","","","","","","","","","","","","","","","","","","","","","","","","","","","","","","","","","","","","","","","","","","","","","","","","","","","","","","","","","","","","","","","","","","","","","","","","","","","","","","","","","","","","","","","","SYN004BUFR","","","","","","","","","",""
"83184099999","2021-01-05T09:00:00","-11.2166666","-41.2166666","1005.0","MORRO DO CHAPEU, BR","FM-12","4","","60","71","","","","9","70","BKN:07 20","29.93","26.72","6.21","64","140","","11","","","","","","","","","","","","","","","","","","","","","","","","","","","","","","","","","","","","","","","","","","","","","","","","","","","","","","","","","","","","","","","","","","","","","","","","","","","","","","","","","","","","","","","","","","","SYN004BUFR","","","","","","","","","",""
"83184099999","2021-01-05T15:00:00","-11.2166666","-41.2166666","1005.0","MORRO DO CHAPEU, BR","FM-12","4","","61","82","","","","9","49","SCT:04 20","29.80","26.63","6.21","68","140","","11","","","","","","","","","","","","","","","","","","","","","","","","","","","","","","","","","","","","","","","","","","","","","","","","","","","","","","","","","","","","","","","","","","","","","","","","","","","","","","","","","","","","","","","","","","","SYN004BUFR","","","","","","","","","",""
"83184099999","2021-01-06T09:00:00","-11.2166666","-41.2166666","1005.0","MORRO DO CHAPEU, BR","FM-12","4","","61","71","","","","9","71","BKN:05 20","29.91","26.71","6.21","65","140","","7","","","","","","","","","","","","","","","","","","","","","","","","","","","","","","","","","","","","","","","","","","","","","","","","","","","","","","","","","","","","","","","","","","","","","","","","","","","","","","","","","","","","","","","","","","","SYN004BUFR","","","","","","","","","",""
"83184099999","2021-01-06T15:00:00","-11.2166666","-41.2166666","1005.0","MORRO DO CHAPEU, BR","FM-12","4","","55","83","","","","9","37","SCT:03 20","29.76","26.60","6.21","65","140","","9","","","","","","","","","","","","","","","","","","","","","","","","","","","","","","","","","","","","","","","","","","","","","","","","","","","","","","","","","","","","","","","","","","","","","","","","","","","","","","","","","","","","","","","","","","","SYN004BUFR","","","","","","","","","",""
"83184099999","2021-01-07T09:00:00","-11.2166666","-41.2166666","1005.0","MORRO DO CHAPEU, BR","FM-12","4","","61","69","","","","9","76","BKN:07 20","29.93","26.71","6.21","64","140","","7","","","","","","","","","","","","","","","","","","","","","","","","","","","","","","","","","","","","","","","","","","","","","","","","","","","","","","","","","","","","","","","","","","","","","","","","","","","","","","","","","","","","","","","","","","","SYN004BUFR","","","","","","","","","",""
"83184099999","2021-01-07T15:00:00","-11.2166666","-41.2166666","1005.0","MORRO DO CHAPEU, BR","FM-12","4","","55","87","","","","9","34","FEW:02 20","29.75","26.60","6.21","67","140","","7","","","","","","","","","","","","","","","","","","","","","","","","","","","","","","","","","","","","","","","","","","","","","","","","","","","","","","","","","","","","","","","","","","","","","","","","","","","","","","","","","","","","","","","","","","","SYN004BUFR","","","","","","","","","",""
"83184099999","2021-01-09T09:00:00","-11.2166666","-41.2166666","1005.0","MORRO DO CHAPEU, BR","FM-12","4","","64","74","","","","9","70","FEW:02 20","29.84","26.67","6.21","67","140","","7","","","","","","","","","","","","","","","","","","","","","","","","","","","","","","","","","","","","","","","","","","","","","","","","","","","","","","","","","","","","","","","","","","","","","","","","","","","","","","","","","","","","","","","","","","","SYN004BUFR","","","","","","","","","",""
"83184099999","2021-01-09T15:00:00","-11.2166666","-41.2166666","1005.0","MORRO DO CHAPEU, BR","FM-12","4","","61","86","","","","9","43","FEW:02 20","29.71","29.22s","6.21","70","140","","7","","","","","","","","","","","","","","","","","","","","","","","","","","","","","","","","","","","","","","","","","","","","","","","","","","","","","","","","","","","","","","","","","","","","","","","","","","","","","","","","","","","","","","","","","","","SYN004BUFR","","","","","","","","","",""
"83184099999","2021-01-10T09:00:00","-11.2166666","-41.2166666","1005.0","MORRO DO CHAPEU, BR","FM-12","4","","64","75","","","","9","68","BKN:05 20","29.86","26.69","6.21","68","140","","9","","","","","","","","","","","","","","","","","","","","","","","","","","","","","","","","","","","","","","","","","","","","","","","","","","","","","","","","","","","","","","","","","","","","","","","","","","","","","","","","","","","","","","","","","","","SYN004BUFR","","","","","","","","","",""
"83184099999","2021-01-10T15:00:00","-11.2166666","-41.2166666","1005.0","MORRO DO CHAPEU, BR","FM-12","4","","63","87","","","","9","45","SCT:03 20","29.71","26.58","6.21","71","140","","9","","","","","","","","","","","","","","","","","","","","","","","","","","","","","","","","","","","","","","","","","","","","","","","","","","","","","","","","","","","","","","","","","","","","","","","","","","","","","","","","","","","","","","","","","","","SYN004BUFR","","","","","","","","","",""
"83184099999","2021-01-11T09:00:00","-11.2166666","-41.2166666","1005.0","MORRO DO CHAPEU, BR","FM-12","4","","65","74","","","","9","72","SCT:04 20","29.87","26.70","6.21","68","140","","9","","","","","","","","","","","","","","","","","","","","","","","","","","","","","","","","","","","","","","","","","","","","","","","","","","","","","","","","","","","","","","","","","","","","","","","","","","","","","","","","","","","","","","","","","","","SYN004BUFR","","","","","","","","","",""
"83184099999","2021-01-12T09:00:00","-11.2166666","-41.2166666","1005.0","MORRO DO CHAPEU, BR","FM-12","4","","65","76","","","","9","68","SCT:03 20","29.85","26.69","6.21","69","140","","7","","","","","","","","","","","","","","","","","","","","","","","","","","","","","","","","","","","","","","","","","","","","","","","","","","","","","","","","","","","","","","","","","","","","","","","","","","","","","","","","","","","","","","","","","","","SYN004BUFR","","","","","","","","","",""
"83184099999","2021-01-13T09:00:00","-11.2166666","-41.2166666","1005.0","MORRO DO CHAPEU, BR","FM-12","4","","66","72","","","","9","83","BKN:07 20","29.90","26.71","6.21","68","140","","9","","","","","","","","","","","","","","","","","","","","","","","","","","","","","","","","","","","","","","","","","","","","","","","","","","","","","","","","","","","","","","","","","","","","","","","","","","","","","","","","","","","","","","","","","","","SYN004BUFR","","","","","","","","","",""
"83184099999","2021-01-13T15:00:00","-11.2166666","-41.2166666","1005.0","MORRO DO CHAPEU, BR","FM-12","4","","62","86","","","","9","44","SCT:04 20","29.75","26.60","6.21","70","140","","9","","","","","","","","","","","","","","","","","","","","","","","","","","","","","","","","","","","","","","","","","","","","","","","","","","","","","","","","","","","","","","","","","","","","","","","","","","","","","","","","","","","","","","","","","","","SYN004BUFR","","","","","","","","","",""
"83184099999","2021-01-14T09:00:00","-11.2166666","-41.2166666","1005.0","MORRO DO CHAPEU, BR","FM-12","4","","61","72","","","","9","70","BKN:06 20","29.88","26.69","6.21","65","140","","11","","","","","","","","","","","","","","","","","","","","","","","","","","","","","","","","","","","","","","","","","","","","","","","","","","","","","","","","","","","","","","","","","","","","","","","","","","","","","","","","","","","","","","","","","","","SYN004BUFR","","","","","","","","","",""
"83184099999","2021-01-14T15:00:00","-11.2166666","-41.2166666","1005.0","MORRO DO CHAPEU, BR","FM-12","4","","62","78","","","","9","57","BKN:07 20","29.81","26.62","6.21","68","140","","7","","","","","","","","","","","","","","","","","","","","","","","","","","","","","","","","","","","","","","","","","","","","","","","","","","","","","","","","","","","","","","","","","","","","","","","","","","","","","","","","","","","","","","","","","","","SYN004BUFR","","","","","","","","","",""
"83184099999","2021-01-15T09:00:00","-11.2166666","-41.2166666","1005.0","MORRO DO CHAPEU, BR","FM-12","4","","62","71","","","","9","75","BKN:07 20","29.86","26.66","6.21","65","140","","9","","","","","","","","","","","","","","","","","","","","","","","","","","","","","","","","","","","","","","","","","","","","","","","","","","","","","","","","","","","","","","","","","","","","","","","","","","","","","","","","","","","","","","","","","","","SYN004BUFR","","","","","","","","","",""
"83184099999","2021-01-15T15:00:00","-11.2166666","-41.2166666","1005.0","MORRO DO CHAPEU, BR","FM-12","4","","64","76","","","","9","68","BKN:07 20","29.78","26.59","6.21","68","140","","9","","","","","","","","","","","","","","","","","","","","","","","","","","","","","","","","","","","","","","","","","","","","","","","","","","","","","","","","","","","","","","","","","","","","","","","","","","","","","","","","","","","","","","","","","","","SYN004BUFR","","","","","","","","","",""
"83184099999","2021-01-16T09:00:00","-11.2166666","-41.2166666","1005.0","MORRO DO CHAPEU, BR","FM-12","4","","66","69","","","","9","89","BKN:07 20","29.87","26.66","6.21","67","140","","7","","","","","","","","","","","","","","","","","","","","","","","","","","","","","","","","","","","","","","","","","","","","","","","","","","","","","","","","","","","","","","","","","","","","","","","","","","","","","","","","","","","","","","","","","","","SYN004BUFR","","","","","","","","","",""
"83184099999","2021-01-16T15:00:00","-11.2166666","-41.2166666","1005.0","MORRO DO CHAPEU, BR","FM-12","4","","64","80","","","","9","60","FEW:02 20","29.78","26.59","6.21","69","140","","9","","","","","","","","","","","","","","","","","","","","","","","","","","","","","","","","","","","","","","","","","","","","","","","","","","","","","","","","","","","","","","","","","","","","","","","","","","","","","","","","","","","","","","","","","","","SYN004BUFR","","","","","","","","","",""
"83184099999","2021-01-17T09:00:00","-11.2166666","-41.2166666","1005.0","MORRO DO CHAPEU, BR","FM-12","4","","64","67","","","","9","91","BKN:06 20","29.93","26.69","6.21","65","140","","9","","","","","","","","","","","","","","","","","","","","","","","","","","","","","","","","","","","","","","","","","","","","","","","","","","","","","","","","","","","","","","","","","","","","","","","","","","","","","","","","","","","","","","","","","","","SYN004BUFR","","","","","","","","","",""
"83184099999","2021-01-17T15:00:00","-11.2166666","-41.2166666","1005.0","MORRO DO CHAPEU, BR","FM-12","4","","58","80","","","","9","46","FEW:02 20","29.77","26.59","6.21","66","140","","9","","","","","","","","","","","","","","","","","","","","","","","","","","","","","","","","","","","","","","","","","","","","","","","","","","","","","","","","","","","","","","","","","","","","","","","","","","","","","","","","","","","","","","","","","","","SYN004BUFR","","","","","","","","","",""
"83184099999","2021-01-18T09:00:00","-11.2166666","-41.2166666","1005.0","MORRO DO CHAPEU, BR","FM-12","4","","62","71","","","","9","73","BKN:05 20","29.88","26.67","6.21","65","140","","9","","","","","","","","","","","","","","","","","","","","","","","","","","","","","","","","","","","","","","","","","","","","","","","","","","","","","","","","","","","","","","","","","","","","","","","","","","","","","","","","","","","","","","","","","","","SYN004BUFR","","","","","","","","","",""
"83184099999","2021-01-18T15:00:00","-11.2166666","-41.2166666","1005.0","MORRO DO CHAPEU, BR","FM-12","4","","61","80","","","","9","54","SCT:03 20","29.80","26.61","6.21","68","140","","9","","","","","","","","","","","","","","","","","","","","","","","","","","","","","","","","","","","","","","","","","","","","","","","","","","","","","","","","","","","","","","","","","","","","","","","","","","","","","","","","","","","","","","","","","","","SYN004BUFR","","","","","","","","","",""
"83184099999","2021-01-19T09:00:00","-11.2166666","-41.2166666","1005.0","MORRO DO CHAPEU, BR","FM-12","4","","59","71","","","","9","66","BKN:05 20","29.91","26.70","6.21","64","140","","11","","","","","","","","","","","","","","","","","","","","","","","","","","","","","","","","","","","","","","","","","","","","","","","","","","","","","","","","","","","","","","","","","","","","","","","","","","","","","","","","","","","","","","","","","","","SYN004BUFR","","","","","","","","","",""
"83184099999","2021-01-19T15:00:00","-11.2166666","-41.2166666","1005.0","MORRO DO CHAPEU, BR","FM-12","4","","57","83","","","","9","42","SCT:03 20","29.79","26.61","6.21","66","140","","9","","","","","","","","","","","","","","","","","","","","","","","","","","","","","","","","","","","","","","","","","","","","","","","","","","","","","","","","","","","","","","","","","","","","","","","","","","","","","","","","","","","","","","","","","","","SYN004BUFR","","","","","","","","","",""
"83184099999","2021-01-20T09:00:00","-11.2166666","-41.2166666","1005.0","MORRO DO CHAPEU, BR","FM-12","4","","61","71","","","","9","71","BKN:06 20","29.91","26.70","6.21","65","140","","9","","","","","","","","","","","","","","","","","","","","","","","","","","","","","","","","","","","","","","","","","","","","","","","","","","","","","","","","","","","","","","","","","","","","","","","","","","","","","","","","","","","","","","","","","","","SYN004BUFR","","","","","","","","","",""
"83184099999","2021-01-20T15:00:00","-11.2166666","-41.2166666","1005.0","MORRO DO CHAPEU, BR","FM-12","4","","59","82","","","","9","45","SCT:03 20","29.77","26.59","6.21","67","090","","9","","","","","","","","","","","","","","","","","","","","","","","","","","","","","","","","","","","","","","","","","","","","","","","","","","","","","","","","","","","","","","","","","","","","","","","","","","","","","","","","","","","","","","","","","","","SYN004BUFR","","","","","","","","","",""
"83184099999","2021-01-22T09:00:00","-11.2166666","-41.2166666","1005.0","MORRO DO CHAPEU, BR","FM-12","4","","62","70","","","","9","75","OVC:08 20","29.98","26.76","6.21","65","140","","9","","","","","","","","","","","","","","","","","","","","","","","","","","","","","","","","","","","","","","","","","","","","","","","","","","","","","","","","","","","","","","","","","","","","","","","","","","","","","","","","","","","","","","","","","","","SYN004BUFR","","","","","","","","","",""
"83184099999","2021-01-22T15:00:00","-11.2166666","-41.2166666","1005.0","MORRO DO CHAPEU, BR","FM-12","4","","61","79","","","","9","55","SCT:03 20","29.89","26.69","6.21","67","140","","7","","","","","","","","","","","","","","","","","","","","","","","","","","","","","","","","","","","","","","","","","","","","","","","","","","","","","","","","","","","","","","","","","","","","","","","","","","","","","","","","","","","","","","","","","","","SYN004BUFR","","","","","","","","","",""
"83184099999","2021-01-22T21:00:00","-11.2166666","-41.2166666","1005.0","MORRO DO CHAPEU, BR","FM-12","4","","60","70","","","","9","72","BKN:06 20","29.96","26.74","2.49","64","140","","14","","","","","","","","","","","","","","","","","","","","","","","","","","","","","","","","","","","","","","","","","","","","","","","","","","","","","","","","","","","","","","","","","","","","","","","","","","","","","","","","","","","","","","","","","","","SYN004BUFR","","","","","","","","","",""
"83184099999","2021-01-23T09:00:00","-11.2166666","-41.2166666","1005.0","MORRO DO CHAPEU, BR","FM-12","4","","63","67","","","","9","89","BKN:07 20","29.99","26.75","6.21","64","140","","11","","","","","","","","","","","","","","","","","","","","","","","","","","","","","","","","","","","","","","","","","","","","","","","","","","","","","","","","","","","","","","","","","","","","","","","","","","","","","","","","","","","","","","","","","","","SYN004BUFR","","","","","","","","","",""
"83184099999","2021-01-23T15:00:00","-11.2166666","-41.2166666","1005.0","MORRO DO CHAPEU, BR","FM-12","4","","60","78","","","","9","53","SCT:03 20","29.88","26.68","6.21","66","140","","11","","","","","","","","","","","","","","","","","","","","","","","","","","","","","","","","","","","","","","","","","","","","","","","","","","","","","","","","","","","","","","","","","","","","","","","","","","","","","","","","","","","","","","","","","","","SYN004BUFR","","","","","","","","","",""
"83184099999","2021-01-24T09:00:00","-11.2166666","-41.2166666","1005.0","MORRO DO CHAPEU, BR","FM-12","4","","61","70","","","","9","73","BKN:07 20","29.93","26.71","6.21","64","140","","11","","","","","","","","","","","","","","","","","","","","","","","","","","","","","","","","","","","","","","","","","","","","","","","","","","","","","","","","","","","","","","","","","","","","","","","","","","","","","","","","","","","","","","","","","","","SYN004BUFR","","","","","","","","","",""
"83184099999","2021-01-25T09:00:00","-11.2166666","-41.2166666","1005.0","MORRO DO CHAPEU, BR","FM-12","4","","64","66","","","","9","94","BKN:07 20","29.93","26.69","6.21","65","140","","9","","","","","","","","","","","","","","","","","","","","","","","","","","","","","","","","","","","","","","","","","","","","","","","","","","","","","","","","","","","","","","","","","","","","","","","","","","","","","","","","","","","","","","","","","","","SYN004BUFR","","","","","","","","","",""
"83184099999","2021-01-25T15:00:00","-11.2166666","-41.2166666","1005.0","MORRO DO CHAPEU, BR","FM-12","4","","63","79","","","","9","57","20","29.83","26.63","6.21","68","140","","11","","","","","","","","","","","","","","","","","","","","","","","","","","","","","","","","","","","","","","","","","","","","","","","","","","","","","","","","","","","","","","","","","","","","","","","","","","","","","","","","","","","","","","","","","","","SYN004BUFR","","","","","","","","","",""
"83184099999","2021-01-26T09:00:00","-11.2166666","-41.2166666","1005.0","MORRO DO CHAPEU, BR","FM-12","4","","63","69","","","","9","82","BKN:07 20","29.92","26.70","6.21","65","140","","9","","","","","","","","","","","","","","","","","","","","","","","","","","","","","","","","","","","","","","","","","","","","","","","","","","","","","","","","","","","","","","","","","","","","","","","","","","","","","","","","","","","","","","","","","","","SYN004BUFR","","","","","","","","","",""
"83184099999","2021-01-26T15:00:00","-11.2166666","-41.2166666","1005.0","MORRO DO CHAPEU, BR","FM-12","4","","62","76","","","","9","61","SCT:04 20","29.85","26.64","6.21","67","140","","9","","","","","","","","","","","","","","","","","","","","","","","","","","","","","","","","","","","","","","","","","","","","","","","","","","","","","","","","","","","","","","","","","","","","","","","","","","","","","","","","","","","","","","","","","","","SYN004BUFR","","","","","","","","","",""
"83184099999","2021-01-27T09:00:00","-11.2166666","-41.2166666","1005.0","MORRO DO CHAPEU, BR","FM-12","4","","62","68","","","","9","79","BKN:07 20","29.95","26.71","6.21","64","140","","7","","","","","","","","","","","","","","","","","","","","","","","","","","","","","","","","","","","","","","","","","","","","","","","","","","","","","","","","","","","","","","","","","","","","","","","","","","","","","","","","","","","","","","","","","","","SYN004BUFR","","","","","","","","","",""
"83184099999","2021-01-27T15:00:00","-11.2166666","-41.2166666","1005.0","MORRO DO CHAPEU, BR","FM-12","4","","56","82","","","","9","40","SCT:03 20","29.79","26.61","6.21","66","140","","7","","","","","","","","","","","","","","","","","","","","","","","","","","","","","","","","","","","","","","","","","","","","","","","","","","","","","","","","","","","","","","","","","","","","","","","","","","","","","","","","","","","","","","","","","","","SYN004BUFR","","","","","","","","","",""
"83184099999","2021-01-28T09:00:00","-11.2166666","-41.2166666","1005.0","MORRO DO CHAPEU, BR","FM-12","4","","62","69","","","","9","77","BKN:07 20","29.91","26.70","6.21","65","140","","9","","","","","","","","","","","","","","","","","","","","","","","","","","","","","","","","","","","","","","","","","","","","","","","","","","","","","","","","","","","","","","","","","","","","","","","","","","","","","","","","","","","","","","","","","","","SYN004BUFR","","","","","","","","","",""
"83184099999","2021-01-28T15:00:00","-11.2166666","-41.2166666","1005.0","MORRO DO CHAPEU, BR","FM-12","4","","60","82","","","","9","46","SCT:03 20","29.78","26.61","6.21","68","140","","9","","","","","","","","","","","","","","","","","","","","","","","","","","","","","","","","","","","","","","","","","","","","","","","","","","","","","","","","","","","","","","","","","","","","","","","","","","","","","","","","","","","","","","","","","","","SYN004BUFR","","","","","","","","","",""
"83184099999","2021-01-29T09:00:00","-11.2166666","-41.2166666","1005.0","MORRO DO CHAPEU, BR","FM-12","4","","62","70","","","","9","76","BKN:07 20","29.92","26.71","6.21","65","140","","9","","","","","","","","","","","","","","","","","","","","","","","","","","","","","","","","","","","","","","","","","","","","","","","","","","","","","","","","","","","","","","","","","","","","","","","","","","","","","","","","","","","","","","","","","","","SYN004BUFR","","","","","","","","","",""
"83184099999","2021-01-29T15:00:00","-11.2166666","-41.2166666","1005.0","MORRO DO CHAPEU, BR","FM-12","4","","57","83","","","","9","41","SCT:04 20","29.79","26.61","6.21","66","140","","9","","","","","","","","","","","","","","","","","","","","","","","","","","","","","","","","","","","","","","","","","","","","","","","","","","","","","","","","","","","","","","","","","","","","","","","","","","","","","","","","","","","","","","","","","","","SYN004BUFR","","","","","","","","","",""
"83184099999","2021-01-30T09:00:00","-11.2166666","-41.2166666","1005.0","MORRO DO CHAPEU, BR","FM-12","4","","61","72","","","","9","69","BKN:06 20","29.93","26.73","6.21","65","140","","7","","","","","","","","","","","","","","","","","","","","","","","","","","","","","","","","","","","","","","","","","","","","","","","","","","","","","","","","","","","","","","","","","","","","","","","","","","","","","","","","","","","","","","","","","","","SYN004BUFR","","","","","","","","","",""
"83184099999","2021-01-30T15:00:00","-11.2166666","-41.2166666","1005.0","MORRO DO CHAPEU, BR","FM-12","4","","56","85","","","","9","37","BKN:05 20","29.81","26.64","6.21","66","140","","9","","","","","","","","","","","","","","","","","","","","","","","","","","","","","","","","","","","","","","","","","","","","","","","","","","","","","","","","","","","","","","","","","","","","","","","","","","","","","","","","","","","","","","","","","","","SYN004BUFR","","","","","","","","","",""
"83184099999","2021-01-30T21:00:00","-11.2166666","-41.2166666","1005.0","MORRO DO CHAPEU, BR","FM-12","4","","64","72","","","","9","76","SCT:03 20","29.89","26.69","2.49","67","140","","14","","","","","","","","","","","","","","","","","","","","","","","","","","","","","","","","","","","","","","","","","","","","","","","","","","","","","","","","","","","","","","","","","","","","","","","","","","","","","","","","","","","","","","","","","","","SYN004BUFR","","","","","","","","","",""
"83184099999","2021-01-31T09:00:00","-11.2166666","-41.2166666","1005.0","MORRO DO CHAPEU, BR","FM-12","4","","64","71","","","","9","79","BKN:07 20","29.93","26.72","6.21","66","140","","9","","","","","","","","","","","","","","","","","","","","","","","","","","","","","","","","","","","","","","","","","","","","","","","","","","","","","","","","","","","","","","","","","","","","","","","","","","","","","","","","","","","","","","","","","","","SYN004BUFR","","","","","","","","","",""
"83184099999","2021-01-31T15:00:00","-11.2166666","-41.2166666","1005.0","MORRO DO CHAPEU, BR","FM-12","4","","58","85","","","","9","41","SCT:04 20","29.77","26.61","6.21","67","140","","9","","","","","","","","","","","","","","","","","","","","","","","","","","","","","","","","","","","","","","","","","","","","","","","","","","","","","","","","","","","","","","","","","","","","","","","","","","","","","","","","","","","","","","","","","","","SYN004BUFR","","","","","","","","","",""
"83184099999","2021-02-01T09:00:00","-11.2166666","-41.2166666","1005.0","MORRO DO CHAPEU, BR","FM-12","4","","64","71","","","","9","80","OVC:08 20","29.91","26.69","6.21","66","140","","7","","","","","","","","","","","","","","","","","","","","","","","","","","","","","","","","","","","","","","","","","","","","","","","","","","","","","","","","","","","","","","","","","","","","","","","","","","","","","","","","","","","","","","","","","","","SYN004BUFR","","","","","","","","","",""
"83184099999","2021-02-01T15:00:00","-11.2166666","-41.2166666","1005.0","MORRO DO CHAPEU, BR","FM-12","4","","61","83","","","","9","48","SCT:04 20","29.78","26.62","6.21","69","140","","7","","","","","","","","","","","","","","","","","","","","","","","","","","","","","","","","","","","","","","","","","","","","","","","","","","","","","","","","","","","","","","","","","","","","","","","","","","","","","","","","","","","","","","","","","","","SYN004BUFR","","","","","","","","","",""
"83184099999","2021-02-02T09:00:00","-11.2166666","-41.2166666","1005.0","MORRO DO CHAPEU, BR","FM-12","4","","63","71","","","","9","76","BKN:06 20","29.93","26.71","6.21","66","090","","7","","","","","","","","","","","","","","","","","","","","","","","","","","","","","","","","","","","","","","","","","","","","","","","","","","","","","","","","","","","","","","","","","","","","","","","","","","","","","","","","","","","","","","","","","","","SYN004BUFR","","","","","","","","","",""
"83184099999","2021-02-03T09:00:00","-11.2166666","-41.2166666","1005.0","MORRO DO CHAPEU, BR","FM-12","4","","64","70","","","","9","82","OVC:08 20","29.93","26.72","6.21","66","140","","7","","","","","","","","","","","","","","","","","","","","","","","","","","","","","","","","","","","","","","","","","","","","","","","","","","","","","","","","","","","","","","","","","","","","","","","","","","","","","","","","","","","","","","","","","","","SYN004BUFR","","","","","","","","","",""
"83184099999","2021-02-05T09:00:00","-11.2166666","-41.2166666","1005.0","MORRO DO CHAPEU, BR","FM-12","4","","64","69","","","","9","84","OVC:08 20","29.90","26.68","6.21","66","140","","5","","","","","","","","","","","","","","","","","","","","","","","","","","","","","","","","","","","","","","","","","","","","","","","","","","","","","","","","","","","","","","","","","","","","","","","","","","","","","","","","","","","","","","","","","","","SYN004BUFR","","","","","","","","","",""
"83184099999","2021-02-05T15:00:00","-11.2166666","-41.2166666","1005.0","MORRO DO CHAPEU, BR","FM-12","4","","60","89","","","","9","38","SCT:03 20","29.70","26.56","6.21","70","140","","5","","","","","","","","","","","","","","","","","","","","","","","","","","","","","","","","","","","","","","","","","","","","","","","","","","","","","","","","","","","","","","","","","","","","","","","","","","","","","","","","","","","","","","","","","","","SYN004BUFR","","","","","","","","","",""
"83184099999","2021-02-06T09:00:00","-11.2166666","-41.2166666","1005.0","MORRO DO CHAPEU, BR","FM-12","4","","68","74","","","","9","81","BKN:05 20","29.83","26.66","6.21","70","140","","5","","","","","","","","","","","","","","","","","","","","","","","","","","","","","","","","","","","","","","","","","","","","","","","","","","","","","","","","","","","","","","","","","","","","","","","","","","","","","","","","","","","","","","","","","","","SYN004BUFR","","","","","","","","","",""
"83184099999","2021-02-06T15:00:00","-11.2166666","-41.2166666","1005.0","MORRO DO CHAPEU, BR","FM-12","4","","62","86","","","","9","44","BKN:06 20","29.70","26.56","6.21","70","050","","7","","","","","","","","","","","","","","","","","","","","","","","","","","","","","","","","","","","","","","","","","","","","","","","","","","","","","","","","","","","","","","","","","","","","","","","","","","","","","","","","","","","","","","","","","","","SYN004BUFR","","","","","","","","","",""
"83184099999","2021-02-07T09:00:00","-11.2166666","-41.2166666","1005.0","MORRO DO CHAPEU, BR","FM-12","4","","68","70","","","","9","95","OVC:08 20","29.91","26.68","6.21","69","140","","5","","","","","","","","","","","","","","","","","","","","","","","","","","","","","","","","","","","","","","","","","","","","","","","","","","","","","","","","","","","","","","","","","","","","","","","","","","","","","","","","","","","","","","","","","","","SYN004BUFR","","","","","","","","","",""
"83184099999","2021-02-08T09:00:00","-11.2166666","-41.2166666","1005.0","MORRO DO CHAPEU, BR","FM-12","4","","64","67","","","","9","93","OVC:08 20","29.89","26.67","6.21","65","140","","7","","","","","","","","","","","","","","","","","","","","","","","","","","","","","","","","","","","","","","","","","","","","","","","","","","","","","","","","","","","","","","","","","","","","","","","","","","","","","","","","","","","","","","","","","","","SYN004BUFR","","","","","","","","","",""
"83184099999","2021-02-09T09:00:00","-11.2166666","-41.2166666","1005.0","MORRO DO CHAPEU, BR","FM-12","4","","63","66","","","","9","91","OVC:08 20","29.94","26.69","6.21","64","140","","7","","","","","","","","","","","","","","","","","","","","","","","","","","","","","","","","","","","","","","","","","","","","","","","","","","","","","","","","","","","","","","","","","","","","","","","","","","","","","","","","","","","","","","","","","","","SYN004BUFR","","","","","","","","","",""
"83184099999","2021-02-09T15:00:00","-11.2166666","-41.2166666","1005.0","MORRO DO CHAPEU, BR","FM-12","4","","64","74","","","","9","71","BKN:07 20","29.81","26.61","6.21","67","090","","5","","","","","","","","","","","","","","","","","","","","","","","","","","","","","","","","","","","","","","","","","","","","","","","","","","","","","","","","","","","","","","","","","","","","","","","","","","","","","","","","","","","","","","","","","","","SYN004BUFR","","","","","","","","","",""
"83184099999","2021-02-13T09:00:00","-11.2166666","-41.2166666","1005.0","MORRO DO CHAPEU, BR","FM-12","4","","64","69","","","","9","84","BKN:07 20","29.91","26.69","6.21","66","140","","11","","","","","","","","","","","","","","","","","","","","","","","","","","","","","","","","","","","","","","","","","","","","","","","","","","","","","","","","","","","","","","","","","","","","","","","","","","","","","","","","","","","","","","","","","","","SYN004BUFR","","","","","","","","","",""
"83184099999","2021-02-13T15:00:00","-11.2166666","-41.2166666","1005.0","MORRO DO CHAPEU, BR","FM-12","4","","59","82","","","","9","46","FEW:02 20","29.78","26.60","6.21","67","140","","7","","","","","","","","","","","","","","","","","","","","","","","","","","","","","","","","","","","","","","","","","","","","","","","","","","","","","","","","","","","","","","","","","","","","","","","","","","","","","","","","","","","","","","","","","","","SYN004BUFR","","","","","","","","","",""
"83184099999","2021-02-13T21:00:00","-11.2166666","-41.2166666","1005.0","MORRO DO CHAPEU, BR","FM-12","4","","62","73","","","","9","69","SCT:03 20","29.83","26.63","6.21","66","140","","7","","","","","","","","","","","","","","","","","","","","","","","","","","","","","","","","","","","","","","","","","","","","","","","","","","","","","","","","","","","","","","","","","","","","","","","","","","","","","","","","","","","","","","","","","","","SYN004BUFR","","","","","","","","","",""
"83184099999","2021-02-14T09:00:00","-11.2166666","-41.2166666","1005.0","MORRO DO CHAPEU, BR","FM-12","4","","60","69","","","","9","73","BKN:05 20","29.88","26.68","6.21","63","140","","11","","","","","","","","","","","","","","","","","","","","","","","","","","","","","","","","","","","","","","","","","","","","","","","","","","","","","","","","","","","","","","","","","","","","","","","","","","","","","","","","","","","","","","","","","","","SYN004BUFR","","","","","","","","","",""
"83184099999","2021-02-15T09:00:00","-11.2166666","-41.2166666","1005.0","MORRO DO CHAPEU, BR","FM-12","4","","60","69","","","","9","73","FEW:02 20","29.85","26.66","6.21","63","140","","7","","","","","","","","","","","","","","","","","","","","","","","","","","","","","","","","","","","","","","","","","","","","","","","","","","","","","","","","","","","","","","","","","","","","","","","","","","","","","","","","","","","","","","","","","","","SYN004BUFR","","","","","","","","","",""
"83184099999","2021-02-15T15:00:00","-11.2166666","-41.2166666","1005.0","MORRO DO CHAPEU, BR","FM-12","4","","58","86","","","","9","39","SCT:04 20","29.71","26.56","6.21","68","140","","7","","","","","","","","","","","","","","","","","","","","","","","","","","","","","","","","","","","","","","","","","","","","","","","","","","","","","","","","","","","","","","","","","","","","","","","","","","","","","","","","","","","","","","","","","","","SYN004BUFR","","","","","","","","","",""
"83184099999","2021-02-16T09:00:00","-11.2166666","-41.2166666","1005.0","MORRO DO CHAPEU, BR","FM-12","4","","65","71","","","","9","82","OVC:08 20","29.83","26.65","6.21","67","140","","5","","","","","","","","","","","","","","","","","","","","","","","","","","","","","","","","","","","","","","","","","","","","","","","","","","","","","","","","","","","","","","","","","","","","","","","","","","","","","","","","","","","","","","","","","","","SYN004BUFR","","","","","","","","","",""
"83184099999","2021-02-16T15:00:00","-11.2166666","-41.2166666","1005.0","MORRO DO CHAPEU, BR","FM-12","4","","65","80","","","","9","61","BKN:06 20","29.75","26.57","6.21","70","140","","7","","","","","","","","","","","","","","","","","","","","","","","","","","","","","","","","","","","","","","","","","","","","","","","","","","","","","","","","","","","","","","","","","","","","","","","","","","","","","","","","","","","","","","","","","","","SYN004BUFR","","","","","","","","","",""
"83184099999","2021-02-17T09:00:00","-11.2166666","-41.2166666","1005.0","MORRO DO CHAPEU, BR","FM-12","4","","64","72","","","","9","76","BKN:05 20","29.85","26.64","6.21","67","360","","7","","","","","","","","","","","","","","","","","","","","","","","","","","","","","","","","","","","","","","","","","","","","","","","","","","","","","","","","","","","","","","","","","","","","","","","","","","","","","","","","","","","","","","","","","","","SYN004BUFR","","","","","","","","","",""
"83184099999","2021-02-22T09:00:00","-11.2166666","-41.2166666","1005.0","MORRO DO CHAPEU, BR","FM-12","4","","62","67","","","","9","82","BKN:06 20","29.94","26.72","6.21","64","140","","7","","","","","","","","","","","","","","","","","","","","","","","","","","","","","","","","","","","","","","","","","","","","","","","","","","","","","","","","","","","","","","","","","","","","","","","","","","","","","","","","","","","","","","","","","","","SYN004BUFR","","","","","","","","","",""
"83184099999","2021-02-23T09:00:00","-11.2166666","-41.2166666","1005.0","MORRO DO CHAPEU, BR","FM-12","4","","64","69","","","","9","84","BKN:06 20","29.93","26.71","6.21","66","140","","7","","","","","","","","","","","","","","","","","","","","","","","","","","","","","","","","","","","","","","","","","","","","","","","","","","","","","","","","","","","","","","","","","","","","","","","","","","","","","","","","","","","","","","","","","","","SYN004BUFR","","","","","","","","","",""
"83184099999","2021-02-24T09:00:00","-11.2166666","-41.2166666","1005.0","MORRO DO CHAPEU, BR","FM-12","4","","61","73","","","","9","67","FEW:02 20","29.91","26.72","6.21","65","140","","7","","","","","","","","","","","","","","","","","","","","","","","","","","","","","","","","","","","","","","","","","","","","","","","","","","","","","","","","","","","","","","","","","","","","","","","","","","","","","","","","","","","","","","","","","","","SYN004BUFR","","","","","","","","","",""
"83184099999","2021-02-25T09:00:00","-11.2166666","-41.2166666","1005.0","MORRO DO CHAPEU, BR","FM-12","4","","64","68","","","","9","87","OVC:08 20","29.91","26.71","6.21","65","140","","7","","","","","","","","","","","","","","","","","","","","","","","","","","","","","","","","","","","","","","","","","","","","","","","","","","","","","","","","","","","","","","","","","","","","","","","","","","","","","","","","","","","","","","","","","","","SYN004BUFR","","","","","","","","","",""
"83184099999","2021-02-26T09:00:00","-11.2166666","-41.2166666","1005.0","MORRO DO CHAPEU, BR","FM-12","4","","60","69","","","","9","75","BKN:06 20","29.85","26.65","6.21","63","140","","7","","","","","","","","","","","","","","","","","","","","","","","","","","","","","","","","","","","","","","","","","","","","","","","","","","","","","","","","","","","","","","","","","","","","","","","","","","","","","","","","","","","","","","","","","","","SYN004BUFR","","","","","","","","","",""
"83184099999","2021-02-27T09:00:00","-11.2166666","-41.2166666","1005.0","MORRO DO CHAPEU, BR","FM-12","4","","63","69","","","","9","80","BKN:07 20","29.89","26.68","6.21","65","140","","7","","","","","","","","","","","","","","","","","","","","","","","","","","","","","","","","","","","","","","","","","","","","","","","","","","","","","","","","","","","","","","","","","","","","","","","","","","","","","","","","","","","","","","","","","","","SYN004BUFR","","","","","","","","","",""
"83184099999","2021-02-28T09:00:00","-11.2166666","-41.2166666","1005.0","MORRO DO CHAPEU, BR","FM-12","4","","64","70","","","","9","81","BKN:06 20","29.87","26.66","6.21","66","140","","11","","","","","","","","","","","","","","","","","","","","","","","","","","","","","","","","","","","","","","","","","","","","","","","","","","","","","","","","","","","","","","","","","","","","","","","","","","","","","","","","","","","","","","","","","","","SYN004BUFR","","","","","","","","","",""
"83184099999","2021-03-02T09:00:00","-11.2166666","-41.2166666","1005.0","MORRO DO CHAPEU, BR","FM-12","4","","62","68","","","","9","79","BKN:06 20","29.91","26.67","6.21","64","140","","11","","","","","","","","","","","","","","","","","","","","","","","","","","","","","","","","","","","","","","","","","","","","","","","","","","","","","","","","","","","","","","","","","","","","","","","","","","","","","","","","","","","","","","","","","","","SYN004BUFR","","","","","","","","","",""
"83184099999","2021-03-03T09:00:00","-11.2166666","-41.2166666","1005.0","MORRO DO CHAPEU, BR","FM-12","4","","60","67","","","","9","78","BKN:05 20","29.98","26.74","6.21","63","140","","11","","","","","","","","","","","","","","","","","","","","","","","","","","","","","","","","","","","","","","","","","","","","","","","","","","","","","","","","","","","","","","","","","","","","","","","","","","","","","","","","","","","","","","","","","","","SYN004BUFR","","","","","","","","","",""
"83184099999","2021-03-04T09:00:00","-11.2166666","-41.2166666","1005.0","MORRO DO CHAPEU, BR","FM-12","4","","62","67","","","","9","86","OVC:08 20","30.00","26.76","6.21","64","140","","7","","","","","","","","","","","","","","","","","","","","","","","","","","","","","","","","","","","","","","","","","","","","","","","","","","","","","","","","","","","","","","","","","","","","","","","","","","","","","","","","","","","","","","","","","","","SYN004BUFR","","","","","","","","","",""
"83184099999","2021-03-05T09:00:00","-11.2166666","-41.2166666","1005.0","MORRO DO CHAPEU, BR","FM-12","4","","62","67","","","","9","83","OVC:08 20","29.92","26.70","6.21","64","140","","7","","","","","","","","","","","","","","","","","","","","","","","","","","","","","","","","","","","","","","","","","","","","","","","","","","","","","","","","","","","","","","","","","","","","","","","","","","","","","","","","","","","","","","","","","","","SYN004BUFR","","","","","","","","","",""
"83184099999","2021-03-06T09:00:00","-11.2166666","-41.2166666","1005.0","MORRO DO CHAPEU, BR","FM-12","4","","66","74","","","","9","76","FEW:02 20","29.86","26.68","6.21","69","140","","7","","","","","","","","","","","","","","","","","","","","","","","","","","","","","","","","","","","","","","","","","","","","","","","","","","","","","","","","","","","","","","","","","","","","","","","","","","","","","","","","","","","","","","","","","","","SYN004BUFR","","","","","","","","","",""
"83184099999","2021-03-07T09:00:00","-11.2166666","-41.2166666","1005.0","MORRO DO CHAPEU, BR","FM-12","4","","61","76","","","","9","59","FEW:01 20","29.85","26.70","6.21","66","140","","7","","","","","","","","","","","","","","","","","","","","","","","","","","","","","","","","","","","","","","","","","","","","","","","","","","","","","","","","","","","","","","","","","","","","","","","","","","","","","","","","","","","","","","","","","","","SYN004BUFR","","","","","","","","","",""
"83184099999","2021-03-08T09:00:00","-11.2166666","-41.2166666","1005.0","MORRO DO CHAPEU, BR","FM-12","4","","61","77","","","","9","57","262","29.84","26.69","6.21","67","140","","5","","","","","","","","","","","","","","","","","","","","","","","","","","","","","","","","","","","","","","","","","","","","","","","","","","","","","","","","","","","","","","","","","","","","","","","","","","","","","","","","","","","","","","","","","","","SYN004BUFR","","","","","","","","","",""
"83184099999","2021-03-08T15:00:00","-11.2166666","-41.2166666","1005.0","MORRO DO CHAPEU, BR","FM-12","4","","53","90","","","","9","29","SCT:04 20","29.70","26.57","6.21","67","140","","7","","","","","","","","","","","","","","","","","","","","","","","","","","","","","","","","","","","","","","","","","","","","","","","","","","","","","","","","","","","","","","","","","","","","","","","","","","","","","","","","","","","","","","","","","","","SYN004BUFR","","","","","","","","","",""
"83184099999","2021-03-09T09:00:00","-11.2166666","-41.2166666","1005.0","MORRO DO CHAPEU, BR","FM-12","4","","65","74","","","","9","73","SCT:03 20","29.85","26.68","6.21","68","140","","7","","","","","","","","","","","","","","","","","","","","","","","","","","","","","","","","","","","","","","","","","","","","","","","","","","","","","","","","","","","","","","","","","","","","","","","","","","","","","","","","","","","","","","","","","","","SYN004BUFR","","","","","","","","","",""
"83184099999","2021-03-09T15:00:00","-11.2166666","-41.2166666","1005.0","MORRO DO CHAPEU, BR","FM-12","4","","60","87","","","","9","40","SCT:04 20","29.68","26.54","6.21","69","140","","7","","","","","","","","","","","","","","","","","","","","","","","","","","","","","","","","","","","","","","","","","","","","","","","","","","","","","","","","","","","","","","","","","","","","","","","","","","","","","","","","","","","","","","","","","","","SYN004BUFR","","","","","","","","","",""
"83184099999","2021-03-10T09:00:00","-11.2166666","-41.2166666","1005.0","MORRO DO CHAPEU, BR","FM-12","4","","63","69","","","","9","81","OVC:08 20","29.89","26.69","6.21","65","140","","9","","","","","","","","","","","","","","","","","","","","","","","","","","","","","","","","","","","","","","","","","","","","","","","","","","","","","","","","","","","","","","","","","","","","","","","","","","","","","","","","","","","","","","","","","","","SYN004BUFR","","","","","","","","","",""
"83184099999","2021-03-11T09:00:00","-11.2166666","-41.2166666","1005.0","MORRO DO CHAPEU, BR","FM-12","4","","64","71","","","","9","79","BKN:07 20","29.91","26.71","6.21","66","140","","7","","","","","","","","","","","","","","","","","","","","","","","","","","","","","","","","","","","","","","","","","","","","","","","","","","","","","","","","","","","","","","","","","","","","","","","","","","","","","","","","","","","","","","","","","","","SYN004BUFR","","","","","","","","","",""
"83184099999","2021-03-11T15:00:00","-11.2166666","-41.2166666","1005.0","MORRO DO CHAPEU, BR","FM-12","4","","60","85","","","","9","42","BKN:05s 20","29.74","26.59","6.21","69","140","","7","","","","","","","","","","","","","","","","","","","","","","","","","","","","","","","","","","","","","","","","","","","","","","","","","","","","","","","","","","","","","","","","","","","","","","","","","","","","","","","","","","","","","","","","","","","SYN004BUFR","","","","","","","","","",""
"83184099999","2021-03-12T09:00:00","-11.2166666","-41.2166666","1005.0","MORRO DO CHAPEU, BR","FM-12","4","","61","71","","","","9","71","BKN:06 20","29.92","26.72","6.21","65","140","","11","","","","","","","","","","","","","","","","","","","","","","","","","","","","","","","","","","","","","","","","","","","","","","","","","","","","","","","","","","","","","","","","","","","","","","","","","","","","","","","","","","","","","","","","","","","SYN004BUFR","","","","","","","","","",""
"83184099999","2021-03-12T15:00:00","-11.2166666","-41.2166666","1005.0","MORRO DO CHAPEU, BR","FM-12","4","","52","85","","","","9","31","FEW:01 20","29.77","26.61","6.21","65","140","","5","","","","","","","","","","","","","","","","","","","","","","","","","","","","","","","","","","","","","","","","","","","","","","","","","","","","","","","","","","","","","","","","","","","","","","","","","","","","","","","","","","","","","","","","","","","SYN004BUFR","","","","","","","","","",""
"83184099999","2021-03-13T09:00:00","-11.2166666","-41.2166666","1005.0","MORRO DO CHAPEU, BR","FM-12","4","","59","72","","","","9","63","","29.89","26.70","6.21","64","140","","7","","","","","","","","","","","","","","","","","","","","","","","","","","","","","","","","","","","","","","","","","","","","","","","","","","","","","","","","","","","","","","","","","","","","","","","","","","","","","","","","","","","","","","","","","","","SYN004BUFR","","","","","","","","","",""
"83184099999","2021-03-13T15:00:00","-11.2166666","-41.2166666","1005.0","MORRO DO CHAPEU, BR","FM-12","4","","50","85","","","","9","29","FEW:01 20","29.79","26.62","6.21","64","140","","7","","","","","","","","","","","","","","","","","","","","","","","","","","","","","","","","","","","","","","","","","","","","","","","","","","","","","","","","","","","","","","","","","","","","","","","","","","","","","","","","","","","","","","","","","","","SYN004BUFR","","","","","","","","","",""
"83184099999","2021-03-14T09:00:00","-11.2166666","-41.2166666","1005.0","MORRO DO CHAPEU, BR","FM-12","4","","61","71","","","","9","71","BKN:06 20","29.94","26.73","6.21","65","140","","7","","","","","","","","","","","","","","","","","","","","","","","","","","","","","","","","","","","","","","","","","","","","","","","","","","","","","","","","","","","","","","","","","","","","","","","","","","","","","","","","","","","","","","","","","","","SYN004BUFR","","","","","","","","","",""
"83184099999","2021-03-14T15:00:00","-11.2166666","-41.2166666","1005.0","MORRO DO CHAPEU, BR","FM-12","4","","56","84","","","","9","38","SCT:03 20","29.80","26.64","6.21","66","140","","7","","","","","","","","","","","","","","","","","","","","","","","","","","","","","","","","","","","","","","","","","","","","","","","","","","","","","","","","","","","","","","","","","","","","","","","","","","","","","","","","","","","","","","","","","","","SYN004BUFR","","","","","","","","","",""
"83184099999","2021-03-15T09:00:00","-11.2166666","-41.2166666","1005.0","MORRO DO CHAPEU, BR","FM-12","4","","58","72","","","","9","63","FEW:02 20","29.93","26.74","6.21","63","140","","5","","","","","","","","","","","","","","","","","","","","","","","","","","","","","","","","","","","","","","","","","","","","","","","","","","","","","","","","","","","","","","","","","","","","","","","","","","","","","","","","","","","","","","","","","","","SYN004BUFR","","","","","","","","","",""
"83184099999","2021-03-15T15:00:00","-11.2166666","-41.2166666","1005.0","MORRO DO CHAPEU, BR","FM-12","4","","57","83","","","","9","41","SCT:04 20","29.82","26.63","6.21","66","140","","9","","","","","","","","","","","","","","","","","","","","","","","","","","","","","","","","","","","","","","","","","","","","","","","","","","","","","","","","","","","","","","","","","","","","","","","","","","","","","","","","","","","","","","","","","","","SYN004BUFR","","","","","","","","","",""
"83184099999","2021-03-16T09:00:00","-11.2166666","-41.2166666","1005.0","MORRO DO CHAPEU, BR","FM-12","4","","60","72","","","","9","65","SCT:04 20","29.91","26.72","6.21","64","140","","11","","","","","","","","","","","","","","","","","","","","","","","","","","","","","","","","","","","","","","","","","","","","","","","","","","","","","","","","","","","","","","","","","","","","","","","","","","","","","","","","","","","","","","","","","","","SYN004BUFR","","","","","","","","","",""
"83184099999","2021-03-16T15:00:00","-11.2166666","-41.2166666","1005.0","MORRO DO CHAPEU, BR","FM-12","4","","57","84","","","","9","39","SCT:04 20","29.78","26.62","6.21","67","140","","9","","","","","","","","","","","","","","","","","","","","","","","","","","","","","","","","","","","","","","","","","","","","","","","","","","","","","","","","","","","","","","","","","","","","","","","","","","","","","","","","","","","","","","","","","","","SYN004BUFR","","","","","","","","","",""
"83184099999","2021-03-17T09:00:00","-11.2166666","-41.2166666","1005.0","MORRO DO CHAPEU, BR","FM-12","4","","62","70","","","","9","76","BKN:06 20","29.88","26.68","6.21","65","140","","9","","","","","","","","","","","","","","","","","","","","","","","","","","","","","","","","","","","","","","","","","","","","","","","","","","","","","","","","","","","","","","","","","","","","","","","","","","","","","","","","","","","","","","","","","","","SYN004BUFR","","","","","","","","","",""
"83184099999","2021-03-17T15:00:00","-11.2166666","-41.2166666","1005.0","MORRO DO CHAPEU, BR","FM-12","4","","55","83","","","","9","38","SCT:04 20","29.72","26.54","6.21","65","140","","7","","","","","","","","","","","","","","","","","","","","","","","","","","","","","","","","","","","","","","","","","","","","","","","","","","","","","","","","","","","","","","","","","","","","","","","","","","","","","","","","","","","","","","","","","","","SYN004BUFR","","","","","","","","","",""
"83184099999","2021-03-18T09:00:00","-11.2166666","-41.2166666","1005.0","MORRO DO CHAPEU, BR","FM-12","4","","63","71","","","","9","75","BKN:06 20","29.87","26.67","6.21","66","140","","7","","","","","","","","","","","","","","","","","","","","","","","","","","","","","","","","","","","","","","","","","","","","","","","","","","","","","","","","","","","","","","","","","","","","","","","","","","","","","","","","","","","","","","","","","","","SYN004BUFR","","","","","","","","","",""
"83184099999","2021-03-18T15:00:00","-11.2166666","-41.2166666","1005.0","MORRO DO CHAPEU, BR","FM-12","4","","58","83","","","","9","42","BKN:05 20","29.72","26.56","6.21","67","140","","7","","","","","","","","","","","","","","","","","","","","","","","","","","","","","","","","","","","","","","","","","","","","","","","","","","","","","","","","","","","","","","","","","","","","","","","","","","","","","","","","","","","","","","","","","","","SYN004BUFR","","","","","","","","","",""
"83184099999","2021-03-19T09:00:00","-11.2166666","-41.2166666","1005.0","MORRO DO CHAPEU, BR","FM-12","4","","65","70","","","","9","84","OVC:08 20","29.87","26.67","6.21","67","140","","7","","","","","","","","","","","","","","","","","","","","","","","","","","","","","","","","","","","","","","","","","","","","","","","","","","","","","","","","","","","","","","","","","","","","","","","","","","","","","","","","","","","","","","","","","","","SYN004BUFR","","","","","","","","","",""
"83184099999","2021-03-20T09:00:00","-11.2166666","-41.2166666","1005.0","MORRO DO CHAPEU, BR","FM-12","4","","64","69","","","","9","86","BKN:06 20","29.91","26.71","6.21","66","140","","7","","","","","","","","","","","","","","","","","","","","","","","","","","","","","","","","","","","","","","","","","","","","","","","","","","","","","","","","","","","","","","","","","","","","","","","","","","","","","","","","","","","","","","","","","","","SYN004BUFR","","","","","","","","","",""
"83184099999","2021-03-20T15:00:00","-11.2166666","-41.2166666","1005.0","MORRO DO CHAPEU, BR","FM-12","4","","66","73","","","","9","77","OVC:08 10","29.91","26.68","6.21","68","140","","11","","","","","","","","","","","","","","","","","","","","","","","","","","","","","","","","","","","","","","","","","","","","","","","","","","","","","","","","","","","","","","","","","","","","","","","","","","","","","","","","","","","","","","","","","","","SYN004BUFR","","","","","","","","","",""
"83184099999","2021-03-21T09:00:00","-11.2166666","-41.2166666","1005.0","MORRO DO CHAPEU, BR","FM-12","4","","64","67","","","","9","89","OVC:08 20","29.94","26.70","6.21","65","140","","7","","","","","","","","","","","","","","","","","","","","","","","","","","","","","","","","","","","","","","","","","","","","","","","","","","","","","","","","","","","","","","","","","","","","","","","","","","","","","","","","","","","","","","","","","","","SYN004BUFR","","","","","","","","","",""
"83184099999","2021-03-22T09:00:00","-11.2166666","-41.2166666","1005.0","MORRO DO CHAPEU, BR","FM-12","4","","59","69","","","","9","70","BKN:07 20","29.95","26.73","6.21","63","140","","7","","","","","","","","","","","","","","","","","","","","","","","","","","","","","","","","","","","","","","","","","","","","","","","","","","","","","","","","","","","","","","","","","","","","","","","","","","","","","","","","","","","","","","","","","","","SYN004BUFR","","","","","","","","","",""
"83184099999","2021-03-22T15:00:00","-11.2166666","-41.2166666","1005.0","MORRO DO CHAPEU, BR","FM-12","4","","61","81","","","","9","50","BKN:06 20","29.81","26.62","6.21","68","140","","9","","","","","","","","","","","","","","","","","","","","","","","","","","","","","","","","","","","","","","","","","","","","","","","","","","","","","","","","","","","","","","","","","","","","","","","","","","","","","","","","","","","","","","","","","","","SYN004BUFR","","","","","","","","","",""
"83184099999","2021-03-23T09:00:00","-11.2166666","-41.2166666","1005.0","MORRO DO CHAPEU, BR","FM-12","4","","61","73","","","","9","66","SCT:04 20","29.96","26.74","6.21","65","140","","11","","","","","","","","","","","","","","","","","","","","","","","","","","","","","","","","","","","","","","","","","","","","","","","","","","","","","","","","","","","","","","","","","","","","","","","","","","","","","","","","","","","","","","","","","","","SYN004BUFR","","","","","","","","","",""
"83184099999","2021-03-23T15:00:00","-11.2166666","-41.2166666","1005.0","MORRO DO CHAPEU, BR","FM-12","4","","55","84","","","","9","37","FEW:02 20","29.80","26.63","6.21","66","140","","7","","","","","","","","","","","","","","","","","","","","","","","","","","","","","","","","","","","","","","","","","","","","","","","","","","","","","","","","","","","","","","","","","","","","","","","","","","","","","","","","","","","","","","","","","","","SYN004BUFR","","","","","","","","","",""
"83184099999","2021-03-24T09:00:00","-11.2166666","-41.2166666","1005.0","MORRO DO CHAPEU, BR","FM-12","4","","56","74","","","","9","54","BKN:05 20","29.95","26.75","6.21","63","140","","11","","","","","","","","","","","","","","","","","","","","","","","","","","","","","","","","","","","","","","","","","","","","","","","","","","","","","","","","","","","","","","","","","","","","","","","","","","","","","","","","","","","","","","","","","","","SYN004BUFR","","","","","","","","","",""
"83184099999","2021-03-24T15:00:00","-11.2166666","-41.2166666","1005.0","MORRO DO CHAPEU, BR","FM-12","4","","53","83","","","","9","35","SCT:03 20","29.81","26.63","6.21","64","140","","9","","","","","","","","","","","","","","","","","","","","","","","","","","","","","","","","","","","","","","","","","","","","","","","","","","","","","","","","","","","","","","","","","","","","","","","","","","","","","","","","","","","","","","","","","","","SYN004BUFR","","","","","","","","","",""
"83184099999","2021-03-25T09:00:00","-11.2166666","-41.2166666","1005.0","MORRO DO CHAPEU, BR","FM-12","4","","58","72","","","","9","61","FEW:01 20","29.96","26.75","6.21","63","140","","9","","","","","","","","","","","","","","","","","","","","","","","","","","","","","","","","","","","","","","","","","","","","","","","","","","","","","","","","","","","","","","","","","","","","","","","","","","","","","","","","","","","","","","","","","","","SYN004BUFR","","","","","","","","","",""
"83184099999","2021-03-25T15:00:00","-11.2166666","-41.2166666","1005.0","MORRO DO CHAPEU, BR","FM-12","4","","54","83","","","","9","37","SCT:03 20","29.82","26.64","6.21","65","140","","9","","","","","","","","","","","","","","","","","","","","","","","","","","","","","","","","","","","","","","","","","","","","","","","","","","","","","","","","","","","","","","","","","","","","","","","","","","","","","","","","","","","","","","","","","","","SYN004BUFR","","","","","","","","","",""
"83184099999","2021-03-26T09:00:00","-11.2166666","-41.2166666","1005.0","MORRO DO CHAPEU, BR","FM-12","4","","59","70","","","","9","68","SCT:04 20","29.94","26.74","6.21","63","140","","7","","","","","","","","","","","","","","","","","","","","","","","","","","","","","","","","","","","","","","","","","","","","","","","","","","","","","","","","","","","","","","","","","","","","","","","","","","","","","","","","","","","","","","","","","","","SYN004BUFR","","","","","","","","","",""
"83184099999","2021-03-27T09:00:00","-11.2166666","-41.2166666","1005.0","MORRO DO CHAPEU, BR","FM-12","4","","60","71","","","","9","69","BKN:06s 20","29.95","26.73","6.21","64","140","","11","","","","","","","","","","","","","","","","","","","","","","","","","","","","","","","","","","","","","","","","","","","","","","","","","","","","","","","","","","","","","","","","","","","","","","","","","","","","","","","","","","","","","","","","","","","SYN004BUFR","","","","","","","","","",""
"83184099999","2021-03-28T09:00:00","-11.2166666","-41.2166666","1005.0","MORRO DO CHAPEU, BR","FM-12","4","","60","69","","","","9","73","FEW:02 20","29.93","26.72","6.21","63","140","","7","","","","","","","","","","","","","","","","","","","","","","","","","","","","","","","","","","","","","","","","","","","","","","","","","","","","","","","","","","","","","","","","","","","","","","","","","","","","","","","","","","","","","","","","","","","SYN004BUFR","","","","","","","","","",""
"83184099999","2021-03-28T15:00:00","-11.2166666","-41.2166666","1005.0","MORRO DO CHAPEU, BR","FM-12","4","","53","86","","","","9","32","SCT:03 20","29.81","26.64","6.21","65","140","","5","","","","","","","","","","","","","","","","","","","","","","","","","","","","","","","","","","","","","","","","","","","","","","","","","","","","","","","","","","","","","","","","","","","","","","","","","","","","","","","","","","","","","","","","","","","SYN004BUFR","","","","","","","","","",""
"83184099999","2021-03-29T09:00:00","-11.2166666","-41.2166666","1005.0","MORRO DO CHAPEU, BR","FM-12","4","","60","73","","","","9","63","FEW:02 20","29.90","26.70","6.21","65","140","","5","","","","","","","","","","","","","","","","","","","","","","","","","","","","","","","","","","","","","","","","","","","","","","","","","","","","","","","","","","","","","","","","","","","","","","","","","","","","","","","","","","","","","","","","","","","SYN004BUFR","","","","","","","","","",""
"83184099999","2021-03-29T15:00:00","-11.2166666","-41.2166666","1005.0","MORRO DO CHAPEU, BR","FM-12","4","","53","88","","","","9","31","FEW:02 20","29.74","26.59","6.21","66","140","","7","","","","","","","","","","","","","","","","","","","","","","","","","","","","","","","","","","","","","","","","","","","","","","","","","","","","","","","","","","","","","","","","","","","","","","","","","","","","","","","","","","","","","","","","","","","SYN004BUFR","","","","","","","","","",""
"83184099999","2021-03-30T09:00:00","-11.2166666","-41.2166666","1005.0","MORRO DO CHAPEU, BR","FM-12","4","","64","71","","","","9","79","BKN:07 20","29.95","26.69","6.21","66","140","","7","","","","","","","","","","","","","","","","","","","","","","","","","","","","","","","","","","","","","","","","","","","","","","","","","","","","","","","","","","","","","","","","","","","","","","","","","","","","","","","","","","","","","","","","","","","SYN004BUFR","","","","","","","","","",""
"83184099999","2021-03-30T15:00:00","-11.2166666","-41.2166666","1005.0","MORRO DO CHAPEU, BR","FM-12","4","","58","86","","","","9","39","SCT:04 20","29.70","26.57","6.21","68","090","","5","","","","","","","","","","","","","","","","","","","","","","","","","","","","","","","","","","","","","","","","","","","","","","","","","","","","","","","","","","","","","","","","","","","","","","","","","","","","","","","","","","","","","","","","","","","SYN004BUFR","","","","","","","","","",""
"83184099999","2021-03-31T09:00:00","-11.2166666","-41.2166666","1005.0","MORRO DO CHAPEU, BR","FM-12","4","","53","78","","","","9","43","SCT:03 20","29.79","26.63","6.21","63","140","","5","","","","","","","","","","","","","","","","","","","","","","","","","","","","","","","","","","","","","","","","","","","","","","","","","","","","","","","","","","","","","","","","","","","","","","","","","","","","","","","","","","","","","","","","","","","SYN004BUFR","","","","","","","","","",""
"83184099999","2021-03-31T15:00:00","-11.2166666","-41.2166666","1005.0","MORRO DO CHAPEU, BR","FM-12","4","","66","74","","","","9","77","OVC:08 20","29.70","26.51","6.21","69","050","","7","","","","","","","","","","","","","","","","","","","","","","","","","","","","","","","","","","","","","","","","","","","","","","","","","","","","","","","","","","","","","","","","","","","","","","","","","","","","","","","","","","","","","","","","","","","SYN004BUFR","","","","","","","","","",""
"83184099999","2021-04-01T09:00:00","-11.2166666","-41.2166666","1005.0","MORRO DO CHAPEU, BR","FM-12","4","","64","79","","","","9","60","SCT:03 20","29.77","26.62","6.21","69","140","","7","","","","","","","","","","","","","","","","","","","","","","","","","","","","","","","","","","","","","","","","","","","","","","","","","","","","","","","","","","","","","","","","","","","","","","","","","","","","","","","","","","","","","","","","","","","SYN004BUFR","","","","","","","","","",""
"83184099999","2021-04-01T15:00:00","-11.2166666","-41.2166666","1005.0","MORRO DO CHAPEU, BR","FM-12","4","","65","79","","","","9","62","BKN:05 20","29.71","26.54","6.21","70","140","","7","","","","","","","","","","","","","","","","","","","","","","","","","","","","","","","","","","","","","","","","","","","","","","","","","","","","","","","","","","","","","","","","","","","","","","","","","","","","","","","","","","","","","","","","","","","SYN004BUFR","","","","","","","","","",""
"83184099999","2021-04-02T09:00:00","-11.2166666","-41.2166666","1005.0","MORRO DO CHAPEU, BR","FM-12","4","","68","72","","","","9","85","BKN:07 20","29.86","26.68","6.21","69","140","","7","","","","","","","","","","","","","","","","","","","","","","","","","","","","","","","","","","","","","","","","","","","","","","","","","","","","","","","","","","","","","","","","","","","","","","","","","","","","","","","","","","","","","","","","","","","SYN004BUFR","","","","","","","","","",""
"83184099999","2021-04-03T09:00:00","-11.2166666","-41.2166666","1005.0","MORRO DO CHAPEU, BR","FM-12","4","","62","71","","","","9","73","","29.86","26.66","2.49","65","360","","0","","","","","","","","","","","","","","","","","","","","","","","","","","","","","","","","","","","","","","","","","","","","","","","","","","","","","","","","","","","","","","","","","","","","","","","","","","","","","","","","","","","","","","","","","","","SYN004BUFR","","","","","","","","","",""
"83184099999","2021-04-04T09:00:00","-11.2166666","-41.2166666","1005.0","MORRO DO CHAPEU, BR","FM-12","4","","62","68","","","","9","81","OVC:08 20","29.93","26.72","6.21","64","140","","7","","","","","","","","","","","","","","","","","","","","","","","","","","","","","","","","","","","","","","","","","","","","","","","","","","","","","","","","","","","","","","","","","","","","","","","","","","","","","","","","","","","","","","","","","","","SYN004BUFR","","","","","","","","","",""
"83184099999","2021-04-05T09:00:00","-11.2166666","-41.2166666","1005.0","MORRO DO CHAPEU, BR","FM-12","4","","60","73","","","","9","64","FEW:02 20","29.91","26.71","6.21","65","140","","14","","","","","","","","","","","","","","","","","","","","","","","","","","","","","","","","","","","","","","","","","","","","","","","","","","","","","","","","","","","","","","","","","","","","","","","","","","","","","","","","","","","","","","","","","","","SYN004BUFR","","","","","","","","","",""
"83184099999","2021-04-05T15:00:00","-11.2166666","-41.2166666","1005.0","MORRO DO CHAPEU, BR","FM-12","4","","55","84","","","","9","36","SCT:04 20","29.78","26.62","0.62","66","140","","11","","","","","","","","","","","","","","","","","","","","","","","","","","","","","","","","","","","","","","","","","","","","","","","","","","","","","","","","","","","","","","","","","","","","","","","","","","","","","","","","","","","","","","","","","","","SYN004BUFR","","","","","","","","","",""
"83184099999","2021-04-06T09:00:00","-11.2166666","-41.2166666","1005.0","MORRO DO CHAPEU, BR","FM-12","4","","64","72","","","","9","75","BKN:05 20","29.93","26.72","6.21","67","140","","7","","","","","","","","","","","","","","","","","","","","","","","","","","","","","","","","","","","","","","","","","","","","","","","","","","","","","","","","","","","","","","","","","","","","","","","","","","","","","","","","","","","","","","","","","","","SYN004BUFR","","","","","","","","","",""
"83184099999","2021-04-06T15:00:00","-11.2166666","-41.2166666","1005.0","MORRO DO CHAPEU, BR","FM-12","4","","63","78","","","","9","61","BKN:06 20","29.83","26.64","6.21","68","140","","7","","","","","","","","","","","","","","","","","","","","","","","","","","","","","","","","","","","","","","","","","","","","","","","","","","","","","","","","","","","","","","","","","","","","","","","","","","","","","","","","","","","","","","","","","","","SYN004BUFR","","","","","","","","","",""
"83184099999","2021-04-07T09:00:00","-11.2166666","-41.2166666","1005.0","MORRO DO CHAPEU, BR","FM-12","4","","64","71","","","","9","80","BKN:06 20","29.93","26.72","6.21","66","140","","7","","","","","","","","","","","","","","","","","","","","","","","","","","","","","","","","","","","","","","","","","","","","","","","","","","","","","","","","","","","","","","","","","","","","","","","","","","","","","","","","","","","","","","","","","","","SYN004BUFR","","","","","","","","","",""
"83184099999","2021-04-07T15:00:00","-11.2166666","-41.2166666","1005.0","MORRO DO CHAPEU, BR","FM-12","4","","61","80","","","","9","52","BKN:06 20","29.83","26.63","6.21","68","140","","7","","","","","","","","","","","","","","","","","","","","","","","","","","","","","","","","","","","","","","","","","","","","","","","","","","","","","","","","","","","","","","","","","","","","","","","","","","","","","","","","","","","","","","","","","","","SYN004BUFR","","","","","","","","","",""
"83184099999","2021-04-08T09:00:00","-11.2166666","-41.2166666","1005.0","MORRO DO CHAPEU, BR","FM-12","4","","60","72","","","","9","64","SCT:03 20","29.96","26.75","6.21","64","140","","11","","","","","","","","","","","","","","","","","","","","","","","","","","","","","","","","","","","","","","","","","","","","","","","","","","","","","","","","","","","","","","","","","","","","","","","","","","","","","","","","","","","","","","","","","","","SYN004BUFR","","","","","","","","","",""
"83184099999","2021-04-08T15:00:00","-11.2166666","-41.2166666","1005.0","MORRO DO CHAPEU, BR","FM-12","4","","58","80","","","","9","47","BKN:07 20","29.85","26.66","6.21","66","140","","9","","","","","","","","","","","","","","","","","","","","","","","","","","","","","","","","","","","","","","","","","","","","","","","","","","","","","","","","","","","","","","","","","","","","","","","","","","","","","","","","","","","","","","","","","","","SYN004BUFR","","","","","","","","","",""
"83184099999","2021-04-09T09:00:00","-11.2166666","-41.2166666","1005.0","MORRO DO CHAPEU, BR","FM-12","4","","51","66","","","","9","57","OVC:08 20","29.99","26.75","6.21","57","140","","7","","","","","","","","","","","","","","","","","","","","","","","","","","","","","","","","","","","","","","","","","","","","","","","","","","","","","","","","","","","","","","","","","","","","","","","","","","","","","","","","","","","","","","","","","","","SYN004BUFR","","","","","","","","","",""
"83184099999","2021-04-10T09:00:00","-11.2166666","-41.2166666","1005.0","MORRO DO CHAPEU, BR","FM-12","4","","63","64","","","","9","96","OVC:08 20","29.99","26.73","2.49","63","140","","7","","","","","","","","","","","","","","","","","","","","","","","","","","","","","","","","","","","","","","","","","","","","","","","","","","","","","","","","","","","","","","","","","","","","","","","","","","","","","","","","","","","","","","","","","","","SYN004BUFR","","","","","","","","","",""
"83184099999","2021-04-11T09:00:00","-11.2166666","-41.2166666","1005.0","MORRO DO CHAPEU, BR","FM-12","4","","65","67","","","","9","95","BKN:07 20","29.96","26.72","6.21","66","140","","7","","","","","","","","","","","","","","","","","","","","","","","","","","","","","","","","","","","","","","","","","","","","","","","","","","","","","","","","","","","","","","","","","","","","","","","","","","","","","","","","","","","","","","","","","","","SYN004BUFR","","","","","","","","","",""
"83184099999","2021-04-12T09:00:00","-11.2166666","-41.2166666","1005.0","MORRO DO CHAPEU, BR","FM-12","4","","65","70","","","","9","83","BKN:07 20","29.97","26.74","6.21","67","140","","9","","","","","","","","","","","","","","","","","","","","","","","","","","","","","","","","","","","","","","","","","","","","","","","","","","","","","","","","","","","","","","","","","","","","","","","","","","","","","","","","","","","","","","","","","","","SYN004BUFR","","","","","","","","","",""
"83184099999","2021-04-12T15:00:00","-11.2166666","-41.2166666","1005.0","MORRO DO CHAPEU, BR","FM-12","4","","62","77","","","","9","60","SCT:04 20","29.84","26.65","6.21","67","140","","7","","","","","","","","","","","","","","","","","","","","","","","","","","","","","","","","","","","","","","","","","","","","","","","","","","","","","","","","","","","","","","","","","","","","","","","","","","","","","","","","","","","","","","","","","","","SYN004BUFR","","","","","","","","","",""
"83184099999","2021-04-13T09:00:00","-11.2166666","-41.2166666","1005.0","MORRO DO CHAPEU, BR","FM-12","4","","63","69","","","","9","80","BKN:06 20","29.98","26.75","6.21","65","090","","9","","","","","","","","","","","","","","","","","","","","","","","","","","","","","","","","","","","","","","","","","","","","","","","","","","","","","","","","","","","","","","","","","","","","","","","","","","","","","","","","","","","","","","","","","","","SYN004BUFR","","","","","","","","","",""
"83184099999","2021-04-13T15:00:00","-11.2166666","-41.2166666","1005.0","MORRO DO CHAPEU, BR","FM-12","4","","60","83","","","","9","46","FEW:02 20","29.80","26.64","6.21","68","140","","7","","","","","","","","","","","","","","","","","","","","","","","","","","","","","","","","","","","","","","","","","","","","","","","","","","","","","","","","","","","","","","","","","","","","","","","","","","","","","","","","","","","","","","","","","","","SYN004BUFR","","","","","","","","","",""
"83184099999","2021-04-14T09:00:00","-11.2166666","-41.2166666","1005.0","MORRO DO CHAPEU, BR","FM-12","4","","58","72","","","","9","63","SCT:03 20","29.95","26.74","6.21","63","140","","11","","","","","","","","","","","","","","","","","","","","","","","","","","","","","","","","","","","","","","","","","","","","","","","","","","","","","","","","","","","","","","","","","","","","","","","","","","","","","","","","","","","","","","","","","","","SYN004BUFR","","","","","","","","","",""
"83184099999","2021-04-14T15:00:00","-11.2166666","-41.2166666","1005.0","MORRO DO CHAPEU, BR","FM-12","4","","60","81","","","","9","49","SCT:03 20","29.83","26.64","6.21","67","140","","5","","","","","","","","","","","","","","","","","","","","","","","","","","","","","","","","","","","","","","","","","","","","","","","","","","","","","","","","","","","","","","","","","","","","","","","","","","","","","","","","","","","","","","","","","","","SYN004BUFR","","","","","","","","","",""
"83184099999","2021-04-15T09:00:00","-11.2166666","-41.2166666","1005.0","MORRO DO CHAPEU, BR","FM-12","4","","61","67","","","","9","79","BKN:07 20","29.97","26.74","6.21","63","140","","9","","","","","","","","","","","","","","","","","","","","","","","","","","","","","","","","","","","","","","","","","","","","","","","","","","","","","","","","","","","","","","","","","","","","","","","","","","","","","","","","","","","","","","","","","","","SYN004BUFR","","","","","","","","","",""
"83184099999","2021-04-15T15:00:00","-11.2166666","-41.2166666","1005.0","MORRO DO CHAPEU, BR","FM-12","4","","58","79","","","","9","48","FEW:02 20","29.84","26.64","6.21","66","140","","7","","","","","","","","","","","","","","","","","","","","","","","","","","","","","","","","","","","","","","","","","","","","","","","","","","","","","","","","","","","","","","","","","","","","","","","","","","","","","","","","","","","","","","","","","","","SYN004BUFR","","","","","","","","","",""
"83184099999","2021-04-16T09:00:00","-11.2166666","-41.2166666","1005.0","MORRO DO CHAPEU, BR","FM-12","4","","61","67","","","","9","82","OVC:08 20","29.95","26.71","6.21","63","140","","7","","","","","","","","","","","","","","","","","","","","","","","","","","","","","","","","","","","","","","","","","","","","","","","","","","","","","","","","","","","","","","","","","","","","","","","","","","","","","","","","","","","","","","","","","","","SYN004BUFR","","","","","","","","","",""
"83184099999","2021-04-17T09:00:00","-11.2166666","-41.2166666","1005.0","MORRO DO CHAPEU, BR","FM-12","4","","61","71","","","","9","72","BKN:06 20","29.92","26.70","6.21","65","140","","7","","","","","","","","","","","","","","","","","","","","","","","","","","","","","","","","","","","","","","","","","","","","","","","","","","","","","","","","","","","","","","","","","","","","","","","","","","","","","","","","","","","","","","","","","","","SYN004BUFR","","","","","","","","","",""
"83184099999","2021-04-19T09:00:00","-11.2166666","-41.2166666","1005.0","MORRO DO CHAPEU, BR","FM-12","4","","62","72","","","","9","73","BKN:06 20","29.93","26.71","6.21","66","090","","9","","","","","","","","","","","","","","","","","","","","","","","","","","","","","","","","","","","","","","","","","","","","","","","","","","","","","","","","","","","","","","","","","","","","","","","","","","","","","","","","","","","","","","","","","","","SYN004BUFR","","","","","","","","","",""
"83184099999","2021-04-19T15:00:00","-11.2166666","-41.2166666","1005.0","MORRO DO CHAPEU, BR","FM-12","4","","62","81","","","","9","51","BKN:05 20","29.74","26.58","6.21","68","090","","7","","","","","","","","","","","","","","","","","","","","","","","","","","","","","","","","","","","","","","","","","","","","","","","","","","","","","","","","","","","","","","","","","","","","","","","","","","","","","","","","","","","","","","","","","","","SYN004BUFR","","","","","","","","","",""
"83184099999","2021-04-20T09:00:00","-11.2166666","-41.2166666","1005.0","MORRO DO CHAPEU, BR","FM-12","4","","66","74","","","","9","75","FEW:02 20","29.89","26.68","6.21","69","270","","5","","","","","","","","","","","","","","","","","","","","","","","","","","","","","","","","","","","","","","","","","","","","","","","","","","","","","","","","","","","","","","","","","","","","","","","","","","","","","","","","","","","","","","","","","","","SYN004BUFR","","","","","","","","","",""
"83184099999","2021-04-20T15:00:00","-11.2166666","-41.2166666","1005.0","MORRO DO CHAPEU, BR","FM-12","4","","62","82","","","","9","51","SCT:03 20","29.79","26.57","6.21","69","270","","7","","","","","","","","","","","","","","","","","","","","","","","","","","","","","","","","","","","","","","","","","","","","","","","","","","","","","","","","","","","","","","","","","","","","","","","","","","","","","","","","","","","","","","","","","","","SYN004BUFR","","","","","","","","","",""
"83184099999","2021-04-21T09:00:00","-11.2166666","-41.2166666","1005.0","MORRO DO CHAPEU, BR","FM-12","4","","68","73","","","","9","82","SCT:03 20","29.86","26.67","6.21","70","320","","7","","","","","","","","","","","","","","","","","","","","","","","","","","","","","","","","","","","","","","","","","","","","","","","","","","","","","","","","","","","","","","","","","","","","","","","","","","","","","","","","","","","","","","","","","","","SYN004BUFR","","","","","","","","","",""
"83184099999","2021-04-21T15:00:00","-11.2166666","-41.2166666","1005.0","MORRO DO CHAPEU, BR","FM-12","4","","67","71","","","","9","86","BKN:07 20","29.80","26.60","6.21","68","230","","5","","","","","","","","","","","","","","","","","","","","","","","","","","","","","","","","","","","","","","","","","","","","","","","","","","","","","","","","","","","","","","","","","","","","","","","","","","","","","","","","","","","","","","","","","","","SYN004BUFR","","","","","","","","","",""
"83184099999","2021-04-22T09:00:00","-11.2166666","-41.2166666","1005.0","MORRO DO CHAPEU, BR","FM-12","4","","67","70","","","","9","91","BKN:06 20","29.93","26.72","6.21","68","140","","7","","","","","","","","","","","","","","","","","","","","","","","","","","","","","","","","","","","","","","","","","","","","","","","","","","","","","","","","","","","","","","","","","","","","","","","","","","","","","","","","","","","","","","","","","","","SYN004BUFR","","","","","","","","","",""
"83184099999","2021-04-22T15:00:00","-11.2166666","-41.2166666","1005.0","MORRO DO CHAPEU, BR","FM-12","4","","67","79","","","","9","66","SCT:03 20","29.75","26.58","6.21","71","140","","7","","","","","","","","","","","","","","","","","","","","","","","","","","","","","","","","","","","","","","","","","","","","","","","","","","","","","","","","","","","","","","","","","","","","","","","","","","","","","","","","","","","","","","","","","","","SYN004BUFR","","","","","","","","","",""
"83184099999","2021-04-23T09:00:00","-11.2166666","-41.2166666","1005.0","MORRO DO CHAPEU, BR","FM-12","4","","66","71","","","","9","86","SCT:04 20","29.96","26.73","6.21","68","090","","5","","","","","","","","","","","","","","","","","","","","","","","","","","","","","","","","","","","","","","","","","","","","","","","","","","","","","","","","","","","","","","","","","","","","","","","","","","","","","","","","","","","","","","","","","","","SYN004BUFR","","","","","","","","","",""
"83184099999","2021-04-24T09:00:00","-11.2166666","-41.2166666","1005.0","MORRO DO CHAPEU, BR","FM-12","4","","67","69","","","","9","95","OVC:08 20","29.95","26.71","2.49","68","140","","7","","","","","","","","","","","","","","","","","","","","","","","","","","","","","","","","","","","","","","","","","","","","","","","","","","","","","","","","","","","","","","","","","","","","","","","","","","","","","","","","","","","","","","","","","","","SYN004BUFR","","","","","","","","","",""
"83184099999","2021-04-25T09:00:00","-11.2166666","-41.2166666","1005.0","MORRO DO CHAPEU, BR","FM-12","4","","65","70","","","","9","83","BKN:06 20","29.94","26.72","6.21","67","140","","11","","","","","","","","","","","","","","","","","","","","","","","","","","","","","","","","","","","","","","","","","","","","","","","","","","","","","","","","","","","","","","","","","","","","","","","","","","","","","","","","","","","","","","","","","","","SYN004BUFR","","","","","","","","","",""
"83184099999","2021-04-26T09:00:00","-11.2166666","-41.2166666","1005.0","MORRO DO CHAPEU, BR","FM-12","4","","61","71","","","","9","72","FEW:02 20","29.92","26.70","6.21","65","090","","7","","","","","","","","","","","","","","","","","","","","","","","","","","","","","","","","","","","","","","","","","","","","","","","","","","","","","","","","","","","","","","","","","","","","","","","","","","","","","","","","","","","","","","","","","","","SYN004BUFR","","","","","","","","","",""
"83184099999","2021-04-27T09:00:00","-11.2166666","-41.2166666","1005.0","MORRO DO CHAPEU, BR","FM-12","4","","59","69","","","","9","71","FEW:01 20","29.93","26.70","6.21","63","140","","7","","","","","","","","","","","","","","","","","","","","","","","","","","","","","","","","","","","","","","","","","","","","","","","","","","","","","","","","","","","","","","","","","","","","","","","","","","","","","","","","","","","","","","","","","","","SYN004BUFR","","","","","","","","","",""
"83184099999","2021-04-27T15:00:00","-11.2166666","-41.2166666","1005.0","MORRO DO CHAPEU, BR","FM-12","4","","57","80","","","","9","45","FEW:01 20","29.79","26.60","6.21","65","140","","7","","","","","","","","","","","","","","","","","","","","","","","","","","","","","","","","","","","","","","","","","","","","","","","","","","","","","","","","","","","","","","","","","","","","","","","","","","","","","","","","","","","","","","","","","","","SYN004BUFR","","","","","","","","","",""
"83184099999","2021-04-28T09:00:00","-11.2166666","-41.2166666","1005.0","MORRO DO CHAPEU, BR","FM-12","4","","65","70","","","","9","83","BKN:06 20","29.93","26.71","6.21","67","140","","7","","","","","","","","","","","","","","","","","","","","","","","","","","","","","","","","","","","","","","","","","","","","","","","","","","","","","","","","","","","","","","","","","","","","","","","","","","","","","","","","","","","","","","","","","","","SYN004BUFR","","","","","","","","","",""
"83184099999","2021-04-28T15:00:00","-11.2166666","-41.2166666","1005.0","MORRO DO CHAPEU, BR","FM-12","4","","60","82","","","","9","47","SCT:03 20","29.78","26.61","6.21","68","090","","9","","","","","","","","","","","","","","","","","","","","","","","","","","","","","","","","","","","","","","","","","","","","","","","","","","","","","","","","","","","","","","","","","","","","","","","","","","","","","","","","","","","","","","","","","","","SYN004BUFR","","","","","","","","","",""
"83184099999","2021-04-29T09:00:00","-11.2166666","-41.2166666","1005.0","MORRO DO CHAPEU, BR","FM-12","4","","65","70","","","","9","84","OVC:08 20","29.96","26.73","6.21","67","090","","9","","","","","","","","","","","","","","","","","","","","","","","","","","","","","","","","","","","","","","","","","","","","","","","","","","","","","","","","","","","","","","","","","","","","","","","","","","","","","","","","","","","","","","","","","","","SYN004BUFR","","","","","","","","","",""
"83184099999","2021-04-29T15:00:00","-11.2166666","-41.2166666","1005.0","MORRO DO CHAPEU, BR","FM-12","4","","67","73","","","","9","81","BKN:07 20","29.88","26.66","6.21","69","140","","9","","","","","","","","","","","","","","","","","","","","","","","","","","","","","","","","","","","","","","","","","","","","","","","","","","","","","","","","","","","","","","","","","","","","","","","","","","","","","","","","","","","","","","","","","","","SYN004BUFR","","","","","","","","","",""
"83184099999","2021-04-30T09:00:00","-11.2166666","-41.2166666","1005.0","MORRO DO CHAPEU, BR","FM-12","4","","65","67","","","","9","95","BKN:06 20","30.00","26.75","2.49","66","140","","7","","","","","","","","","","","","","","","","","","","","","","","","","","","","","","","","","","","","","","","","","","","","","","","","","","","","","","","","","","","","","","","","","","","","","","","","","","","","","","","","","","","","","","","","","","","SYN004BUFR","","","","","","","","","",""
"83184099999","2021-04-30T15:00:00","-11.2166666","-41.2166666","1005.0","MORRO DO CHAPEU, BR","FM-12","4","","64","73","","","","9","75","SCT:04 20","29.92","26.68","6.21","67","140","","11","","","","","","","","","","","","","","","","","","","","","","","","","","","","","","","","","","","","","","","","","","","","","","","","","","","","","","","","","","","","","","","","","","","","","","","","","","","","","","","","","","","","","","","","","","","SYN004BUFR","","","","","","","","","",""
"83184099999","2021-05-01T09:00:00","-11.2166666","-41.2166666","1005.0","MORRO DO CHAPEU, BR","FM-12","4","","62","64","","","","9","93","OVC:08 20","30.01","26.76","6.21","63","140","","7","","","","","","","","","","","","","","","","","","","","","","","","","","","","","","","","","","","","","","","","","","","","","","","","","","","","","","","","","","","","","","","","","","","","","","","","","","","","","","","","","","","","","","","","","","","SYN004BUFR","","","","","","","","","",""
"83184099999","2021-05-01T15:00:00","-11.2166666","-41.2166666","1005.0","MORRO DO CHAPEU, BR","FM-12","4","","62","72","","","","9","72","BKN:05 20","29.92","26.69","6.21","66","140","","11","","","","","","","","","","","","","","","","","","","","","","","","","","","","","","","","","","","","","","","","","","","","","","","","","","","","","","","","","","","","","","","","","","","","","","","","","","","","","","","","","","","","","","","","","","","SYN004BUFR","","","","","","","","","",""
"83184099999","2021-05-02T09:00:00","-11.2166666","-41.2166666","1005.0","MORRO DO CHAPEU, BR","FM-12","4","","62","64","","","","9","93","OVC:08 20","30.03","26.76","6.21","63","140","","7","","","","","","","","","","","","","","","","","","","","","","","","","","","","","","","","","","","","","","","","","","","","","","","","","","","","","","","","","","","","","","","","","","","","","","","","","","","","","","","","","","","","","","","","","","","SYN004BUFR","","","","","","","","","",""
"83184099999","2021-05-03T09:00:00","-11.2166666","-41.2166666","1005.0","MORRO DO CHAPEU, BR","FM-12","4","","61","67","","","","9","79","SCT:04 20","30.01","26.75","6.21","63","140","","9","","","","","","","","","","","","","","","","","","","","","","","","","","","","","","","","","","","","","","","","","","","","","","","","","","","","","","","","","","","","","","","","","","","","","","","","","","","","","","","","","","","","","","","","","","","SYN004BUFR","","","","","","","","","",""
"83184099999","2021-05-03T15:00:00","-11.2166666","-41.2166666","1005.0","MORRO DO CHAPEU, BR","FM-12","4","","59","77","","","","9","53","SCT:03 20","29.85","26.64","6.21","66","140","","5","","","","","","","","","","","","","","","","","","","","","","","","","","","","","","","","","","","","","","","","","","","","","","","","","","","","","","","","","","","","","","","","","","","","","","","","","","","","","","","","","","","","","","","","","","","SYN004BUFR","","","","","","","","","",""
"83184099999","2021-05-04T09:00:00","-11.2166666","-41.2166666","1005.0","MORRO DO CHAPEU, BR","FM-12","4","","63","67","","","","9","86","BKN:07 20","30.00","26.75","6.21","64","140","","9","","","","","","","","","","","","","","","","","","","","","","","","","","","","","","","","","","","","","","","","","","","","","","","","","","","","","","","","","","","","","","","","","","","","","","","","","","","","","","","","","","","","","","","","","","","SYN004BUFR","","","","","","","","","",""
"83184099999","2021-05-04T15:00:00","-11.2166666","-41.2166666","1005.0","MORRO DO CHAPEU, BR","FM-12","4","","63","74","","","","9","69","BKN:06 20","29.89","26.67","6.21","67","140","","7","","","","","","","","","","","","","","","","","","","","","","","","","","","","","","","","","","","","","","","","","","","","","","","","","","","","","","","","","","","","","","","","","","","","","","","","","","","","","","","","","","","","","","","","","","","SYN004BUFR","","","","","","","","","",""
"83184099999","2021-05-05T09:00:00","-11.2166666","-41.2166666","1005.0","MORRO DO CHAPEU, BR","FM-12","4","","63","66","","","","9","93","OVC:08 20","30.03","26.78","6.21","64","140","","7","","","","","","","","","","","","","","","","","","","","","","","","","","","","","","","","","","","","","","","","","","","","","","","","","","","","","","","","","","","","","","","","","","","","","","","","","","","","","","","","","","","","","","","","","","","SYN004BUFR","","","","","","","","","",""
"83184099999","2021-05-05T15:00:00","-11.2166666","-41.2166666","1005.0","MORRO DO CHAPEU, BR","FM-12","4","","65","71","","","","9","83","OVC:08 20","29.93","26.69","6.21","67","140","","7","","","","","","","","","","","","","","","","","","","","","","","","","","","","","","","","","","","","","","","","","","","","","","","","","","","","","","","","","","","","","","","","","","","","","","","","","","","","","","","","","","","","","","","","","","","SYN004BUFR","","","","","","","","","",""
"83184099999","2021-05-06T09:00:00","-11.2166666","-41.2166666","1005.0","MORRO DO CHAPEU, BR","FM-12","4","","63","66","","","","9","91","BKN:06 20","30.01","26.75","6.21","64","090","","9","","","","","","","","","","","","","","","","","","","","","","","","","","","","","","","","","","","","","","","","","","","","","","","","","","","","","","","","","","","","","","","","","","","","","","","","","","","","","","","","","","","","","","","","","","","SYN004BUFR","","","","","","","","","",""
"83184099999","2021-05-06T15:00:00","-11.2166666","-41.2166666","1005.0","MORRO DO CHAPEU, BR","FM-12","4","","61","76","","","","9","59","BKN:05 20","29.88","26.68","6.21","66","140","","7","","","","","","","","","","","","","","","","","","","","","","","","","","","","","","","","","","","","","","","","","","","","","","","","","","","","","","","","","","","","","","","","","","","","","","","","","","","","","","","","","","","","","","","","","","","SYN004BUFR","","","","","","","","","",""
"83184099999","2021-05-07T09:00:00","-11.2166666","-41.2166666","1005.0","MORRO DO CHAPEU, BR","FM-12","4","","64","67","","","","9","89","BKN:06 20","30.01","26.77","6.21","65","140","","7","","","","","","","","","","","","","","","","","","","","","","","","","","","","","","","","","","","","","","","","","","","","","","","","","","","","","","","","","","","","","","","","","","","","","","","","","","","","","","","","","","","","","","","","","","","SYN004BUFR","","","","","","","","","",""
"83184099999","2021-05-07T15:00:00","-11.2166666","-41.2166666","1005.0","MORRO DO CHAPEU, BR","FM-12","4","","62","76","","","","9","60","SCT:04 20","29.96","26.74","6.21","67","140","","7","","","","","","","","","","","","","","","","","","","","","","","","","","","","","","","","","","","","","","","","","","","","","","","","","","","","","","","","","","","","","","","","","","","","","","","","","","","","","","","","","","","","","","","","","","","SYN004BUFR","","","","","","","","","",""
"83184099999","2021-05-08T09:00:00","-11.2166666","-41.2166666","1005.0","MORRO DO CHAPEU, BR","FM-12","4","","62","67","","","","9","84","BKN:06 20","30.03","26.79","6.21","64","140","","7","","","","","","","","","","","","","","","","","","","","","","","","","","","","","","","","","","","","","","","","","","","","","","","","","","","","","","","","","","","","","","","","","","","","","","","","","","","","","","","","","","","","","","","","","","","SYN004BUFR","","","","","","","","","",""
"83184099999","2021-05-09T09:00:00","-11.2166666","-41.2166666","1005.0","MORRO DO CHAPEU, BR","FM-12","4","","60","67","","","","9","80","OVC:08 20","30.04","26.80","6.21","63","140","","7","","","","","","","","","","","","","","","","","","","","","","","","","","","","","","","","","","","","","","","","","","","","","","","","","","","","","","","","","","","","","","","","","","","","","","","","","","","","","","","","","","","","","","","","","","","SYN004BUFR","","","","","","","","","",""
"83184099999","2021-05-10T15:00:00","-11.2166666","-41.2166666","1005.0","MORRO DO CHAPEU, BR","FM-12","4","","61","69","","","","9","75","BKN:07 20","29.96","26.70","6.21","64","140","","11","","","","","","","","","","","","","","","","","","","","","","","","","","","","","","","","","","","","","","","","","","","","","","","","","","","","","","","","","","","","","","","","","","","","","","","","","","","","","","","","","","","","","","","","","","","SYN004BUFR","","","","","","","","","",""
"83184099999","2021-05-11T09:00:00","-11.2166666","-41.2166666","1005.0","MORRO DO CHAPEU, BR","FM-12","4","","57","64","","","","9","80","BKN:06 20","30.06","26.79","6.21","60","140","","7","","","","","","","","","","","","","","","","","","","","","","","","","","","","","","","","","","","","","","","","","","","","","","","","","","","","","","","","","","","","","","","","","","","","","","","","","","","","","","","","","","","","","","","","","","","SYN004BUFR","","","","","","","","","",""
"83184099999","2021-05-11T15:00:00","-11.2166666","-41.2166666","1005.0","MORRO DO CHAPEU, BR","FM-12","4","","56","70","","","","9","60","BKN:05 20","29.93","26.68","6.21","61","140","","9","","","","","","","","","","","","","","","","","","","","","","","","","","","","","","","","","","","","","","","","","","","","","","","","","","","","","","","","","","","","","","","","","","","","","","","","","","","","","","","","","","","","","","","","","","","SYN004BUFR","","","","","","","","","",""
"83184099999","2021-05-12T09:00:00","-11.2166666","-41.2166666","1005.0","MORRO DO CHAPEU, BR","FM-12","4","","55","69","","","","9","62","262","30.01","26.76","6.21","61","140","","7","","","","","","","","","","","","","","","","","","","","","","","","","","","","","","","","","","","","","","","","","","","","","","","","","","","","","","","","","","","","","","","","","","","","","","","","","","","","","","","","","","","","","","","","","","","SYN004BUFR","","","","","","","","","",""
"83184099999","2021-05-12T15:00:00","-11.2166666","-41.2166666","1005.0","MORRO DO CHAPEU, BR","FM-12","4","","56","78","","","","9","47","SCT:03 20","29.90","26.67","6.21","64","140","","7","","","","","","","","","","","","","","","","","","","","","","","","","","","","","","","","","","","","","","","","","","","","","","","","","","","","","","","","","","","","","","","","","","","","","","","","","","","","","","","","","","","","","","","","","","","SYN004BUFR","","","","","","","","","",""
"83184099999","2021-05-13T09:00:00","-11.2166666","-41.2166666","1005.0","MORRO DO CHAPEU, BR","FM-12","4","","62","66","","","","9","85","BKN:07 20","30.03","26.77","6.21","63","140","","7","","","","","","","","","","","","","","","","","","","","","","","","","","","","","","","","","","","","","","","","","","","","","","","","","","","","","","","","","","","","","","","","","","","","","","","","","","","","","","","","","","","","","","","","","","","SYN004BUFR","","","","","","","","","",""
"83184099999","2021-05-13T15:00:00","-11.2166666","-41.2166666","1005.0","MORRO DO CHAPEU, BR","FM-12","4","","61","76","","","","9","60","FEW:02 20","29.90","26.69","6.21","66","140","","7","","","","","","","","","","","","","","","","","","","","","","","","","","","","","","","","","","","","","","","","","","","","","","","","","","","","","","","","","","","","","","","","","","","","","","","","","","","","","","","","","","","","","","","","","","","SYN004BUFR","","","","","","","","","",""
"83184099999","2021-05-14T09:00:00","-11.2166666","-41.2166666","1005.0","MORRO DO CHAPEU, BR","FM-12","4","","60","67","","","","9","78","BKN:05 20","29.99","26.74","6.21","63","140","","11","","","","","","","","","","","","","","","","","","","","","","","","","","","","","","","","","","","","","","","","","","","","","","","","","","","","","","","","","","","","","","","","","","","","","","","","","","","","","","","","","","","","","","","","","","","SYN004BUFR","","","","","","","","","",""
"83184099999","2021-05-15T09:00:00","-11.2166666","-41.2166666","1005.0","MORRO DO CHAPEU, BR","FM-12","4","","60","66","","","","9","79","OVC:08 20","29.98","26.73","6.21","62","140","","11","","","","","","","","","","","","","","","","","","","","","","","","","","","","","","","","","","","","","","","","","","","","","","","","","","","","","","","","","","","","","","","","","","","","","","","","","","","","","","","","","","","","","","","","","","","SYN004BUFR","","","","","","","","","",""
"83184099999","2021-05-16T09:00:00","-11.2166666","-41.2166666","1005.0","MORRO DO CHAPEU, BR","FM-12","4","","60","66","","","","9","82","SCT:04 20","30.00","26.74","6.21","62","140","","7","","","","","","","","","","","","","","","","","","","","","","","","","","","","","","","","","","","","","","","","","","","","","","","","","","","","","","","","","","","","","","","","","","","","","","","","","","","","","","","","","","","","","","","","","","","SYN004BUFR","","","","","","","","","",""
"83184099999","2021-05-17T09:00:00","-11.2166666","-41.2166666","1005.0","MORRO DO CHAPEU, BR","FM-12","4","","60","83","","","","9","46","BKN:06 20","30.04","26.75","6.21","68","140","","7","","","","","","","","","","","","","","","","","","","","","","","","","","","","","","","","","","","","","","","","","","","","","","","","","","","","","","","","","","","","","","","","","","","","","","","","","","","","","","","","","","","","","","","","","","","SYN004BUFR","","","","","","","","","",""
"83184099999","2021-05-18T09:00:00","-11.2166666","-41.2166666","1005.0","MORRO DO CHAPEU, BR","FM-12","4","","59","64","","","","9","83","BKN:07 20","30.03","26.76","6.21","61","140","","7","","","","","","","","","","","","","","","","","","","","","","","","","","","","","","","","","","","","","","","","","","","","","","","","","","","","","","","","","","","","","","","","","","","","","","","","","","","","","","","","","","","","","","","","","","","SYN004BUFR","","","","","","","","","",""
"83184099999","2021-05-19T09:00:00","-11.2166666","-41.2166666","1005.0","MORRO DO CHAPEU, BR","FM-12","4","","60","69","","","","9","72","262","30.01","26.76","6.21","63","140","","7","","","","","","","","","","","","","","","","","","","","","","","","","","","","","","","","","","","","","","","","","","","","","","","","","","","","","","","","","","","","","","","","","","","","","","","","","","","","","","","","","","","","","","","","","","","SYN004BUFR","","","","","","","","","",""
"83184099999","2021-05-19T15:00:00","-11.2166666","-41.2166666","1005.0","MORRO DO CHAPEU, BR","FM-12","4","","49","79","","","","9","35","262","29.88","26.66","6.21","61","140","","9","","","","","","","","","","","","","","","","","","","","","","","","","","","","","","","","","","","","","","","","","","","","","","","","","","","","","","","","","","","","","","","","","","","","","","","","","","","","","","","","","","","","","","","","","","","SYN004BUFR","","","","","","","","","",""
"83184099999","2021-05-20T09:00:00","-11.2166666","-41.2166666","1005.0","MORRO DO CHAPEU, BR","FM-12","4","","58","70","","","","9","65","FEW:01 20","30.02","26.77","6.21","63","140","","7","","","","","","","","","","","","","","","","","","","","","","","","","","","","","","","","","","","","","","","","","","","","","","","","","","","","","","","","","","","","","","","","","","","","","","","","","","","","","","","","","","","","","","","","","","","SYN004BUFR","","","","","","","","","",""
"83184099999","2021-05-21T09:00:00","-11.2166666","-41.2166666","1005.0","MORRO DO CHAPEU, BR","FM-12","4","","61","67","","","","9","79","SCT:03 20","30.00","26.76","6.21","63","140","","7","","","","","","","","","","","","","","","","","","","","","","","","","","","","","","","","","","","","","","","","","","","","","","","","","","","","","","","","","","","","","","","","","","","","","","","","","","","","","","","","","","","","","","","","","","","SYN004BUFR","","","","","","","","","",""
"83184099999","2021-05-22T09:00:00","-11.2166666","-41.2166666","1005.0","MORRO DO CHAPEU, BR","FM-12","4","","60","71","","","","9","69","FEW:01 164","29.95","26.73","6.21","64","140","","7","","","","","","","","","","","","","","","","","","","","","","","","","","","","","","","","","","","","","","","","","","","","","","","","","","","","","","","","","","","","","","","","","","","","","","","","","","","","","","","","","","","","","","","","","","","SYN004BUFR","","","","","","","","","",""
"83184099999","2021-05-23T09:00:00","-11.2166666","-41.2166666","1005.0","MORRO DO CHAPEU, BR","FM-12","4","","60","70","","","","9","69","FEW:02 20","29.99","26.76","6.21","64","140","","7","","","","","","","","","","","","","","","","","","","","","","","","","","","","","","","","","","","","","","","","","","","","","","","","","","","","","","","","","","","","","","","","","","","","","","","","","","","","","","","","","","","","","","","","","","","SYN004BUFR","","","","","","","","","",""
"83184099999","2021-05-24T09:00:00","-11.2166666","-41.2166666","1005.0","MORRO DO CHAPEU, BR","FM-12","4","","58","71","","","","9","64","FEW:01 164","29.99","26.76","6.21","63","140","","7","","","","","","","","","","","","","","","","","","","","","","","","","","","","","","","","","","","","","","","","","","","","","","","","","","","","","","","","","","","","","","","","","","","","","","","","","","","","","","","","","","","","","","","","","","","SYN004BUFR","","","","","","","","","",""
"83184099999","2021-05-25T09:00:00","-11.2166666","-41.2166666","1005.0","MORRO DO CHAPEU, BR","FM-12","4","","60","68","","","","9","74","SCT:03 20","30.04","26.79","6.21","63","140","","7","","","","","","","","","","","","","","","","","","","","","","","","","","","","","","","","","","","","","","","","","","","","","","","","","","","","","","","","","","","","","","","","","","","","","","","","","","","","","","","","","","","","","","","","","","","SYN004BUFR","","","","","","","","","",""
"83184099999","2021-05-25T15:00:00","-11.2166666","-41.2166666","1005.0","MORRO DO CHAPEU, BR","FM-12","4","","53","68","","","","9","59","FEW:01 164","29.92","26.70","6.21","59","140","","9","","","","","","","","","","","","","","","","","","","","","","","","","","","","","","","","","","","","","","","","","","","","","","","","","","","","","","","","","","","","","","","","","","","","","","","","","","","","","","","","","","","","","","","","","","","SYN004BUFR","","","","","","","","","",""
"83184099999","2021-05-26T09:00:00","-11.2166666","-41.2166666","1005.0","MORRO DO CHAPEU, BR","FM-12","4","","60","70","","","","9","71","BKN:05 20","30.06","26.81","6.21","64","090","","11","","","","","","","","","","","","","","","","","","","","","","","","","","","","","","","","","","","","","","","","","","","","","","","","","","","","","","","","","","","","","","","","","","","","","","","","","","","","","","","","","","","","","","","","","","","SYN004BUFR","","","","","","","","","",""
"83184099999","2021-05-26T15:00:00","-11.2166666","-41.2166666","1005.0","MORRO DO CHAPEU, BR","FM-12","4","","63","73","","","","9","71","BKN:05 20","29.95","26.71","6.21","67","140","","9","","","","","","","","","","","","","","","","","","","","","","","","","","","","","","","","","","","","","","","","","","","","","","","","","","","","","","","","","","","","","","","","","","","","","","","","","","","","","","","","","","","","","","","","","","","SYN004BUFR","","","","","","","","","",""
"83184099999","2021-05-27T09:00:00","-11.2166666","-41.2166666","1005.0","MORRO DO CHAPEU, BR","FM-12","4","","60","69","","","","9","74","BKN:05 20","30.03","26.78","6.21","63","140","","11","","","","","","","","","","","","","","","","","","","","","","","","","","","","","","","","","","","","","","","","","","","","","","","","","","","","","","","","","","","","","","","","","","","","","","","","","","","","","","","","","","","","","","","","","","","SYN004BUFR","","","","","","","","","",""
"83184099999","2021-05-27T15:00:00","-11.2166666","-41.2166666","1005.0","MORRO DO CHAPEU, BR","FM-12","4","","52","78","","","","9","40","20","29.86","26.65","6.21","62","140","","7","","","","","","","","","","","","","","","","","","","","","","","","","","","","","","","","","","","","","","","","","","","","","","","","","","","","","","","","","","","","","","","","","","","","","","","","","","","","","","","","","","","","","","","","","","","SYN004BUFR","","","","","","","","","",""
"83184099999","2021-05-28T15:00:00","-11.2166666","-41.2166666","1005.0","MORRO DO CHAPEU, BR","FM-12","4","","52","76","","","","9","42","262","29.89","26.66","6.21","62","090","","9","","","","","","","","","","","","","","","","","","","","","","","","","","","","","","","","","","","","","","","","","","","","","","","","","","","","","","","","","","","","","","","","","","","","","","","","","","","","","","","","","","","","","","","","","","","SYN004BUFR","","","","","","","","","",""
"83184099999","2021-05-29T09:00:00","-11.2166666","-41.2166666","1005.0","MORRO DO CHAPEU, BR","FM-12","4","","55","66","","","","9","70","SCT:03 20","30.00","26.74","6.21","59","140","","7","","","","","","","","","","","","","","","","","","","","","","","","","","","","","","","","","","","","","","","","","","","","","","","","","","","","","","","","","","","","","","","","","","","","","","","","","","","","","","","","","","","","","","","","","","","SYN004BUFR","","","","","","","","","",""
"83184099999","2021-05-30T09:00:00","-11.2166666","-41.2166666","1005.0","MORRO DO CHAPEU, BR","FM-12","4","","59","67","","","","9","75","SCT:04 20","29.99","26.75","6.21","62","140","","7","","","","","","","","","","","","","","","","","","","","","","","","","","","","","","","","","","","","","","","","","","","","","","","","","","","","","","","","","","","","","","","","","","","","","","","","","","","","","","","","","","","","","","","","","","","SYN004BUFR","","","","","","","","","",""
"83184099999","2021-05-31T09:00:00","-11.2166666","-41.2166666","1005.0","MORRO DO CHAPEU, BR","FM-12","4","","62","68","","","","9","82","BKN:07 20","30.05","26.80","6.21","64","140","","7","","","","","","","","","","","","","","","","","","","","","","","","","","","","","","","","","","","","","","","","","","","","","","","","","","","","","","","","","","","","","","","","","","","","","","","","","","","","","","","","","","","","","","","","","","","SYN004BUFR","","","","","","","","","",""
"83184099999","2021-05-31T15:00:00","-11.2166666","-41.2166666","1005.0","MORRO DO CHAPEU, BR","FM-12","4","","61","75","","","","9","63","SCT:04 20","29.93","26.70","6.21","66","140","","7","","","","","","","","","","","","","","","","","","","","","","","","","","","","","","","","","","","","","","","","","","","","","","","","","","","","","","","","","","","","","","","","","","","","","","","","","","","","","","","","","","","","","","","","","","","SYN004BUFR","","","","","","","","","",""
"83184099999","2021-06-01T09:00:00","-11.2166666","-41.2166666","1005.0","MORRO DO CHAPEU, BR","FM-12","4","","61","66","","","","9","85","OVC:08 20","30.03","26.76","6.21","63","140","","7","","","","","","","","","","","","","","","","","","","","","","","","","","","","","","","","","","","","","","","","","","","","","","","","","","","","","","","","","","","","","","","","","","","","","","","","","","","","","","","","","","","","","","","","","","","SYN004BUFR","","","","","","","","","",""
"83184099999","2021-06-02T15:00:00","-11.2166666","-41.2166666","1005.0","MORRO DO CHAPEU, BR","FM-12","4","","61","76","","","","9","59","SCT:03 20","29.86","26.66","6.21","66","140","","7","","","","","","","","","","","","","","","","","","","","","","","","","","","","","","","","","","","","","","","","","","","","","","","","","","","","","","","","","","","","","","","","","","","","","","","","","","","","","","","","","","","","","","","","","","","SYN004BUFR","","","","","","","","","",""
"83184099999","2021-06-03T09:00:00","-11.2166666","-41.2166666","1005.0","MORRO DO CHAPEU, BR","FM-12","4","","62","66","","","","9","87","OVC:08 20","30.07","26.82","6.21","63","140","","9","","","","","","","","","","","","","","","","","","","","","","","","","","","","","","","","","","","","","","","","","","","","","","","","","","","","","","","","","","","","","","","","","","","","","","","","","","","","","","","","","","","","","","","","","","","SYN004BUFR","","","","","","","","","",""
"83184099999","2021-06-04T09:00:00","-11.2166666","-41.2166666","1005.0","MORRO DO CHAPEU, BR","FM-12","4","","63","64","","||RA","","9","95","BKN:06 20","30.07","26.80","1.24","63","140","","7","","","","","","","","","","","","","","","","","","","","","","","","","","","","","","","","","","","","","","","","","","","","","","","","","","","","","","","","","","","","","","","","","","","","","","","","","","","","","","","","","","","","","","","","","","","SYN004BUFR","","","","","","","","","",""
"83184099999","2021-06-05T09:00:00","-11.2166666","-41.2166666","1005.0","MORRO DO CHAPEU, BR","FM-12","4","","63","65","","","","9","93","OVC:08 20","30.01","26.77","6.21","64","140","","7","","","","","","","","","","","","","","","","","","","","","","","","","","","","","","","","","","","","","","","","","","","","","","","","","","","","","","","","","","","","","","","","","","","","","","","","","","","","","","","","","","","","","","","","","","","SYN004BUFR","","","","","","","","","",""
"83184099999","2021-06-06T09:00:00","-11.2166666","-41.2166666","1005.0","MORRO DO CHAPEU, BR","FM-12","4","","63","64","","","","9","97","BKN:06 20","30.02","26.73","2.49","63","140","","7","","","","","","","","","","","","","","","","","","","","","","","","","","","","","","","","","","","","","","","","","","","","","","","","","","","","","","","","","","","","","","","","","","","","","","","","","","","","","","","","","","","","","","","","","","","SYN004BUFR","","","","","","","","","",""
"83184099999","2021-06-07T09:00:00","-11.2166666","-41.2166666","1005.0","MORRO DO CHAPEU, BR","FM-12","4","","63","64","","","","9","96","OVC:08 20","30.01","26.75","6.21","63","140","","7","","","","","","","","","","","","","","","","","","","","","","","","","","","","","","","","","","","","","","","","","","","","","","","","","","","","","","","","","","","","","","","","","","","","","","","","","","","","","","","","","","","","","","","","","","","SYN004BUFR","","","","","","","","","",""
"83184099999","2021-06-07T15:00:00","-11.2166666","-41.2166666","1005.0","MORRO DO CHAPEU, BR","FM-12","4","","63","73","","","","9","71","BKN:06 20","29.88","26.65","6.21","67","140","","7","","","","","","","","","","","","","","","","","","","","","","","","","","","","","","","","","","","","","","","","","","","","","","","","","","","","","","","","","","","","","","","","","","","","","","","","","","","","","","","","","","","","","","","","","","","SYN004BUFR","","","","","","","","","",""
"83184099999","2021-06-08T09:00:00","-11.2166666","-41.2166666","1005.0","MORRO DO CHAPEU, BR","FM-12","4","","63","65","","","","9","93","BKN:06 20","30.01","26.75","6.21","64","140","","7","","","","","","","","","","","","","","","","","","","","","","","","","","","","","","","","","","","","","","","","","","","","","","","","","","","","","","","","","","","","","","","","","","","","","","","","","","","","","","","","","","","","","","","","","","","SYN004BUFR","","","","","","","","","",""
"83184099999","2021-06-08T15:00:00","-11.2166666","-41.2166666","1005.0","MORRO DO CHAPEU, BR","FM-12","4","","60","75","","","","9","61","SCT:03 20","29.87","26.66","6.21","65","140","","7","","","","","","","","","","","","","","","","","","","","","","","","","","","","","","","","","","","","","","","","","","","","","","","","","","","","","","","","","","","","","","","","","","","","","","","","","","","","","","","","","","","","","","","","","","","SYN004BUFR","","","","","","","","","",""
"83184099999","2021-06-09T09:00:00","-11.2166666","-41.2166666","1005.0","MORRO DO CHAPEU, BR","FM-12","4","","63","65","","","","9","93","BKN:07 20","30.02","26.75","6.21","64","140","","7","","","","","","","","","","","","","","","","","","","","","","","","","","","","","","","","","","","","","","","","","","","","","","","","","","","","","","","","","","","","","","","","","","","","","","","","","","","","","","","","","","","","","","","","","","","SYN004BUFR","","","","","","","","","",""
"83184099999","2021-06-09T15:00:00","-11.2166666","-41.2166666","1005.0","MORRO DO CHAPEU, BR","FM-12","4","","63","74","","","","9","68","SCT:03 20","29.88","26.66","6.21","67","140","","9","","","","","","","","","","","","","","","","","","","","","","","","","","","","","","","","","","","","","","","","","","","","","","","","","","","","","","","","","","","","","","","","","","","","","","","","","","","","","","","","","","","","","","","","","","","SYN004BUFR","","","","","","","","","",""
"83184099999","2021-06-10T09:00:00","-11.2166666","-41.2166666","1005.0","MORRO DO CHAPEU, BR","FM-12","4","","63","64","","||RA","","9","99","OVC:08s 20","30.02","26.75","2.49","63","140","","7","","","","","","","","","","","","","","","","","","","","","","","","","","","","","","","","","","","","","","","","","","","","","","","","","","","","","","","","","","","","","","","","","","","","","","","","","","","","","","","","","","","","","","","","","","","SYN004BUFR","","","","","","","","","",""
"83184099999","2021-06-10T15:00:00","-11.2166666","-41.2166666","1005.0","MORRO DO CHAPEU, BR","FM-12","4","","62","72","","","","9","69","BKN:07 20","29.92","26.68","6.21","66","140","","7","","","","","","","","","","","","","","","","","","","","","","","","","","","","","","","","","","","","","","","","","","","","","","","","","","","","","","","","","","","","","","","","","","","","","","","","","","","","","","","","","","","","","","","","","","","SYN004BUFR","","","","","","","","","",""
"83184099999","2021-06-11T09:00:00","-11.2166666","-41.2166666","1005.0","MORRO DO CHAPEU, BR","FM-12","4","","61","65","","","","9","87","BKN:06 20","30.00","26.74","6.21","63","140","","7","","","","","","","","","","","","","","","","","","","","","","","","","","","","","","","","","","","","","","","","","","","","","","","","","","","","","","","","","","","","","","","","","","","","","","","","","","","","","","","","","","","","","","","","","","","SYN004BUFR","","","","","","","","","",""
"83184099999","2021-06-12T09:00:00","-11.2166666","-41.2166666","1005.0","MORRO DO CHAPEU, BR","FM-12","4","","61","64","","","","9","90","OVC:08 20","30.03","26.76","6.21","62","140","","7","","","","","","","","","","","","","","","","","","","","","","","","","","","","","","","","","","","","","","","","","","","","","","","","","","","","","","","","","","","","","","","","","","","","","","","","","","","","","","","","","","","","","","","","","","","SYN004BUFR","","","","","","","","","",""
"83184099999","2021-06-13T09:00:00","-11.2166666","-41.2166666","1005.0","MORRO DO CHAPEU, BR","FM-12","4","","61","67","","","","9","81","BKN:06 20","30.02","26.76","6.21","63","140","","7","","","","","","","","","","","","","","","","","","","","","","","","","","","","","","","","","","","","","","","","","","","","","","","","","","","","","","","","","","","","","","","","","","","","","","","","","","","","","","","","","","","","","","","","","","","SYN004BUFR","","","","","","","","","",""
"83184099999","2021-06-14T09:00:00","-11.2166666","-41.2166666","1005.0","MORRO DO CHAPEU, BR","FM-12","4","","62","64","","","","9","93","OVC:08 20","30.08","26.81","6.21","63","140","","9","","","","","","","","","","","","","","","","","","","","","","","","","","","","","","","","","","","","","","","","","","","","","","","","","","","","","","","","","","","","","","","","","","","","","","","","","","","","","","","","","","","","","","","","","","","SYN004BUFR","","","","","","","","","",""
"83184099999","2021-06-15T09:00:00","-11.2166666","-41.2166666","1005.0","MORRO DO CHAPEU, BR","FM-12","4","","60","82","","","","9","47","OVC:08 20","30.08","26.80","6.21","68","140","","9","","","","","","","","","","","","","","","","","","","","","","","","","","","","","","","","","","","","","","","","","","","","","","","","","","","","","","","","","","","","","","","","","","","","","","","","","","","","","","","","","","","","","","","","","","","SYN004BUFR","","","","","","","","","",""
"83184099999","2021-06-15T15:00:00","-11.2166666","-41.2166666","1005.0","MORRO DO CHAPEU, BR","FM-12","4","","61","67","","","","9","80","OVC:08 20","29.98","26.72","6.21","63","140","","7","","","","","","","","","","","","","","","","","","","","","","","","","","","","","","","","","","","","","","","","","","","","","","","","","","","","","","","","","","","","","","","","","","","","","","","","","","","","","","","","","","","","","","","","","","","SYN004BUFR","","","","","","","","","",""
"83184099999","2021-06-16T09:00:00","-11.2166666","-41.2166666","1005.0","MORRO DO CHAPEU, BR","FM-12","4","","62","63","","","","9","97","OVC:08 20","30.07","26.77","6.21","62","090","","7","","","","","","","","","","","","","","","","","","","","","","","","","","","","","","","","","","","","","","","","","","","","","","","","","","","","","","","","","","","","","","","","","","","","","","","","","","","","","","","","","","","","","","","","","","","SYN004BUFR","","","","","","","","","",""
"83184099999","2021-06-17T09:00:00","-11.2166666","-41.2166666","1005.0","MORRO DO CHAPEU, BR","FM-12","4","","61","81","","","","9","50","OVC:08 20","30.09","26.80","6.21","68","140","","9","","","","","","","","","","","","","","","","","","","","","","","","","","","","","","","","","","","","","","","","","","","","","","","","","","","","","","","","","","","","","","","","","","","","","","","","","","","","","","","","","","","","","","","","","","","SYN004BUFR","","","","","","","","","",""
"83184099999","2021-06-18T09:00:00","-11.2166666","-41.2166666","1005.0","MORRO DO CHAPEU, BR","FM-12","4","","61","62","","","","9","96","OVC:08 20","30.14","26.84","6.21","61","140","","11","","","","","","","","","","","","","","","","","","","","","","","","","","","","","","","","","","","","","","","","","","","","","","","","","","","","","","","","","","","","","","","","","","","","","","","","","","","","","","","","","","","","","","","","","","","SYN004BUFR","","","","","","","","","",""
"83184099999","2021-06-19T09:00:00","-11.2166666","-41.2166666","1005.0","MORRO DO CHAPEU, BR","FM-12","4","","61","63","","","","9","93","OVC:08 20","30.16","26.88","6.21","62","140","","7","","","","","","","","","","","","","","","","","","","","","","","","","","","","","","","","","","","","","","","","","","","","","","","","","","","","","","","","","","","","","","","","","","","","","","","","","","","","","","","","","","","","","","","","","","","SYN004BUFR","","","","","","","","","",""
"83184099999","2021-06-20T09:00:00","-11.2166666","-41.2166666","1005.0","MORRO DO CHAPEU, BR","FM-12","4","","59","65","","","","9","80","BKN:06 20","30.12","26.84","6.21","61","140","","7","","","","","","","","","","","","","","","","","","","","","","","","","","","","","","","","","","","","","","","","","","","","","","","","","","","","","","","","","","","","","","","","","","","","","","","","","","","","","","","","","","","","","","","","","","","SYN004BUFR","","","","","","","","","",""
"83184099999","2021-06-21T09:00:00","-11.2166666","-41.2166666","1005.0","MORRO DO CHAPEU, BR","FM-12","4","","61","63","","","","9","92","OVC:08 20","30.10","26.81","6.21","62","140","","7","","","","","","","","","","","","","","","","","","","","","","","","","","","","","","","","","","","","","","","","","","","","","","","","","","","","","","","","","","","","","","","","","","","","","","","","","","","","","","","","","","","","","","","","","","","SYN004BUFR","","","","","","","","","",""
"83184099999","2021-06-21T15:00:00","-11.2166666","-41.2166666","1005.0","MORRO DO CHAPEU, BR","FM-12","4","","62","77","","","","9","60","SCT:04 20","29.94","26.73","6.21","67","140","","9","","","","","","","","","","","","","","","","","","","","","","","","","","","","","","","","","","","","","","","","","","","","","","","","","","","","","","","","","","","","","","","","","","","","","","","","","","","","","","","","","","","","","","","","","","","SYN004BUFR","","","","","","","","","",""
"83184099999","2021-06-22T09:00:00","-11.2166666","-41.2166666","1005.0","MORRO DO CHAPEU, BR","FM-12","4","","65","67","","","","9","93","BKN:07 20","30.07","26.81","6.21","66","140","","9","","","","","","","","","","","","","","","","","","","","","","","","","","","","","","","","","","","","","","","","","","","","","","","","","","","","","","","","","","","","","","","","","","","","","","","","","","","","","","","","","","","","","","","","","","","SYN004BUFR","","","","","","","","","",""
"83184099999","2021-06-22T15:00:00","-11.2166666","-41.2166666","1005.0","MORRO DO CHAPEU, BR","FM-12","4","","60","77","","","","9","55","BKN:06 20","29.94","26.72","6.21","66","140","","7","","","","","","","","","","","","","","","","","","","","","","","","","","","","","","","","","","","","","","","","","","","","","","","","","","","","","","","","","","","","","","","","","","","","","","","","","","","","","","","","","","","","","","","","","","","SYN004BUFR","","","","","","","","","",""
"83184099999","2021-06-23T09:00:00","-11.2166666","-41.2166666","1005.0","MORRO DO CHAPEU, BR","FM-12","4","","63","64","","","","9","96","OVC:08 20","30.08","26.81","6.21","63","140","","9","","","","","","","","","","","","","","","","","","","","","","","","","","","","","","","","","","","","","","","","","","","","","","","","","","","","","","","","","","","","","","","","","","","","","","","","","","","","","","","","","","","","","","","","","","","SYN004BUFR","","","","","","","","","",""
"83184099999","2021-06-23T15:00:00","-11.2166666","-41.2166666","1005.0","MORRO DO CHAPEU, BR","FM-12","4","","62","72","","","","9","71","BKN:07 20","29.95","26.72","6.21","66","140","","9","","","","","","","","","","","","","","","","","","","","","","","","","","","","","","","","","","","","","","","","","","","","","","","","","","","","","","","","","","","","","","","","","","","","","","","","","","","","","","","","","","","","","","","","","","","SYN004BUFR","","","","","","","","","",""
"83184099999","2021-06-24T09:00:00","-11.2166666","-41.2166666","1005.0","MORRO DO CHAPEU, BR","FM-12","4","","60","64","","","","9","86","OVC:08 20","30.09","26.81","6.21","62","140","","7","","","","","","","","","","","","","","","","","","","","","","","","","","","","","","","","","","","","","","","","","","","","","","","","","","","","","","","","","","","","","","","","","","","","","","","","","","","","","","","","","","","","","","","","","","","SYN004BUFR","","","","","","","","","",""
"83184099999","2021-06-24T15:00:00","-11.2166666","-41.2166666","1005.0","MORRO DO CHAPEU, BR","FM-12","4","","58","70","","","","9","65","BKN:05 20","29.97","26.72","6.21","63","140","","9","","","","","","","","","","","","","","","","","","","","","","","","","","","","","","","","","","","","","","","","","","","","","","","","","","","","","","","","","","","","","","","","","","","","","","","","","","","","","","","","","","","","","","","","","","","SYN004BUFR","","","","","","","","","",""
"83184099999","2021-06-25T09:00:00","-11.2166666","-41.2166666","1005.0","MORRO DO CHAPEU, BR","FM-12","4","","59","62","","","","9","90","OVC:08 20","30.11","26.82","6.21","60","140","","7","","","","","","","","","","","","","","","","","","","","","","","","","","","","","","","","","","","","","","","","","","","","","","","","","","","","","","","","","","","","","","","","","","","","","","","","","","","","","","","","","","","","","","","","","","","SYN004BUFR","","","","","","","","","",""
"83184099999","2021-06-27T09:00:00","-11.2166666","-41.2166666","1005.0","MORRO DO CHAPEU, BR","FM-12","4","","59","63","","","","9","86","BKN:06 20","30.06","26.79","6.21","61","140","","7","","","","","","","","","","","","","","","","","","","","","","","","","","","","","","","","","","","","","","","","","","","","","","","","","","","","","","","","","","","","","","","","","","","","","","","","","","","","","","","","","","","","","","","","","","","SYN004BUFR","","","","","","","","","",""
"83184099999","2021-06-28T09:00:00","-11.2166666","-41.2166666","1005.0","MORRO DO CHAPEU, BR","FM-12","4","","60","62","","||DZ","","9","96","OVC:08 20","30.08","26.79","2.49","61","140","","7","","","","","","","","","","","","","","","","","","","","","","","","","","","","","","","","","","","","","","","","","","","","","","","","","","","","","","","","","","","","","","","","","","","","","","","","","","","","","","","","","","","","","","","","","","","SYN004BUFR","","","","","","","","","",""
"83184099999","2021-06-29T09:00:00","-11.2166666","-41.2166666","1005.0","MORRO DO CHAPEU, BR","FM-12","4","","60","61","","","","9","95","OVC:08 20","30.11","26.81","6.21","60","140","","7","","","","","","","","","","","","","","","","","","","","","","","","","","","","","","","","","","","","","","","","","","","","","","","","","","","","","","","","","","","","","","","","","","","","","","","","","","","","","","","","","","","","","","","","","","","SYN004BUFR","","","","","","","","","",""
"83184099999","2021-06-29T15:00:00","-11.2166666","-41.2166666","1005.0","MORRO DO CHAPEU, BR","FM-12","4","","57","72","","","","9","60","BKN:05 20","29.98","26.72","6.21","63","140","","9","","","","","","","","","","","","","","","","","","","","","","","","","","","","","","","","","","","","","","","","","","","","","","","","","","","","","","","","","","","","","","","","","","","","","","","","","","","","","","","","","","","","","","","","","","","SYN004BUFR","","","","","","","","","",""
"83184099999","2021-06-30T09:00:00","-11.2166666","-41.2166666","1005.0","MORRO DO CHAPEU, BR","FM-12","4","","61","62","","","","9","96","BKN:07 20","30.11","26.80","6.21","61","140","","7","","","","","","","","","","","","","","","","","","","","","","","","","","","","","","","","","","","","","","","","","","","","","","","","","","","","","","","","","","","","","","","","","","","","","","","","","","","","","","","","","","","","","","","","","","","SYN004BUFR","","","","","","","","","",""
"83184099999","2021-07-01T09:00:00","-11.2166666","-41.2166666","1005.0","MORRO DO CHAPEU, BR","FM-12","4","","61","67","","","","9","82","BKN:07 20","30.11","26.83","6.21","63","140","","7","","","","","","","","","","","","","","","","","","","","","","","","","","","","","","","","","","","","","","","","","","","","","","","","","","","","","","","","","","","","","","","","","","","","","","","","","","","","","","","","","","","","","","","","","","","SYN004BUFR","","","","","","","","","",""
"83184099999","2021-07-01T15:00:00","-11.2166666","-41.2166666","1005.0","MORRO DO CHAPEU, BR","FM-12","4","","60","70","","","","9","72","BKN:07 20","30.03","26.77","6.21","64","140","","9","","","","","","","","","","","","","","","","","","","","","","","","","","","","","","","","","","","","","","","","","","","","","","","","","","","","","","","","","","","","","","","","","","","","","","","","","","","","","","","","","","","","","","","","","","","SYN004BUFR","","","","","","","","","",""
"83184099999","2021-07-02T09:00:00","-11.2166666","-41.2166666","1005.0","MORRO DO CHAPEU, BR","FM-12","4","","60","62","","","","9","94","OVC:08 20","30.18","26.88","6.21","61","140","","11","","","","","","","","","","","","","","","","","","","","","","","","","","","","","","","","","","","","","","","","","","","","","","","","","","","","","","","","","","","","","","","","","","","","","","","","","","","","","","","","","","","","","","","","","","","SYN004BUFR","","","","","","","","","",""
"83184099999","2021-07-03T09:00:00","-11.2166666","-41.2166666","1005.0","MORRO DO CHAPEU, BR","FM-12","4","","54","65","","","","9","68","FEW:01 20","30.14","26.86","6.21","59","140","","9","","","","","","","","","","","","","","","","","","","","","","","","","","","","","","","","","","","","","","","","","","","","","","","","","","","","","","","","","","","","","","","","","","","","","","","","","","","","","","","","","","","","","","","","","","","SYN004BUFR","","","","","","","","","",""
"83184099999","2021-07-04T09:00:00","-11.2166666","-41.2166666","1005.0","MORRO DO CHAPEU, BR","FM-12","4","","55","64","","","","9","73","OVC:08 20","30.12","26.84","6.21","59","140","","7","","","","","","","","","","","","","","","","","","","","","","","","","","","","","","","","","","","","","","","","","","","","","","","","","","","","","","","","","","","","","","","","","","","","","","","","","","","","","","","","","","","","","","","","","","","SYN004BUFR","","","","","","","","","",""
"83184099999","2021-07-05T09:00:00","-11.2166666","-41.2166666","1005.0","MORRO DO CHAPEU, BR","FM-12","4","","59","63","","","","9","85","BKN:07 20","30.15","26.86","6.21","61","140","","7","","","","","","","","","","","","","","","","","","","","","","","","","","","","","","","","","","","","","","","","","","","","","","","","","","","","","","","","","","","","","","","","","","","","","","","","","","","","","","","","","","","","","","","","","","","SYN004BUFR","","","","","","","","","",""
"83184099999","2021-07-05T15:00:00","-11.2166666","-41.2166666","1005.0","MORRO DO CHAPEU, BR","FM-12","4","","61","72","","","","9","69","BKN:06 20","30.05","26.78","6.21","65","140","","9","","","","","","","","","","","","","","","","","","","","","","","","","","","","","","","","","","","","","","","","","","","","","","","","","","","","","","","","","","","","","","","","","","","","","","","","","","","","","","","","","","","","","","","","","","","SYN004BUFR","","","","","","","","","",""
"83184099999","2021-07-06T09:00:00","-11.2166666","-41.2166666","1005.0","MORRO DO CHAPEU, BR","FM-12","4","","70","74","","","","9","86","BKN:05 20","30.10","29.62","6.21","71","180","","7","","","","","","","","","","","","","","","","","","","","","","","","","","","","","","","","","","","","","","","","","","","","","","","","","","","","","","","","","","","","","","","","","","","","","","","","","","","","","","","","","","","","","","","","","","","SYN004BUFR","","","","","","","","","",""
"83184099999","2021-07-06T15:00:00","-11.2166666","-41.2166666","1005.0","MORRO DO CHAPEU, BR","FM-12","4","","59","71","","","","9","67","BKN:06 20","30.00","26.74s","6.21","64","140","","9","","","","","","","","","","","","","","","","","","","","","","","","","","","","","","","","","","","","","","","","","","","","","","","","","","","","","","","","","","","","","","","","","","","","","","","","","","","","","","","","","","","","","","","","","","","SYN004BUFR","","","","","","","","","",""
"83184099999","2021-07-07T09:00:00","-11.2166666","-41.2166666","1005.0","MORRO DO CHAPEU, BR","FM-12","4","","54","64","","","","9","71","BKN:07 20","30.11","26.83","6.21","58","140","","9","","","","","","","","","","","","","","","","","","","","","","","","","","","","","","","","","","","","","","","","","","","","","","","","","","","","","","","","","","","","","","","","","","","","","","","","","","","","","","","","","","","","","","","","","","","SYN004BUFR","","","","","","","","","",""
"83184099999","2021-07-07T15:00:00","-11.2166666","-41.2166666","1005.0","MORRO DO CHAPEU, BR","FM-12","4","","58","74","","","","9","57","SCT:04 20","29.96","26.71","6.21","64","090","","7","","","","","","","","","","","","","","","","","","","","","","","","","","","","","","","","","","","","","","","","","","","","","","","","","","","","","","","","","","","","","","","","","","","","","","","","","","","","","","","","","","","","","","","","","","","SYN004BUFR","","","","","","","","","",""
"83184099999","2021-07-08T09:00:00","-11.2166666","-41.2166666","1005.0","MORRO DO CHAPEU, BR","FM-12","4","","60","60","","||DZ","","9","97","BKN:05 20","30.11","26.82","6.21","60","140","","7","","","","","","","","","","","","","","","","","","","","","","","","","","","","","","","","","","","","","","","","","","","","","","","","","","","","","","","","","","","","","","","","","","","","","","","","","","","","","","","","","","","","","","","","","","","SYN004BUFR","","","","","","","","","",""
"83184099999","2021-07-08T15:00:00","-11.2166666","-41.2166666","1005.0","MORRO DO CHAPEU, BR","FM-12","4","","57","72","","","","9","58","SCT:04 20","29.99","26.73","6.21","63","090","","7","","","","","","","","","","","","","","","","","","","","","","","","","","","","","","","","","","","","","","","","","","","","","","","","","","","","","","","","","","","","","","","","","","","","","","","","","","","","","","","","","","","","","","","","","","","SYN004BUFR","","","","","","","","","",""
"83184099999","2021-07-09T09:00:00","-11.2166666","-41.2166666","1005.0","MORRO DO CHAPEU, BR","FM-12","4","","59","63","","","","9","86","BKN:06 20","30.10","26.81","6.21","61","140","","7","","","","","","","","","","","","","","","","","","","","","","","","","","","","","","","","","","","","","","","","","","","","","","","","","","","","","","","","","","","","","","","","","","","","","","","","","","","","","","","","","","","","","","","","","","","SYN004BUFR","","","","","","","","","",""
"83184099999","2021-07-10T09:00:00","-11.2166666","-41.2166666","1005.0","MORRO DO CHAPEU, BR","FM-12","4","","60","62","","","","9","95","BKN:06 20","30.11","26.81","2.49","61","140","","7","","","","","","","","","","","","","","","","","","","","","","","","","","","","","","","","","","","","","","","","","","","","","","","","","","","","","","","","","","","","","","","","","","","","","","","","","","","","","","","","","","","","","","","","","","","SYN004BUFR","","","","","","","","","",""
"83184099999","2021-07-11T09:00:00","-11.2166666","-41.2166666","1005.0","MORRO DO CHAPEU, BR","FM-12","4","","57","65","","","","9","75","BKN:06 20","30.11","26.83","6.21","60","140","","11","","","","","","","","","","","","","","","","","","","","","","","","","","","","","","","","","","","","","","","","","","","","","","","","","","","","","","","","","","","","","","","","","","","","","","","","","","","","","","","","","","","","","","","","","","","SYN004BUFR","","","","","","","","","",""
"83184099999","2021-07-11T15:00:00","-11.2166666","-41.2166666","1005.0","MORRO DO CHAPEU, BR","FM-12","4","","56","72","","","","9","59","SCT:04 20","30.01","26.76","6.21","62","140","","11","","","","","","","","","","","","","","","","","","","","","","","","","","","","","","","","","","","","","","","","","","","","","","","","","","","","","","","","","","","","","","","","","","","","","","","","","","","","","","","","","","","","","","","","","","","SYN004BUFR","","","","","","","","","",""
"83184099999","2021-07-12T09:00:00","-11.2166666","-41.2166666","1005.0","MORRO DO CHAPEU, BR","FM-12","4","","61","62","","","","9","96","BKN:07 20","30.13","26.83","6.21","61","140","","9","","","","","","","","","","","","","","","","","","","","","","","","","","","","","","","","","","","","","","","","","","","","","","","","","","","","","","","","","","","","","","","","","","","","","","","","","","","","","","","","","","","","","","","","","","","SYN004BUFR","","","","","","","","","",""
"83184099999","2021-07-12T15:00:00","-11.2166666","-41.2166666","1005.0","MORRO DO CHAPEU, BR","FM-12","4","","56","74","","","","9","53","SCT:03 20","29.99","26.75","6.21","63","140","","7","","","","","","","","","","","","","","","","","","","","","","","","","","","","","","","","","","","","","","","","","","","","","","","","","","","","","","","","","","","","","","","","","","","","","","","","","","","","","","","","","","","","","","","","","","","SYN004BUFR","","","","","","","","","",""
"83184099999","2021-07-13T09:00:00","-11.2166666","-41.2166666","1005.0","MORRO DO CHAPEU, BR","FM-12","4","","58","64","","","","9","81","BKN:06 20","30.12","26.84","6.21","60","090","","9","","","","","","","","","","","","","","","","","","","","","","","","","","","","","","","","","","","","","","","","","","","","","","","","","","","","","","","","","","","","","","","","","","","","","","","","","","","","","","","","","","","","","","","","","","","SYN004BUFR","","","","","","","","","",""
"83184099999","2021-07-13T15:00:00","-11.2166666","-41.2166666","1005.0","MORRO DO CHAPEU, BR","FM-12","4","","55","75","","","","9","50","SCT:04 20","30.00","26.76","6.21","63","140","","11","","","","","","","","","","","","","","","","","","","","","","","","","","","","","","","","","","","","","","","","","","","","","","","","","","","","","","","","","","","","","","","","","","","","","","","","","","","","","","","","","","","","","","","","","","","SYN004BUFR","","","","","","","","","",""
"83184099999","2021-07-14T09:00:00","-11.2166666","-41.2166666","1005.0","MORRO DO CHAPEU, BR","FM-12","4","","62","63","","||DZ","","9","95","OVC:08 20","30.09","26.81","2.49","62","140","","11","","","","","","","","","","","","","","","","","","","","","","","","","","","","","","","","","","","","","","","","","","","","","","","","","","","","","","","","","","","","","","","","","","","","","","","","","","","","","","","","","","","","","","","","","","","SYN004BUFR","","","","","","","","","",""
"83184099999","2021-07-14T15:00:00","-11.2166666","-41.2166666","1005.0","MORRO DO CHAPEU, BR","FM-12","4","","64","66","","","","9","95","BKN:07 20","30.01","26.74","6.21","65","140","","9","","","","","","","","","","","","","","","","","","","","","","","","","","","","","","","","","","","","","","","","","","","","","","","","","","","","","","","","","","","","","","","","","","","","","","","","","","","","","","","","","","","","","","","","","","","SYN004BUFR","","","","","","","","","",""
"83184099999","2021-07-15T15:00:00","-11.2166666","-41.2166666","1005.0","MORRO DO CHAPEU, BR","FM-12","4","","56","76","","","","9","50","SCT:03 20","29.96","26.72","6.21","64","090","","7","","","","","","","","","","","","","","","","","","","","","","","","","","","","","","","","","","","","","","","","","","","","","","","","","","","","","","","","","","","","","","","","","","","","","","","","","","","","","","","","","","","","","","","","","","","SYN004BUFR","","","","","","","","","",""
"83184099999","2021-07-16T09:00:00","-11.2166666","-41.2166666","1005.0","MORRO DO CHAPEU, BR","FM-12","4","","57","63","","","","9","82","BKN:05 20","30.09","26.80","6.21","59","140","","7","","","","","","","","","","","","","","","","","","","","","","","","","","","","","","","","","","","","","","","","","","","","","","","","","","","","","","","","","","","","","","","","","","","","","","","","","","","","","","","","","","","","","","","","","","","SYN004BUFR","","","","","","","","","",""
"83184099999","2021-07-16T15:00:00","-11.2166666","-41.2166666","1005.0","MORRO DO CHAPEU, BR","FM-12","4","","52","76","","","","9","44","FEW:01 20","29.95","26.70","6.21","62","140","","7","","","","","","","","","","","","","","","","","","","","","","","","","","","","","","","","","","","","","","","","","","","","","","","","","","","","","","","","","","","","","","","","","","","","","","","","","","","","","","","","","","","","","","","","","","","SYN004BUFR","","","","","","","","","",""
"83184099999","2021-07-17T09:00:00","-11.2166666","-41.2166666","1005.0","MORRO DO CHAPEU, BR","FM-12","4","","56","65","","","","9","73","BKN:06 20","30.09","26.80","6.21","60","140","","7","","","","","","","","","","","","","","","","","","","","","","","","","","","","","","","","","","","","","","","","","","","","","","","","","","","","","","","","","","","","","","","","","","","","","","","","","","","","","","","","","","","","","","","","","","","SYN004BUFR","","","","","","","","","",""
"83184099999","2021-07-18T09:00:00","-11.2166666","-41.2166666","1005.0","MORRO DO CHAPEU, BR","FM-12","4","","59","67","","","","9","77","SCT:04 20","30.08","26.82","6.21","62","140","","7","","","","","","","","","","","","","","","","","","","","","","","","","","","","","","","","","","","","","","","","","","","","","","","","","","","","","","","","","","","","","","","","","","","","","","","","","","","","","","","","","","","","","","","","","","","SYN004BUFR","","","","","","","","","",""
"83184099999","2021-07-19T09:00:00","-11.2166666","-41.2166666","1005.0","MORRO DO CHAPEU, BR","FM-12","4","","59","65","","","","9","80","BKN:07 20","30.05","26.79","6.21","61","140","","9","","","","","","","","","","","","","","","","","","","","","","","","","","","","","","","","","","","","","","","","","","","","","","","","","","","","","","","","","","","","","","","","","","","","","","","","","","","","","","","","","","","","","","","","","","","SYN004BUFR","","","","","","","","","",""
"83184099999","2021-07-19T15:00:00","-11.2166666","-41.2166666","1005.0","MORRO DO CHAPEU, BR","FM-12","4","","52","79","","","","9","39","262","29.90","26.69","6.21","63","140","","7","","","","","","","","","","","","","","","","","","","","","","","","","","","","","","","","","","","","","","","","","","","","","","","","","","","","","","","","","","","","","","","","","","","","","","","","","","","","","","","","","","","","","","","","","","","SYN004BUFR","","","","","","","","","",""
"83184099999","2021-07-20T09:00:00","-11.2166666","-41.2166666","1005.0","MORRO DO CHAPEU, BR","FM-12","4","","64","66","","","","9","93","BKN:07 20","30.06","26.80","6.21","65","140","","9","","","","","","","","","","","","","","","","","","","","","","","","","","","","","","","","","","","","","","","","","","","","","","","","","","","","","","","","","","","","","","","","","","","","","","","","","","","","","","","","","","","","","","","","","","","SYN004BUFR","","","","","","","","","",""
"83184099999","2021-07-20T15:00:00","-11.2166666","-41.2166666","1005.0","MORRO DO CHAPEU, BR","FM-12","4","","55","78","","","","9","45","SCT:03 20","29.93","26.71","6.21","64","140","","7","","","","","","","","","","","","","","","","","","","","","","","","","","","","","","","","","","","","","","","","","","","","","","","","","","","","","","","","","","","","","","","","","","","","","","","","","","","","","","","","","","","","","","","","","","","SYN004BUFR","","","","","","","","","",""
"83184099999","2021-07-21T09:00:00","-11.2166666","-41.2166666","1005.0","MORRO DO CHAPEU, BR","FM-12","4","","59","62","","","","9","89","OVC:08 20","30.14","26.86","6.21","60","140","","11","","","","","","","","","","","","","","","","","","","","","","","","","","","","","","","","","","","","","","","","","","","","","","","","","","","","","","","","","","","","","","","","","","","","","","","","","","","","","","","","","","","","","","","","","","","SYN004BUFR","","","","","","","","","",""
"83184099999","2021-07-21T15:00:00","-11.2166666","-41.2166666","1005.0","MORRO DO CHAPEU, BR","FM-12","4","","58","72","","","","9","62","OVC:08 20","30.10","26.82","6.21","63","140","","9","","","","","","","","","","","","","","","","","","","","","","","","","","","","","","","","","","","","","","","","","","","","","","","","","","","","","","","","","","","","","","","","","","","","","","","","","","","","","","","","","","","","","","","","","","","SYN004BUFR","","","","","","","","","",""
"83184099999","2021-07-22T09:00:00","-11.2166666","-41.2166666","1005.0","MORRO DO CHAPEU, BR","FM-12","4","","61","62","","||DZ","","9","96","BKN:07 20","30.85","26.94","6.21","61","140","","9","","","","","","","","","","","","","","","","","","","","","","","","","","","","","","","","","","","","","","","","","","","","","","","","","","","","","","","","","","","","","","","","","","","","","","","","","","","","","","","","","","","","","","","","","","","SYN004BUFR","","","","","","","","","",""
"83184099999","2021-07-23T09:00:00","-11.2166666","-41.2166666","1005.0","MORRO DO CHAPEU, BR","FM-12","4","","58","60","","","","9","92","OVC:08 20","29.93","26.88","6.21","59","140","","11","","","","","","","","","","","","","","","","","","","","","","","","","","","","","","","","","","","","","","","","","","","","","","","","","","","","","","","","","","","","","","","","","","","","","","","","","","","","","","","","","","","","","","","","","","","SYN004BUFR","","","","","","","","","",""
"83184099999","2021-07-23T15:00:00","-11.2166666","-41.2166666","1005.0","MORRO DO CHAPEU, BR","FM-12","4","","55","64","","","","9","71","OVC:08 20","30.12","26.81","6.21","59","140","","11","","","","","","","","","","","","","","","","","","","","","","","","","","","","","","","","","","","","","","","","","","","","","","","","","","","","","","","","","","","","","","","","","","","","","","","","","","","","","","","","","","","","","","","","","","","SYN004BUFR","","","","","","","","","",""
"83184099999","2021-07-24T09:00:00","-11.2166666","-41.2166666","1005.0","MORRO DO CHAPEU, BR","FM-12","4","","58","59","","","","9","94","OVC:08 20","30.16","26.85","2.49","58","140","","7","","","","","","","","","","","","","","","","","","","","","","","","","","","","","","","","","","","","","","","","","","","","","","","","","","","","","","","","","","","","","","","","","","","","","","","","","","","","","","","","","","","","","","","","","","","SYN004BUFR","","","","","","","","","",""
"83184099999","2021-07-24T15:00:00","-11.2166666","-41.2166666","1005.0","MORRO DO CHAPEU, BR","FM-12","4","","61","65","","","","9","85","OVC:08 20","30.06","26.76","6.21","63","140","","7","","","","","","","","","","","","","","","","","","","","","","","","","","","","","","","","","","","","","","","","","","","","","","","","","","","","","","","","","","","","","","","","","","","","","","","","","","","","","","","","","","","","","","","","","","","SYN004BUFR","","","","","","","","","",""
"83184099999","2021-07-25T09:00:00","-11.2166666","-41.2166666","1005.0","MORRO DO CHAPEU, BR","FM-12","4","","58","59","","","","9","97","SCT:03 20","30.14","26.83","2.49","58","140","","11","","","","","","","","","","","","","","","","","","","","","","","","","","","","","","","","","","","","","","","","","","","","","","","","","","","","","","","","","","","","","","","","","","","","","","","","","","","","","","","","","","","","","","","","","","","SYN004BUFR","","","","","","","","","",""
"83184099999","2021-07-26T09:00:00","-11.2166666","-41.2166666","1005.0","MORRO DO CHAPEU, BR","FM-12","4","","60","61","","||DZ","","9","97","OVC:08 20","30.14","26.81","6.21","60","140","","9","","","","","","","","","","","","","","","","","","","","","","","","","","","","","","","","","","","","","","","","","","","","","","","","","","","","","","","","","","","","","","","","","","","","","","","","","","","","","","","","","","","","","","","","","","","SYN004BUFR","","","","","","","","","",""
"83184099999","2021-07-26T15:00:00","-11.2166666","-41.2166666","1005.0","MORRO DO CHAPEU, BR","FM-12","4","","59","71","","","","9","65","BKN:05 20","30.00","26.73","6.21","64","140","","11","","","","","","","","","","","","","","","","","","","","","","","","","","","","","","","","","","","","","","","","","","","","","","","","","","","","","","","","","","","","","","","","","","","","","","","","","","","","","","","","","","","","","","","","","","","SYN004BUFR","","","","","","","","","",""
"83184099999","2021-07-27T09:00:00","-11.2166666","-41.2166666","1005.0","MORRO DO CHAPEU, BR","FM-12","4","","63","64","","||DZ","","9","96","OVC:08 20","30.07","26.79","2.49","63","140","","7","","","","","","","","","","","","","","","","","","","","","","","","","","","","","","","","","","","","","","","","","","","","","","","","","","","","","","","","","","","","","","","","","","","","","","","","","","","","","","","","","","","","","","","","","","","SYN004BUFR","","","","","","","","","",""
"83184099999","2021-07-27T15:00:00","-11.2166666","-41.2166666","1005.0","MORRO DO CHAPEU, BR","FM-12","4","","59","74","","","","9","58","SCT:03 20","29.93","26.70","6.21","65","140","","7","","","","","","","","","","","","","","","","","","","","","","","","","","","","","","","","","","","","","","","","","","","","","","","","","","","","","","","","","","","","","","","","","","","","","","","","","","","","","","","","","","","","","","","","","","","SYN004BUFR","","","","","","","","","",""
"83184099999","2021-07-28T09:00:00","-11.2166666","-41.2166666","1005.0","MORRO DO CHAPEU, BR","FM-12","4","","62","67","","","","9","82","BKN:06 20","30.05","26.78","6.21","64","140","","7","","","","","","","","","","","","","","","","","","","","","","","","","","","","","","","","","","","","","","","","","","","","","","","","","","","","","","","","","","","","","","","","","","","","","","","","","","","","","","","","","","","","","","","","","","","SYN004BUFR","","","","","","","","","",""
"83184099999","2021-07-28T15:00:00","-11.2166666","-41.2166666","1005.0","MORRO DO CHAPEU, BR","FM-12","4","","57","79","","","","9","47","SCT:03 20","29.86","26.66","6.21","65","140","","7","","","","","","","","","","","","","","","","","","","","","","","","","","","","","","","","","","","","","","","","","","","","","","","","","","","","","","","","","","","","","","","","","","","","","","","","","","","","","","","","","","","","","","","","","","","SYN004BUFR","","","","","","","","","",""
"83184099999","2021-07-29T09:00:00","-11.2166666","-41.2166666","1005.0","MORRO DO CHAPEU, BR","FM-12","4","","60","74","","","","9","62","","29.99","26.76","6.21","65","140","","5","","","","","","","","","","","","","","","","","","","","","","","","","","","","","","","","","","","","","","","","","","","","","","","","","","","","","","","","","","","","","","","","","","","","","","","","","","","","","","","","","","","","","","","","","","","SYN004BUFR","","","","","","","","","",""
"83184099999","2021-07-29T15:00:00","-11.2166666","-41.2166666","1005.0","MORRO DO CHAPEU, BR","FM-12","4","","50","86","","","","9","29","FEW:01 20","29.85","26.66","6.21","64","140","","5","","","","","","","","","","","","","","","","","","","","","","","","","","","","","","","","","","","","","","","","","","","","","","","","","","","","","","","","","","","","","","","","","","","","","","","","","","","","","","","","","","","","","","","","","","","SYN004BUFR","","","","","","","","","",""
"83184099999","2021-07-30T09:00:00","-11.2166666","-41.2166666","1005.0","MORRO DO CHAPEU, BR","FM-12","4","","59","70","","","","9","69","BKN:06 20","30.07","26.83","6.21","63","140","","11","","","","","","","","","","","","","","","","","","","","","","","","","","","","","","","","","","","","","","","","","","","","","","","","","","","","","","","","","","","","","","","","","","","","","","","","","","","","","","","","","","","","","","","","","","","SYN004BUFR","","","","","","","","","",""
"83184099999","2021-07-31T09:00:00","-11.2166666","-41.2166666","1005.0","MORRO DO CHAPEU, BR","FM-12","4","","60","61","","","","9","95","OVC:08 20","30.18","26.89","6.21","60","140","","11","","","","","","","","","","","","","","","","","","","","","","","","","","","","","","","","","","","","","","","","","","","","","","","","","","","","","","","","","","","","","","","","","","","","","","","","","","","","","","","","","","","","","","","","","","","SYN004BUFR","","","","","","","","","",""
"83184099999","2021-07-31T15:00:00","-11.2166666","-41.2166666","1005.0","MORRO DO CHAPEU, BR","FM-12","4","","60","64","","","","9","84","OVC:08 20","30.08","26.79","6.21","62","140","","11","","","","","","","","","","","","","","","","","","","","","","","","","","","","","","","","","","","","","","","","","","","","","","","","","","","","","","","","","","","","","","","","","","","","","","","","","","","","","","","","","","","","","","","","","","","SYN004BUFR","","","","","","","","","",""
"83184099999","2021-08-01T09:00:00","-11.2166666","-41.2166666","1005.0","MORRO DO CHAPEU, BR","FM-12","4","","56","58","","","","9","93","OVC:08 20","30.28","26.95","6.21","57","140","","7","","","","","","","","","","","","","","","","","","","","","","","","","","","","","","","","","","","","","","","","","","","","","","","","","","","","","","","","","","","","","","","","","","","","","","","","","","","","","","","","","","","","","","","","","","","SYN004BUFR","","","","","","","","","",""
"83184099999","2021-08-01T15:00:00","-11.2166666","-41.2166666","1005.0","MORRO DO CHAPEU, BR","FM-12","4","","61","69","","","","9","75","BKN:06 20","30.10","26.83","6.21","64","140","","7","","","","","","","","","","","","","","","","","","","","","","","","","","","","","","","","","","","","","","","","","","","","","","","","","","","","","","","","","","","","","","","","","","","","","","","","","","","","","","","","","","","","","","","","","","","SYN004BUFR","","","","","","","","","",""
"83184099999","2021-08-02T09:00:00","-11.2166666","-41.2166666","1005.0","MORRO DO CHAPEU, BR","FM-12","4","","58","60","","","","9","91","BKN:07 20","30.21","26.88","6.21","59","140","","9","","","","","","","","","","","","","","","","","","","","","","","","","","","","","","","","","","","","","","","","","","","","","","","","","","","","","","","","","","","","","","","","","","","","","","","","","","","","","","","","","","","","","","","","","","","SYN004BUFR","","","","","","","","","",""
"83184099999","2021-08-02T15:00:00","-11.2166666","-41.2166666","1005.0","MORRO DO CHAPEU, BR","FM-12","4","","60","64","","","","9","86","BKN:07 20","30.09","26.79","6.21","62","140","","9","","","","","","","","","","","","","","","","","","","","","","","","","","","","","","","","","","","","","","","","","","","","","","","","","","","","","","","","","","","","","","","","","","","","","","","","","","","","","","","","","","","","","","","","","","","SYN004BUFR","","","","","","","","","",""
"83184099999","2021-08-04T09:00:00","-11.2166666","-41.2166666","1005.0","MORRO DO CHAPEU, BR","FM-12","4","","56","61","","","","9","82","BKN:07 20","30.18","26.88","6.21","58","140","","11","","","","","","","","","","","","","","","","","","","","","","","","","","","","","","","","","","","","","","","","","","","","","","","","","","","","","","","","","","","","","","","","","","","","","","","","","","","","","","","","","","","","","","","","","","","SYN004BUFR","","","","","","","","","",""
"83184099999","2021-08-04T15:00:00","-11.2166666","-41.2166666","1005.0","MORRO DO CHAPEU, BR","FM-12","4","","52","72","","","","9","48","SCT:04 20","30.07","26.80","6.21","60","140","","11","","","","","","","","","","","","","","","","","","","","","","","","","","","","","","","","","","","","","","","","","","","","","","","","","","","","","","","","","","","","","","","","","","","","","","","","","","","","","","","","","","","","","","","","","","","SYN004BUFR","","","","","","","","","",""
"83184099999","2021-08-05T09:00:00","-11.2166666","-41.2166666","1005.0","MORRO DO CHAPEU, BR","FM-12","4","","56","63","","","","9","77","BKN:06 20","30.22","26.91","6.21","59","140","","9","","","","","","","","","","","","","","","","","","","","","","","","","","","","","","","","","","","","","","","","","","","","","","","","","","","","","","","","","","","","","","","","","","","","","","","","","","","","","","","","","","","","","","","","","","","SYN004BUFR","","","","","","","","","",""
"83184099999","2021-08-06T09:00:00","-11.2166666","-41.2166666","1005.0","MORRO DO CHAPEU, BR","FM-12","4","","58","59","","","","9","97","BKN:06 20","30.24","26.92","2.49","58","140","","7","","","","","","","","","","","","","","","","","","","","","","","","","","","","","","","","","","","","","","","","","","","","","","","","","","","","","","","","","","","","","","","","","","","","","","","","","","","","","","","","","","","","","","","","","","","SYN004BUFR","","","","","","","","","",""
"83184099999","2021-08-07T09:00:00","-11.2166666","-41.2166666","1005.0","MORRO DO CHAPEU, BR","FM-12","4","","54","58","","","","9","85","OVC:08 20","30.21","26.89","6.21","56","140","","7","","","","","","","","","","","","","","","","","","","","","","","","","","","","","","","","","","","","","","","","","","","","","","","","","","","","","","","","","","","","","","","","","","","","","","","","","","","","","","","","","","","","","","","","","","","SYN004BUFR","","","","","","","","","",""
"83184099999","2021-08-07T15:00:00","-11.2166666","-41.2166666","1005.0","MORRO DO CHAPEU, BR","FM-12","4","","56","67","","","","9","68","OVC:08 20","29.90","26.78","6.21","60","140","","7","","","","","","","","","","","","","","","","","","","","","","","","","","","","","","","","","","","","","","","","","","","","","","","","","","","","","","","","","","","","","","","","","","","","","","","","","","","","","","","","","","","","","","","","","","","SYN004BUFR","","","","","","","","","",""
"83184099999","2021-08-08T09:00:00","-11.2166666","-41.2166666","1005.0","MORRO DO CHAPEU, BR","FM-12","4","","57","59","","","","9","93","OVC:08 20","30.17","26.85","6.21","58","140","","7","","","","","","","","","","","","","","","","","","","","","","","","","","","","","","","","","","","","","","","","","","","","","","","","","","","","","","","","","","","","","","","","","","","","","","","","","","","","","","","","","","","","","","","","","","","SYN004BUFR","","","","","","","","","",""
"83184099999","2021-08-08T15:00:00","-11.2166666","-41.2166666","1005.0","MORRO DO CHAPEU, BR","FM-12","4","","62","69","","","","9","79","BKN:06 20","30.05","26.76","6.21","65","140","","7","","","","","","","","","","","","","","","","","","","","","","","","","","","","","","","","","","","","","","","","","","","","","","","","","","","","","","","","","","","","","","","","","","","","","","","","","","","","","","","","","","","","","","","","","","","SYN004BUFR","","","","","","","","","",""
"83184099999","2021-08-09T09:00:00","-11.2166666","-41.2166666","1005.0","MORRO DO CHAPEU, BR","FM-12","4","","57","63","","","","9","82","BKN:06 20","30.18","26.87","6.21","59","140","","11","","","","","","","","","","","","","","","","","","","","","","","","","","","","","","","","","","","","","","","","","","","","","","","","","","","","","","","","","","","","","","","","","","","","","","","","","","","","","","","","","","","","","","","","","","","SYN004BUFR","","","","","","","","","",""
"83184099999","2021-08-09T15:00:00","-11.2166666","-41.2166666","1005.0","MORRO DO CHAPEU, BR","FM-12","4","","55","72","","","","9","55","SCT:03 20","30.05","26.78","6.21","62","140","","9","","","","","","","","","","","","","","","","","","","","","","","","","","","","","","","","","","","","","","","","","","","","","","","","","","","","","","","","","","","","","","","","","","","","","","","","","","","","","","","","","","","","","","","","","","","SYN004BUFR","","","","","","","","","",""
"83184099999","2021-08-10T09:00:00","-11.2166666","-41.2166666","1005.0","MORRO DO CHAPEU, BR","FM-12","4","","58","62","","","","9","86","OVC:08 20","30.16","26.87","6.21","60","140","","7","","","","","","","","","","","","","","","","","","","","","","","","","","","","","","","","","","","","","","","","","","","","","","","","","","","","","","","","","","","","","","","","","","","","","","","","","","","","","","","","","","","","","","","","","","","SYN004BUFR","","","","","","","","","",""
"83184099999","2021-08-12T09:00:00","-11.2166666","-41.2166666","1005.0","MORRO DO CHAPEU, BR","FM-12","4","","54","67","","","","9","63","FEW:01 20","30.09","26.82","6.21","59","090","","7","","","","","","","","","","","","","","","","","","","","","","","","","","","","","","","","","","","","","","","","","","","","","","","","","","","","","","","","","","","","","","","","","","","","","","","","","","","","","","","","","","","","","","","","","","","SYN004BUFR","","","","","","","","","",""
"83184099999","2021-08-12T15:00:00","-11.2166666","-41.2166666","1005.0","MORRO DO CHAPEU, BR","FM-12","4","","53","76","","","","9","44","SCT:03 20","29.96","26.72","6.21","62","140","","9","","","","","","","","","","","","","","","","","","","","","","","","","","","","","","","","","","","","","","","","","","","","","","","","","","","","","","","","","","","","","","","","","","","","","","","","","","","","","","","","","","","","","","","","","","","SYN004BUFR","","","","","","","","","",""
"83184099999","2021-08-13T09:00:00","-11.2166666","-41.2166666","1005.0","MORRO DO CHAPEU, BR","FM-12","4","","53","64","","","","9","69","BKN:06 20","30.11","26.82","6.21","58","140","","11","","","","","","","","","","","","","","","","","","","","","","","","","","","","","","","","","","","","","","","","","","","","","","","","","","","","","","","","","","","","","","","","","","","","","","","","","","","","","","","","","","","","","","","","","","","SYN004BUFR","","","","","","","","","",""
"83184099999","2021-08-13T15:00:00","-11.2166666","-41.2166666","1005.0","MORRO DO CHAPEU, BR","FM-12","4","","57","70","","","","9","63","BKN:05 20","30.03","26.76","6.21","62","140","","7","","","","","","","","","","","","","","","","","","","","","","","","","","","","","","","","","","","","","","","","","","","","","","","","","","","","","","","","","","","","","","","","","","","","","","","","","","","","","","","","","","","","","","","","","","","SYN004BUFR","","","","","","","","","",""
"83184099999","2021-08-14T09:00:00","-11.2166666","-41.2166666","1005.0","MORRO DO CHAPEU, BR","FM-12","4","","56","64","","","","9","75","BKN:05 20","30.12","26.83","6.21","59","140","","7","","","","","","","","","","","","","","","","","","","","","","","","","","","","","","","","","","","","","","","","","","","","","","","","","","","","","","","","","","","","","","","","","","","","","","","","","","","","","","","","","","","","","","","","","","","SYN004BUFR","","","","","","","","","",""
"83184099999","2021-08-14T15:00:00","-11.2166666","-41.2166666","1005.0","MORRO DO CHAPEU, BR","FM-12","4","","57","71","","","","9","62","BKN:06 20","30.05","26.77","6.21","62","140","","7","","","","","","","","","","","","","","","","","","","","","","","","","","","","","","","","","","","","","","","","","","","","","","","","","","","","","","","","","","","","","","","","","","","","","","","","","","","","","","","","","","","","","","","","","","","SYN004BUFR","","","","","","","","","",""
"83184099999","2021-08-15T09:00:00","-11.2166666","-41.2166666","1005.0","MORRO DO CHAPEU, BR","FM-12","4","","60","61","","||DZ","","9","95","BKN:06 20","30.08","26.79","2.49","60","140","","7","","","","","","","","","","","","","","","","","","","","","","","","","","","","","","","","","","","","","","","","","","","","","","","","","","","","","","","","","","","","","","","","","","","","","","","","","","","","","","","","","","","","","","","","","","","SYN004BUFR","","","","","","","","","",""
"83184099999","2021-08-16T09:00:00","-11.2166666","-41.2166666","1005.0","MORRO DO CHAPEU, BR","FM-12","4","","55","62","","","","9","78","SCT:03 20","30.09","26.79","6.21","58","140","","9","","","","","","","","","","","","","","","","","","","","","","","","","","","","","","","","","","","","","","","","","","","","","","","","","","","","","","","","","","","","","","","","","","","","","","","","","","","","","","","","","","","","","","","","","","","SYN004BUFR","","","","","","","","","",""
"83184099999","2021-08-16T15:00:00","-11.2166666","-41.2166666","1005.0","MORRO DO CHAPEU, BR","FM-12","4","","52","76","","","","9","43","SCT:03 20","29.95","26.70","6.21","62","140","","9","","","","","","","","","","","","","","","","","","","","","","","","","","","","","","","","","","","","","","","","","","","","","","","","","","","","","","","","","","","","","","","","","","","","","","","","","","","","","","","","","","","","","","","","","","","SYN004BUFR","","","","","","","","","",""
"83184099999","2021-08-17T09:00:00","-11.2166666","-41.2166666","1005.0","MORRO DO CHAPEU, BR","FM-12","4","","53","63","","","","9","70","BKN:06 20","30.13","26.85","6.21","57","140","","11","","","","","","","","","","","","","","","","","","","","","","","","","","","","","","","","","","","","","","","","","","","","","","","","","","","","","","","","","","","","","","","","","","","","","","","","","","","","","","","","","","","","","","","","","","","SYN004BUFR","","","","","","","","","",""
"83184099999","2021-08-17T15:00:00","-11.2166666","-41.2166666","1005.0","MORRO DO CHAPEU, BR","FM-12","4","","51","76","","","","9","41","SCT:03 20","29.99","26.75","6.21","61","140","","11","","","","","","","","","","","","","","","","","","","","","","","","","","","","","","","","","","","","","","","","","","","","","","","","","","","","","","","","","","","","","","","","","","","","","","","","","","","","","","","","","","","","","","","","","","","SYN004BUFR","","","","","","","","","",""
"83184099999","2021-08-18T09:00:00","-11.2166666","-41.2166666","1005.0","MORRO DO CHAPEU, BR","FM-12","4","","62","66","","","","9","89","BKN:06 20","30.11","26.84","6.21","63","140","","11","","","","","","","","","","","","","","","","","","","","","","","","","","","","","","","","","","","","","","","","","","","","","","","","","","","","","","","","","","","","","","","","","","","","","","","","","","","","","","","","","","","","","","","","","","","SYN004BUFR","","","","","","","","","",""
"83184099999","2021-08-18T15:00:00","-11.2166666","-41.2166666","1005.0","MORRO DO CHAPEU, BR","FM-12","4","","58","68","","","","9","70","BKN:05 20","30.04","26.77","6.21","62","140","","11","","","","","","","","","","","","","","","","","","","","","","","","","","","","","","","","","","","","","","","","","","","","","","","","","","","","","","","","","","","","","","","","","","","","","","","","","","","","","","","","","","","","","","","","","","","SYN004BUFR","","","","","","","","","",""
"83184099999","2021-08-19T09:00:00","-11.2166666","-41.2166666","1005.0","MORRO DO CHAPEU, BR","FM-12","4","","58","63","","","","9","86","BKN:06 20","30.10","26.81","6.21","60","140","","11","","","","","","","","","","","","","","","","","","","","","","","","","","","","","","","","","","","","","","","","","","","","","","","","","","","","","","","","","","","","","","","","","","","","","","","","","","","","","","","","","","","","","","","","","","","SYN004BUFR","","","","","","","","","",""
"83184099999","2021-08-19T15:00:00","-11.2166666","-41.2166666","1005.0","MORRO DO CHAPEU, BR","FM-12","4","","50","74","","","","9","42","BKN:05 20","29.93","26.69","6.21","60","140","","11","","","","","","","","","","","","","","","","","","","","","","","","","","","","","","","","","","","","","","","","","","","","","","","","","","","","","","","","","","","","","","","","","","","","","","","","","","","","","","","","","","","","","","","","","","","SYN004BUFR","","","","","","","","","",""
"83184099999","2021-08-20T09:00:00","-11.2166666","-41.2166666","1005.0","MORRO DO CHAPEU, BR","FM-12","4","","55","65","","","","9","69","BKN:06 20","30.07","26.80","6.21","59","140","","11","","","","","","","","","","","","","","","","","","","","","","","","","","","","","","","","","","","","","","","","","","","","","","","","","","","","","","","","","","","","","","","","","","","","","","","","","","","","","","","","","","","","","","","","","","","SYN004BUFR","","","","","","","","","",""
"83184099999","2021-08-21T09:00:00","-11.2166666","-41.2166666","1005.0","MORRO DO CHAPEU, BR","FM-12","4","","60","63","","","","9","89","OVC:08 20","30.07","26.82","6.21","61","140","","7","","","","","","","","","","","","","","","","","","","","","","","","","","","","","","","","","","","","","","","","","","","","","","","","","","","","","","","","","","","","","","","","","","","","","","","","","","","","","","","","","","","","","","","","","","","SYN004BUFR","","","","","","","","","",""
"83184099999","2021-08-22T09:00:00","-11.2166666","-41.2166666","1005.0","MORRO DO CHAPEU, BR","FM-12","4","","60","62","","","","9","96","OVC:08 20","30.06","26.77","6.21","61","140","","7","","","","","","","","","","","","","","","","","","","","","","","","","","","","","","","","","","","","","","","","","","","","","","","","","","","","","","","","","","","","","","","","","","","","","","","","","","","","","","","","","","","","","","","","","","","SYN004BUFR","","","","","","","","","",""
"83184099999","2021-08-22T15:00:00","-11.2166666","-41.2166666","1005.0","MORRO DO CHAPEU, BR","FM-12","4","","61","76","","","","9","60","BKN:05 20","30.01","26.67","6.21","66","140","","7","","","","","","","","","","","","","","","","","","","","","","","","","","","","","","","","","","","","","","","","","","","","","","","","","","","","","","","","","","","","","","","","","","","","","","","","","","","","","","","","","","","","","","","","","","","SYN004BUFR","","","","","","","","","",""
"83184099999","2021-08-23T09:00:00","-11.2166666","-41.2166666","1005.0","MORRO DO CHAPEU, BR","FM-12","4","","62","64","","","","9","93","BKN:07 20","30.02","26.75","6.21","63","140","","7","","","","","","","","","","","","","","","","","","","","","","","","","","","","","","","","","","","","","","","","","","","","","","","","","","","","","","","","","","","","","","","","","","","","","","","","","","","","","","","","","","","","","","","","","","","SYN004BUFR","","","","","","","","","",""
"83184099999","2021-08-23T15:00:00","-11.2166666","-41.2166666","1005.0","MORRO DO CHAPEU, BR","FM-12","4","","64","67","","||DZ","","9","93","BKN:05 20","29.93","26.67","6.21","65","140","","9","","","","","","","","","","","","","","","","","","","","","","","","","","","","","","","","","","","","","","","","","","","","","","","","","","","","","","","","","","","","","","","","","","","","","","","","","","","","","","","","","","","","","","","","","","","SYN004BUFR","","","","","","","","","",""
"83184099999","2021-08-23T21:00:00","-11.2166666","-41.2166666","1005.0","MORRO DO CHAPEU, BR","FM-12","4","","60","62","","","","9","93","BKN:06 20","29.99","26.71","2.49","61","140","","7","","","","","","","","","","","","","","","","","","","","","","","","","","","","","","","","","","","","","","","","","","","","","","","","","","","","","","","","","","","","","","","","","","","","","","","","","","","","","","","","","","","","","","","","","","","SYN004BUFR","","","","","","","","","",""
"83184099999","2021-08-24T09:00:00","-11.2166666","-41.2166666","1005.0","MORRO DO CHAPEU, BR","FM-12","4","","59","63","","","","9","86","BKN:06 20","30.02","26.74","6.21","61","140","","9","","","","","","","","","","","","","","","","","","","","","","","","","","","","","","","","","","","","","","","","","","","","","","","","","","","","","","","","","","","","","","","","","","","","","","","","","","","","","","","","","","","","","","","","","","","SYN004BUFR","","","","","","","","","",""
"83184099999","2021-08-25T09:00:00","-11.2166666","-41.2166666","1005.0","MORRO DO CHAPEU, BR","FM-12","4","","58","65","","","","9","78","BKN:05 20","29.99","26.73","6.21","61","140","","7","","","","","","","","","","","","","","","","","","","","","","","","","","","","","","","","","","","","","","","","","","","","","","","","","","","","","","","","","","","","","","","","","","","","","","","","","","","","","","","","","","","","","","","","","","","SYN004BUFR","","","","","","","","","",""
"83184099999","2021-08-25T15:00:00","-11.2166666","-41.2166666","1005.0","MORRO DO CHAPEU, BR","FM-12","4","","54","78","","","","9","43","SCT:03 20","29.82","26.61","6.21","63","140","","9","","","","","","","","","","","","","","","","","","","","","","","","","","","","","","","","","","","","","","","","","","","","","","","","","","","","","","","","","","","","","","","","","","","","","","","","","","","","","","","","","","","","","","","","","","","SYN004BUFR","","","","","","","","","",""
"83184099999","2021-08-26T09:00:00","-11.2166666","-41.2166666","1005.0","MORRO DO CHAPEU, BR","FM-12","4","","59","65","","","","9","80","BKN:07 20","30.03","26.76","6.21","61","140","","9","","","","","","","","","","","","","","","","","","","","","","","","","","","","","","","","","","","","","","","","","","","","","","","","","","","","","","","","","","","","","","","","","","","","","","","","","","","","","","","","","","","","","","","","","","","SYN004BUFR","","","","","","","","","",""
"83184099999","2021-08-26T15:00:00","-11.2166666","-41.2166666","1005.0","MORRO DO CHAPEU, BR","FM-12","4","","56","78","","","","9","47","SCT:03 20","29.85","26.64","6.21","64","140","","5","","","","","","","","","","","","","","","","","","","","","","","","","","","","","","","","","","","","","","","","","","","","","","","","","","","","","","","","","","","","","","","","","","","","","","","","","","","","","","","","","","","","","","","","","","","SYN004BUFR","","","","","","","","","",""
"83184099999","2021-08-27T15:00:00","-11.2166666","-41.2166666","1005.0","MORRO DO CHAPEU, BR","FM-12","4","","54","78","","","","9","43","SCT:04 20","29.91","26.96","6.21","63","140","","7","","","","","","","","","","","","","","","","","","","","","","","","","","","","","","","","","","","","","","","","","","","","","","","","","","","","","","","","","","","","","","","","","","","","","","","","","","","","","","","","","","","","","","","","","","","SYN004BUFR","","","","","","","","","",""
"83184099999","2021-08-28T09:00:00","-11.2166666","-41.2166666","1005.0","MORRO DO CHAPEU, BR","FM-12","4","","61","63","","","","9","93","OVC:08 20","30.06","26.79","6.21","62","140","","11","","","","","","","","","","","","","","","","","","","","","","","","","","","","","","","","","","","","","","","","","","","","","","","","","","","","","","","","","","","","","","","","","","","","","","","","","","","","","","","","","","","","","","","","","","","SYN004BUFR","","","","","","","","","",""
"83184099999","2021-08-29T09:00:00","-11.2166666","-41.2166666","1005.0","MORRO DO CHAPEU, BR","FM-12","4","","60","64","","","","9","84","OVC:08 20","30.03","26.78","2.49","62","140","","11","","","","","","","","","","","","","","","","","","","","","","","","","","","","","","","","","","","","","","","","","","","","","","","","","","","","","","","","","","","","","","","","","","","","","","","","","","","","","","","","","","","","","","","","","","","SYN004BUFR","","","","","","","","","",""
"83184099999","2021-08-30T09:00:00","-11.2166666","-41.2166666","1005.0","MORRO DO CHAPEU, BR","FM-12","4","","59","66","","","","9","80","BKN:06 20","30.03","26.77","6.21","62","140","","9","","","","","","","","","","","","","","","","","","","","","","","","","","","","","","","","","","","","","","","","","","","","","","","","","","","","","","","","","","","","","","","","","","","","","","","","","","","","","","","","","","","","","","","","","","","SYN004BUFR","","","","","","","","","",""
"83184099999","2021-08-30T15:00:00","-11.2166666","-41.2166666","1005.0","MORRO DO CHAPEU, BR","FM-12","4","","56","78","","","","9","47","SCT:03 20","29.86","26.65","6.21","64","140","","9","","","","","","","","","","","","","","","","","","","","","","","","","","","","","","","","","","","","","","","","","","","","","","","","","","","","","","","","","","","","","","","","","","","","","","","","","","","","","","","","","","","","","","","","","","","SYN004BUFR","","","","","","","","","",""
"83184099999","2021-08-31T09:00:00","-11.2166666","-41.2166666","1005.0","MORRO DO CHAPEU, BR","FM-12","4","","61","64","","","","9","90","BKN:07 20","30.04","26.77","6.21","62","140","","11","","","","","","","","","","","","","","","","","","","","","","","","","","","","","","","","","","","","","","","","","","","","","","","","","","","","","","","","","","","","","","","","","","","","","","","","","","","","","","","","","","","","","","","","","","","SYN004BUFR","","","","","","","","","",""
"83184099999","2021-09-01T09:00:00","-11.2166666","-41.2166666","1005.0","MORRO DO CHAPEU, BR","FM-12","4","","63","65","","","","9","93","OVC:08 20","30.03","26.77","6.21","64","140","","9","","","","","","","","","","","","","","","","","","","","","","","","","","","","","","","","","","","","","","","","","","","","","","","","","","","","","","","","","","","","","","","","","","","","","","","","","","","","","","","","","","","","","","","","","","","SYN004BUFR","","","","","","","","","",""
"83184099999","2021-09-01T15:00:00","-11.2166666","-41.2166666","1005.0","MORRO DO CHAPEU, BR","FM-12","4","","60","74","","","","9","62","BKN:06 20","29.90","26.67","6.21","65","140","","11","","","","","","","","","","","","","","","","","","","","","","","","","","","","","","","","","","","","","","","","","","","","","","","","","","","","","","","","","","","","","","","","","","","","","","","","","","","","","","","","","","","","","","","","","","","SYN004BUFR","","","","","","","","","",""
"83184099999","2021-09-02T09:00:00","-11.2166666","-41.2166666","1005.0","MORRO DO CHAPEU, BR","FM-12","4","","59","64","","","","9","85","BKN:07 20","30.09","26.80","6.21","61","090","","9","","","","","","","","","","","","","","","","","","","","","","","","","","","","","","","","","","","","","","","","","","","","","","","","","","","","","","","","","","","","","","","","","","","","","","","","","","","","","","","","","","","","","","","","","","","SYN004BUFR","","","","","","","","","",""
"83184099999","2021-09-02T15:00:00","-11.2166666","-41.2166666","1005.0","MORRO DO CHAPEU, BR","FM-12","4","","60","73","","","","9","64","BKN:06 20","29.94","26.70","6.21","65","140","","7","","","","","","","","","","","","","","","","","","","","","","","","","","","","","","","","","","","","","","","","","","","","","","","","","","","","","","","","","","","","","","","","","","","","","","","","","","","","","","","","","","","","","","","","","","","SYN004BUFR","","","","","","","","","",""
"83184099999","2021-09-03T09:00:00","-11.2166666","-41.2166666","1005.0","MORRO DO CHAPEU, BR","FM-12","4","","58","63","","","","9","82","OVC:08 20","30.08","26.79","6.21","60","140","","7","","","","","","","","","","","","","","","","","","","","","","","","","","","","","","","","","","","","","","","","","","","","","","","","","","","","","","","","","","","","","","","","","","","","","","","","","","","","","","","","","","","","","","","","","","","SYN004BUFR","","","","","","","","","",""
"83184099999","2021-09-04T09:00:00","-11.2166666","-41.2166666","1005.0","MORRO DO CHAPEU, BR","FM-12","4","","63","64","","","","9","96","OVC:08 20","30.03","26.76","6.21","63","140","","7","","","","","","","","","","","","","","","","","","","","","","","","","","","","","","","","","","","","","","","","","","","","","","","","","","","","","","","","","","","","","","","","","","","","","","","","","","","","","","","","","","","","","","","","","","","SYN004BUFR","","","","","","","","","",""
"83184099999","2021-09-05T09:00:00","-11.2166666","-41.2166666","1005.0","MORRO DO CHAPEU, BR","FM-12","4","","64","67","","","","9","88","OVC:08 20","30.04","26.77","6.21","65","140","","7","","","","","","","","","","","","","","","","","","","","","","","","","","","","","","","","","","","","","","","","","","","","","","","","","","","","","","","","","","","","","","","","","","","","","","","","","","","","","","","","","","","","","","","","","","","SYN004BUFR","","","","","","","","","",""
"83184099999","2021-09-06T09:00:00","-11.2166666","-41.2166666","1005.0","MORRO DO CHAPEU, BR","FM-12","4","","63","66","","","","9","91","OVC:08 20","30.01","26.77","6.21","64","140","","7","","","","","","","","","","","","","","","","","","","","","","","","","","","","","","","","","","","","","","","","","","","","","","","","","","","","","","","","","","","","","","","","","","","","","","","","","","","","","","","","","","","","","","","","","","","SYN004BUFR","","","","","","","","","",""
"83184099999","2021-09-06T15:00:00","-11.2166666","-41.2166666","1005.0","MORRO DO CHAPEU, BR","FM-12","4","","56","85","","","","9","37","FEW:01 20","29.81","26.64","6.21","66","140","","9","","","","","","","","","","","","","","","","","","","","","","","","","","","","","","","","","","","","","","","","","","","","","","","","","","","","","","","","","","","","","","","","","","","","","","","","","","","","","","","","","","","","","","","","","","","SYN004BUFR","","","","","","","","","",""
"83184099999","2021-09-07T09:00:00","-11.2166666","-41.2166666","1005.0","MORRO DO CHAPEU, BR","FM-12","4","","59","71","","","","9","67","SCT:04 20","29.97","26.74","6.21","64","140","","9","","","","","","","","","","","","","","","","","","","","","","","","","","","","","","","","","","","","","","","","","","","","","","","","","","","","","","","","","","","","","","","","","","","","","","","","","","","","","","","","","","","","","","","","","","","SYN004BUFR","","","","","","","","","",""
"83184099999","2021-09-07T15:00:00","-11.2166666","-41.2166666","1005.0","MORRO DO CHAPEU, BR","FM-12","4","","57","82","","","","9","43","FEW:02 20","29.84","26.66","6.21","66","140","","11","","","","","","","","","","","","","","","","","","","","","","","","","","","","","","","","","","","","","","","","","","","","","","","","","","","","","","","","","","","","","","","","","","","","","","","","","","","","","","","","","","","","","","","","","","","SYN004BUFR","","","","","","","","","",""
"83184099999","2021-09-08T09:00:00","-11.2166666","-41.2166666","1005.0","MORRO DO CHAPEU, BR","FM-12","4","","59","66","","","","9","78","OVC:08 20","30.02","26.77","6.21","62","140","","9","","","","","","","","","","","","","","","","","","","","","","","","","","","","","","","","","","","","","","","","","","","","","","","","","","","","","","","","","","","","","","","","","","","","","","","","","","","","","","","","","","","","","","","","","","","SYN004BUFR","","","","","","","","","",""
"83184099999","2021-09-09T09:00:00","-11.2166666","-41.2166666","1005.0","MORRO DO CHAPEU, BR","FM-12","4","","59","67","","","","9","76","OVC:08 20","30.03","26.77","6.21","62","140","","11","","","","","","","","","","","","","","","","","","","","","","","","","","","","","","","","","","","","","","","","","","","","","","","","","","","","","","","","","","","","","","","","","","","","","","","","","","","","","","","","","","","","","","","","","","","SYN004BUFR","","","","","","","","","",""
"83184099999","2021-09-09T15:00:00","-11.2166666","-41.2166666","1005.0","MORRO DO CHAPEU, BR","FM-12","4","","52","83","","","","9","34","FEW:01 20","29.85","26.66","6.21","64","140","","7","","","","","","","","","","","","","","","","","","","","","","","","","","","","","","","","","","","","","","","","","","","","","","","","","","","","","","","","","","","","","","","","","","","","","","","","","","","","","","","","","","","","","","","","","","","SYN004BUFR","","","","","","","","","",""
"83184099999","2021-09-10T09:00:00","-11.2166666","-41.2166666","1005.0","MORRO DO CHAPEU, BR","FM-12","4","","59","72","","","","9","63","","29.98","26.77","6.21","64","140","","7","","","","","","","","","","","","","","","","","","","","","","","","","","","","","","","","","","","","","","","","","","","","","","","","","","","","","","","","","","","","","","","","","","","","","","","","","","","","","","","","","","","","","","","","","","","SYN004BUFR","","","","","","","","","",""
"83184099999","2021-09-11T09:00:00","-11.2166666","-41.2166666","1005.0","MORRO DO CHAPEU, BR","FM-12","4","","57","67","","","","9","71","SCT:03 20","30.04","26.80","6.21","61","140","","7","","","","","","","","","","","","","","","","","","","","","","","","","","","","","","","","","","","","","","","","","","","","","","","","","","","","","","","","","","","","","","","","","","","","","","","","","","","","","","","","","","","","","","","","","","","SYN004BUFR","","","","","","","","","",""
"83184099999","2021-09-12T09:00:00","-11.2166666","-41.2166666","1005.0","MORRO DO CHAPEU, BR","FM-12","4","","58","67","","","","9","72","BKN:06 20","30.09","26.84","6.21","62","140","","7","","","","","","","","","","","","","","","","","","","","","","","","","","","","","","","","","","","","","","","","","","","","","","","","","","","","","","","","","","","","","","","","","","","","","","","","","","","","","","","","","","","","","","","","","","","SYN004BUFR","","","","","","","","","",""
"83184099999","2021-09-12T15:00:00","-11.2166666","-41.2166666","1005.0","MORRO DO CHAPEU, BR","FM-12","4","","54","79","","","","9","42","SCT:04 20","29.89","26.69","6.21","64","140","","7","","","","","","","","","","","","","","","","","","","","","","","","","","","","","","","","","","","","","","","","","","","","","","","","","","","","","","","","","","","","","","","","","","","","","","","","","","","","","","","","","","","","","","","","","","","SYN004BUFR","","","","","","","","","",""
"83184099999","2021-09-13T09:00:00","-11.2166666","-41.2166666","1005.0","MORRO DO CHAPEU, BR","FM-12","4","","60","69","","","","9","74","BKN:07 20","30.05","26.81","6.21","63","140","","9","","","","","","","","","","","","","","","","","","","","","","","","","","","","","","","","","","","","","","","","","","","","","","","","","","","","","","","","","","","","","","","","","","","","","","","","","","","","","","","","","","","","","","","","","","","SYN004BUFR","","","","","","","","","",""
"83184099999","2021-09-14T09:00:00","-11.2166666","-41.2166666","1005.0","MORRO DO CHAPEU, BR","FM-12","4","","58","69","","","","9","66","BKN:05 20","30.01","26.77","6.21","62","090","","11","","","","","","","","","","","","","","","","","","","","","","","","","","","","","","","","","","","","","","","","","","","","","","","","","","","","","","","","","","","","","","","","","","","","","","","","","","","","","","","","","","","","","","","","","","","SYN004BUFR","","","","","","","","","",""
"83184099999","2021-09-14T15:00:00","-11.2166666","-41.2166666","1005.0","MORRO DO CHAPEU, BR","FM-12","4","","66","81","","","","9","61","262","29.89","26.70","6.21","71","140","","11","","","","","","","","","","","","","","","","","","","","","","","","","","","","","","","","","","","","","","","","","","","","","","","","","","","","","","","","","","","","","","","","","","","","","","","","","","","","","","","","","","","","","","","","","","","SYN004BUFR","","","","","","","","","",""
"83184099999","2021-09-15T09:00:00","-11.2166666","-41.2166666","1005.0","MORRO DO CHAPEU, BR","FM-12","4","","59","69","","","","9","71","BKN:05 20","30.06","26.82","6.21","63","140","","11","","","","","","","","","","","","","","","","","","","","","","","","","","","","","","","","","","","","","","","","","","","","","","","","","","","","","","","","","","","","","","","","","","","","","","","","","","","","","","","","","","","","","","","","","","","SYN004BUFR","","","","","","","","","",""
"83184099999","2021-09-16T09:00:00","-11.2166666","-41.2166666","1005.0","MORRO DO CHAPEU, BR","FM-12","4","","59","72","","","","9","63","FEW:02 20","30.08","26.85","6.21","64","140","","11","","","","","","","","","","","","","","","","","","","","","","","","","","","","","","","","","","","","","","","","","","","","","","","","","","","","","","","","","","","","","","","","","","","","","","","","","","","","","","","","","","","","","","","","","","","SYN004BUFR","","","","","","","","","",""
"83184099999","2021-09-16T15:00:00","-11.2166666","-41.2166666","1005.0","MORRO DO CHAPEU, BR","FM-12","4","","49","83","","","","9","31","FEW:01 20","29.94","26.74","6.21","63","140","","11","","","","","","","","","","","","","","","","","","","","","","","","","","","","","","","","","","","","","","","","","","","","","","","","","","","","","","","","","","","","","","","","","","","","","","","","","","","","","","","","","","","","","","","","","","","SYN004BUFR","","","","","","","","","",""
"83184099999","2021-09-17T09:00:00","-11.2166666","-41.2166666","1005.0","MORRO DO CHAPEU, BR","FM-12","4","","57","68","","","","9","67","BKN:06 20","30.09","26.84","6.21","61","140","","11","","","","","","","","","","","","","","","","","","","","","","","","","","","","","","","","","","","","","","","","","","","","","","","","","","","","","","","","","","","","","","","","","","","","","","","","","","","","","","","","","","","","","","","","","","","SYN004BUFR","","","","","","","","","",""
"83184099999","2021-09-18T09:00:00","-11.2166666","-41.2166666","1005.0","MORRO DO CHAPEU, BR","FM-12","4","","56","69","","","","9","62","SCT:04 20","30.03","26.79","6.21","61","140","","7","","","","","","","","","","","","","","","","","","","","","","","","","","","","","","","","","","","","","","","","","","","","","","","","","","","","","","","","","","","","","","","","","","","","","","","","","","","","","","","","","","","","","","","","","","","SYN004BUFR","","","","","","","","","",""
"83184099999","2021-09-19T15:00:00","-11.2166666","-41.2166666","1005.0","MORRO DO CHAPEU, BR","FM-12","4","","48","82","","","","9","30","","29.87","26.66","6.21","62","140","","5","","","","","","","","","","","","","","","","","","","","","","","","","","","","","","","","","","","","","","","","","","","","","","","","","","","","","","","","","","","","","","","","","","","","","","","","","","","","","","","","","","","","","","","","","","","SYN004BUFR","","","","","","","","","",""
"83184099999","2021-09-20T09:00:00","-11.2166666","-41.2166666","1005.0","MORRO DO CHAPEU, BR","FM-12","4","","58","66","","","","9","76","BKN:07 20","29.99","26.77","6.21","61","140","","7","","","","","","","","","","","","","","","","","","","","","","","","","","","","","","","","","","","","","","","","","","","","","","","","","","","","","","","","","","","","","","","","","","","","","","","","","","","","","","","","","","","","","","","","","","","SYN004BUFR","","","","","","","","","",""
"83184099999","2021-09-20T15:00:00","-11.2166666","-41.2166666","1005.0","MORRO DO CHAPEU, BR","FM-12","4","","54","82","","","","9","38","262","29.85","26.66","6.21","65","140","","11","","","","","","","","","","","","","","","","","","","","","","","","","","","","","","","","","","","","","","","","","","","","","","","","","","","","","","","","","","","","","","","","","","","","","","","","","","","","","","","","","","","","","","","","","","","SYN004BUFR","","","","","","","","","",""
"83184099999","2021-09-21T09:00:00","-11.2166666","-41.2166666","1005.0","MORRO DO CHAPEU, BR","FM-12","4","","59","72","","","","9","62","FEW:02 20","29.98","26.76","6.21","64","140","","9","","","","","","","","","","","","","","","","","","","","","","","","","","","","","","","","","","","","","","","","","","","","","","","","","","","","","","","","","","","","","","","","","","","","","","","","","","","","","","","","","","","","","","","","","","","SYN004BUFR","","","","","","","","","",""
"83184099999","2021-09-21T15:00:00","-11.2166666","-41.2166666","1005.0","MORRO DO CHAPEU, BR","FM-12","4","","50","85","","","","9","30","FEW:02 20","29.78","26.61","6.21","64","090","","7","","","","","","","","","","","","","","","","","","","","","","","","","","","","","","","","","","","","","","","","","","","","","","","","","","","","","","","","","","","","","","","","","","","","","","","","","","","","","","","","","","","","","","","","","","","SYN004BUFR","","","","","","","","","",""
"83184099999","2021-09-22T09:00:00","-11.2166666","-41.2166666","1005.0","MORRO DO CHAPEU, BR","FM-12","4","","54","83","","","","9","37","","29.78","26.63","6.21","65","090","","7","","","","","","","","","","","","","","","","","","","","","","","","","","","","","","","","","","","","","","","","","","","","","","","","","","","","","","","","","","","","","","","","","","","","","","","","","","","","","","","","","","","","","","","","","","","SYN004BUFR","","","","","","","","","",""
"83184099999","2021-09-22T15:00:00","-11.2166666","-41.2166666","1005.0","MORRO DO CHAPEU, BR","FM-12","4","","43","94","","","","9","17","262","29.67","26.54","6.21","64","140","","9","","","","","","","","","","","","","","","","","","","","","","","","","","","","","","","","","","","","","","","","","","","","","","","","","","","","","","","","","","","","","","","","","","","","","","","","","","","","","","","","","","","","","","","","","","","SYN004BUFR","","","","","","","","","",""
"83184099999","2021-09-23T09:00:00","-11.2166666","-41.2166666","1005.0","MORRO DO CHAPEU, BR","FM-12","4","","61","71","","","","9","71","BKN:07 20","29.96","26.77","6.21","65","140","","9","","","","","","","","","","","","","","","","","","","","","","","","","","","","","","","","","","","","","","","","","","","","","","","","","","","","","","","","","","","","","","","","","","","","","","","","","","","","","","","","","","","","","","","","","","","SYN004BUFR","","","","","","","","","",""
"83184099999","2021-09-23T15:00:00","-11.2166666","-41.2166666","1005.0","MORRO DO CHAPEU, BR","FM-12","4","","62","75","","","","9","64","BKN:06 20","29.91","26.70","6.21","67","140","","14","","","","","","","","","","","","","","","","","","","","","","","","","","","","","","","","","","","","","","","","","","","","","","","","","","","","","","","","","","","","","","","","","","","","","","","","","","","","","","","","","","","","","","","","","","","SYN004BUFR","","","","","","","","","",""
"83184099999","2021-09-24T09:00:00","-11.2166666","-41.2166666","1005.0","MORRO DO CHAPEU, BR","FM-12","4","","60","62","","","","9","94","BKN:06 20","30.10","26.82","2.49","61","140","","7","","","","","","","","","","","","","","","","","","","","","","","","","","","","","","","","","","","","","","","","","","","","","","","","","","","","","","","","","","","","","","","","","","","","","","","","","","","","","","","","","","","","","","","","","","","SYN004BUFR","","","","","","","","","",""
"83184099999","2021-09-25T09:00:00","-11.2166666","-41.2166666","1005.0","MORRO DO CHAPEU, BR","FM-12","4","","60","62","","","","9","94","OVC:08 20","30.10","26.82","6.21","61","140","","7","","","","","","","","","","","","","","","","","","","","","","","","","","","","","","","","","","","","","","","","","","","","","","","","","","","","","","","","","","","","","","","","","","","","","","","","","","","","","","","","","","","","","","","","","","","SYN004BUFR","","","","","","","","","",""
"83184099999","2021-09-26T09:00:00","-11.2166666","-41.2166666","1005.0","MORRO DO CHAPEU, BR","FM-12","4","","61","66","","","","9","85","OVC:08 20","30.11","26.83","6.21","63","140","","7","","","","","","","","","","","","","","","","","","","","","","","","","","","","","","","","","","","","","","","","","","","","","","","","","","","","","","","","","","","","","","","","","","","","","","","","","","","","","","","","","","","","","","","","","","","SYN004BUFR","","","","","","","","","",""
"83184099999","2021-09-27T09:00:00","-11.2166666","-41.2166666","1005.0","MORRO DO CHAPEU, BR","FM-12","4","","62","67","","","","9","81","BKN:07 20","30.08","26.82","6.21","64","140","","11","","","","","","","","","","","","","","","","","","","","","","","","","","","","","","","","","","","","","","","","","","","","","","","","","","","","","","","","","","","","","","","","","","","","","","","","","","","","","","","","","","","","","","","","","","","SYN004BUFR","","","","","","","","","",""
"83184099999","2021-09-27T15:00:00","-11.2166666","-41.2166666","1005.0","MORRO DO CHAPEU, BR","FM-12","4","","53","82","","","","9","37","FEW:02 20","29.89","26.70","6.21","64","140","","9","","","","","","","","","","","","","","","","","","","","","","","","","","","","","","","","","","","","","","","","","","","","","","","","","","","","","","","","","","","","","","","","","","","","","","","","","","","","","","","","","","","","","","","","","","","SYN004BUFR","","","","","","","","","",""
"83184099999","2021-09-28T09:00:00","-11.2166666","-41.2166666","1005.0","MORRO DO CHAPEU, BR","FM-12","4","","58","68","","","","9","70","BKN:06 20","30.03","26.80","6.21","62","140","","9","","","","","","","","","","","","","","","","","","","","","","","","","","","","","","","","","","","","","","","","","","","","","","","","","","","","","","","","","","","","","","","","","","","","","","","","","","","","","","","","","","","","","","","","","","","SYN004BUFR","","","","","","","","","",""
"83184099999","2021-09-28T15:00:00","-11.2166666","-41.2166666","1005.0","MORRO DO CHAPEU, BR","FM-12","4","","54","82","","","","9","39","262","29.85","26.66","6.21","65","140","","9","","","","","","","","","","","","","","","","","","","","","","","","","","","","","","","","","","","","","","","","","","","","","","","","","","","","","","","","","","","","","","","","","","","","","","","","","","","","","","","","","","","","","","","","","","","SYN004BUFR","","","","","","","","","",""
"83184099999","2021-09-29T09:00:00","-11.2166666","-41.2166666","1005.0","MORRO DO CHAPEU, BR","FM-12","4","","57","72","","","","9","60","FEW:02 20","29.98","26.75","6.21","63","140","","9","","","","","","","","","","","","","","","","","","","","","","","","","","","","","","","","","","","","","","","","","","","","","","","","","","","","","","","","","","","","","","","","","","","","","","","","","","","","","","","","","","","","","","","","","","","SYN004BUFR","","","","","","","","","",""
"83184099999","2021-09-29T15:00:00","-11.2166666","-41.2166666","1005.0","MORRO DO CHAPEU, BR","FM-12","4","","54","83","","","","9","37","20","29.80","26.62","6.21","65","140","","7","","","","","","","","","","","","","","","","","","","","","","","","","","","","","","","","","","","","","","","","","","","","","","","","","","","","","","","","","","","","","","","","","","","","","","","","","","","","","","","","","","","","","","","","","","","SYN004BUFR","","","","","","","","","",""
"83184099999","2021-09-29T21:00:00","-11.2166666","-41.2166666","1005.0","MORRO DO CHAPEU, BR","FM-12","4","","57","69","","","","9","64","","29.88","26.67","1.24","62","140","","7","","","","","","","","","","","","","","","","","","","","","","","","","","","","","","","","","","","","","","","","","","","","","","","","","","","","","","","","","","","","","","","","","","","","","","","","","","","","","","","","","","","","","","","","","","","SYN004BUFR","","","","","","","","","",""
"83184099999","2021-09-30T09:00:00","-11.2166666","-41.2166666","1005.0","MORRO DO CHAPEU, BR","FM-12","4","","60","69","","","","9","73","SCT:03 20","29.95","26.71","6.21","63","140","","7","","","","","","","","","","","","","","","","","","","","","","","","","","","","","","","","","","","","","","","","","","","","","","","","","","","","","","","","","","","","","","","","","","","","","","","","","","","","","","","","","","","","","","","","","","","SYN004BUFR","","","","","","","","","",""
"83184099999","2021-09-30T15:00:00","-11.2166666","-41.2166666","1005.0","MORRO DO CHAPEU, BR","FM-12","4","","48","86","","","","9","27","FEW:01 20","29.75","26.59","6.21","63","140","","7","","","","","","","","","","","","","","","","","","","","","","","","","","","","","","","","","","","","","","","","","","","","","","","","","","","","","","","","","","","","","","","","","","","","","","","","","","","","","","","","","","","","","","","","","","","SYN004BUFR","","","","","","","","","",""
"83184099999","2021-10-01T09:00:00","-11.2166666","-41.2166666","1005.0","MORRO DO CHAPEU, BR","FM-12","4","","60","73","","","","9","64","BKN:05 20","29.92","26.72","6.21","65","140","","7","","","","","","","","","","","","","","","","","","","","","","","","","","","","","","","","","","","","","","","","","","","","","","","","","","","","","","","","","","","","","","","","","","","","","","","","","","","","","","","","","","","","","","","","","","","SYN004BUFR","","","","","","","","","",""
"83184099999","2021-10-01T21:00:00","-11.2166666","-41.2166666","1005.0","MORRO DO CHAPEU, BR","FM-12","4","","59","74","","","","9","59","","29.86","26.68","2.49","65","360","","0","","","","","","","","","","","","","","","","","","","","","","","","","","","","","","","","","","","","","","","","","","","","","","","","","","","","","","","","","","","","","","","","","","","","","","","","","","","","","","","","","","","","","","","","","","","SYN004BUFR","","","","","","","","","",""
"83184099999","2021-10-02T09:00:00","-11.2166666","-41.2166666","1005.0","MORRO DO CHAPEU, BR","FM-12","4","","63","71","","","","9","76","BKN:07 20","29.92","26.73","6.21","66","140","","7","","","","","","","","","","","","","","","","","","","","","","","","","","","","","","","","","","","","","","","","","","","","","","","","","","","","","","","","","","","","","","","","","","","","","","","","","","","","","","","","","","","","","","","","","","","SYN004BUFR","","","","","","","","","",""
"83184099999","2021-10-02T15:00:00","-11.2166666","-41.2166666","1005.0","MORRO DO CHAPEU, BR","FM-12","4","","53","85","","","","9","34","","29.75","26.60","6.21","65","360","","0","","","","","","","","","","","","","","","","","","","","","","","","","","","","","","","","","","","","","","","","","","","","","","","","","","","","","","","","","","","","","","","","","","","","","","","","","","","","","","","","","","","","","","","","","","","SYN004BUFR","","","","","","","","","",""
"83184099999","2021-10-02T21:00:00","-11.2166666","-41.2166666","1005.0","MORRO DO CHAPEU, BR","FM-12","4","","60","72","","","","9","65","","29.98","26.77","2.49","64","360","","0","","","","","","","","","","","","","","","","","","","","","","","","","","","","","","","","","","","","","","","","","","","","","","","","","","","","","","","","","","","","","","","","","","","","","","","","","","","","","","","","","","","","","","","","","","","SYN004BUFR","","","","","","","","","",""
"83184099999","2021-10-03T09:00:00","-11.2166666","-41.2166666","1005.0","MORRO DO CHAPEU, BR","FM-12","4","","62","72","","","","9","69","BKN:06 20","29.94","26.73","6.21","66","140","","7","","","","","","","","","","","","","","","","","","","","","","","","","","","","","","","","","","","","","","","","","","","","","","","","","","","","","","","","","","","","","","","","","","","","","","","","","","","","","","","","","","","","","","","","","","","SYN004BUFR","","","","","","","","","",""
"83184099999","2021-10-03T15:00:00","-11.2166666","-41.2166666","1005.0","MORRO DO CHAPEU, BR","FM-12","4","","55","86","","","","9","34","","29.72","26.57","6.21","66","140","","5","","","","","","","","","","","","","","","","","","","","","","","","","","","","","","","","","","","","","","","","","","","","","","","","","","","","","","","","","","","","","","","","","","","","","","","","","","","","","","","","","","","","","","","","","","","SYN004BUFR","","","","","","","","","",""
"83184099999","2021-10-03T21:00:00","-11.2166666","-41.2166666","1005.0","MORRO DO CHAPEU, BR","FM-12","4","","52","74","","","","9","45","","29.83","26.65","2.49","61","360","","0","","","","","","","","","","","","","","","","","","","","","","","","","","","","","","","","","","","","","","","","","","","","","","","","","","","","","","","","","","","","","","","","","","","","","","","","","","","","","","","","","","","","","","","","","","","SYN004BUFR","","","","","","","","","",""
"83184099999","2021-10-05T09:00:00","-11.2166666","-41.2166666","1005.0","MORRO DO CHAPEU, BR","FM-12","4","","59","72","","","","9","64","FEW:01 20","29.92","26.71","6.21","64","140","","9","","","","","","","","","","","","","","","","","","","","","","","","","","","","","","","","","","","","","","","","","","","","","","","","","","","","","","","","","","","","","","","","","","","","","","","","","","","","","","","","","","","","","","","","","","","SYN004BUFR","","","","","","","","","",""
"83184099999","2021-10-05T15:00:00","-11.2166666","-41.2166666","1005.0","MORRO DO CHAPEU, BR","FM-12","4","","47","86","","","","9","26","262","29.76","26.59","6.21","63","090","","9","","","","","","","","","","","","","","","","","","","","","","","","","","","","","","","","","","","","","","","","","","","","","","","","","","","","","","","","","","","","","","","","","","","","","","","","","","","","","","","","","","","","","","","","","","","SYN004BUFR","","","","","","","","","",""
"83184099999","2021-10-06T09:00:00","-11.2166666","-41.2166666","1005.0","MORRO DO CHAPEU, BR","FM-12","4","","60","67","","","","9","76","BKN:07 20","29.97","26.75","6.21","63","140","","9","","","","","","","","","","","","","","","","","","","","","","","","","","","","","","","","","","","","","","","","","","","","","","","","","","","","","","","","","","","","","","","","","","","","","","","","","","","","","","","","","","","","","","","","","","","SYN004BUFR","","","","","","","","","",""
"83184099999","2021-10-06T15:00:00","-11.2166666","-41.2166666","1005.0","MORRO DO CHAPEU, BR","FM-12","4","","56","83","","","","9","39","OVC:08s 20","29.81","26.63","6.21","66","140","","7","","","","","","","","","","","","","","","","","","","","","","","","","","","","","","","","","","","","","","","","","","","","","","","","","","","","","","","","","","","","","","","","","","","","","","","","","","","","","","","","","","","","","","","","","","","SYN004BUFR","","","","","","","","","",""
"83184099999","2021-10-07T09:00:00","-11.2166666","-41.2166666","1005.0","MORRO DO CHAPEU, BR","FM-12","4","","56","73","","","","9","55","FEW:02 20","29.88","26.69","6.21","63","140","","9","","","","","","","","","","","","","","","","","","","","","","","","","","","","","","","","","","","","","","","","","","","","","","","","","","","","","","","","","","","","","","","","","","","","","","","","","","","","","","","","","","","","","","","","","","","SYN004BUFR","","","","","","","","","",""
"83184099999","2021-10-09T09:00:00","-11.2166666","-41.2166666","1005.0","MORRO DO CHAPEU, BR","FM-12","4","","58","71","","","","9","65","SCT:04 20","29.93","26.72","6.21","63","140","","5","","","","","","","","","","","","","","","","","","","","","","","","","","","","","","","","","","","","","","","","","","","","","","","","","","","","","","","","","","","","","","","","","","","","","","","","","","","","","","","","","","","","","","","","","","","SYN004BUFR","","","","","","","","","",""
"83184099999","2021-10-09T15:00:00","-11.2166666","-41.2166666","1005.0","MORRO DO CHAPEU, BR","FM-12","4","","51","80","","","","9","37","","29.86","26.58","6.21","62","140","","5","","","","","","","","","","","","","","","","","","","","","","","","","","","","","","","","","","","","","","","","","","","","","","","","","","","","","","","","","","","","","","","","","","","","","","","","","","","","","","","","","","","","","","","","","","","SYN004BUFR","","","","","","","","","",""
"83184099999","2021-10-10T09:00:00","-11.2166666","-41.2166666","1005.0","MORRO DO CHAPEU, BR","FM-12","4","","62","70","","","","9","74","BKN:06 20","29.91","26.71","6.21","65","140","","11","","","","","","","","","","","","","","","","","","","","","","","","","","","","","","","","","","","","","","","","","","","","","","","","","","","","","","","","","","","","","","","","","","","","","","","","","","","","","","","","","","","","","","","","","","","SYN004BUFR","","","","","","","","","",""
"83184099999","2021-10-10T15:00:00","-11.2166666","-41.2166666","1005.0","MORRO DO CHAPEU, BR","FM-12","4","","58","81","","","","9","46","","29.81","26.62","6.21","66","140","","7","","","","","","","","","","","","","","","","","","","","","","","","","","","","","","","","","","","","","","","","","","","","","","","","","","","","","","","","","","","","","","","","","","","","","","","","","","","","","","","","","","","","","","","","","","","SYN004BUFR","","","","","","","","","",""
"83184099999","2021-10-11T09:00:00","-11.2166666","-41.2166666","1005.0","MORRO DO CHAPEU, BR","FM-12","4","","58","71","","","","9","65","20","29.94","26.73","6.21","63","140","","9","","","","","","","","","","","","","","","","","","","","","","","","","","","","","","","","","","","","","","","","","","","","","","","","","","","","","","","","","","","","","","","","","","","","","","","","","","","","","","","","","","","","","","","","","","","SYN004BUFR","","","","","","","","","",""
"83184099999","2021-10-11T15:00:00","-11.2166666","-41.2166666","1005.0","MORRO DO CHAPEU, BR","FM-12","4","","57","87","","","","9","36","SCT:03 20","29.77","26.61","6.21","68","140","","7","","","","","","","","","","","","","","","","","","","","","","","","","","","","","","","","","","","","","","","","","","","","","","","","","","","","","","","","","","","","","","","","","","","","","","","","","","","","","","","","","","","","","","","","","","","SYN004BUFR","","","","","","","","","",""
"83184099999","2021-10-12T09:00:00","-11.2166666","-41.2166666","1005.0","MORRO DO CHAPEU, BR","FM-12","4","","63","75","","","","9","68","BKN:05 20","29.87","26.70","6.21","67","140","","9","","","","","","","","","","","","","","","","","","","","","","","","","","","","","","","","","","","","","","","","","","","","","","","","","","","","","","","","","","","","","","","","","","","","","","","","","","","","","","","","","","","","","","","","","","","SYN004BUFR","","","","","","","","","",""
"83184099999","2021-10-12T15:00:00","-11.2166666","-41.2166666","1005.0","MORRO DO CHAPEU, BR","FM-12","4","","59","85","","","","9","42","SCT:04 20","29.71","26.57","6.21","68","140","","5","","","","","","","","","","","","","","","","","","","","","","","","","","","","","","","","","","","","","","","","","","","","","","","","","","","","","","","","","","","","","","","","","","","","","","","","","","","","","","","","","","","","","","","","","","","SYN004BUFR","","","","","","","","","",""
"83184099999","2021-10-13T09:00:00","-11.2166666","-41.2166666","1005.0","MORRO DO CHAPEU, BR","FM-12","4","","64","66","","","","9","96","OVC:08 20","29.95","26.71","6.21","65","140","","9","","","","","","","","","","","","","","","","","","","","","","","","","","","","","","","","","","","","","","","","","","","","","","","","","","","","","","","","","","","","","","","","","","","","","","","","","","","","","","","","","","","","","","","","","","","SYN004BUFR","","","","","","","","","",""
"83184099999","2021-10-14T09:00:00","-11.2166666","-41.2166666","1005.0","MORRO DO CHAPEU, BR","FM-12","4","","62","73","","","","9","68","FEW:02 20","29.90","26.70","6.21","66","140","","11","","","","","","","","","","","","","","","","","","","","","","","","","","","","","","","","","","","","","","","","","","","","","","","","","","","","","","","","","","","","","","","","","","","","","","","","","","","","","","","","","","","","","","","","","","","SYN004BUFR","","","","","","","","","",""
"83184099999","2021-10-14T15:00:00","-11.2166666","-41.2166666","1005.0","MORRO DO CHAPEU, BR","FM-12","4","","57","85","","","","9","39","SCT:03 20","29.77","26.60","6.21","67","140","","9","","","","","","","","","","","","","","","","","","","","","","","","","","","","","","","","","","","","","","","","","","","","","","","","","","","","","","","","","","","","","","","","","","","","","","","","","","","","","","","","","","","","","","","","","","","SYN004BUFR","","","","","","","","","",""
"83184099999","2021-10-14T21:00:00","-11.2166666","-41.2166666","1005.0","MORRO DO CHAPEU, BR","FM-12","4","","60","73","","","","9","64","","29.85","26.67","2.49","65","140","","7","","","","","","","","","","","","","","","","","","","","","","","","","","","","","","","","","","","","","","","","","","","","","","","","","","","","","","","","","","","","","","","","","","","","","","","","","","","","","","","","","","","","","","","","","","","SYN004BUFR","","","","","","","","","",""
"83184099999","2021-10-15T09:00:00","-11.2166666","-41.2166666","1005.0","MORRO DO CHAPEU, BR","FM-12","4","","63","71","","","","9","76","BKN:05 20","29.98","26.77","6.21","66","140","","11","","","","","","","","","","","","","","","","","","","","","","","","","","","","","","","","","","","","","","","","","","","","","","","","","","","","","","","","","","","","","","","","","","","","","","","","","","","","","","","","","","","","","","","","","","","SYN004BUFR","","","","","","","","","",""
"83184099999","2021-10-15T15:00:00","-11.2166666","-41.2166666","1005.0","MORRO DO CHAPEU, BR","FM-12","4","","55","85","","","","9","36","FEW:01 20","29.81","26.65","6.21","66","140","","5","","","","","","","","","","","","","","","","","","","","","","","","","","","","","","","","","","","","","","","","","","","","","","","","","","","","","","","","","","","","","","","","","","","","","","","","","","","","","","","","","","","","","","","","","","","SYN004BUFR","","","","","","","","","",""
"83184099999","2021-10-15T21:00:00","-11.2166666","-41.2166666","1005.0","MORRO DO CHAPEU, BR","FM-12","4","","58","72","","","","9","61","","29.89","26.69","2.49","63","140","","5","","","","","","","","","","","","","","","","","","","","","","","","","","","","","","","","","","","","","","","","","","","","","","","","","","","","","","","","","","","","","","","","","","","","","","","","","","","","","","","","","","","","","","","","","","","SYN004BUFR","","","","","","","","","",""
"83184099999","2021-10-16T09:00:00","-11.2166666","-41.2166666","1005.0","MORRO DO CHAPEU, BR","FM-12","4","","59","69","","","","9","70","BKN:07 20","30.00","26.79","6.21","63","140","","7","","","","","","","","","","","","","","","","","","","","","","","","","","","","","","","","","","","","","","","","","","","","","","","","","","","","","","","","","","","","","","","","","","","","","","","","","","","","","","","","","","","","","","","","","","","SYN004BUFR","","","","","","","","","",""
"83184099999","2021-10-17T09:00:00","-11.2166666","-41.2166666","1005.0","MORRO DO CHAPEU, BR","FM-12","4","","63","66","","","","9","91","OVC:08 20","29.96","26.72","6.21","64","140","","7","","","","","","","","","","","","","","","","","","","","","","","","","","","","","","","","","","","","","","","","","","","","","","","","","","","","","","","","","","","","","","","","","","","","","","","","","","","","","","","","","","","","","","","","","","","SYN004BUFR","","","","","","","","","",""
"83184099999","2021-10-17T15:00:00","-11.2166666","-41.2166666","1005.0","MORRO DO CHAPEU, BR","FM-12","4","","58","84","","","","9","41","SCT:03 20","29.81","26.63","6.21","67","140","","7","","","","","","","","","","","","","","","","","","","","","","","","","","","","","","","","","","","","","","","","","","","","","","","","","","","","","","","","","","","","","","","","","","","","","","","","","","","","","","","","","","","","","","","","","","","SYN004BUFR","","","","","","","","","",""
"83184099999","2021-10-17T21:00:00","-11.2166666","-41.2166666","1005.0","MORRO DO CHAPEU, BR","FM-12","4","","57","73","","","","9","57","","29.90","26.68","2.49","63","140","","7","","","","","","","","","","","","","","","","","","","","","","","","","","","","","","","","","","","","","","","","","","","","","","","","","","","","","","","","","","","","","","","","","","","","","","","","","","","","","","","","","","","","","","","","","","","SYN004BUFR","","","","","","","","","",""
"83184099999","2021-10-18T09:00:00","-11.2166666","-41.2166666","1005.0","MORRO DO CHAPEU, BR","FM-12","4","","59","72","","","","9","64","SCT:04 20","29.93","26.73","6.21","64","140","","9","","","","","","","","","","","","","","","","","","","","","","","","","","","","","","","","","","","","","","","","","","","","","","","","","","","","","","","","","","","","","","","","","","","","","","","","","","","","","","","","","","","","","","","","","","","SYN004BUFR","","","","","","","","","",""
"83184099999","2021-10-18T21:00:00","-11.2166666","-41.2166666","1005.0","MORRO DO CHAPEU, BR","FM-12","4","","57","73","","","","9","57","","29.86","26.67","2.49","63","140","","7","","","","","","","","","","","","","","","","","","","","","","","","","","","","","","","","","","","","","","","","","","","","","","","","","","","","","","","","","","","","","","","","","","","","","","","","","","","","","","","","","","","","","","","","","","","SYN004BUFR","","","","","","","","","",""
"83184099999","2021-10-19T09:00:00","-11.2166666","-41.2166666","1005.0","MORRO DO CHAPEU, BR","FM-12","4","","62","69","","","","9","79","OVC:08 20","29.96","26.75","6.21","65","140","","7","","","","","","","","","","","","","","","","","","","","","","","","","","","","","","","","","","","","","","","","","","","","","","","","","","","","","","","","","","","","","","","","","","","","","","","","","","","","","","","","","","","","","","","","","","","SYN004BUFR","","","","","","","","","",""
"83184099999","2021-10-19T15:00:00","-11.2166666","-41.2166666","1005.0","MORRO DO CHAPEU, BR","FM-12","4","","60","84","","","","9","45","BKN:05 20","29.78","26.62","6.21","68","090","","7","","","","","","","","","","","","","","","","","","","","","","","","","","","","","","","","","","","","","","","","","","","","","","","","","","","","","","","","","","","","","","","","","","","","","","","","","","","","","","","","","","","","","","","","","","","SYN004BUFR","","","","","","","","","",""
"83184099999","2021-10-19T21:00:00","-11.2166666","-41.2166666","1005.0","MORRO DO CHAPEU, BR","FM-12","4","","61","74","","","","9","65","BKN:05 49","29.88","26.68","2.49","66","140","","7","","","","","","","","","","","","","","","","","","","","","","","","","","","","","","","","","","","","","","","","","","","","","","","","","","","","","","","","","","","","","","","","","","","","","","","","","","","","","","","","","","","","","","","","","","","SYN004BUFR","","","","","","","","","",""
"83184099999","2021-10-20T09:00:00","-11.2166666","-41.2166666","1005.0","MORRO DO CHAPEU, BR","FM-12","4","","65","70","","","","9","84","BKN:07 20","29.93","26.72","6.21","67","140","","7","","","","","","","","","","","","","","","","","","","","","","","","","","","","","","","","","","","","","","","","","","","","","","","","","","","","","","","","","","","","","","","","","","","","","","","","","","","","","","","","","","","","","","","","","","","SYN004BUFR","","","","","","","","","",""
"83184099999","2021-10-20T21:00:00","-11.2166666","-41.2166666","1005.0","MORRO DO CHAPEU, BR","FM-12","4","","63","76","","","","9","63","SCT:03 20","29.84","26.66","2.49","67","140","","5","","","","","","","","","","","","","","","","","","","","","","","","","","","","","","","","","","","","","","","","","","","","","","","","","","","","","","","","","","","","","","","","","","","","","","","","","","","","","","","","","","","","","","","","","","","SYN004BUFR","","","","","","","","","",""
"83184099999","2021-10-21T09:00:00","-11.2166666","-41.2166666","1005.0","MORRO DO CHAPEU, BR","FM-12","4","","67","73","","","","9","81","OVC:08 20","29.87","26.69","6.21","69","090","","7","","","","","","","","","","","","","","","","","","","","","","","","","","","","","","","","","","","","","","","","","","","","","","","","","","","","","","","","","","","","","","","","","","","","","","","","","","","","","","","","","","","","","","","","","","","SYN004BUFR","","","","","","","","","",""
"83184099999","2021-10-21T15:00:00","-11.2166666","-41.2166666","1005.0","MORRO DO CHAPEU, BR","FM-12","4","","65","78","","","","9","66","BKN:06 20","29.78","26.60","6.21","69","090","","9","","","","","","","","","","","","","","","","","","","","","","","","","","","","","","","","","","","","","","","","","","","","","","","","","","","","","","","","","","","","","","","","","","","","","","","","","","","","","","","","","","","","","","","","","","","SYN004BUFR","","","","","","","","","",""
"83184099999","2021-10-21T21:00:00","-11.2166666","-41.2166666","1005.0","MORRO DO CHAPEU, BR","FM-12","4","","63","65","","||RA","","9","93","OVC:08 20","29.93","26.70","2.49","64","180","","7","","","","","","","","","","","","","","","","","","","","","","","","","","","","","","","","","","","","","","","","","","","","","","","","","","","","","","","","","","","","","","","","","","","","","","","","","","","","","","","","","","","","","","","","","","","SYN004BUFR","","","","","","","","","",""
"83184099999","2021-10-22T09:00:00","-11.2166666","-41.2166666","1005.0","MORRO DO CHAPEU, BR","FM-12","4","","65","67","","","","9","92","OVC:08 20","29.93","26.68","6.21","66","140","","7","","","","","","","","","","","","","","","","","","","","","","","","","","","","","","","","","","","","","","","","","","","","","","","","","","","","","","","","","","","","","","","","","","","","","","","","","","","","","","","","","","","","","","","","","","","SYN004BUFR","","","","","","","","","",""
"83184099999","2021-10-23T09:00:00","-11.2166666","-41.2166666","1005.0","MORRO DO CHAPEU, BR","FM-12","4","","64","70","","","","9","81","OVC:08 20","29.92","26.70","6.21","66","140","","7","","","","","","","","","","","","","","","","","","","","","","","","","","","","","","","","","","","","","","","","","","","","","","","","","","","","","","","","","","","","","","","","","","","","","","","","","","","","","","","","","","","","","","","","","","","SYN004BUFR","","","","","","","","","",""
"83184099999","2021-10-23T15:00:00","-11.2166666","-41.2166666","1005.0","MORRO DO CHAPEU, BR","FM-12","4","","56","72","","","","9","58","BKN:06 20","29.84","26.58","2.49","62","140","","7","","","","","","","","","","","","","","","","","","","","","","","","","","","","","","","","","","","","","","","","","","","","","","","","","","","","","","","","","","","","","","","","","","","","","","","","","","","","","","","","","","","","","","","","","","","SYN004BUFR","","","","","","","","","",""
"83184099999","2021-10-23T21:00:00","-11.2166666","-41.2166666","1005.0","MORRO DO CHAPEU, BR","FM-12","4","","66","69","","","","9","90","OVC:08 20","30.10","26.70","2.49","67","140","","7","","","","","","","","","","","","","","","","","","","","","","","","","","","","","","","","","","","","","","","","","","","","","","","","","","","","","","","","","","","","","","","","","","","","","","","","","","","","","","","","","","","","","","","","","","","SYN004BUFR","","","","","","","","","",""
"83184099999","2021-10-24T09:00:00","-11.2166666","-41.2166666","1005.0","MORRO DO CHAPEU, BR","FM-12","4","","68","69","","","","9","95","OVC:08 20","29.94","26.72","6.21","68","140","","7","","","","","","","","","","","","","","","","","","","","","","","","","","","","","","","","","","","","","","","","","","","","","","","","","","","","","","","","","","","","","","","","","","","","","","","","","","","","","","","","","","","","","","","","","","","SYN004BUFR","","","","","","","","","",""
"83184099999","2021-10-24T21:00:00","-11.2166666","-41.2166666","1005.0","MORRO DO CHAPEU, BR","FM-12","4","","67","72","","","","9","86","OVC:08 20","29.93","26.71","2.49","69","140","","5","","","","","","","","","","","","","","","","","","","","","","","","","","","","","","","","","","","","","","","","","","","","","","","","","","","","","","","","","","","","","","","","","","","","","","","","","","","","","","","","","","","","","","","","","","","SYN004BUFR","","","","","","","","","",""
"83184099999","2021-10-25T09:00:00","-11.2166666","-41.2166666","1005.0","MORRO DO CHAPEU, BR","FM-12","4","","67","72","","","","9","86","BKN:06 20","29.98","26.77","6.21","69","140","","9","","","","","","","","","","","","","","","","","","","","","","","","","","","","","","","","","","","","","","","","","","","","","","","","","","","","","","","","","","","","","","","","","","","","","","","","","","","","","","","","","","","","","","","","","","","SYN004BUFR","","","","","","","","","",""
"83184099999","2021-10-25T15:00:00","-11.2166666","-41.2166666","1005.0","MORRO DO CHAPEU, BR","FM-12","4","","65","78","","","","9","65","SCT:03 20","29.87","","6.21","","140","","7","","","","","","","","","","","","","","","","","","","","","","","","","","","","","","","","","","","","","","","","","","","","","","","","","","","","","","","","","","","","","","","","","","","","","","","","","","","","","","","","","","","","","","","","","","","SYN004BUFR","","","","","","","","","",""
"83184099999","2021-10-25T21:00:00","-11.2166666","-41.2166666","1005.0","MORRO DO CHAPEU, BR","FM-12","4","","65","71","","","","9","84","SCT:03 20","29.94","26.73","2.49","67","140","","11","","","","","","","","","","","","","","","","","","","","","","","","","","","","","","","","","","","","","","","","","","","","","","","","","","","","","","","","","","","","","","","","","","","","","","","","","","","","","","","","","","","","","","","","","","","SYN004BUFR","","","","","","","","","",""
"83184099999","2021-10-26T09:00:00","-11.2166666","-41.2166666","1005.0","MORRO DO CHAPEU, BR","FM-12","4","","64","71","","","","9","79","BKN:07 20","29.99","26.77","6.21","66","140","","7","","","","","","","","","","","","","","","","","","","","","","","","","","","","","","","","","","","","","","","","","","","","","","","","","","","","","","","","","","","","","","","","","","","","","","","","","","","","","","","","","","","","","","","","","","","SYN004BUFR","","","","","","","","","",""
"83184099999","2021-10-26T15:00:00","-11.2166666","-41.2166666","1005.0","MORRO DO CHAPEU, BR","FM-12","4","","62","77","","","","9","60","SCT:04 20","29.89","26.69","6.21","67","140","","7","","","","","","","","","","","","","","","","","","","","","","","","","","","","","","","","","","","","","","","","","","","","","","","","","","","","","","","","","","","","","","","","","","","","","","","","","","","","","","","","","","","","","","","","","","","SYN004BUFR","","","","","","","","","",""
"83184099999","2021-10-26T21:00:00","-11.2166666","-41.2166666","1005.0","MORRO DO CHAPEU, BR","FM-12","4","","63","68","","","","9","84","BKN:07 20","29.96","26.73","2.49","65","140","","11","","","","","","","","","","","","","","","","","","","","","","","","","","","","","","","","","","","","","","","","","","","","","","","","","","","","","","","","","","","","","","","","","","","","","","","","","","","","","","","","","","","","","","","","","","","SYN004BUFR","","","","","","","","","",""
"83184099999","2021-10-27T09:00:00","-11.2166666","-41.2166666","1005.0","MORRO DO CHAPEU, BR","FM-12","4","","62","69","","","","9","77","BKN:05 20","30.01","26.77","6.21","65","140","","11","","","","","","","","","","","","","","","","","","","","","","","","","","","","","","","","","","","","","","","","","","","","","","","","","","","","","","","","","","","","","","","","","","","","","","","","","","","","","","","","","","","","","","","","","","","SYN004BUFR","","","","","","","","","",""
"83184099999","2021-10-27T15:00:00","-11.2166666","-41.2166666","1005.0","MORRO DO CHAPEU, BR","FM-12","4","","57","80","","","","9","45","SCT:03 20","29.88","26.68","6.21","65","140","","7","","","","","","","","","","","","","","","","","","","","","","","","","","","","","","","","","","","","","","","","","","","","","","","","","","","","","","","","","","","","","","","","","","","","","","","","","","","","","","","","","","","","","","","","","","","SYN004BUFR","","","","","","","","","",""
"83184099999","2021-10-27T21:00:00","-11.2166666","-41.2166666","1005.0","MORRO DO CHAPEU, BR","FM-12","4","","62","67","","","","9","83","","30.02","26.78","2.49","64","140","","7","","","","","","","","","","","","","","","","","","","","","","","","","","","","","","","","","","","","","","","","","","","","","","","","","","","","","","","","","","","","","","","","","","","","","","","","","","","","","","","","","","","","","","","","","","","SYN004BUFR","","","","","","","","","",""
"83184099999","2021-10-28T09:00:00","-11.2166666","-41.2166666","1005.0","MORRO DO CHAPEU, BR","FM-12","4","","65","70","","","","9","84","BKN:06 20","30.04","26.80","6.21","67","140","","9","","","","","","","","","","","","","","","","","","","","","","","","","","","","","","","","","","","","","","","","","","","","","","","","","","","","","","","","","","","","","","","","","","","","","","","","","","","","","","","","","","","","","","","","","","","SYN004BUFR","","","","","","","","","",""
"83184099999","2021-10-28T15:00:00","-11.2166666","-41.2166666","1005.0","MORRO DO CHAPEU, BR","FM-12","4","","62","79","","","","9","55","SCT:04 20","29.89","26.70","6.21","68","140","","7","","","","","","","","","","","","","","","","","","","","","","","","","","","","","","","","","","","","","","","","","","","","","","","","","","","","","","","","","","","","","","","","","","","","","","","","","","","","","","","","","","","","","","","","","","","SYN004BUFR","","","","","","","","","",""
"83184099999","2021-10-28T21:00:00","-11.2166666","-41.2166666","1005.0","MORRO DO CHAPEU, BR","FM-12","4","","64","69","","","","9","84","BKN:06 20","29.99","26.76","2.49","66","140","","11","","","","","","","","","","","","","","","","","","","","","","","","","","","","","","","","","","","","","","","","","","","","","","","","","","","","","","","","","","","","","","","","","","","","","","","","","","","","","","","","","","","","","","","","","","","SYN004BUFR","","","","","","","","","",""
"83184099999","2021-10-29T09:00:00","-11.2166666","-41.2166666","1005.0","MORRO DO CHAPEU, BR","FM-12","4","","65","66","","","","9","98","BKN:06 20","30.03","26.78","6.21","65","140","","7","","","","","","","","","","","","","","","","","","","","","","","","","","","","","","","","","","","","","","","","","","","","","","","","","","","","","","","","","","","","","","","","","","","","","","","","","","","","","","","","","","","","","","","","","","","SYN004BUFR","","","","","","","","","",""
"83184099999","2021-10-29T15:00:00","-11.2166666","-41.2166666","1005.0","MORRO DO CHAPEU, BR","FM-12","4","","63","76","","","","9","64","BKN:05 20","29.87","26.66","6.21","67","140","","7","","","","","","","","","","","","","","","","","","","","","","","","","","","","","","","","","","","","","","","","","","","","","","","","","","","","","","","","","","","","","","","","","","","","","","","","","","","","","","","","","","","","","","","","","","","SYN004BUFR","","","","","","","","","",""
"83184099999","2021-10-29T21:00:00","-11.2166666","-41.2166666","1005.0","MORRO DO CHAPEU, BR","FM-12","4","","64","67","","","","9","88","FEW:02 20","29.93","26.69","2.49","65","140","","5","","","","","","","","","","","","","","","","","","","","","","","","","","","","","","","","","","","","","","","","","","","","","","","","","","","","","","","","","","","","","","","","","","","","","","","","","","","","","","","","","","","","","","","","","","","SYN004BUFR","","","","","","","","","",""
"83184099999","2021-10-30T09:00:00","-11.2166666","-41.2166666","1005.0","MORRO DO CHAPEU, BR","FM-12","4","","59","70","","","","9","67","BKN:05 20","29.96","26.73","6.21","63","140","","7","","","","","","","","","","","","","","","","","","","","","","","","","","","","","","","","","","","","","","","","","","","","","","","","","","","","","","","","","","","","","","","","","","","","","","","","","","","","","","","","","","","","","","","","","","","SYN004BUFR","","","","","","","","","",""
"83184099999","2021-10-31T09:00:00","-11.2166666","-41.2166666","1005.0","MORRO DO CHAPEU, BR","FM-12","4","","62","66","","","","9","87","OVC:08 20","29.98","26.74","6.21","63","140","","7","","","","","","","","","","","","","","","","","","","","","","","","","","","","","","","","","","","","","","","","","","","","","","","","","","","","","","","","","","","","","","","","","","","","","","","","","","","","","","","","","","","","","","","","","","","SYN004BUFR","","","","","","","","","",""
"83184099999","2021-10-31T15:00:00","-11.2166666","-41.2166666","1005.0","MORRO DO CHAPEU, BR","FM-12","4","","57","81","","","","9","45","SCT:04 20","29.84","26.65","6.21","66","140","","7","","","","","","","","","","","","","","","","","","","","","","","","","","","","","","","","","","","","","","","","","","","","","","","","","","","","","","","","","","","","","","","","","","","","","","","","","","","","","","","","","","","","","","","","","","","SYN004BUFR","","","","","","","","","",""
"83184099999","2021-10-31T21:00:00","-11.2166666","-41.2166666","1005.0","MORRO DO CHAPEU, BR","FM-12","4","","62","71","","","","9","74","","29.92","26.68","2.49","65","360","","0","","","","","","","","","","","","","","","","","","","","","","","","","","","","","","","","","","","","","","","","","","","","","","","","","","","","","","","","","","","","","","","","","","","","","","","","","","","","","","","","","","","","","","","","","","","SYN004BUFR","","","","","","","","","",""
"83184099999","2021-11-01T09:00:00","-11.2166666","-41.2166666","1005.0","MORRO DO CHAPEU, BR","FM-12","4","","63","68","","","","9","82","OVC:08 20","29.95","26.72","6.21","65","140","","9","","","","","","","","","","","","","","","","","","","","","","","","","","","","","","","","","","","","","","","","","","","","","","","","","","","","","","","","","","","","","","","","","","","","","","","","","","","","","","","","","","","","","","","","","","","SYN004BUFR","","","","","","","","","",""
"83184099999","2021-11-01T21:00:00","-11.2166666","-41.2166666","1005.0","MORRO DO CHAPEU, BR","FM-12","4","","61","72","","","","9","69","","29.88","26.67","2.49","65","140","","7","","","","","","","","","","","","","","","","","","","","","","","","","","","","","","","","","","","","","","","","","","","","","","","","","","","","","","","","","","","","","","","","","","","","","","","","","","","","","","","","","","","","","","","","","","","SYN004BUFR","","","","","","","","","",""
"83184099999","2021-11-02T09:00:00","-11.2166666","-41.2166666","1005.0","MORRO DO CHAPEU, BR","FM-12","4","","64","72","","","","9","77","BKN:06 20","29.91","26.71","6.21","67","140","","9","","","","","","","","","","","","","","","","","","","","","","","","","","","","","","","","","","","","","","","","","","","","","","","","","","","","","","","","","","","","","","","","","","","","","","","","","","","","","","","","","","","","","","","","","","","SYN004BUFR","","","","","","","","","",""
"83184099999","2021-11-02T15:00:00","-11.2166666","-41.2166666","1005.0","MORRO DO CHAPEU, BR","FM-12","4","","62","81","","","","9","54","SCT:03 20","29.75","26.58","6.21","68","140","","5","","","","","","","","","","","","","","","","","","","","","","","","","","","","","","","","","","","","","","","","","","","","","","","","","","","","","","","","","","","","","","","","","","","","","","","","","","","","","","","","","","","","","","","","","","","SYN004BUFR","","","","","","","","","",""
"83184099999","2021-11-03T09:00:00","-11.2166666","-41.2166666","1005.0","MORRO DO CHAPEU, BR","FM-12","4","","67","72","","","","9","86","SCT:04 20","29.88","26.67","6.21","69","140","","7","","","","","","","","","","","","","","","","","","","","","","","","","","","","","","","","","","","","","","","","","","","","","","","","","","","","","","","","","","","","","","","","","","","","","","","","","","","","","","","","","","","","","","","","","","","SYN004BUFR","","","","","","","","","",""
"83184099999","2021-11-03T15:00:00","-11.2166666","-41.2166666","1005.0","MORRO DO CHAPEU, BR","FM-12","4","","68","74","","","","9","81","SCT:04 20","29.75","26.56","6.21","70","140","","7","","","","","","","","","","","","","","","","","","","","","","","","","","","","","","","","","","","","","","","","","","","","","","","","","","","","","","","","","","","","","","","","","","","","","","","","","","","","","","","","","","","","","","","","","","","SYN004BUFR","","","","","","","","","",""
"83184099999","2021-11-03T21:00:00","-11.2166666","-41.2166666","1005.0","MORRO DO CHAPEU, BR","FM-12","4","","66","68","","","","9","92","OVC:08 20","29.82","26.61","2.49","67","230","","7","","","","","","","","","","","","","","","","","","","","","","","","","","","","","","","","","","","","","","","","","","","","","","","","","","","","","","","","","","","","","","","","","","","","","","","","","","","","","","","","","","","","","","","","","","","SYN004BUFR","","","","","","","","","",""
"83184099999","2021-11-04T09:00:00","-11.2166666","-41.2166666","1005.0","MORRO DO CHAPEU, BR","FM-12","4","","65","76","","","","9","71","SCT:04 20","29.84","26.64","6.21","69","140","","5","","","","","","","","","","","","","","","","","","","","","","","","","","","","","","","","","","","","","","","","","","","","","","","","","","","","","","","","","","","","","","","","","","","","","","","","","","","","","","","","","","","","","","","","","","","SYN004BUFR","","","","","","","","","",""
"83184099999","2021-11-04T15:00:00","-11.2166666","-41.2166666","1005.0","MORRO DO CHAPEU, BR","FM-12","4","","68","73","","","","9","83","OVC:08 20","29.73","26.54","6.21","70","320","","9","","","","","","","","","","","","","","","","","","","","","","","","","","","","","","","","","","","","","","","","","","","","","","","","","","","","","","","","","","","","","","","","","","","","","","","","","","","","","","","","","","","","","","","","","","","SYN004BUFR","","","","","","","","","",""
"83184099999","2021-11-05T09:00:00","-11.2166666","-41.2166666","1005.0","MORRO DO CHAPEU, BR","FM-12","4","","65","71","","","","9","82","OVC:08 20","29.87","26.66","6.21","67","090","","5","","","","","","","","","","","","","","","","","","","","","","","","","","","","","","","","","","","","","","","","","","","","","","","","","","","","","","","","","","","","","","","","","","","","","","","","","","","","","","","","","","","","","","","","","","","SYN004BUFR","","","","","","","","","",""
"83184099999","2021-11-05T15:00:00","-11.2166666","-41.2166666","1005.0","MORRO DO CHAPEU, BR","FM-12","4","","61","79","","","","9","53","BKN:05 20","29.79","26.59","6.21","67","320","","5","","","","","","","","","","","","","","","","","","","","","","","","","","","","","","","","","","","","","","","","","","","","","","","","","","","","","","","","","","","","","","","","","","","","","","","","","","","","","","","","","","","","","","","","","","","SYN004BUFR","","","","","","","","","",""
"83184099999","2021-11-05T21:00:00","-11.2166666","-41.2166666","1005.0","MORRO DO CHAPEU, BR","FM-12","4","","67","71","","","","9","87","OVC:08 20","29.86","26.67","2.49","68","140","","5","","","","","","","","","","","","","","","","","","","","","","","","","","","","","","","","","","","","","","","","","","","","","","","","","","","","","","","","","","","","","","","","","","","","","","","","","","","","","","","","","","","","","","","","","","","SYN004BUFR","","","","","","","","","",""
"83184099999","2021-11-06T09:00:00","-11.2166666","-41.2166666","1005.0","MORRO DO CHAPEU, BR","FM-12","4","","65","71","","","","9","82","OVC:08 20","29.83","26.64","6.21","67","320","","7","","","","","","","","","","","","","","","","","","","","","","","","","","","","","","","","","","","","","","","","","","","","","","","","","","","","","","","","","","","","","","","","","","","","","","","","","","","","","","","","","","","","","","","","","","","SYN004BUFR","","","","","","","","","",""
"83184099999","2021-11-07T09:00:00","-11.2166666","-41.2166666","1005.0","MORRO DO CHAPEU, BR","FM-12","4","","67","73","","","","9","83","BKN:06 20","29.85","26.65","6.21","69","140","","5","","","","","","","","","","","","","","","","","","","","","","","","","","","","","","","","","","","","","","","","","","","","","","","","","","","","","","","","","","","","","","","","","","","","","","","","","","","","","","","","","","","","","","","","","","","SYN004BUFR","","","","","","","","","",""
"83184099999","2021-11-07T15:00:00","-11.2166666","-41.2166666","1005.0","MORRO DO CHAPEU, BR","FM-12","4","","66","74","","","","9","77","OVC:08s 20","29.81","26.58","6.21","69","360","","7","","","","","","","","","","","","","","","","","","","","","","","","","","","","","","","","","","","","","","","","","","","","","","","","","","","","","","","","","","","","","","","","","","","","","","","","","","","","","","","","","","","","","","","","","","","SYN004BUFR","","","","","","","","","",""
"83184099999","2021-11-07T21:00:00","-11.2166666","-41.2166666","1005.0","MORRO DO CHAPEU, BR","FM-12","4","","66","67","","||RA","","9","96","BKN:05 20","29.87","26.65","2.49","66","320","","7","","","","","","","","","","","","","","","","","","","","","","","","","","","","","","","","","","","","","","","","","","","","","","","","","","","","","","","","","","","","","","","","","","","","","","","","","","","","","","","","","","","","","","","","","","","SYN004BUFR","","","","","","","","","",""
"83184099999","2021-11-08T09:00:00","-11.2166666","-41.2166666","1005.0","MORRO DO CHAPEU, BR","FM-12","4","","66","69","","","","9","89","OVC:08 20","29.93","26.69","6.21","67","140","","7","","","","","","","","","","","","","","","","","","","","","","","","","","","","","","","","","","","","","","","","","","","","","","","","","","","","","","","","","","","","","","","","","","","","","","","","","","","","","","","","","","","","","","","","","","","SYN004BUFR","","","","","","","","","",""
"83184099999","2021-11-08T15:00:00","-11.2166666","-41.2166666","1005.0","MORRO DO CHAPEU, BR","FM-12","4","","66","76","","","","9","71","SCT:04 20","29.78","26.59","6.21","69","140","","7","","","","","","","","","","","","","","","","","","","","","","","","","","","","","","","","","","","","","","","","","","","","","","","","","","","","","","","","","","","","","","","","","","","","","","","","","","","","","","","","","","","","","","","","","","","SYN004BUFR","","","","","","","","","",""
"83184099999","2021-11-08T21:00:00","-11.2166666","-41.2166666","1005.0","MORRO DO CHAPEU, BR","FM-12","4","","68","70","","","","9","93","OVC:08 20","29.87","26.66","2.49","69","140","","5","","","","","","","","","","","","","","","","","","","","","","","","","","","","","","","","","","","","","","","","","","","","","","","","","","","","","","","","","","","","","","","","","","","","","","","","","","","","","","","","","","","","","","","","","","","SYN004BUFR","","","","","","","","","",""
"83184099999","2021-11-09T09:00:00","-11.2166666","-41.2166666","1005.0","MORRO DO CHAPEU, BR","FM-12","4","","65","68","","","","9","89","OVC:08 20","29.92","26.70","6.21","66","140","","7","","","","","","","","","","","","","","","","","","","","","","","","","","","","","","","","","","","","","","","","","","","","","","","","","","","","","","","","","","","","","","","","","","","","","","","","","","","","","","","","","","","","","","","","","","","SYN004BUFR","","","","","","","","","",""
"83184099999","2021-11-09T15:00:00","-11.2166666","-41.2166666","1005.0","MORRO DO CHAPEU, BR","FM-12","4","","65","75","","","","9","72","BKN:07 20","29.78","26.59","6.21","68","140","","9","","","","","","","","","","","","","","","","","","","","","","","","","","","","","","","","","","","","","","","","","","","","","","","","","","","","","","","","","","","","","","","","","","","","","","","","","","","","","","","","","","","","","","","","","","","SYN004BUFR","","","","","","","","","",""
"83184099999","2021-11-10T09:00:00","-11.2166666","-41.2166666","1005.0","MORRO DO CHAPEU, BR","FM-12","4","","64","70","","","","9","81","BKN:07 20","29.94","26.71","6.21","66","140","","11","","","","","","","","","","","","","","","","","","","","","","","","","","","","","","","","","","","","","","","","","","","","","","","","","","","","","","","","","","","","","","","","","","","","","","","","","","","","","","","","","","","","","","","","","","","SYN004BUFR","","","","","","","","","",""
"83184099999","2021-11-10T15:00:00","-11.2166666","-41.2166666","1005.0","MORRO DO CHAPEU, BR","FM-12","4","","63","78","","","","9","59","SCT:03 20","29.81","26.62","6.21","68","140","","11","","","","","","","","","","","","","","","","","","","","","","","","","","","","","","","","","","","","","","","","","","","","","","","","","","","","","","","","","","","","","","","","","","","","","","","","","","","","","","","","","","","","","","","","","","","SYN004BUFR","","","","","","","","","",""
"83184099999","2021-11-11T09:00:00","-11.2166666","-41.2166666","1005.0","MORRO DO CHAPEU, BR","FM-12","4","","62","67","","","","9","83","OVC:08 20","30.00","26.76","6.21","64","140","","9","","","","","","","","","","","","","","","","","","","","","","","","","","","","","","","","","","","","","","","","","","","","","","","","","","","","","","","","","","","","","","","","","","","","","","","","","","","","","","","","","","","","","","","","","","","SYN004BUFR","","","","","","","","","",""
"83184099999","2021-11-11T15:00:00","-11.2166666","-41.2166666","1005.0","MORRO DO CHAPEU, BR","FM-12","4","","60","80","","","","9","50","SCT:03 20","29.85","26.65","6.21","67","140","","11","","","","","","","","","","","","","","","","","","","","","","","","","","","","","","","","","","","","","","","","","","","","","","","","","","","","","","","","","","","","","","","","","","","","","","","","","","","","","","","","","","","","","","","","","","","SYN004BUFR","","","","","","","","","",""
"83184099999","2021-11-12T09:00:00","-11.2166666","-41.2166666","1005.0","MORRO DO CHAPEU, BR","FM-12","4","","61","73","","","","9","66","SCT:03 20","29.91","26.71","6.21","65","140","","7","","","","","","","","","","","","","","","","","","","","","","","","","","","","","","","","","","","","","","","","","","","","","","","","","","","","","","","","","","","","","","","","","","","","","","","","","","","","","","","","","","","","","","","","","","","SYN004BUFR","","","","","","","","","",""
"83184099999","2021-11-12T15:00:00","-11.2166666","-41.2166666","1005.0","MORRO DO CHAPEU, BR","FM-12","4","","59","83","","","","9","44","SCT:04 20","29.83","26.64","6.21","67","140","","7","","","","","","","","","","","","","","","","","","","","","","","","","","","","","","","","","","","","","","","","","","","","","","","","","","","","","","","","","","","","","","","","","","","","","","","","","","","","","","","","","","","","","","","","","","","SYN004BUFR","","","","","","","","","",""
"83184099999","2021-11-13T09:00:00","-11.2166666","-41.2166666","1005.0","MORRO DO CHAPEU, BR","FM-12","4","","64","65","","","","9","95","OVC:08 20","29.93","26.70","6.21","64","140","","7","","","","","","","","","","","","","","","","","","","","","","","","","","","","","","","","","","","","","","","","","","","","","","","","","","","","","","","","","","","","","","","","","","","","","","","","","","","","","","","","","","","","","","","","","","","SYN004BUFR","","","","","","","","","",""
"83184099999","2021-11-13T15:00:00","-11.2166666","-41.2166666","1005.0","MORRO DO CHAPEU, BR","FM-12","4","","67","78","","","","9","68","BKN:05 20","29.78","26.60","6.21","71","140","","7","","","","","","","","","","","","","","","","","","","","","","","","","","","","","","","","","","","","","","","","","","","","","","","","","","","","","","","","","","","","","","","","","","","","","","","","","","","","","","","","","","","","","","","","","","","SYN004BUFR","","","","","","","","","",""
"83184099999","2021-11-13T21:00:00","-11.2166666","-41.2166666","1005.0","MORRO DO CHAPEU, BR","FM-12","4","","63","69","","","","9","79","BKN:05 20","29.86","26.63","2.49","65","140","","5","","","","","","","","","","","","","","","","","","","","","","","","","","","","","","","","","","","","","","","","","","","","","","","","","","","","","","","","","","","","","","","","","","","","","","","","","","","","","","","","","","","","","","","","","","","SYN004BUFR","","","","","","","","","",""
"83184099999","2021-11-14T09:00:00","-11.2166666","-41.2166666","1005.0","MORRO DO CHAPEU, BR","FM-12","4","","65","67","","","","9","92","OVC:08 20","29.93","26.70","6.21","66","140","","7","","","","","","","","","","","","","","","","","","","","","","","","","","","","","","","","","","","","","","","","","","","","","","","","","","","","","","","","","","","","","","","","","","","","","","","","","","","","","","","","","","","","","","","","","","","SYN004BUFR","","","","","","","","","",""
"83184099999","2021-11-15T09:00:00","-11.2166666","-41.2166666","1005.0","MORRO DO CHAPEU, BR","FM-12","4","","64","65","","","","9","96","OVC:08 20","29.97","26.72","6.21","64","140","","7","","","","","","","","","","","","","","","","","","","","","","","","","","","","","","","","","","","","","","","","","","","","","","","","","","","","","","","","","","","","","","","","","","","","","","","","","","","","","","","","","","","","","","","","","","","SYN004BUFR","","","","","","","","","",""
"83184099999","2021-11-15T15:00:00","-11.2166666","-41.2166666","1005.0","MORRO DO CHAPEU, BR","FM-12","4","","66","74","","","","9","76","SCT:04 20","29.89","26.68","6.21","69","140","","7","","","","","","","","","","","","","","","","","","","","","","","","","","","","","","","","","","","","","","","","","","","","","","","","","","","","","","","","","","","","","","","","","","","","","","","","","","","","","","","","","","","","","","","","","","","SYN004BUFR","","","","","","","","","",""
"83184099999","2021-11-15T21:00:00","-11.2166666","-41.2166666","1005.0","MORRO DO CHAPEU, BR","FM-12","4","","65","67","","","","9","93","OVC:08 20","29.94","26.69","2.49","66","140","","9","","","","","","","","","","","","","","","","","","","","","","","","","","","","","","","","","","","","","","","","","","","","","","","","","","","","","","","","","","","","","","","","","","","","","","","","","","","","","","","","","","","","","","","","","","","SYN004BUFR","","","","","","","","","",""
"83184099999","2021-11-16T09:00:00","-11.2166666","-41.2166666","1005.0","MORRO DO CHAPEU, BR","FM-12","4","","65","66","","||DZ","","9","97","BKN:06 20","29.97","26.72","6.21","65","140","","7","","","","","","","","","","","","","","","","","","","","","","","","","","","","","","","","","","","","","","","","","","","","","","","","","","","","","","","","","","","","","","","","","","","","","","","","","","","","","","","","","","","","","","","","","","","SYN004BUFR","","","","","","","","","",""
"83184099999","2021-11-16T15:00:00","-11.2166666","-41.2166666","1005.0","MORRO DO CHAPEU, BR","FM-12","4","","68","69","","","","9","95","OVC:08 20","29.86","26.64","6.21","68","140","","9","","","","","","","","","","","","","","","","","","","","","","","","","","","","","","","","","","","","","","","","","","","","","","","","","","","","","","","","","","","","","","","","","","","","","","","","","","","","","","","","","","","","","","","","","","","SYN004BUFR","","","","","","","","","",""
"83184099999","2021-11-17T09:00:00","-11.2166666","-41.2166666","1005.0","MORRO DO CHAPEU, BR","FM-12","4","","64","68","","","","9","85","BKN:07 20","29.93","26.70","6.21","65","140","","9","","","","","","","","","","","","","","","","","","","","","","","","","","","","","","","","","","","","","","","","","","","","","","","","","","","","","","","","","","","","","","","","","","","","","","","","","","","","","","","","","","","","","","","","","","","SYN004BUFR","","","","","","","","","",""
"83184099999","2021-11-17T15:00:00","-11.2166666","-41.2166666","1005.0","MORRO DO CHAPEU, BR","FM-12","4","","62","78","","","","9","59","SCT:03 20","29.80","26.60","6.21","68","140","","7","","","","","","","","","","","","","","","","","","","","","","","","","","","","","","","","","","","","","","","","","","","","","","","","","","","","","","","","","","","","","","","","","","","","","","","","","","","","","","","","","","","","","","","","","","","SYN004BUFR","","","","","","","","","",""
"83184099999","2021-11-18T15:00:00","-11.2166666","-41.2166666","1005.0","MORRO DO CHAPEU, BR","FM-12","4","","61","80","","","","9","53","SCT:03 20","29.78","26.59","6.21","68","140","","9","","","","","","","","","","","","","","","","","","","","","","","","","","","","","","","","","","","","","","","","","","","","","","","","","","","","","","","","","","","","","","","","","","","","","","","","","","","","","","","","","","","","","","","","","","","SYN004BUFR","","","","","","","","","",""
"83184099999","2021-11-19T09:00:00","-11.2166666","-41.2166666","1005.0","MORRO DO CHAPEU, BR","FM-12","4","","64","67","","","","9","88","OVC:08 20","29.94","26.70","6.21","65","140","","9","","","","","","","","","","","","","","","","","","","","","","","","","","","","","","","","","","","","","","","","","","","","","","","","","","","","","","","","","","","","","","","","","","","","","","","","","","","","","","","","","","","","","","","","","","","SYN004BUFR","","","","","","","","","",""
"83184099999","2021-11-19T15:00:00","-11.2166666","-41.2166666","1005.0","MORRO DO CHAPEU, BR","FM-12","4","","63","81","","","","9","53","SCT:04 20","29.77","26.59","6.21","69","140","","9","","","","","","","","","","","","","","","","","","","","","","","","","","","","","","","","","","","","","","","","","","","","","","","","","","","","","","","","","","","","","","","","","","","","","","","","","","","","","","","","","","","","","","","","","","","SYN004BUFR","","","","","","","","","",""
"83184099999","2021-11-19T21:00:00","-11.2166666","-41.2166666","1005.0","MORRO DO CHAPEU, BR","FM-12","4","","62","70","","","","9","76","","29.91","26.70","2.49","65","360","","0","","","","","","","","","","","","","","","","","","","","","","","","","","","","","","","","","","","","","","","","","","","","","","","","","","","","","","","","","","","","","","","","","","","","","","","","","","","","","","","","","","","","","","","","","","","SYN004BUFR","","","","","","","","","",""
"83184099999","2021-11-20T15:00:00","-11.2166666","-41.2166666","1005.0","MORRO DO CHAPEU, BR","FM-12","4","","62","80","","","","9","56","SCT:04 20","29.80","26.61","6.21","68","140","","7","","","","","","","","","","","","","","","","","","","","","","","","","","","","","","","","","","","","","","","","","","","","","","","","","","","","","","","","","","","","","","","","","","","","","","","","","","","","","","","","","","","","","","","","","","","SYN004BUFR","","","","","","","","","",""
"83184099999","2021-11-20T21:00:00","-11.2166666","-41.2166666","1005.0","MORRO DO CHAPEU, BR","FM-12","4","","63","69","","","","9","79","FEW:01 20","29.87","26.64","2.49","65","360","","0","","","","","","","","","","","","","","","","","","","","","","","","","","","","","","","","","","","","","","","","","","","","","","","","","","","","","","","","","","","","","","","","","","","","","","","","","","","","","","","","","","","","","","","","","","","SYN004BUFR","","","","","","","","","",""
"83184099999","2021-11-21T09:00:00","-11.2166666","-41.2166666","1005.0","MORRO DO CHAPEU, BR","FM-12","4","","64","68","","","","9","85","BKN:06 20","29.91","26.69","6.21","65","140","","7","","","","","","","","","","","","","","","","","","","","","","","","","","","","","","","","","","","","","","","","","","","","","","","","","","","","","","","","","","","","","","","","","","","","","","","","","","","","","","","","","","","","","","","","","","","SYN004BUFR","","","","","","","","","",""
"83184099999","2021-11-22T09:00:00","-11.2166666","-41.2166666","1005.0","MORRO DO CHAPEU, BR","FM-12","4","","66","73","","","","9","79","BKN:06 20","29.86","26.66","6.21","68","140","","9","","","","","","","","","","","","","","","","","","","","","","","","","","","","","","","","","","","","","","","","","","","","","","","","","","","","","","","","","","","","","","","","","","","","","","","","","","","","","","","","","","","","","","","","","","","SYN004BUFR","","","","","","","","","",""
"83184099999","2021-11-22T21:00:00","-11.2166666","-41.2166666","1005.0","MORRO DO CHAPEU, BR","FM-12","4","","63","72","","","","9","74","","29.84","26.65","2.49","66","140","","7","","","","","","","","","","","","","","","","","","","","","","","","","","","","","","","","","","","","","","","","","","","","","","","","","","","","","","","","","","","","","","","","","","","","","","","","","","","","","","","","","","","","","","","","","","","SYN004BUFR","","","","","","","","","",""
"83184099999","2021-11-24T09:00:00","-11.2166666","-41.2166666","1005.0","MORRO DO CHAPEU, BR","FM-12","4","","65","70","","","","9","86","OVC:08 20","29.92","26.71","6.21","67","140","","7","","","","","","","","","","","","","","","","","","","","","","","","","","","","","","","","","","","","","","","","","","","","","","","","","","","","","","","","","","","","","","","","","","","","","","","","","","","","","","","","","","","","","","","","","","","SYN004BUFR","","","","","","","","","",""
"83184099999","2021-11-24T15:00:00","-11.2166666","-41.2166666","1005.0","MORRO DO CHAPEU, BR","FM-12","4","","65","80","","","","9","60","BKN:06 20","29.77","26.61","6.21","70","140","","7","","","","","","","","","","","","","","","","","","","","","","","","","","","","","","","","","","","","","","","","","","","","","","","","","","","","","","","","","","","","","","","","","","","","","","","","","","","","","","","","","","","","","","","","","","","SYN004BUFR","","","","","","","","","",""
"83184099999","2021-11-25T09:00:00","-11.2166666","-41.2166666","1005.0","MORRO DO CHAPEU, BR","FM-12","4","","61","73","","","","9","67","SCT:03 20","29.88","26.68","6.21","65","140","","7","","","","","","","","","","","","","","","","","","","","","","","","","","","","","","","","","","","","","","","","","","","","","","","","","","","","","","","","","","","","","","","","","","","","","","","","","","","","","","","","","","","","","","","","","","","SYN004BUFR","","","","","","","","","",""
"83184099999","2021-11-25T15:00:00","-11.2166666","-41.2166666","1005.0","MORRO DO CHAPEU, BR","FM-12","4","","63","78","","","","9","60","BKN:06 20","29.81","26.61","6.21","68","140","","7","","","","","","","","","","","","","","","","","","","","","","","","","","","","","","","","","","","","","","","","","","","","","","","","","","","","","","","","","","","","","","","","","","","","","","","","","","","","","","","","","","","","","","","","","","","SYN004BUFR","","","","","","","","","",""
"83184099999","2021-11-26T09:00:00","-11.2166666","-41.2166666","1005.0","MORRO DO CHAPEU, BR","FM-12","4","","59","71","","","","9","67","SCT:04 20","29.93","26.71","6.21","64","140","","7","","","","","","","","","","","","","","","","","","","","","","","","","","","","","","","","","","","","","","","","","","","","","","","","","","","","","","","","","","","","","","","","","","","","","","","","","","","","","","","","","","","","","","","","","","","SYN004BUFR","","","","","","","","","",""
"83184099999","2021-11-27T09:00:00","-11.2166666","-41.2166666","1005.0","MORRO DO CHAPEU, BR","FM-12","4","","64","70","","","","9","83","OVC:08 20","29.92","26.70","6.21","66","050","","7","","","","","","","","","","","","","","","","","","","","","","","","","","","","","","","","","","","","","","","","","","","","","","","","","","","","","","","","","","","","","","","","","","","","","","","","","","","","","","","","","","","","","","","","","","","SYN004BUFR","","","","","","","","","",""
"83184099999","2021-11-29T09:00:00","-11.2166666","-41.2166666","1005.0","MORRO DO CHAPEU, BR","FM-12","4","","66","73","","","","9","78","SCT:04 20","29.85","26.64","6.21","68","140","","7","","","","","","","","","","","","","","","","","","","","","","","","","","","","","","","","","","","","","","","","","","","","","","","","","","","","","","","","","","","","","","","","","","","","","","","","","","","","","","","","","","","","","","","","","","","SYN004BUFR","","","","","","","","","",""
"83184099999","2021-11-30T09:00:00","-11.2166666","-41.2166666","1005.0","MORRO DO CHAPEU, BR","FM-12","4","","66","74","","","","9","78","BKN:06 20","29.83","26.65","6.21","69","090","","7","","","","","","","","","","","","","","","","","","","","","","","","","","","","","","","","","","","","","","","","","","","","","","","","","","","","","","","","","","","","","","","","","","","","","","","","","","","","","","","","","","","","","","","","","","","SYN004BUFR","","","","","","","","","",""
"83184099999","2021-12-01T09:00:00","-11.2166666","-41.2166666","1005.0","MORRO DO CHAPEU, BR","FM-12","4","","69","73","","","","9","89","BKN:07 20","29.85","26.65","6.21","70","140","","7","","","","","","","","","","","","","","","","","","","","","","","","","","","","","","","","","","","","","","","","","","","","","","","","","","","","","","","","","","","","","","","","","","","","","","","","","","","","","","","","","","","","","","","","","","","SYN004BUFR","","","","","","","","","",""
"83184099999","2021-12-01T15:00:00","-11.2166666","-41.2166666","1005.0","MORRO DO CHAPEU, BR","FM-12","4","","70","75","","","","9","84","BKN:07 20","29.73","26.56","6.21","72","140","","5","","","","","","","","","","","","","","","","","","","","","","","","","","","","","","","","","","","","","","","","","","","","","","","","","","","","","","","","","","","","","","","","","","","","","","","","","","","","","","","","","","","","","","","","","","","SYN004BUFR","","","","","","","","","",""
"83184099999","2021-12-02T09:00:00","-11.2166666","-41.2166666","1005.0","MORRO DO CHAPEU, BR","FM-12","4","","68","73","","","","9","85","BKN:07 20","29.84","26.65","6.21","70","140","","7","","","","","","","","","","","","","","","","","","","","","","","","","","","","","","","","","","","","","","","","","","","","","","","","","","","","","","","","","","","","","","","","","","","","","","","","","","","","","","","","","","","","","","","","","","","SYN004BUFR","","","","","","","","","",""
"83184099999","2021-12-02T15:00:00","-11.2166666","-41.2166666","1005.0","MORRO DO CHAPEU, BR","FM-12","4","","67","73","","","","9","82","OVC:08 20","29.71","26.56","6.21","69","320","","9","","","","","","","","","","","","","","","","","","","","","","","","","","","","","","","","","","","","","","","","","","","","","","","","","","","","","","","","","","","","","","","","","","","","","","","","","","","","","","","","","","","","","","","","","","","SYN004BUFR","","","","","","","","","",""
"83184099999","2021-12-02T21:00:00","-11.2166666","-41.2166666","1005.0","MORRO DO CHAPEU, BR","FM-12","4","","65","68","","","","9","88","OVC:08 20","29.80","26.60","2.49","66","230","","7","","","","","","","","","","","","","","","","","","","","","","","","","","","","","","","","","","","","","","","","","","","","","","","","","","","","","","","","","","","","","","","","","","","","","","","","","","","","","","","","","","","","","","","","","","","SYN004BUFR","","","","","","","","","",""
"83184099999","2021-12-03T09:00:00","-11.2166666","-41.2166666","1005.0","MORRO DO CHAPEU, BR","FM-12","4","","67","70","","","","9","91","OVC:08 20","29.85","26.64","6.21","68","140","","7","","","","","","","","","","","","","","","","","","","","","","","","","","","","","","","","","","","","","","","","","","","","","","","","","","","","","","","","","","","","","","","","","","","","","","","","","","","","","","","","","","","","","","","","","","","SYN004BUFR","","","","","","","","","",""
"83184099999","2021-12-04T09:00:00","-11.2166666","-41.2166666","1005.0","MORRO DO CHAPEU, BR","FM-12","4","","66","67","","","","9","96","OVC:08 20","29.95","26.72","6.21","66","140","","7","","","","","","","","","","","","","","","","","","","","","","","","","","","","","","","","","","","","","","","","","","","","","","","","","","","","","","","","","","","","","","","","","","","","","","","","","","","","","","","","","","","","","","","","","","","SYN004BUFR","","","","","","","","","",""
"83184099999","2021-12-04T15:00:00","-11.2166666","-41.2166666","1005.0","MORRO DO CHAPEU, BR","FM-12","4","","64","74","","","","9","71","OVC:08s 20","29.88","26.67","6.21","67","140","","7","","","","","","","","","","","","","","","","","","","","","","","","","","","","","","","","","","","","","","","","","","","","","","","","","","","","","","","","","","","","","","","","","","","","","","","","","","","","","","","","","","","","","","","","","","","SYN004BUFR","","","","","","","","","",""
"83184099999","2021-12-04T21:00:00","-11.2166666","-41.2166666","1005.0","MORRO DO CHAPEU, BR","FM-12","4","","65","70","","","","9","85","OVC:08 20","29.94","26.71","2.49","67","140","","7","","","","","","","","","","","","","","","","","","","","","","","","","","","","","","","","","","","","","","","","","","","","","","","","","","","","","","","","","","","","","","","","","","","","","","","","","","","","","","","","","","","","","","","","","","","SYN004BUFR","","","","","","","","","",""
"83184099999","2021-12-05T09:00:00","-11.2166666","-41.2166666","1005.0","MORRO DO CHAPEU, BR","FM-12","4","","65","67","","","","9","94","OVC:08 20","29.97","26.74","6.21","66","140","","7","","","","","","","","","","","","","","","","","","","","","","","","","","","","","","","","","","","","","","","","","","","","","","","","","","","","","","","","","","","","","","","","","","","","","","","","","","","","","","","","","","","","","","","","","","","SYN004BUFR","","","","","","","","","",""
"83184099999","2021-12-05T15:00:00","-11.2166666","-41.2166666","1005.0","MORRO DO CHAPEU, BR","FM-12","4","","68","77","","","","9","73","SCT:04 20","29.85","26.65","6.21","71","140","","7","","","","","","","","","","","","","","","","","","","","","","","","","","","","","","","","","","","","","","","","","","","","","","","","","","","","","","","","","","","","","","","","","","","","","","","","","","","","","","","","","","","","","","","","","","","SYN004BUFR","","","","","","","","","",""
"83184099999","2021-12-06T09:00:00","-11.2166666","-41.2166666","1005.0","MORRO DO CHAPEU, BR","FM-12","4","","65","69","","","","9","87","BKN:07 20","29.94","26.71","6.21","66","140","","9","","","","","","","","","","","","","","","","","","","","","","","","","","","","","","","","","","","","","","","","","","","","","","","","","","","","","","","","","","","","","","","","","","","","","","","","","","","","","","","","","","","","","","","","","","","SYN004BUFR","","","","","","","","","",""
"83184099999","2021-12-06T15:00:00","-11.2166666","-41.2166666","1005.0","MORRO DO CHAPEU, BR","FM-12","4","","66","78","","","","9","65","BKN:05 20","29.81","26.62","6.21","70","140","","7","","","","","","","","","","","","","","","","","","","","","","","","","","","","","","","","","","","","","","","","","","","","","","","","","","","","","","","","","","","","","","","","","","","","","","","","","","","","","","","","","","","","","","","","","","","SYN004BUFR","","","","","","","","","",""
"83184099999","2021-12-06T21:00:00","-11.2166666","-41.2166666","1005.0","MORRO DO CHAPEU, BR","FM-12","4","","66","69","","","","9","88","SCT:03 20","29.87","26.66","2.49","67","140","","7","","","","","","","","","","","","","","","","","","","","","","","","","","","","","","","","","","","","","","","","","","","","","","","","","","","","","","","","","","","","","","","","","","","","","","","","","","","","","","","","","","","","","","","","","","","SYN004BUFR","","","","","","","","","",""
"83184099999","2021-12-07T09:00:00","-11.2166666","-41.2166666","1005.0","MORRO DO CHAPEU, BR","FM-12","4","","64","70","","","","9","82","BKN:07 20","29.86","26.65","6.21","66","140","","9","","","","","","","","","","","","","","","","","","","","","","","","","","","","","","","","","","","","","","","","","","","","","","","","","","","","","","","","","","","","","","","","","","","","","","","","","","","","","","","","","","","","","","","","","","","SYN004BUFR","","","","","","","","","",""
"83184099999","2021-12-07T15:00:00","-11.2166666","-41.2166666","1005.0","MORRO DO CHAPEU, BR","FM-12","4","","64","79","","","","9","60","SCT:03 20","29.72","26.56","6.21","69","090","","7","","","","","","","","","","","","","","","","","","","","","","","","","","","","","","","","","","","","","","","","","","","","","","","","","","","","","","","","","","","","","","","","","","","","","","","","","","","","","","","","","","","","","","","","","","","SYN004BUFR","","","","","","","","","",""
"83184099999","2021-12-07T21:00:00","-11.2166666","-41.2166666","1005.0","MORRO DO CHAPEU, BR","FM-12","4","","66","72","","","","9","83","SCT:03 20","29.80","26.60","2.49","68","140","","5","","","","","","","","","","","","","","","","","","","","","","","","","","","","","","","","","","","","","","","","","","","","","","","","","","","","","","","","","","","","","","","","","","","","","","","","","","","","","","","","","","","","","","","","","","","SYN004BUFR","","","","","","","","","",""
"83184099999","2021-12-08T09:00:00","-11.2166666","-41.2166666","1005.0","MORRO DO CHAPEU, BR","FM-12","4","","66","70","","","","","87","20","","","6.21","","090","","7","","","","","","","","","","","","","","","","","","","","","","","","","","","","","","","","","","","","","","","","","","","","","","","","","","","","","","","","","","","","","","","","","","","","","","","","","","","","","","","","","","","","","","","","","","","SYN004BUFR","","","","","","","","","",""
"83184099999","2021-12-08T15:00:00","-11.2166666","-41.2166666","1005.0","MORRO DO CHAPEU, BR","FM-12","4","","65","80","","","","9","60","BKN:05 20","29.72","26.55","6.21","70","090","","7","","","","","","","","","","","","","","","","","","","","","","","","","","","","","","","","","","","","","","","","","","","","","","","","","","","","","","","","","","","","","","","","","","","","","","","","","","","","","","","","","","","","","","","","","","","SYN004BUFR","","","","","","","","","",""
"83184099999","2021-12-09T09:00:00","-11.2166666","-41.2166666","1005.0","MORRO DO CHAPEU, BR","FM-12","4","","66","67","","||RA","","9","98","BKN:05 20","29.90","26.68","2.49","66","140","","5","","","","","","","","","","","","","","","","","","","","","","","","","","","","","","","","","","","","","","","","","","","","","","","","","","","","","","","","","","","","","","","","","","","","","","","","","","","","","","","","","","","","","","","","","","","SYN004BUFR","","","","","","","","","",""
"83184099999","2021-12-09T15:00:00","-11.2166666","-41.2166666","1005.0","MORRO DO CHAPEU, BR","FM-12","4","","66","74","","","","9","76","SCT:03 20","29.79","26.59","6.21","69","140","","7","","","","","","","","","","","","","","","","","","","","","","","","","","","","","","","","","","","","","","","","","","","","","","","","","","","","","","","","","","","","","","","","","","","","","","","","","","","","","","","","","","","","","","","","","","","SYN004BUFR","","","","","","","","","",""
"83184099999","2021-12-10T09:00:00","-11.2166666","-41.2166666","1005.0","MORRO DO CHAPEU, BR","FM-12","4","","68","70","","","","9","95","OVC:08 20","29.87","26.66","6.21","69","140","","7","","","","","","","","","","","","","","","","","","","","","","","","","","","","","","","","","","","","","","","","","","","","","","","","","","","","","","","","","","","","","","","","","","","","","","","","","","","","","","","","","","","","","","","","","","","SYN004BUFR","","","","","","","","","",""
"83184099999","2021-12-10T15:00:00","-11.2166666","-41.2166666","1005.0","MORRO DO CHAPEU, BR","FM-12","4","","64","74","","","","9","70","OVC:08 20","29.87","26.59","6.21","67","140","","7","","","","","","","","","","","","","","","","","","","","","","","","","","","","","","","","","","","","","","","","","","","","","","","","","","","","","","","","","","","","","","","","","","","","","","","","","","","","","","","","","","","","","","","","","","","SYN004BUFR","","","","","","","","","",""
"83184099999","2021-12-10T21:00:00","-11.2166666","-41.2166666","1005.0","MORRO DO CHAPEU, BR","FM-12","4","","69","71","","","","9","93","OVC:08 20","29.86","26.65","2.49","70","140","","7","","","","","","","","","","","","","","","","","","","","","","","","","","","","","","","","","","","","","","","","","","","","","","","","","","","","","","","","","","","","","","","","","","","","","","","","","","","","","","","","","","","","","","","","","","","SYN004BUFR","","","","","","","","","",""
"83184099999","2021-12-11T09:00:00","-11.2166666","-41.2166666","1005.0","MORRO DO CHAPEU, BR","FM-12","4","","65","67","","","","9","95","OVC:08 20","29.86","26.64","2.49","66","140","","7","","","","","","","","","","","","","","","","","","","","","","","","","","","","","","","","","","","","","","","","","","","","","","","","","","","","","","","","","","","","","","","","","","","","","","","","","","","","","","","","","","","","","","","","","","","SYN004BUFR","","","","","","","","","",""
"83184099999","2021-12-11T15:00:00","-11.2166666","-41.2166666","1005.0","MORRO DO CHAPEU, BR","FM-12","4","","65","70","","","","9","84","OVC:08 20","29.80","26.59","6.21","67","140","","7","","","","","","","","","","","","","","","","","","","","","","","","","","","","","","","","","","","","","","","","","","","","","","","","","","","","","","","","","","","","","","","","","","","","","","","","","","","","","","","","","","","","","","","","","","","SYN004BUFR","","","","","","","","","",""
"83184099999","2021-12-11T21:00:00","-11.2166666","-41.2166666","1005.0","MORRO DO CHAPEU, BR","FM-12","4","","67","68","","","","9","94","OVC:08 20","29.87","26.64","2.49","67","360","","0","","","","","","","","","","","","","","","","","","","","","","","","","","","","","","","","","","","","","","","","","","","","","","","","","","","","","","","","","","","","","","","","","","","","","","","","","","","","","","","","","","","","","","","","","","","SYN004BUFR","","","","","","","","","",""
"83184099999","2021-12-12T09:00:00","-11.2166666","-41.2166666","1005.0","MORRO DO CHAPEU, BR","FM-12","4","","65","65","","","","9","99","BKN:06 20","29.90","26.66","2.49","65","140","","7","","","","","","","","","","","","","","","","","","","","","","","","","","","","","","","","","","","","","","","","","","","","","","","","","","","","","","","","","","","","","","","","","","","","","","","","","","","","","","","","","","","","","","","","","","","SYN004BUFR","","","","","","","","","",""
"83184099999","2021-12-12T15:00:00","-11.2166666","-41.2166666","1005.0","MORRO DO CHAPEU, BR","FM-12","4","","65","74","","","","9","75","BKN:06 20","29.80","26.59","6.21","68","140","","7","","","","","","","","","","","","","","","","","","","","","","","","","","","","","","","","","","","","","","","","","","","","","","","","","","","","","","","","","","","","","","","","","","","","","","","","","","","","","","","","","","","","","","","","","","","SYN004BUFR","","","","","","","","","",""
"83184099999","2021-12-13T09:00:00","-11.2166666","-41.2166666","1005.0","MORRO DO CHAPEU, BR","FM-12","4","","63","66","","","","9","88","OVC:08 20","29.92","26.68","6.21","64","140","","7","","","","","","","","","","","","","","","","","","","","","","","","","","","","","","","","","","","","","","","","","","","","","","","","","","","","","","","","","","","","","","","","","","","","","","","","","","","","","","","","","","","","","","","","","","","SYN004BUFR","","","","","","","","","",""
"83184099999","2021-12-13T15:00:00","-11.2166666","-41.2166666","1005.0","MORRO DO CHAPEU, BR","FM-12","4","","64","79","","","","9","61","SCT:03 20","29.79","26.60","6.21","69","140","","7","","","","","","","","","","","","","","","","","","","","","","","","","","","","","","","","","","","","","","","","","","","","","","","","","","","","","","","","","","","","","","","","","","","","","","","","","","","","","","","","","","","","","","","","","","","SYN004BUFR","","","","","","","","","",""
"83184099999","2021-12-14T09:00:00","-11.2166666","-41.2166666","1005.0","MORRO DO CHAPEU, BR","FM-12","4","","63","71","","","","9","76","SCT:04 20","29.90","26.69","6.21","66","140","","7","","","","","","","","","","","","","","","","","","","","","","","","","","","","","","","","","","","","","","","","","","","","","","","","","","","","","","","","","","","","","","","","","","","","","","","","","","","","","","","","","","","","","","","","","","","SYN004BUFR","","","","","","","","","",""
"83184099999","2021-12-14T15:00:00","-11.2166666","-41.2166666","1005.0","MORRO DO CHAPEU, BR","FM-12","4","","62","81","","","","9","52","SCT:03 20","29.77","26.59","6.21","68","140","","9","","","","","","","","","","","","","","","","","","","","","","","","","","","","","","","","","","","","","","","","","","","","","","","","","","","","","","","","","","","","","","","","","","","","","","","","","","","","","","","","","","","","","","","","","","","SYN004BUFR","","","","","","","","","",""
"83184099999","2021-12-15T09:00:00","-11.2166666","-41.2166666","1005.0","MORRO DO CHAPEU, BR","FM-12","4","","64","71","","","","9","80","BKN:07 20","29.89","26.68","6.21","66","090","","9","","","","","","","","","","","","","","","","","","","","","","","","","","","","","","","","","","","","","","","","","","","","","","","","","","","","","","","","","","","","","","","","","","","","","","","","","","","","","","","","","","","","","","","","","","","SYN004BUFR","","","","","","","","","",""
"83184099999","2021-12-15T15:00:00","-11.2166666","-41.2166666","1005.0","MORRO DO CHAPEU, BR","FM-12","4","","63","82","","","","9","52","SCT:03 20","29.74","26.58","6.21","69","090","","7","","","","","","","","","","","","","","","","","","","","","","","","","","","","","","","","","","","","","","","","","","","","","","","","","","","","","","","","","","","","","","","","","","","","","","","","","","","","","","","","","","","","","","","","","","","SYN004BUFR","","","","","","","","","",""
"83184099999","2021-12-16T09:00:00","-11.2166666","-41.2166666","1005.0","MORRO DO CHAPEU, BR","FM-12","4","","61","71","","","","9","71","BKN:06 20","29.86","26.65","6.21","65","140","","9","","","","","","","","","","","","","","","","","","","","","","","","","","","","","","","","","","","","","","","","","","","","","","","","","","","","","","","","","","","","","","","","","","","","","","","","","","","","","","","","","","","","","","","","","","","SYN004BUFR","","","","","","","","","",""
"83184099999","2021-12-16T15:00:00","-11.2166666","-41.2166666","1005.0","MORRO DO CHAPEU, BR","FM-12","4","","64","79","","","","9","60","SCT:03 20","29.77","26.59","6.21","69","140","","7","","","","","","","","","","","","","","","","","","","","","","","","","","","","","","","","","","","","","","","","","","","","","","","","","","","","","","","","","","","","","","","","","","","","","","","","","","","","","","","","","","","","","","","","","","","SYN004BUFR","","","","","","","","","",""
"83184099999","2021-12-17T09:00:00","-11.2166666","-41.2166666","1005.0","MORRO DO CHAPEU, BR","FM-12","4","","64","68","","","","9","85","OVC:08 20","29.93","26.70","6.21","65","140","","7","","","","","","","","","","","","","","","","","","","","","","","","","","","","","","","","","","","","","","","","","","","","","","","","","","","","","","","","","","","","","","","","","","","","","","","","","","","","","","","","","","","","","","","","","","","SYN004BUFR","","","","","","","","","",""
"83184099999","2021-12-18T09:00:00","-11.2166666","-41.2166666","1005.0","MORRO DO CHAPEU, BR","FM-12","4","","65","72","","","","9","80","BKN:06 20","29.87","26.68","6.21","67","140","","7","","","","","","","","","","","","","","","","","","","","","","","","","","","","","","","","","","","","","","","","","","","","","","","","","","","","","","","","","","","","","","","","","","","","","","","","","","","","","","","","","","","","","","","","","","","SYN004BUFR","","","","","","","","","",""
"83184099999","2021-12-18T15:00:00","-11.2166666","-41.2166666","1005.0","MORRO DO CHAPEU, BR","FM-12","4","","63","81","","","","9","54","SCT:04 20","29.77","26.59","6.21","69","140","","7","","","","","","","","","","","","","","","","","","","","","","","","","","","","","","","","","","","","","","","","","","","","","","","","","","","","","","","","","","","","","","","","","","","","","","","","","","","","","","","","","","","","","","","","","","","SYN004BUFR","","","","","","","","","",""
"83184099999","2021-12-18T21:00:00","-11.2166666","-41.2166666","1005.0","MORRO DO CHAPEU, BR","FM-12","4","","67","71","","","","9","88","SCT:03 20","29.83","26.63","2.49","68","140","","5","","","","","","","","","","","","","","","","","","","","","","","","","","","","","","","","","","","","","","","","","","","","","","","","","","","","","","","","","","","","","","","","","","","","","","","","","","","","","","","","","","","","","","","","","","","SYN004BUFR","","","","","","","","","",""
"83184099999","2021-12-19T09:00:00","-11.2166666","-41.2166666","1005.0","MORRO DO CHAPEU, BR","FM-12","4","","65","69","","","","9","88","OVC:08 20","29.87","26.66","6.21","66","140","","7","","","","","","","","","","","","","","","","","","","","","","","","","","","","","","","","","","","","","","","","","","","","","","","","","","","","","","","","","","","","","","","","","","","","","","","","","","","","","","","","","","","","","","","","","","","SYN004BUFR","","","","","","","","","",""
"83184099999","2021-12-19T15:00:00","-11.2166666","-41.2166666","1005.0","MORRO DO CHAPEU, BR","FM-12","4","","64","78","","","","9","62","BKN:07s 20","29.77","26.58","6.21","69","140","","7","","","","","","","","","","","","","","","","","","","","","","","","","","","","","","","","","","","","","","","","","","","","","","","","","","","","","","","","","","","","","","","","","","","","","","","","","","","","","","","","","","","","","","","","","","","SYN004BUFR","","","","","","","","","",""
"83184099999","2021-12-20T09:00:00","-11.2166666","-41.2166666","1005.0","MORRO DO CHAPEU, BR","FM-12","4","","65","68","","","","9","89","OVC:08 20","29.84","26.64","6.21","66","140","","7","","","","","","","","","","","","","","","","","","","","","","","","","","","","","","","","","","","","","","","","","","","","","","","","","","","","","","","","","","","","","","","","","","","","","","","","","","","","","","","","","","","","","","","","","","","SYN004BUFR","","","","","","","","","",""
"83184099999","2021-12-21T09:00:00","-11.2166666","-41.2166666","1005.0","MORRO DO CHAPEU, BR","FM-12","4","","66","67","","","","9","96","OVC:08 20","29.86","26.64","2.49","66","140","","5","","","","","","","","","","","","","","","","","","","","","","","","","","","","","","","","","","","","","","","","","","","","","","","","","","","","","","","","","","","","","","","","","","","","","","","","","","","","","","","","","","","","","","","","","","","SYN004BUFR","","","","","","","","","",""
"83184099999","2021-12-21T15:00:00","-11.2166666","-41.2166666","1005.0","MORRO DO CHAPEU, BR","FM-12","4","","69","74","","","","9","85","BKN:05 20","29.78","26.57","6.21","71","140","","7","","","","","","","","","","","","","","","","","","","","","","","","","","","","","","","","","","","","","","","","","","","","","","","","","","","","","","","","","","","","","","","","","","","","","","","","","","","","","","","","","","","","","","","","","","","SYN004BUFR","","","","","","","","","",""
"83184099999","2021-12-22T09:00:00","-11.2166666","-41.2166666","1005.0","MORRO DO CHAPEU, BR","FM-12","4","","66","71","","","","9","86","SCT:04 20","29.87","26.65","6.21","68","140","","5","","","","","","","","","","","","","","","","","","","","","","","","","","","","","","","","","","","","","","","","","","","","","","","","","","","","","","","","","","","","","","","","","","","","","","","","","","","","","","","","","","","","","","","","","","","SYN004BUFR","","","","","","","","","",""
"83184099999","2021-12-22T15:00:00","-11.2166666","-41.2166666","1005.0","MORRO DO CHAPEU, BR","FM-12","4","","69","71","","||RA","","9","93","OVC:08 20","29.80","26.58","2.49","70","140","","7","","","","","","","","","","","","","","","","","","","","","","","","","","","","","","","","","","","","","","","","","","","","","","","","","","","","","","","","","","","","","","","","","","","","","","","","","","","","","","","","","","","","","","","","","","","SYN004BUFR","","","","","","","","","",""
"83184099999","2021-12-23T09:00:00","-11.2166666","-41.2166666","1005.0","MORRO DO CHAPEU, BR","FM-12","4","","67","71","","","","9","88","OVC:08 20","29.85","26.64","6.21","68","090","","5","","","","","","","","","","","","","","","","","","","","","","","","","","","","","","","","","","","","","","","","","","","","","","","","","","","","","","","","","","","","","","","","","","","","","","","","","","","","","","","","","","","","","","","","","","","SYN004BUFR","","","","","","","","","",""
"83184099999","2021-12-23T15:00:00","-11.2166666","-41.2166666","1005.0","MORRO DO CHAPEU, BR","FM-12","4","","68","76","","","","9","77","SCT:04 20","29.73","26.54","6.21","71","230","","7","","","","","","","","","","","","","","","","","","","","","","","","","","","","","","","","","","","","","","","","","","","","","","","","","","","","","","","","","","","","","","","","","","","","","","","","","","","","","","","","","","","","","","","","","","","SYN004BUFR","","","","","","","","","",""
"83184099999","2021-12-23T21:00:00","-11.2166666","-41.2166666","1005.0","MORRO DO CHAPEU, BR","FM-12","4","","68","71","","","","9","92","SCT:03 20","29.79","26.59","2.49","69","180","","5","","","","","","","","","","","","","","","","","","","","","","","","","","","","","","","","","","","","","","","","","","","","","","","","","","","","","","","","","","","","","","","","","","","","","","","","","","","","","","","","","","","","","","","","","","","SYN004BUFR","","","","","","","","","",""
"83184099999","2021-12-24T09:00:00","-11.2166666","-41.2166666","1005.0","MORRO DO CHAPEU, BR","FM-12","4","","63","72","","","","9","73","SCT:04 20","29.79","26.59","6.21","66","320","","7","","","","","","","","","","","","","","","","","","","","","","","","","","","","","","","","","","","","","","","","","","","","","","","","","","","","","","","","","","","","","","","","","","","","","","","","","","","","","","","","","","","","","","","","","","","SYN004BUFR","","","","","","","","","",""
"83184099999","2021-12-25T09:00:00","-11.2166666","-41.2166666","1005.0","MORRO DO CHAPEU, BR","FM-12","4","","66","69","","","","9","90","OVC:08 20","29.80","26.59","6.21","67","320","","7","","","","","","","","","","","","","","","","","","","","","","","","","","","","","","","","","","","","","","","","","","","","","","","","","","","","","","","","","","","","","","","","","","","","","","","","","","","","","","","","","","","","","","","","","","","SYN004BUFR","","","","","","","","","",""
"83184099999","2021-12-25T15:00:00","-11.2166666","-41.2166666","1005.0","MORRO DO CHAPEU, BR","FM-12","4","","69","75","","","","9","81","BKN:06 20","29.78","26.58","6.21","71","360","","7","","","","","","","","","","","","","","","","","","","","","","","","","","","","","","","","","","","","","","","","","","","","","","","","","","","","","","","","","","","","","","","","","","","","","","","","","","","","","","","","","","","","","","","","","","","SYN004BUFR","","","","","","","","","",""
"83184099999","2021-12-25T21:00:00","-11.2166666","-41.2166666","1005.0","MORRO DO CHAPEU, BR","FM-12","4","","64","66","","","","9","93","BKN:06 20","29.85","26.61","6.21","65","320","","7","","","","","","","","","","","","","","","","","","","","","","","","","","","","","","","","","","","","","","","","","","","","","","","","","","","","","","","","","","","","","","","","","","","","","","","","","","","","","","","","","","","","","","","","","","","SYN004BUFR","","","","","","","","","",""
"83184099999","2021-12-27T09:00:00","-11.2166666","-41.2166666","1005.0","MORRO DO CHAPEU, BR","FM-12","4","","65","67","","","","9","95","OVC:08 20","29.94","26.70","6.21","66","090","","7","","","","","","","","","","","","","","","","","","","","","","","","","","","","","","","","","","","","","","","","","","","","","","","","","","","","","","","","","","","","","","","","","","","","","","","","","","","","","","","","","","","","","","","","","","","SYN004BUFR","","","","","","","","","",""
"83184099999","2021-12-27T15:00:00","-11.2166666","-41.2166666","1005.0","MORRO DO CHAPEU, BR","FM-12","4","","64","75","","","","9","71","SCT:04 20","29.84","26.63","6.21","68","050","","7","","","","","","","","","","","","","","","","","","","","","","","","","","","","","","","","","","","","","","","","","","","","","","","","","","","","","","","","","","","","","","","","","","","","","","","","","","","","","","","","","","","","","","","","","","","SYN004BUFR","","","","","","","","","",""
"83184099999","2021-12-28T09:00:00","-11.2166666","-41.2166666","1005.0","MORRO DO CHAPEU, BR","FM-12","4","","66","70","","","","9","87","OVC:08 20","29.94","26.72","6.21","67","140","","7","","","","","","","","","","","","","","","","","","","","","","","","","","","","","","","","","","","","","","","","","","","","","","","","","","","","","","","","","","","","","","","","","","","","","","","","","","","","","","","","","","","","","","","","","","","SYN004BUFR","","","","","","","","","",""
"83184099999","2021-12-28T15:00:00","-11.2166666","-41.2166666","1005.0","MORRO DO CHAPEU, BR","FM-12","4","","67","75","","","","9","75","BKN:07 20","29.84","26.65","6.21","70","090","","7","","","","","","","","","","","","","","","","","","","","","","","","","","","","","","","","","","","","","","","","","","","","","","","","","","","","","","","","","","","","","","","","","","","","","","","","","","","","","","","","","","","","","","","","","","","SYN004BUFR","","","","","","","","","",""
"83184099999","2021-12-29T09:00:00","-11.2166666","-41.2166666","1005.0","MORRO DO CHAPEU, BR","FM-12","4","","61","71","","","","9","71","BKN:05 20","29.97","26.75","6.21","65","140","","7","","","","","","","","","","","","","","","","","","","","","","","","","","","","","","","","","","","","","","","","","","","","","","","","","","","","","","","","","","","","","","","","","","","","","","","","","","","","","","","","","","","","","","","","","","","SYN004BUFR","","","","","","","","","",""
"83184099999","2021-12-29T15:00:00","-11.2166666","-41.2166666","1005.0","MORRO DO CHAPEU, BR","FM-12","4","","60","80","","","","9","52","FEW:02 20","29.82","26.64","6.21","67","140","","7","","","","","","","","","","","","","","","","","","","","","","","","","","","","","","","","","","","","","","","","","","","","","","","","","","","","","","","","","","","","","","","","","","","","","","","","","","","","","","","","","","","","","","","","","","","SYN004BUFR","","","","","","","","","",""
"83184099999","2021-12-30T09:00:00","-11.2166666","-41.2166666","1005.0","MORRO DO CHAPEU, BR","FM-12","4","","61","71","","","","9","72","BKN:05 20","29.91","26.68","6.21","65","140","","9","","","","","","","","","","","","","","","","","","","","","","","","","","","","","","","","","","","","","","","","","","","","","","","","","","","","","","","","","","","","","","","","","","","","","","","","","","","","","","","","","","","","","","","","","","","SYN004BUFR","","","","","","","","","",""
"83184099999","2021-12-30T15:00:00","-11.2166666","-41.2166666","1005.0","MORRO DO CHAPEU, BR","FM-12","4","","59","81","","","","9","48","SCT:03 20","29.75","26.58","6.21","67","140","","9","","","","","","","","","","","","","","","","","","","","","","","","","","","","","","","","","","","","","","","","","","","","","","","","","","","","","","","","","","","","","","","","","","","","","","","","","","","","","","","","","","","","","","","","","","","SYN004BUFR","","","","","","","","","",""
"83184099999","2021-12-31T09:00:00","-11.2166666","-41.2166666","1005.0","MORRO DO CHAPEU, BR","FM-12","4","","62","67","","","","9","83","BKN:06 20","29.89","26.67","6.21","64","140","","7","","","","","","","","","","","","","","","","","","","","","","","","","","","","","","","","","","","","","","","","","","","","","","","","","","","","","","","","","","","","","","","","","","","","","","","","","","","","","","","","","","","","","","","","","","","SYN004BUFR","","","","","","","","","",""
