"STATION","DATE","LATITUDE","LONGITUDE","ELEVATION","NAME","REPORT_TYPE","SOURCE","HourlyAltimeterSetting","HourlyDewPointTemperature","HourlyDryBulbTemperature","HourlyPrecipitation","HourlyPresentWeatherType","HourlyPressureChange","HourlyPressureTendency","HourlyRelativeHumidity","HourlySkyConditions","HourlySeaLevelPressure","HourlyStationPressure","HourlyVisibility","HourlyWetBulbTemperature","HourlyWindDirection","HourlyWindGustSpeed","HourlyWindSpeed","Sunrise","Sunset","DailyAverageDewPointTemperature","DailyAverageDryBulbTemperature","DailyAverageRelativeHumidity","DailyAverageSeaLevelPressure","DailyAverageStationPressure","DailyAverageWetBulbTemperature","DailyAverageWindSpeed","DailyCoolingDegreeDays","DailyDepartureFromNormalAverageTemperature","DailyHeatingDegreeDays","DailyMaximumDryBulbTemperature","DailyMinimumDryBulbTemperature","DailyPeakWindDirection","DailyPeakWindSpeed","DailyPrecipitation","DailySnowDepth","DailySnowfall","DailySustainedWindDirection","DailySustainedWindSpeed","DailyWeather","MonthlyAverageRH","MonthlyDaysWithGT001Precip","MonthlyDaysWithGT010Precip","MonthlyDaysWithGT32Temp","MonthlyDaysWithGT90Temp","MonthlyDaysWithLT0Temp","MonthlyDaysWithLT32Temp","MonthlyDepartureFromNormalAverageTemperature","MonthlyDepartureFromNormalCoolingDegreeDays","MonthlyDepartureFromNormalHeatingDegreeDays","MonthlyDepartureFromNormalMaximumTemperature","MonthlyDepartureFromNormalMinimumTemperature","MonthlyDepartureFromNormalPrecipitation","MonthlyDewpointTemperature","MonthlyGreatestPrecip","MonthlyGreatestPrecipDate","MonthlyGreatestSnowDepth","MonthlyGreatestSnowDepthDate","MonthlyGreatestSnowfall","MonthlyGreatestSnowfallDate","MonthlyMaxSeaLevelPressureValue","MonthlyMaxSeaLevelPressureValueDate","MonthlyMaxSeaLevelPressureValueTime","MonthlyMaximumTemperature","MonthlyMeanTemperature","MonthlyMinSeaLevelPressureValue","MonthlyMinSeaLevelPressureValueDate","MonthlyMinSeaLevelPressureValueTime","MonthlyMinimumTemperature","MonthlySeaLevelPressure","MonthlyStationPressure","MonthlyTotalLiquidPrecipitation","MonthlyTotalSnowfall","MonthlyWetBulb","AWND","CDSD","CLDD","DSNW","HDSD","HTDD","DYTS","DYHF","NormalsCoolingDegreeDay","NormalsHeatingDegreeDay","ShortDurationEndDate005","ShortDurationEndDate010","ShortDurationEndDate015","ShortDurationEndDate020","ShortDurationEndDate030","ShortDurationEndDate045","ShortDurationEndDate060","ShortDurationEndDate080","ShortDurationEndDate100","ShortDurationEndDate120","ShortDurationEndDate150","ShortDurationEndDate180","ShortDurationPrecipitationValue005","ShortDurationPrecipitationValue010","ShortDurationPrecipitationValue015","ShortDurationPrecipitationValue020","ShortDurationPrecipitationValue030","ShortDurationPrecipitationValue045","ShortDurationPrecipitationValue060","ShortDurationPrecipitationValue080","ShortDurationPrecipitationValue100","ShortDurationPrecipitationValue120","ShortDurationPrecipitationValue150","ShortDurationPrecipitationValue180","REM","BackupDirection","BackupDistance","BackupDistanceUnit","BackupElements","BackupElevation","BackupEquipment","BackupLatitude","BackupLongitude","BackupName","WindEquipmentChangeDate"
"87470099999","2021-01-01T09:00:00","-32.5","-61.6666666","96.0","EL TREBOL, AR","FM-12","4","","52","70","","","-0.05","1","53","FEW:01 89","29.96","29.63","9.32","60","050","","9","","","","","","","","","","","","","","","","","","","","","","","","","","","","","","","","","","","","","","","","","","","","","","","","","","","","","","","","","","","","","","","","","","","","","","","","","","","","","","","","","","","","","","","","","","","SYN08287470 32965 20508 10213 20113 30034 40146 51016 81058 333 10231 20148 56099 81359=","","","","","","","","","",""
"87470099999","2021-01-01T15:00:00","-32.5","-61.6666666","96.0","EL TREBOL, AR","FM-12","4","","49","86","","","+0.04","7","28","FEW:01 89","29.92","29.59","9.32","64","070","","6","","","","","","","","","","","","","","","","","","","","","","","","","","","","","","","","","","","","","","","","","","","","","","","","","","","","","","","","","","","","","","","","","","","","","","","","","","","","","","","","","","","","","","","","","","","SYN07087470 32965 30705 10301 20096 30021 40131 57012 81058 333 56099 81359=","","","","","","","","","",""
"87470099999","2021-01-01T21:00:00","-32.5","-61.6666666","96.0","EL TREBOL, AR","FM-12","4","","54","77","","","-0.04","3","44","FEW:01 89","29.91","29.58","9.32","63","050","","9","","","","","","","","","","","","","","","","","","","","","","","","","","","","","","","","","","","","","","","","","","","","","","","","","","","","","","","","","","","","","","","","","","","","","","","","","","","","","","","","","","","","","","","","","","","SYN08287470 32965 10508 10252 20121 30017 40128 53013 81050 333 10322 20213 56090 81359=","","","","","","","","","",""
"87470099999","2021-01-02T09:00:00","-32.5","-61.6666666","96.0","EL TREBOL, AR","FM-12","4","","56","79","","","-0.03","2","45","","29.97","29.64","9.32","65","050","","6","","","","","","","","","","","","","","","","","","","","","","","","","","","","","","","","","","","","","","","","","","","","","","","","","","","","","","","","","","","","","","","","","","","","","","","","","","","","","","","","","","","","","","","","","","","SYN004BUFR","","","","","","","","","",""
"87470099999","2021-01-03T09:00:00","-32.5","-61.6666666","96.0","EL TREBOL, AR","FM-12","4","","58","74","","","-0.03","2","56","BKN:07 20","29.88","29.55","9.32","64","360","","0","","","","","","","","","","","","","","","","","","","","","","","","","","","","","","","","","","","","","","","","","","","","","","","","","","","","","","","","","","","","","","","","","","","","","","","","","","","","","","","","","","","","","","","","","","","SYN004BUFR","","","","","","","","","",""
"87470099999","2021-01-03T15:00:00","-32.5","-61.6666666","96.0","EL TREBOL, AR","FM-12","4","","59","86","","","+0.04","7","40","SCT:03 20 BKN:05 246","29.84","29.51","9.32","69","140","","6","","","","","","","","","","","","","","","","","","","","","","","","","","","","","","","","","","","","","","","","","","","","","","","","","","","","","","","","","","","","","","","","","","","","","","","","","","","","","","","","","","","","","","","","","","","SYN004BUFR","","","","","","","","","",""
"87470099999","2021-01-03T18:00:00","-32.5","-61.6666666","96.0","EL TREBOL, AR","FM-12","4","","55","85","","","+0.01","7","36","BKN:05 20","29.82","29.50","9.32","67","140","","6","","","","","","","","","","","","","","","","","","","","","","","","","","","","","","","","","","","","","","","","","","","","","","","","","","","","","","","","","","","","","","","","","","","","","","","","","","","","","","","","","","","","","","","","","","","SYN004BUFR","","","","","","","","","",""
"87470099999","2021-01-03T21:00:00","-32.5","-61.6666666","96.0","EL TREBOL, AR","FM-12","4","","61","77","","","+0.05","7","59","OVC:08 20","29.78","29.45","9.32","67","000","","0","","","","","","","","","","","","","","","","","","","","","","","","","","","","","","","","","","","","","","","","","","","","","","","","","","","","","","","","","","","","","","","","","","","","","","","","","","","","","","","","","","","","","","","","","","","SYN08287470 32565 80000 10248 20161 39973 40083 57016 88500 333 10305 20235 56900 88620=","","","","","","","","","",""
"87470099999","2021-01-04T09:00:00","-32.5","-61.6666666","96.0","EL TREBOL, AR","FM-12","4","","62","73","","","0.00","4","68","BKN:06 89","29.74","29.41","9.32","66","090","","6","","","","","","","","","","","","","","","","","","","","","","","","","","","","","","","","","","","","","","","","","","","","","","","","","","","","","","","","","","","","","","","","","","","","","","","","","","","","","","","","","","","","","","","","","","","SYN004BUFR","","","","","","","","","",""
"87470099999","2021-01-04T12:00:00","-32.5","-61.6666666","96.0","EL TREBOL, AR","FM-12","4","","57","85","","","+0.02","7","38","FEW:01 89","29.71","29.39","9.32","67","360","","0","","","","","","","","","","","","","","","","","","","","","","","","","","","","","","","","","","","","","","","","","","","","","","","","","","","","","","","","","","","","","","","","","","","","","","","","","","","","","","","","","","","","","","","","","","","SYN004BUFR","","","","","","","","","",""
"87470099999","2021-01-04T15:00:00","-32.5","-61.6666666","96.0","EL TREBOL, AR","FM-12","4","","55","89","","","+0.00","6","31","FEW:01 89","29.71","29.39","9.32","68","230","","2","","","","","","","","","","","","","","","","","","","","","","","","","","","","","","","","","","","","","","","","","","","","","","","","","","","","","","","","","","","","","","","","","","","","","","","","","","","","","","","","","","","","","","","","","","","SYN07087470 32965 32302 10316 20127 39952 40061 56001 81034 333 56000 81359=","","","","","","","","","",""
"87470099999","2021-01-05T09:00:00","-32.5","-61.6666666","96.0","EL TREBOL, AR","FM-12","4","","63","71","","","0.00","4","75","SCT:03 89 SCT:03 246","29.77","29.44","9.32","66","180","","15","","","","","","","","","","","","","","","","","","","","","","","","","","","","","","","","","","","","","","","","","","","","","","","","","","","","","","","","","","","","","","","","","","","","","","","","","","","","","","","","","","","","","","","","","","","SYN004BUFR","","","","","","","","","",""
"87470099999","2021-01-05T15:00:00","-32.5","-61.6666666","96.0","EL TREBOL, AR","FM-12","4","","64","78","","","-0.00","3","63","SCT:04 20","29.80","29.47","9.32","69","250","","9","","","","","","","","","","","","","","","","","","","","","","","","","","","","","","","","","","","","","","","","","","","","","","","","","","","","","","","","","","","","","","","","","","","","","","","","","","","","","","","","","","","","","","","","","","","SYN07087470 32565 72508 10256 20179 39980 40090 53001 84558 333 56000 84620=","","","","","","","","","",""
"87470099999","2021-01-06T09:00:00","-32.5","-61.6666666","96.0","EL TREBOL, AR","FM-12","4","","57","67","","","-0.04","2","72","FEW:02 20","29.90","29.57","9.32","61","180","","15","","","","","","","","","","","","","","","","","","","","","","","","","","","","","","","","","","","","","","","","","","","","","","","","","","","","","","","","","","","","","","","","","","","","","","","","","","","","","","","","","","","","","","","","","","","SYN004BUFR","","","","","","","","","",""
"87470099999","2021-01-06T12:00:00","-32.5","-61.6666666","96.0","EL TREBOL, AR","FM-12","4","","57","74","","","+0.07","7","55","SCT:04 20","29.82","29.49","9.32","64","230","","15","","","","","","","","","","","","","","","","","","","","","","","","","","","","","","","","","","","","","","","","","","","","","","","","","","","","","","","","","","","","","","","","","","","","","","","","","","","","","","","","","","","","","","","","","","","SYN004BUFR","","","","","","","","","",""
"87470099999","2021-01-06T15:00:00","-32.5","-61.6666666","96.0","EL TREBOL, AR","FM-12","4","","57","79","","","-0.01","3","46","FEW:02 20","29.83","29.51","9.32","66","230","","9","","","","","","","","","","","","","","","","","","","","","","","","","","","","","","","","","","","","","","","","","","","","","","","","","","","","","","","","","","","","","","","","","","","","","","","","","","","","","","","","","","","","","","","","","","","SYN07687470 32565 32308 10261 20137 39992 40103 53004 82230 333 56000 57800 82820=","","","","","","","","","",""
"87470099999","2021-01-06T21:00:00","-32.5","-61.6666666","96.0","EL TREBOL, AR","FM-12","4","","54","64","","","+0.00","7","70","","29.80","29.47","9.32","58","360","","0","","","","","","","","","","","","","","","","","","","","","","","","","","","","","","","","","","","","","","","","","","","","","","","","","","","","","","","","","","","","","","","","","","","","","","","","","","","","","","","","","","","","","","","","","","","SYN004BUFR","","","","","","","","","",""
"87470099999","2021-01-07T09:00:00","-32.5","-61.6666666","96.0","EL TREBOL, AR","FM-12","4","","54","73","","","-0.01","2","51","","29.82","29.49","9.32","62","290","","6","","","","","","","","","","","","","","","","","","","","","","","","","","","","","","","","","","","","","","","","","","","","","","","","","","","","","","","","","","","","","","","","","","","","","","","","","","","","","","","","","","","","","","","","","","","SYN06487470 32965 02905 10229 20121 39988 40098 52005 333 10229 20105=","","","","","","","","","",""
"87470099999","2021-01-07T12:00:00","-32.5","-61.6666666","96.0","EL TREBOL, AR","FM-12","4","","47","88","","","+0.04","7","24","","29.78","29.45","9.32","64","140","","6","","","","","","","","","","","","","","","","","","","","","","","","","","","","","","","","","","","","","","","","","","","","","","","","","","","","","","","","","","","","","","","","","","","","","","","","","","","","","","","","","","","","","","","","","","","SYN004BUFR","","","","","","","","","",""
"87470099999","2021-01-07T15:00:00","-32.5","-61.6666666","96.0","EL TREBOL, AR","FM-12","4","","43","89","","","-0.01","3","20","","29.80","29.47","9.32","63","250","","2","","","","","","","","","","","","","","","","","","","","","","","","","","","","","","","","","","","","","","","","","","","","","","","","","","","","","","","","","","","","","","","","","","","","","","","","","","","","","","","","","","","","","","","","","","","SYN04887470 32965 02502 10316 20062 39978 40090 53004=","","","","","","","","","",""
"87470099999","2021-01-08T21:00:00","-32.5","-61.6666666","96.0","EL TREBOL, AR","FM-12","4","","54","80","","","+0.03","7","41","BKN:07 20","29.72","29.39","9.32","64","180","","9","","","","","","","","","","","","","","","","","","","","","","","","","","","","","","","","","","","","","","","","","","","","","","","","","","","","","","","","","","","","","","","","","","","","","","","","","","","","","","","","","","","","","","","","","","","SYN08287470 32565 71808 10265 20121 39954 40063 57011 87500 333 10330 20248 56900 87620=","","","","","","","","","",""
"87470099999","2021-01-09T09:00:00","-32.5","-61.6666666","96.0","EL TREBOL, AR","FM-12","4","","54","69","","","-0.04","3","61","FEW:02 20 SCT:03 246","29.85","29.53","9.32","60","110","","9","","","","","","","","","","","","","","","","","","","","","","","","","","","","","","","","","","","","","","","","","","","","","","","","","","","","","","","","","","","","","","","","","","","","","","","","","","","","","","","","","","","","","","","","","","","SYN10687470 01565 71108 10204 20125 30000 40109 53015 60054 702// 82725 333 10265 20175 56000 60052 82720 83275=","","","","","","","","","",""
"87470099999","2021-01-09T15:00:00","-32.5","-61.6666666","96.0","EL TREBOL, AR","FM-12","4","","62","84","","","+0.06","6","48","SCT:03 20","29.76","29.44","9.32","70","340","","2","","","","","","","","","","","","","","","","","","","","","","","","","","","","","","","","","","","","","","","","","","","","","","","","","","","","","","","","","","","","","","","","","","","","","","","","","","","","","","","","","","","","","","","","","","","SYN07687470 32565 33402 10290 20169 39968 40077 56020 83200 333 56000 57800 83820=","","","","","","","","","",""
"87470099999","2021-01-09T21:00:00","-32.5","-61.6666666","96.0","EL TREBOL, AR","FM-12","4","","62","80","","","-0.02","3","55","","29.72","29.39","9.32","68","000","","0","","","","","","","","","","","","","","","","","","","","","","","","","","","","","","","","","","","","","","","","","","","","","","","","","","","","","","","","","","","","","","","","","","","","","","","","","","","","","","","","","","","","","","","","","","","SYN06487470 32965 00000 10264 20165 39954 40064 53008 333 10312 20204=","","","","","","","","","",""
"87470099999","2021-01-10T09:00:00","-32.5","-61.6666666","96.0","EL TREBOL, AR","FM-12","4","","64","76","","","0.00","4","67","","29.77","29.45","9.32","68","020","","9","","","","","","","","","","","","","","","","","","","","","","","","","","","","","","","","","","","","","","","","","","","","","","","","","","","","","","","","","","","","","","","","","","","","","","","","","","","","","","","","","","","","","","","","","","","SYN07087470 31965 00208 10242 20177 39972 40081 54000 702// 333 10264 20176=","","","","","","","","","",""
"87470099999","2021-01-10T15:00:00","-32.5","-61.6666666","96.0","EL TREBOL, AR","FM-12","4","","60","94","","","+0.07","5","32","","29.66","29.34","9.32","72","020","","15","","","","","","","","","","","","","","","","","","","","","","","","","","","","","","","","","","","","","","","","","","","","","","","","","","","","","","","","","","","","","","","","","","","","","","","","","","","","","","","","","","","","","","","","","","","SYN04887470 32965 00213 10345 20154 39936 40044 55025=","","","","","","","","","",""
"87470099999","2021-01-10T21:00:00","-32.5","-61.6666666","96.0","EL TREBOL, AR","FM-12","4","","64","85","","","-0.01","3","50","SCT:03 89 SCT:03 246","29.57","29.25","9.32","71","020","","9","","","","","","","","","","","","","","","","","","","","","","","","","","","","","","","","","","","","","","","","","","","","","","","","","","","","","","","","","","","","","","","","","","","","","","","","","","","","","","","","","","","","","","","","","","","SYN08887470 32965 60208 10294 20178 39906 40014 53004 83083 333 10351 20242 56000 83359 83075=","","","","","","","","","",""
"87470099999","2021-01-11T09:00:00","-32.5","-61.6666666","96.0","EL TREBOL, AR","FM-12","4","","63","64","","||RA","-0.15","2","96","OVC:08 18","29.65","29.33","2.17","63","140","","9","","","","","","","","","","","","","","","","","","","","","","","","","","","","","","","","","","","","","","","","","","","","","","","","","","","","","","","","","","","","","","","","","","","","","","","","","","","","","","","","","","","","","","","","","","","SYN10087470 01435 81408 10178 20171 39933 40042 52050 60124 76362 88700 333 10294 20176 56900 60122 88718=","","","","","","","","","",""
"87470099999","2021-01-11T12:00:00","-32.5","-61.6666666","96.0","EL TREBOL, AR","FM-12","4","","63","63","","||RA","-0.05","2","99","BKN:06 18","29.71","29.38","3.11","63","110","","15","","","","","","","","","","","","","","","","","","","","","","","","","","","","","","","","","","","","","","","","","","","","","","","","","","","","","","","","","","","","","","","","","","","","","","","","","","","","","","","","","","","","","","","","","","","SYN004BUFR","","","","","","","","","",""
"87470099999","2021-01-11T15:00:00","-32.5","-61.6666666","96.0","EL TREBOL, AR","FM-12","4","","65","70","","","-0.02","3","84","FEW:02 20","29.73","29.41","9.32","67","090","","15","","","","","","","","","","","","","","","","","","","","","","","","","","","","","","","","","","","","","","","","","","","","","","","","","","","","","","","","","","","","","","","","","","","","","","","","","","","","","","","","","","","","","","","","","","","SYN08287470 11565 40913 10212 20184 39958 40069 53008 60181 70162 82780 333 56000 82720=","","","","","","","","","",""
"87470099999","2021-01-11T21:00:00","-32.5","-61.6666666","96.0","EL TREBOL, AR","FM-12","4","","66","71","","","-0.10","3","85","SCT:04 89","29.85","29.52","9.32","68","000","","0","","","","","","","","","","","","","","","","","","","","","","","","","","","","","","","","","","","","","","","","","","","","","","","","","","","","","","","","","","","","","","","","","","","","","","","","","","","","","","","","","","","","","","","","","","","SYN08887470 32965 40000 10217 20190 39998 40109 53033 84040 333 10243 20173 56000 57300 84359=","","","","","","","","","",""
"87470099999","2021-01-12T09:00:00","-32.5","-61.6666666","96.0","EL TREBOL, AR","FM-12","4","","57","65","","","-0.07","2","75","SCT:04 246","30.03","29.70","9.32","60","140","","9","","","","","","","","","","","","","","","","","","","","","","","","","","","","","","","","","","","","","","","","","","","","","","","","","","","","","","","","","","","","","","","","","","","","","","","","","","","","","","","","","","","","","","","","","","","SYN004BUFR","","","","","","","","","",""
"87470099999","2021-01-12T12:00:00","-32.5","-61.6666666","96.0","EL TREBOL, AR","FM-12","4","","62","76","","","+0.01","7","60","SCT:03 20","30.01","29.69","9.32","67","090","","6","","","","","","","","","","","","","","","","","","","","","","","","","","","","","","","","","","","","","","","","","","","","","","","","","","","","","","","","","","","","","","","","","","","","","","","","","","","","","","","","","","","","","","","","","","","SYN004BUFR","","","","","","","","","",""
"87470099999","2021-01-12T15:00:00","-32.5","-61.6666666","96.0","EL TREBOL, AR","FM-12","4","","61","78","","","+0.02","6","56","SCT:03 20 SCT:03 89","30.00","29.67","9.32","67","110","","6","","","","","","","","","","","","","","","","","","","","","","","","","","","","","","","","","","","","","","","","","","","","","","","","","","","","","","","","","","","","","","","","","","","","","","","","","","","","","","","","","","","","","","","","","","","SYN08287470 32565 61105 10254 20160 30046 40158 56007 83230 333 56000 57800 83820 83359=","","","","","","","","","",""
"87470099999","2021-01-12T21:00:00","-32.5","-61.6666666","96.0","EL TREBOL, AR","FM-12","4","","62","73","","","-0.01","3","70","","29.97","29.64","9.32","66","000","","0","","","","","","","","","","","","","","","","","","","","","","","","","","","","","","","","","","","","","","","","","","","","","","","","","","","","","","","","","","","","","","","","","","","","","","","","","","","","","","","","","","","","","","","","","","","SYN06487470 32965 00000 10226 20168 30037 40148 53003 333 10264 20184=","","","","","","","","","",""
"87470099999","2021-01-13T09:00:00","-32.5","-61.6666666","96.0","EL TREBOL, AR","FM-12","4","","60","70","","","-0.03","2","71","","30.01","29.69","9.32","64","090","","6","","","","","","","","","","","","","","","","","","","","","","","","","","","","","","","","","","","","","","","","","","","","","","","","","","","","","","","","","","","","","","","","","","","","","","","","","","","","","","","","","","","","","","","","","","","SYN06487470 32965 00905 10211 20156 30053 40164 52010 333 10226 20155=","","","","","","","","","",""
"87470099999","2021-01-13T12:00:00","-32.5","-61.6666666","96.0","EL TREBOL, AR","FM-12","4","","60","80","","","-0.05","2","50","","30.06","29.73","9.32","67","090","","6","","","","","","","","","","","","","","","","","","","","","","","","","","","","","","","","","","","","","","","","","","","","","","","","","","","","","","","","","","","","","","","","","","","","","","","","","","","","","","","","","","","","","","","","","","","SYN004BUFR","","","","","","","","","",""
"87470099999","2021-01-13T15:00:00","-32.5","-61.6666666","96.0","EL TREBOL, AR","FM-12","4","","56","84","","","+0.03","6","39","","30.03","29.71","9.32","67","090","","9","","","","","","","","","","","","","","","","","","","","","","","","","","","","","","","","","","","","","","","","","","","","","","","","","","","","","","","","","","","","","","","","","","","","","","","","","","","","","","","","","","","","","","","","","","","SYN04887470 32965 00908 10290 20136 30060 40171 56009=","","","","","","","","","",""
"87470099999","2021-01-13T21:00:00","-32.5","-61.6666666","96.0","EL TREBOL, AR","FM-12","4","","61","76","","","+0.00","6","60","","29.95","29.62","9.32","67","110","","6","","","","","","","","","","","","","","","","","","","","","","","","","","","","","","","","","","","","","","","","","","","","","","","","","","","","","","","","","","","","","","","","","","","","","","","","","","","","","","","","","","","","","","","","","","","SYN06487470 32965 01105 10246 20162 30032 40143 56001 333 10300 20211=","","","","","","","","","",""
"87470099999","2021-01-14T09:00:00","-32.5","-61.6666666","96.0","EL TREBOL, AR","FM-12","4","","62","70","","","0.00","4","75","BKN:06 89","30.00","29.67","9.32","65","050","","6","","","","","","","","","","","","","","","","","","","","","","","","","","","","","","","","","","","","","","","","","","","","","","","","","","","","","","","","","","","","","","","","","","","","","","","","","","","","","","","","","","","","","","","","","","","SYN08287470 32965 60505 10210 20164 30048 40159 54000 86080 333 10246 20180 56090 86359=","","","","","","","","","",""
"87470099999","2021-01-14T12:00:00","-32.5","-61.6666666","96.0","EL TREBOL, AR","FM-12","4","","63","81","","","+0.09","6","54","FEW:01 20","29.90","29.58","9.32","69","050","","6","","","","","","","","","","","","","","","","","","","","","","","","","","","","","","","","","","","","","","","","","","","","","","","","","","","","","","","","","","","","","","","","","","","","","","","","","","","","","","","","","","","","","","","","","","","SYN004BUFR","","","","","","","","","",""
"87470099999","2021-01-14T15:00:00","-32.5","-61.6666666","96.0","EL TREBOL, AR","FM-12","4","","58","86","","","+0.04","6","39","","29.85","29.53","9.32","68","090","","9","","","","","","","","","","","","","","","","","","","","","","","","","","","","","","","","","","","","","","","","","","","","","","","","","","","","","","","","","","","","","","","","","","","","","","","","","","","","","","","","","","","","","","","","","","","SYN04887470 32965 00908 10298 20143 30001 40110 56015=","","","","","","","","","",""
"87470099999","2021-01-14T21:00:00","-32.5","-61.6666666","96.0","EL TREBOL, AR","FM-12","4","","66","78","","","+0.04","6","66","SCT:03 89","29.76","29.43","9.32","70","070","","6","","","","","","","","","","","","","","","","","","","","","","","","","","","","","","","","","","","","","","","","","","","","","","","","","","","","","","","","","","","","","","","","","","","","","","","","","","","","","","","","","","","","","","","","","","","SYN08287470 32965 30705 10256 20188 39966 40077 56012 83030 333 10308 20210 56000 83359=","","","","","","","","","",""
"87470099999","2021-01-15T09:00:00","-32.5","-61.6666666","96.0","EL TREBOL, AR","FM-12","4","","","64","","||RA","-0.09","2","","OVC:08 16","29.80","29.47","1.24","","180","","6","","","","","","","","","","","","","","","","","","","","","","","","","","","","","","","","","","","","","","","","","","","","","","","","","","","","","","","","","","","","","","","","","","","","","","","","","","","","","","","","","","","","","","","","","","","SYN004BUFR","","","","","","","","","",""
"87470099999","2021-01-15T15:00:00","-32.5","-61.6666666","96.0","EL TREBOL, AR","FM-12","4","","68","68","","","+0.06","6","100","OVC:08 17","29.67","29.35","9.32","68","050","","9","","","","","","","","","","","","","","","","","","","","","","","","","","","","","","","","","","","","","","","","","","","","","","","","","","","","","","","","","","","","","","","","","","","","","","","","","","","","","","","","","","","","","","","","","","","SYN08287470 11465 80508 10198 20198 39938 40049 56021 60171 70262 887// 333 56099 88717=","","","","","","","","","",""
"87470099999","2021-01-15T21:00:00","-32.5","-61.6666666","96.0","EL TREBOL, AR","FM-12","4","","65","71","","","-0.01","3","81","","29.62","29.30","9.32","67","000","","0","","","","","","","","","","","","","","","","","","","","","","","","","","","","","","","","","","","","","","","","","","","","","","","","","","","","","","","","","","","","","","","","","","","","","","","","","","","","","","","","","","","","","","","","","","","SYN06487470 32965 00000 10218 20183 39921 40031 53005 333 10234 20178=","","","","","","","","","",""
"87470099999","2021-01-16T09:00:00","-32.5","-61.6666666","96.0","EL TREBOL, AR","FM-12","4","","66","67","","","-0.03","1","94","BKN:05 20 SCT:03 89","29.70","29.37","9.32","66","200","","2","","","","","","","","","","","","","","","","","","","","","","","","","","","","","","","","","","","","","","","","","","","","","","","","","","","","","","","","","","","","","","","","","","","","","","","","","","","","","","","","","","","","","","","","","","","SYN004BUFR","","","","","","","","","",""
"87470099999","2021-01-16T12:00:00","-32.5","-61.6666666","96.0","EL TREBOL, AR","FM-12","4","","67","72","","","+0.01","6","86","BKN:06 20","29.69","29.36","9.32","69","200","","2","","","","","","","","","","","","","","","","","","","","","","","","","","","","","","","","","","","","","","","","","","","","","","","","","","","","","","","","","","","","","","","","","","","","","","","","","","","","","","","","","","","","","","","","","","","SYN004BUFR","","","","","","","","","",""
"87470099999","2021-01-16T15:00:00","-32.5","-61.6666666","96.0","EL TREBOL, AR","FM-12","4","","71","74","","||RA","-0.02","1","91","BKN:05 20 SCT:03 89","29.71","29.38","7.46","72","200","","2","","","","","","","","","","","","","","","","","","","","","","","","","","","","","","","","","","","","","","","","","","","","","","","","","","","","","","","","","","","","","","","","","","","","","","","","","","","","","","","","","","","","","","","","","","","SYN08887470 11562 82002 10232 20216 39949 40060 51007 60041 76362 85760 333 56990 85720 83359=","","","","","","","","","",""
"87470099999","2021-01-16T21:00:00","-32.5","-61.6666666","96.0","EL TREBOL, AR","FM-12","4","","58","66","","","-0.03","1","75","","29.73","29.41","9.32","61","200","","6","","","","","","","","","","","","","","","","","","","","","","","","","","","","","","","","","","","","","","","","","","","","","","","","","","","","","","","","","","","","","","","","","","","","","","","","","","","","","","","","","","","","","","","","","","","SYN06487470 32965 02005 10188 20142 39958 40069 51011 333 10245 20188=","","","","","","","","","",""
"87470099999","2021-01-17T09:00:00","-32.5","-61.6666666","96.0","EL TREBOL, AR","FM-12","4","","54","63","","","-0.05","1","72","","29.91","29.58","9.32","58","200","","6","","","","","","","","","","","","","","","","","","","","","","","","","","","","","","","","","","","","","","","","","","","","","","","","","","","","","","","","","","","","","","","","","","","","","","","","","","","","","","","","","","","","","","","","","","","SYN07087470 12965 02005 10172 20120 30017 40129 51017 60044 333 10188 20130=","","","","","","","","","",""
"87470099999","2021-01-17T12:00:00","-32.5","-61.6666666","96.0","EL TREBOL, AR","FM-12","4","","51","74","","","+0.01","6","44","","29.90","29.57","9.32","61","200","","6","","","","","","","","","","","","","","","","","","","","","","","","","","","","","","","","","","","","","","","","","","","","","","","","","","","","","","","","","","","","","","","","","","","","","","","","","","","","","","","","","","","","","","","","","","","SYN004BUFR","","","","","","","","","",""
"87470099999","2021-01-17T15:00:00","-32.5","-61.6666666","96.0","EL TREBOL, AR","FM-12","4","","52","78","","","+0.04","6","40","","29.87","29.54","9.32","63","230","","9","","","","","","","","","","","","","","","","","","","","","","","","","","","","","","","","","","","","","","","","","","","","","","","","","","","","","","","","","","","","","","","","","","","","","","","","","","","","","","","","","","","","","","","","","","","SYN04887470 32965 02308 10258 20111 30002 40114 56012=","","","","","","","","","",""
"87470099999","2021-01-17T18:00:00","-32.5","-61.6666666","96.0","EL TREBOL, AR","FM-12","4","","51","79","","","+0.03","6","38","","29.84","29.51","9.32","63","230","","6","","","","","","","","","","","","","","","","","","","","","","","","","","","","","","","","","","","","","","","","","","","","","","","","","","","","","","","","","","","","","","","","","","","","","","","","","","","","","","","","","","","","","","","","","","","SYN004BUFR","","","","","","","","","",""
"87470099999","2021-01-17T21:00:00","-32.5","-61.6666666","96.0","EL TREBOL, AR","FM-12","4","","55","63","","","-0.04","1","75","","29.88","29.55","9.32","58","360","","0","","","","","","","","","","","","","","","","","","","","","","","","","","","","","","","","","","","","","","","","","","","","","","","","","","","","","","","","","","","","","","","","","","","","","","","","","","","","","","","","","","","","","","","","","","","SYN004BUFR","","","","","","","","","",""
"87470099999","2021-01-18T09:00:00","-32.5","-61.6666666","96.0","EL TREBOL, AR","FM-12","4","","59","68","","","-0.03","2","74","","29.97","29.64","9.32","63","270","","6","","","","","","","","","","","","","","","","","","","","","","","","","","","","","","","","","","","","","","","","","","","","","","","","","","","","","","","","","","","","","","","","","","","","","","","","","","","","","","","","","","","","","","","","","","","SYN06487470 32965 02705 10200 20151 30036 40149 52010 333 10200 20100=","","","","","","","","","",""
"87470099999","2021-01-18T18:00:00","-32.5","-61.6666666","96.0","EL TREBOL, AR","FM-12","4","","50","84","","","+0.03","6","31","","29.91","29.58","9.32","64","360","","2","","","","","","","","","","","","","","","","","","","","","","","","","","","","","","","","","","","","","","","","","","","","","","","","","","","","","","","","","","","","","","","","","","","","","","","","","","","","","","","","","","","","","","","","","","","SYN004BUFR","","","","","","","","","",""
"87470099999","2021-01-18T21:00:00","-32.5","-61.6666666","96.0","EL TREBOL, AR","FM-12","4","","57","73","","","-0.00","1","58","","29.92","29.59","9.32","63","360","","0","","","","","","","","","","","","","","","","","","","","","","","","","","","","","","","","","","","","","","","","","","","","","","","","","","","","","","","","","","","","","","","","","","","","","","","","","","","","","","","","","","","","","","","","","","","SYN004BUFR","","","","","","","","","",""
"87470099999","2021-01-19T09:00:00","-32.5","-61.6666666","96.0","EL TREBOL, AR","FM-12","4","","56","70","","","-0.03","2","61","","29.97","29.64","9.32","62","050","","6","","","","","","","","","","","","","","","","","","","","","","","","","","","","","","","","","","","","","","","","","","","","","","","","","","","","","","","","","","","","","","","","","","","","","","","","","","","","","","","","","","","","","","","","","","","SYN06487470 32965 00505 10212 20133 30038 40150 52010 333 10216 20137=","","","","","","","","","",""
"87470099999","2021-01-19T12:00:00","-32.5","-61.6666666","96.0","EL TREBOL, AR","FM-12","4","","56","83","","","+0.01","7","41","FEW:02 246","29.96","29.64","9.32","66","050","","6","","","","","","","","","","","","","","","","","","","","","","","","","","","","","","","","","","","","","","","","","","","","","","","","","","","","","","","","","","","","","","","","","","","","","","","","","","","","","","","","","","","","","","","","","","","SYN004BUFR","","","","","","","","","",""
"87470099999","2021-01-19T15:00:00","-32.5","-61.6666666","96.0","EL TREBOL, AR","FM-12","4","","55","86","","","+0.00","6","35","FEW:01 246","29.96","29.63","9.32","67","050","","2","","","","","","","","","","","","","","","","","","","","","","","","","","","","","","","","","","","","","","","","","","","","","","","","","","","","","","","","","","","","","","","","","","","","","","","","","","","","","","","","","","","","","","","","","","","SYN07087470 32965 10502 10299 20127 30034 40146 56001 80004 333 56009 81075=","","","","","","","","","",""
"87470099999","2021-01-19T21:00:00","-32.5","-61.6666666","96.0","EL TREBOL, AR","FM-12","4","","61","74","","","-0.01","1","63","","29.93","29.61","9.32","66","000","","0","","","","","","","","","","","","","","","","","","","","","","","","","","","","","","","","","","","","","","","","","","","","","","","","","","","","","","","","","","","","","","","","","","","","","","","","","","","","","","","","","","","","","","","","","","","SYN06487470 32965 00000 10235 20160 30026 40137 51003 333 10307 20212=","","","","","","","","","",""
"87470099999","2021-01-20T09:00:00","-32.5","-61.6666666","96.0","EL TREBOL, AR","FM-12","4","","60","73","","","-0.01","2","64","","30.00","29.67","9.32","65","050","","6","","","","","","","","","","","","","","","","","","","","","","","","","","","","","","","","","","","","","","","","","","","","","","","","","","","","","","","","","","","","","","","","","","","","","","","","","","","","","","","","","","","","","","","","","","","SYN06487470 32965 00505 10226 20155 30048 40159 52005 333 10235 20130=","","","","","","","","","",""
"87470099999","2021-01-20T15:00:00","-32.5","-61.6666666","96.0","EL TREBOL, AR","FM-12","4","","57","88","","","+0.03","6","36","","29.97","29.64","9.32","68","110","","9","","","","","","","","","","","","","","","","","","","","","","","","","","","","","","","","","","","","","","","","","","","","","","","","","","","","","","","","","","","","","","","","","","","","","","","","","","","","","","","","","","","","","","","","","","","SYN04887470 32965 01108 10310 20141 30038 40149 56009=","","","","","","","","","",""
"87470099999","2021-01-21T21:00:00","-32.5","-61.6666666","96.0","EL TREBOL, AR","FM-12","4","","65","79","","","-0.00","1","63","","29.94","29.62","9.32","70","000","","0","","","","","","","","","","","","","","","","","","","","","","","","","","","","","","","","","","","","","","","","","","","","","","","","","","","","","","","","","","","","","","","","","","","","","","","","","","","","","","","","","","","","","","","","","","","SYN06487470 32965 00000 10259 20184 30029 40140 51001 333 10314 20228=","","","","","","","","","",""
"87470099999","2021-01-22T09:00:00","-32.5","-61.6666666","96.0","EL TREBOL, AR","FM-12","4","","69","78","","","-0.01","2","74","","30.01","29.69","9.32","72","050","","9","","","","","","","","","","","","","","","","","","","","","","","","","","","","","","","","","","","","","","","","","","","","","","","","","","","","","","","","","","","","","","","","","","","","","","","","","","","","","","","","","","","","","","","","","","","SYN004BUFR","","","","","","","","","",""
"87470099999","2021-01-22T12:00:00","-32.5","-61.6666666","96.0","EL TREBOL, AR","FM-12","4","","72","85","","","+0.01","6","64","SCT:04 20","30.00","29.67","9.32","76","090","","6","","","","","","","","","","","","","","","","","","","","","","","","","","","","","","","","","","","","","","","","","","","","","","","","","","","","","","","","","","","","","","","","","","","","","","","","","","","","","","","","","","","","","","","","","","","SYN004BUFR","","","","","","","","","",""
"87470099999","2021-01-22T15:00:00","-32.5","-61.6666666","96.0","EL TREBOL, AR","FM-12","4","","69","90","","","+0.02","6","51","SCT:04 20","29.98","29.65","9.32","76","140","","6","","","","","","","","","","","","","","","","","","","","","","","","","","","","","","","","","","","","","","","","","","","","","","","","","","","","","","","","","","","","","","","","","","","","","","","","","","","","","","","","","","","","","","","","","","","SYN004BUFR","","","","","","","","","",""
"87470099999","2021-01-22T21:00:00","-32.5","-61.6666666","96.0","EL TREBOL, AR","FM-12","4","","69","81","","","+0.01","6","66","","29.92","29.60","9.32","73","360","","0","","","","","","","","","","","","","","","","","","","","","","","","","","","","","","","","","","","","","","","","","","","","","","","","","","","","","","","","","","","","","","","","","","","","","","","","","","","","","","","","","","","","","","","","","","","SYN004BUFR","","","","","","","","","",""
"87470099999","2021-01-23T09:00:00","-32.5","-61.6666666","96.0","EL TREBOL, AR","FM-12","4","","70","77","","","-0.05","1","79","","29.93","29.60","9.32","72","070","","9","","","","","","","","","","","","","","","","","","","","","","","","","","","","","","","","","","","","","","","","","","","","","","","","","","","","","","","","","","","","","","","","","","","","","","","","","","","","","","","","","","","","","","","","","","","SYN004BUFR","","","","","","","","","",""
"87470099999","2021-01-23T15:00:00","-32.5","-61.6666666","96.0","EL TREBOL, AR","FM-12","4","","70","92","","","+0.06","6","49","BKN:05 25","29.83","29.51","9.32","77","070","","9","","","","","","","","","","","","","","","","","","","","","","","","","","","","","","","","","","","","","","","","","","","","","","","","","","","","","","","","","","","","","","","","","","","","","","","","","","","","","","","","","","","","","","","","","","","SYN004BUFR","","","","","","","","","",""
"87470099999","2021-01-23T21:00:00","-32.5","-61.6666666","96.0","EL TREBOL, AR","FM-12","4","","72","83","","","-0.01","3","70","","29.79","29.47","9.32","75","090","","6","","","","","","","","","","","","","","","","","","","","","","","","","","","","","","","","","","","","","","","","","","","","","","","","","","","","","","","","","","","","","","","","","","","","","","","","","","","","","","","","","","","","","","","","","","","SYN06487470 32965 00905 10285 20224 39980 40088 53003 333 10338 20251=","","","","","","","","","",""
"87470099999","2021-01-24T09:00:00","-32.5","-61.6666666","96.0","EL TREBOL, AR","FM-12","4","","73","79","","","-0.03","1","83","FEW:01 25","29.81","29.49","9.32","75","050","","6","","","","","","","","","","","","","","","","","","","","","","","","","","","","","","","","","","","","","","","","","","","","","","","","","","","","","","","","","","","","","","","","","","","","","","","","","","","","","","","","","","","","","","","","","","","SYN08887470 32565 20505 10262 20230 39986 40095 51011 81250 333 10285 20217 56990 57890 81825=","","","","","","","","","",""
"87470099999","2021-01-24T21:00:00","-32.5","-61.6666666","96.0","EL TREBOL, AR","FM-12","4","","70","84","","","-0.05","1","62","SCT:03 18","29.70","29.39","9.32","74","090","","6","","","","","","","","","","","","","","","","","","","","","","","","","","","","","","","","","","","","","","","","","","","","","","","","","","","","","","","","","","","","","","","","","","","","","","","","","","","","","","","","","","","","","","","","","","","SYN09487470 11465 30905 10289 20210 39952 40059 51017 69901 71398 83600 333 10346 20262 56900 83718=","","","","","","","","","",""
"87470099999","2021-01-25T09:00:00","-32.5","-61.6666666","96.0","EL TREBOL, AR","FM-12","4","","67","79","","","0.00","4","67","FEW:02 89","29.67","29.35","9.32","71","360","","6","","","","","","","","","","","","","","","","","","","","","","","","","","","","","","","","","","","","","","","","","","","","","","","","","","","","","","","","","","","","","","","","","","","","","","","","","","","","","","","","","","","","","","","","","","","SYN08887470 12965 43605 10260 20194 39940 40048 54000 69904 82068 333 10289 20220 56099 82359=","","","","","","","","","",""
"87470099999","2021-01-25T12:00:00","-32.5","-61.6666666","96.0","EL TREBOL, AR","FM-12","4","","69","86","","","+0.02","7","56","SCT:03 246","29.65","29.33","9.32","74","050","","6","","","","","","","","","","","","","","","","","","","","","","","","","","","","","","","","","","","","","","","","","","","","","","","","","","","","","","","","","","","","","","","","","","","","","","","","","","","","","","","","","","","","","","","","","","","SYN004BUFR","","","","","","","","","",""
"87470099999","2021-01-25T15:00:00","-32.5","-61.6666666","96.0","EL TREBOL, AR","FM-12","4","","73","93","","","+0.04","7","53","BKN:05 20","29.60","29.28","9.32","79","340","","6","","","","","","","","","","","","","","","","","","","","","","","","","","","","","","","","","","","","","","","","","","","","","","","","","","","","","","","","","","","","","","","","","","","","","","","","","","","","","","","","","","","","","","","","","","","SYN07687470 32565 53405 10337 20228 39917 40024 57015 85200 333 56900 57899 85820=","","","","","","","","","",""
"87470099999","2021-01-25T18:00:00","-32.5","-61.6666666","96.0","EL TREBOL, AR","FM-12","4","","71","79","","","+0.04","7","76","FEW:02 20","29.56","29.24","9.32","74","090","","9","","","","","","","","","","","","","","","","","","","","","","","","","","","","","","","","","","","","","","","","","","","","","","","","","","","","","","","","","","","","","","","","","","","","","","","","","","","","","","","","","","","","","","","","","","","SYN004BUFR","","","","","","","","","",""
"87470099999","2021-01-25T21:00:00","-32.5","-61.6666666","96.0","EL TREBOL, AR","FM-12","4","","67","76","","||TS","-0.04","3","74","BKN:06 17","29.60","29.28","9.32","70","070","","6","","","","","","","","","","","","","","","","","","","","","","","","","","","","","","","","","","","","","","","","","","","","","","","","","","","","","","","","","","","","","","","","","","","","","","","","","","","","","","","","","","","","","","","","","","","SYN08887470 11465 80705 10244 20195 39914 40023 53012 69971 71798 8665/ 333 10339 20244 86717=","","","","","","","","","",""
"87470099999","2021-01-26T09:00:00","-32.5","-61.6666666","96.0","EL TREBOL, AR","FM-12","4","","71","71","","","-0.01","2","100","OVC:08 18","29.63","29.31","9.32","71","180","","6","","","","","","","","","","","","","","","","","","","","","","","","","","","","","","","","","","","","","","","","","","","","","","","","","","","","","","","","","","","","","","","","","","","","","","","","","","","","","","","","","","","","","","","","","","","SYN10087470 01465 81805 10214 20214 39925 40034 52005 60244 70262 88700 333 10244 20210 56900 60232 88718=","","","","","","","","","",""
"87470099999","2021-01-26T12:00:00","-32.5","-61.6666666","96.0","EL TREBOL, AR","FM-12","4","","70","78","","","+0.01","7","76","BKN:07 18","29.62","29.30","9.32","73","180","","6","","","","","","","","","","","","","","","","","","","","","","","","","","","","","","","","","","","","","","","","","","","","","","","","","","","","","","","","","","","","","","","","","","","","","","","","","","","","","","","","","","","","","","","","","","","SYN004BUFR","","","","","","","","","",""
"87470099999","2021-01-26T15:00:00","-32.5","-61.6666666","96.0","EL TREBOL, AR","FM-12","4","","72","82","","","+0.07","7","72","BKN:05 18 SCT:03 20","29.55","29.23","9.32","75","160","","6","","","","","","","","","","","","","","","","","","","","","","","","","","","","","","","","","","","","","","","","","","","","","","","","","","","","","","","","","","","","","","","","","","","","","","","","","","","","","","","","","","","","","","","","","","","SYN07687470 32465 81605 10277 20221 39900 40008 57023 88800 333 56900 85618 83820=","","","","","","","","","",""
"87470099999","2021-01-26T21:00:00","-32.5","-61.6666666","96.0","EL TREBOL, AR","FM-12","4","","71","72","","","-0.05","3","95","BKN:05 18 SCT:03 89","29.61","29.28","9.32","71","230","","6","","","","","","","","","","","","","","","","","","","","","","","","","","","","","","","","","","","","","","","","","","","","","","","","","","","","","","","","","","","","","","","","","","","","","","","","","","","","","","","","","","","","","","","","","","","SYN09487470 11465 82305 10225 20216 39917 40027 53016 69931 70262 8565/ 333 10279 20214 85718 83359=","","","","","","","","","",""
"87470099999","2021-01-27T09:00:00","-32.5","-61.6666666","96.0","EL TREBOL, AR","FM-12","4","","71","77","","","-0.06","2","83","","29.70","29.38","9.32","73","180","","6","","","","","","","","","","","","","","","","","","","","","","","","","","","","","","","","","","","","","","","","","","","","","","","","","","","","","","","","","","","","","","","","","","","","","","","","","","","","","","","","","","","","","","","","","","","SYN07087470 12965 01805 10250 20219 39949 40059 52020 69934 333 10250 20195=","","","","","","","","","",""
"87470099999","2021-01-27T12:00:00","-32.5","-61.6666666","96.0","EL TREBOL, AR","FM-12","4","","68","85","","","+0.01","7","57","FEW:01 20","29.68","29.36","9.32","73","180","","2","","","","","","","","","","","","","","","","","","","","","","","","","","","","","","","","","","","","","","","","","","","","","","","","","","","","","","","","","","","","","","","","","","","","","","","","","","","","","","","","","","","","","","","","","","","SYN004BUFR","","","","","","","","","",""
"87470099999","2021-01-27T15:00:00","-32.5","-61.6666666","96.0","EL TREBOL, AR","FM-12","4","","66","90","","","+0.04","7","45","FEW:02 20","29.65","29.33","9.32","74","180","","2","","","","","","","","","","","","","","","","","","","","","","","","","","","","","","","","","","","","","","","","","","","","","","","","","","","","","","","","","","","","","","","","","","","","","","","","","","","","","","","","","","","","","","","","","","","SYN004BUFR","","","","","","","","","",""
"87470099999","2021-01-27T18:00:00","-32.5","-61.6666666","96.0","EL TREBOL, AR","FM-12","4","","68","88","","","+0.08","7","51","BKN:05 246","29.57","29.25","9.32","74","140","","2","","","","","","","","","","","","","","","","","","","","","","","","","","","","","","","","","","","","","","","","","","","","","","","","","","","","","","","","","","","","","","","","","","","","","","","","","","","","","","","","","","","","","","","","","","","SYN004BUFR","","","","","","","","","",""
"87470099999","2021-01-27T21:00:00","-32.5","-61.6666666","96.0","EL TREBOL, AR","FM-12","4","","68","81","","","-0.06","3","65","FEW:01 23","29.62","29.31","9.32","72","070","","6","","","","","","","","","","","","","","","","","","","","","","","","","","","","","","","","","","","","","","","","","","","","","","","","","","","","","","","","","","","","","","","","","","","","","","","","","","","","","","","","","","","","","","","","","","","SYN07687470 32565 30705 10271 20200 39924 40032 53019 81558 333 10324 20250 81623=","","","","","","","","","",""
"87470099999","2021-01-28T09:00:00","-32.5","-61.6666666","96.0","EL TREBOL, AR","FM-12","4","","62","68","","","-0.12","2","81","BKN:06 20","29.95","29.62","9.32","64","200","","15","","","","","","","","","","","","","","","","","","","","","","","","","","","","","","","","","","","","","","","","","","","","","","","","","","","","","","","","","","","","","","","","","","","","","","","","","","","","","","","","","","","","","","","","","","","SYN004BUFR","","","","","","","","","",""
"87470099999","2021-01-28T12:00:00","-32.5","-61.6666666","96.0","EL TREBOL, AR","FM-12","4","","65","75","","","+0.03","7","71","FEW:02 20","29.92","29.59","9.32","69","140","","6","","","","","","","","","","","","","","","","","","","","","","","","","","","","","","","","","","","","","","","","","","","","","","","","","","","","","","","","","","","","","","","","","","","","","","","","","","","","","","","","","","","","","","","","","","","SYN004BUFR","","","","","","","","","",""
"87470099999","2021-01-28T15:00:00","-32.5","-61.6666666","96.0","EL TREBOL, AR","FM-12","4","","64","80","","","+0.22","7","58","SCT:04 246","29.70","29.38","9.32","70","090","","6","","","","","","","","","","","","","","","","","","","","","","","","","","","","","","","","","","","","","","","","","","","","","","","","","","","","","","","","","","","","","","","","","","","","","","","","","","","","","","","","","","","","","","","","","","","SYN004BUFR","","","","","","","","","",""
"87470099999","2021-01-28T21:00:00","-32.5","-61.6666666","96.0","EL TREBOL, AR","FM-12","4","","66","75","","","-0.02","3","72","FEW:01 89","29.60","29.28","9.32","69","070","","6","","","","","","","","","","","","","","","","","","","","","","","","","","","","","","","","","","","","","","","","","","","","","","","","","","","","","","","","","","","","","","","","","","","","","","","","","","","","","","","","","","","","","","","","","","","SYN08287470 32965 30705 10240 20187 39916 40025 53007 81058 333 10288 20203 56099 81359=","","","","","","","","","",""
"87470099999","2021-01-29T09:00:00","-32.5","-61.6666666","96.0","EL TREBOL, AR","FM-12","4","","62","62","","","+0.03","7","98","OVC:08 18","29.63","29.31","9.32","62","050","","9","","","","","","","","","","","","","","","","","","","","","","","","","","","","","","","","","","","","","","","","","","","","","","","","","","","","","","","","","","","","","","","","","","","","","","","","","","","","","","","","","","","","","","","","","","","SYN10087470 01465 80508 10168 20165 39924 40035 57010 60404 70262 88700 333 10240 20168 56900 60402 88718=","","","","","","","","","",""
"87470099999","2021-01-29T12:00:00","-32.5","-61.6666666","96.0","EL TREBOL, AR","FM-12","4","","65","71","","","-0.01","2","82","FEW:01 89","29.64","29.32","9.32","67","140","","6","","","","","","","","","","","","","","","","","","","","","","","","","","","","","","","","","","","","","","","","","","","","","","","","","","","","","","","","","","","","","","","","","","","","","","","","","","","","","","","","","","","","","","","","","","","SYN004BUFR","","","","","","","","","",""
"87470099999","2021-01-29T15:00:00","-32.5","-61.6666666","96.0","EL TREBOL, AR","FM-12","4","","68","76","","","+0.04","7","75","FEW:02 246","29.60","29.28","9.32","71","140","","6","","","","","","","","","","","","","","","","","","","","","","","","","","","","","","","","","","","","","","","","","","","","","","","","","","","","","","","","","","","","","","","","","","","","","","","","","","","","","","","","","","","","","","","","","","","SYN004BUFR","","","","","","","","","",""
"87470099999","2021-01-29T21:00:00","-32.5","-61.6666666","96.0","EL TREBOL, AR","FM-12","4","","67","73","","","-0.07","3","81","","29.63","29.31","9.32","69","140","","6","","","","","","","","","","","","","","","","","","","","","","","","","","","","","","","","","","","","","","","","","","","","","","","","","","","","","","","","","","","","","","","","","","","","","","","","","","","","","","","","","","","","","","","","","","","SYN06487470 32965 01405 10226 20192 39924 40034 53023 333 10259 20168=","","","","","","","","","",""
"87470099999","2021-01-30T09:00:00","-32.5","-61.6666666","96.0","EL TREBOL, AR","FM-12","4","","67","67","","||RA","-0.12","2","100","OVC:08 18","29.75","29.42","1.24","67","200","","6","","","","","","","","","","","","","","","","","","","","","","","","","","","","","","","","","","","","","","","","","","","","","","","","","","","","","","","","","","","","","","","","","","","","","","","","","","","","","","","","","","","","","","","","","","","SYN10087470 01420 82005 10192 20192 39964 40075 52042 60314 76362 88700 333 10226 20192 56900 60312 88718=","","","","","","","","","",""
"87470099999","2021-01-30T15:00:00","-32.5","-61.6666666","96.0","EL TREBOL, AR","FM-12","4","","60","71","","","-0.02","2","69","OVC:08 16","29.75","29.42","9.32","64","180","","6","","","","","","","","","","","","","","","","","","","","","","","","","","","","","","","","","","","","","","","","","","","","","","","","","","","","","","","","","","","","","","","","","","","","","","","","","","","","","","","","","","","","","","","","","","","SYN004BUFR","","","","","","","","","",""
"87470099999","2021-01-31T09:00:00","-32.5","-61.6666666","96.0","EL TREBOL, AR","FM-12","4","","56","60","","","-0.03","2","85","BKN:07 16","29.93","29.59","9.32","58","160","","15","","","","","","","","","","","","","","","","","","","","","","","","","","","","","","","","","","","","","","","","","","","","","","","","","","","","","","","","","","","","","","","","","","","","","","","","","","","","","","","","","","","","","","","","","","","SYN09487470 12465 71613 10158 20133 30022 40135 52010 60104 87200 333 10178 20135 56900 57899 87816=","","","","","","","","","",""
"87470099999","2021-01-31T15:00:00","-32.5","-61.6666666","96.0","EL TREBOL, AR","FM-12","4","","60","67","","","+0.07","7","77","BKN:07 16","29.89","29.56","9.32","63","140","","9","","","","","","","","","","","","","","","","","","","","","","","","","","","","","","","","","","","","","","","","","","","","","","","","","","","","","","","","","","","","","","","","","","","","","","","","","","","","","","","","","","","","","","","","","","","SYN004BUFR","","","","","","","","","",""
"87470099999","2021-01-31T18:00:00","-32.5","-61.6666666","96.0","EL TREBOL, AR","FM-12","4","","62","66","","","+0.06","7","88","OVC:08 16","29.84","29.51","9.32","64","140","","6","","","","","","","","","","","","","","","","","","","","","","","","","","","","","","","","","","","","","","","","","","","","","","","","","","","","","","","","","","","","","","","","","","","","","","","","","","","","","","","","","","","","","","","","","","","SYN004BUFR","","","","","","","","","",""
"87470099999","2021-01-31T21:00:00","-32.5","-61.6666666","96.0","EL TREBOL, AR","FM-12","4","","62","64","","||TS","+0.00","7","94","OVC:08 16","29.83","29.50","9.32","63","180","","6","","","","","","","","","","","","","","","","","","","","","","","","","","","","","","","","","","","","","","","","","","","","","","","","","","","","","","","","","","","","","","","","","","","","","","","","","","","","","","","","","","","","","","","","","","","SYN09487470 11465 81805 10178 20168 39990 40103 57001 69901 71796 88700 333 10200 20158 56900 88716=","","","","","","","","","",""
"87470099999","2021-02-01T09:00:00","-32.5","-61.6666666","96.0","EL TREBOL, AR","FM-12","4","","62","63","","","-0.03","2","96","OVC:08 18","29.91","29.58","9.32","62","180","","6","","","","","","","","","","","","","","","","","","","","","","","","","","","","","","","","","","","","","","","","","","","","","","","","","","","","","","","","","","","","","","","","","","","","","","","","","","","","","","","","","","","","","","","","","","","SYN004BUFR","","","","","","","","","",""
"87470099999","2021-02-01T15:00:00","-32.5","-61.6666666","96.0","EL TREBOL, AR","FM-12","4","","62","74","","","+0.04","6","67","BKN:06 20","29.85","29.52","9.32","66","180","","6","","","","","","","","","","","","","","","","","","","","","","","","","","","","","","","","","","","","","","","","","","","","","","","","","","","","","","","","","","","","","","","","","","","","","","","","","","","","","","","","","","","","","","","","","","","SYN07687470 32565 61805 10233 20167 39997 40109 56012 86200 333 56000 57800 86820=","","","","","","","","","",""
"87470099999","2021-02-01T21:00:00","-32.5","-61.6666666","96.0","EL TREBOL, AR","FM-12","4","","63","68","","","-0.01","2","82","FEW:02 20","29.82","29.49","9.32","65","180","","6","","","","","","","","","","","","","","","","","","","","","","","","","","","","","","","","","","","","","","","","","","","","","","","","","","","","","","","","","","","","","","","","","","","","","","","","","","","","","","","","","","","","","","","","","","","SYN08887470 32565 21805 10202 20170 39988 40099 52003 82200 333 10242 20172 56900 57899 82820=","","","","","","","","","",""
"87470099999","2021-02-02T09:00:00","-32.5","-61.6666666","96.0","EL TREBOL, AR","FM-12","4","","65","67","","","-0.04","2","94","OVC:08 18","29.90","29.57","9.32","66","180","","6","","","","","","","","","","","","","","","","","","","","","","","","","","","","","","","","","","","","","","","","","","","","","","","","","","","","","","","","","","","","","","","","","","","","","","","","","","","","","","","","","","","","","","","","","","","SYN10087470 01465 81805 10192 20182 30012 40124 52015 60024 702// 88500 333 10202 20177 56900 60022 88618=","","","","","","","","","",""
"87470099999","2021-02-02T12:00:00","-32.5","-61.6666666","96.0","EL TREBOL, AR","FM-12","4","","64","72","","","-0.01","2","77","OVC:08 20","29.91","29.58","9.32","67","140","","6","","","","","","","","","","","","","","","","","","","","","","","","","","","","","","","","","","","","","","","","","","","","","","","","","","","","","","","","","","","","","","","","","","","","","","","","","","","","","","","","","","","","","","","","","","","SYN004BUFR","","","","","","","","","",""
"87470099999","2021-02-02T15:00:00","-32.5","-61.6666666","96.0","EL TREBOL, AR","FM-12","4","","63","72","","","-0.01","3","74","OVC:08 20","29.92","29.59","9.32","66","160","","6","","","","","","","","","","","","","","","","","","","","","","","","","","","","","","","","","","","","","","","","","","","","","","","","","","","","","","","","","","","","","","","","","","","","","","","","","","","","","","","","","","","","","","","","","","","SYN004BUFR","","","","","","","","","",""
"87470099999","2021-02-03T09:00:00","-32.5","-61.6666666","96.0","EL TREBOL, AR","FM-12","4","","61","67","","","-0.03","2","83","FEW:01 89","29.95","29.62","9.32","63","180","","6","","","","","","","","","","","","","","","","","","","","","","","","","","","","","","","","","","","","","","","","","","","","","","","","","","","","","","","","","","","","","","","","","","","","","","","","","","","","","","","","","","","","","","","","","","","SYN08287470 32965 31805 10192 20162 30030 40142 52010 81069 333 10220 20170 56099 81359=","","","","","","","","","",""
"87470099999","2021-02-03T12:00:00","-32.5","-61.6666666","96.0","EL TREBOL, AR","FM-12","4","","63","76","","","+0.01","7","63","BKN:05 18","29.93","29.60","9.32","68","180","","6","","","","","","","","","","","","","","","","","","","","","","","","","","","","","","","","","","","","","","","","","","","","","","","","","","","","","","","","","","","","","","","","","","","","","","","","","","","","","","","","","","","","","","","","","","","SYN004BUFR","","","","","","","","","",""
"87470099999","2021-02-03T15:00:00","-32.5","-61.6666666","96.0","EL TREBOL, AR","FM-12","4","","63","78","","","+0.01","6","59","BKN:06 20","29.91","29.59","9.32","68","200","","9","","","","","","","","","","","","","","","","","","","","","","","","","","","","","","","","","","","","","","","","","","","","","","","","","","","","","","","","","","","","","","","","","","","","","","","","","","","","","","","","","","","","","","","","","","","SYN004BUFR","","","","","","","","","",""
"87470099999","2021-02-03T21:00:00","-32.5","-61.6666666","96.0","EL TREBOL, AR","FM-12","4","","63","66","","","-0.03","2","93","","29.95","29.62","9.32","64","360","","0","","","","","","","","","","","","","","","","","","","","","","","","","","","","","","","","","","","","","","","","","","","","","","","","","","","","","","","","","","","","","","","","","","","","","","","","","","","","","","","","","","","","","","","","","","","SYN004BUFR","","","","","","","","","",""
"87470099999","2021-02-04T09:00:00","-32.5","-61.6666666","96.0","EL TREBOL, AR","FM-12","4","","60","66","","","-0.03","2","81","","30.05","29.71","9.32","62","180","","6","","","","","","","","","","","","","","","","","","","","","","","","","","","","","","","","","","","","","","","","","","","","","","","","","","","","","","","","","","","","","","","","","","","","","","","","","","","","","","","","","","","","","","","","","","","SYN06487470 32965 01805 10190 20157 30062 40175 52010 333 10190 20145=","","","","","","","","","",""
"87470099999","2021-02-04T12:00:00","-32.5","-61.6666666","96.0","EL TREBOL, AR","FM-12","4","","60","77","","","+0.01","7","56","","30.03","29.70","9.32","66","180","","9","","","","","","","","","","","","","","","","","","","","","","","","","","","","","","","","","","","","","","","","","","","","","","","","","","","","","","","","","","","","","","","","","","","","","","","","","","","","","","","","","","","","","","","","","","","SYN004BUFR","","","","","","","","","",""
"87470099999","2021-02-04T15:00:00","-32.5","-61.6666666","96.0","EL TREBOL, AR","FM-12","4","","61","81","","","-0.01","3","51","SCT:04 20","30.05","29.72","9.32","68","180","","6","","","","","","","","","","","","","","","","","","","","","","","","","","","","","","","","","","","","","","","","","","","","","","","","","","","","","","","","","","","","","","","","","","","","","","","","","","","","","","","","","","","","","","","","","","","SYN004BUFR","","","","","","","","","",""
"87470099999","2021-02-04T21:00:00","-32.5","-61.6666666","96.0","EL TREBOL, AR","FM-12","4","","64","70","","","-0.01","3","82","","30.02","29.69","9.32","66","000","","0","","","","","","","","","","","","","","","","","","","","","","","","","","","","","","","","","","","","","","","","","","","","","","","","","","","","","","","","","","","","","","","","","","","","","","","","","","","","","","","","","","","","","","","","","","","SYN06487470 32965 00000 10211 20179 30054 40167 53005 333 10276 20190=","","","","","","","","","",""
"87470099999","2021-02-05T09:00:00","-32.5","-61.6666666","96.0","EL TREBOL, AR","FM-12","4","","62","69","","","-0.01","2","77","","30.00","29.67","9.32","65","360","","0","","","","","","","","","","","","","","","","","","","","","","","","","","","","","","","","","","","","","","","","","","","","","","","","","","","","","","","","","","","","","","","","","","","","","","","","","","","","","","","","","","","","","","","","","","","SYN004BUFR","","","","","","","","","",""
"87470099999","2021-02-05T15:00:00","-32.5","-61.6666666","96.0","EL TREBOL, AR","FM-12","4","","54","83","","","+0.02","6","38","","29.95","29.62","9.32","65","160","","6","","","","","","","","","","","","","","","","","","","","","","","","","","","","","","","","","","","","","","","","","","","","","","","","","","","","","","","","","","","","","","","","","","","","","","","","","","","","","","","","","","","","","","","","","","","SYN04887470 32965 01605 10282 20125 30030 40141 56008=","","","","","","","","","",""
"87470099999","2021-02-05T21:00:00","-32.5","-61.6666666","96.0","EL TREBOL, AR","FM-12","4","","65","70","","","+0.00","7","85","","29.88","29.55","9.32","67","360","","0","","","","","","","","","","","","","","","","","","","","","","","","","","","","","","","","","","","","","","","","","","","","","","","","","","","","","","","","","","","","","","","","","","","","","","","","","","","","","","","","","","","","","","","","","","","SYN004BUFR","","","","","","","","","",""
"87470099999","2021-02-06T09:00:00","-32.5","-61.6666666","96.0","EL TREBOL, AR","FM-12","4","","62","69","","","-0.07","3","78","","29.94","29.61","9.32","65","070","","2","","","","","","","","","","","","","","","","","","","","","","","","","","","","","","","","","","","","","","","","","","","","","","","","","","","","","","","","","","","","","","","","","","","","","","","","","","","","","","","","","","","","","","","","","","","SYN07087470 31965 00702 10208 20169 30028 40140 53025 702// 333 10210 20142=","","","","","","","","","",""
"87470099999","2021-02-06T15:00:00","-32.5","-61.6666666","96.0","EL TREBOL, AR","FM-12","4","","59","84","","","+0.04","6","42","","29.89","29.57","9.32","68","020","","2","","","","","","","","","","","","","","","","","","","","","","","","","","","","","","","","","","","","","","","","","","","","","","","","","","","","","","","","","","","","","","","","","","","","","","","","","","","","","","","","","","","","","","","","","","","SYN04887470 32965 00202 10291 20148 30013 40123 56013=","","","","","","","","","",""
"87470099999","2021-02-06T21:00:00","-32.5","-61.6666666","96.0","EL TREBOL, AR","FM-12","4","","64","75","","","0.00","4","68","","29.86","29.54","9.32","68","000","","0","","","","","","","","","","","","","","","","","","","","","","","","","","","","","","","","","","","","","","","","","","","","","","","","","","","","","","","","","","","","","","","","","","","","","","","","","","","","","","","","","","","","","","","","","","","SYN06487470 32965 00000 10240 20177 30002 40112 54000 333 10300 20208=","","","","","","","","","",""
"87470099999","2021-02-07T09:00:00","-32.5","-61.6666666","96.0","EL TREBOL, AR","FM-12","4","","61","70","","","-0.01","3","73","","29.88","29.55","9.32","64","360","","6","","","","","","","","","","","","","","","","","","","","","","","","","","","","","","","","","","","","","","","","","","","","","","","","","","","","","","","","","","","","","","","","","","","","","","","","","","","","","","","","","","","","","","","","","","","SYN07087470 31965 03605 10212 20161 30008 40119 53004 702// 333 10240 20156=","","","","","","","","","",""
"87470099999","2021-02-07T15:00:00","-32.5","-61.6666666","96.0","EL TREBOL, AR","FM-12","4","","62","86","","","+0.04","6","44","","29.85","29.52","9.32","70","020","","6","","","","","","","","","","","","","","","","","","","","","","","","","","","","","","","","","","","","","","","","","","","","","","","","","","","","","","","","","","","","","","","","","","","","","","","","","","","","","","","","","","","","","","","","","","","SYN04887470 32965 00205 10300 20164 39997 40108 56012=","","","","","","","","","",""
"87470099999","2021-02-07T21:00:00","-32.5","-61.6666666","96.0","EL TREBOL, AR","FM-12","4","","65","73","","","-0.03","3","76","","29.85","29.53","9.32","68","000","","0","","","","","","","","","","","","","","","","","","","","","","","","","","","","","","","","","","","","","","","","","","","","","","","","","","","","","","","","","","","","","","","","","","","","","","","","","","","","","","","","","","","","","","","","","","","SYN06487470 32965 00000 10228 20184 30000 40110 53011 333 10306 20212=","","","","","","","","","",""
"87470099999","2021-02-08T09:00:00","-32.5","-61.6666666","96.0","EL TREBOL, AR","FM-12","4","","64","72","","","-0.03","2","78","SCT:04 246","29.93","29.61","9.32","67","180","","6","","","","","","","","","","","","","","","","","","","","","","","","","","","","","","","","","","","","","","","","","","","","","","","","","","","","","","","","","","","","","","","","","","","","","","","","","","","","","","","","","","","","","","","","","","","SYN08287470 32965 41805 10220 20179 30026 40137 52010 80006 333 10228 20145 56009 84275=","","","","","","","","","",""
"87470099999","2021-02-08T12:00:00","-32.5","-61.6666666","96.0","EL TREBOL, AR","FM-12","4","","69","79","","","-0.03","2","71","BKN:05 246","29.96","29.64","9.32","72","230","","6","","","","","","","","","","","","","","","","","","","","","","","","","","","","","","","","","","","","","","","","","","","","","","","","","","","","","","","","","","","","","","","","","","","","","","","","","","","","","","","","","","","","","","","","","","","SYN004BUFR","","","","","","","","","",""
"87470099999","2021-02-08T15:00:00","-32.5","-61.6666666","96.0","EL TREBOL, AR","FM-12","4","","69","79","","","+0.03","6","71","OVC:08 89","29.93","29.61","9.32","72","200","","6","","","","","","","","","","","","","","","","","","","","","","","","","","","","","","","","","","","","","","","","","","","","","","","","","","","","","","","","","","","","","","","","","","","","","","","","","","","","","","","","","","","","","","","","","","","SYN07087470 32965 82005 10263 20206 30026 40137 56009 8805/ 333 56009 88359=","","","","","","","","","",""
"87470099999","2021-02-09T09:00:00","-32.5","-61.6666666","96.0","EL TREBOL, AR","FM-12","4","","62","65","","","-0.06","2","91","OVC:08 18","30.07","29.74","9.32","63","140","","9","","","","","","","","","","","","","","","","","","","","","","","","","","","","","","","","","","","","","","","","","","","","","","","","","","","","","","","","","","","","","","","","","","","","","","","","","","","","","","","","","","","","","","","","","","","SYN004BUFR","","","","","","","","","",""
"87470099999","2021-02-09T15:00:00","-32.5","-61.6666666","96.0","EL TREBOL, AR","FM-12","4","","60","76","","","+0.01","6","58","SCT:04 20 SCT:03 89","30.04","29.71","9.32","66","160","","9","","","","","","","","","","","","","","","","","","","","","","","","","","","","","","","","","","","","","","","","","","","","","","","","","","","","","","","","","","","","","","","","","","","","","","","","","","","","","","","","","","","","","","","","","","","SYN08287470 32565 71608 10246 20158 30061 40173 56003 84280 333 56000 57800 84820 83359=","","","","","","","","","",""
"87470099999","2021-02-09T21:00:00","-32.5","-61.6666666","96.0","EL TREBOL, AR","FM-12","4","","65","69","","","-0.01","3","88","OVC:08 89","30.02","29.69","9.32","66","360","","0","","","","","","","","","","","","","","","","","","","","","","","","","","","","","","","","","","","","","","","","","","","","","","","","","","","","","","","","","","","","","","","","","","","","","","","","","","","","","","","","","","","","","","","","","","","SYN004BUFR","","","","","","","","","",""
"87470099999","2021-02-13T09:00:00","-32.5","-61.6666666","96.0","EL TREBOL, AR","FM-12","4","","66","75","","","-0.00","1","74","","29.82","29.50","9.32","69","360","","6","","","","","","","","","","","","","","","","","","","","","","","","","","","","","","","","","","","","","","","","","","","","","","","","","","","","","","","","","","","","","","","","","","","","","","","","","","","","","","","","","","","","","","","","","","","SYN004BUFR","","","","","","","","","",""
"87470099999","2021-02-13T12:00:00","-32.5","-61.6666666","96.0","EL TREBOL, AR","FM-12","4","","67","80","","","+0.04","6","65","SCT:04 20","29.78","29.45","9.32","71","050","","2","","","","","","","","","","","","","","","","","","","","","","","","","","","","","","","","","","","","","","","","","","","","","","","","","","","","","","","","","","","","","","","","","","","","","","","","","","","","","","","","","","","","","","","","","","","SYN004BUFR","","","","","","","","","",""
"87470099999","2021-02-13T15:00:00","-32.5","-61.6666666","96.0","EL TREBOL, AR","FM-12","4","","61","82","","","+0.07","6","49","BKN:07 20","29.71","29.38","9.32","69","360","","6","","","","","","","","","","","","","","","","","","","","","","","","","","","","","","","","","","","","","","","","","","","","","","","","","","","","","","","","","","","","","","","","","","","","","","","","","","","","","","","","","","","","","","","","","","","SYN004BUFR","","","","","","","","","",""
"87470099999","2021-02-13T21:00:00","-32.5","-61.6666666","96.0","EL TREBOL, AR","FM-12","4","","65","67","","","-0.05","1","92","BKN:05 20 SCT:03 89","29.72","29.39","9.32","66","360","","0","","","","","","","","","","","","","","","","","","","","","","","","","","","","","","","","","","","","","","","","","","","","","","","","","","","","","","","","","","","","","","","","","","","","","","","","","","","","","","","","","","","","","","","","","","","SYN004BUFR","","","","","","","","","",""
"87470099999","2021-02-14T09:00:00","-32.5","-61.6666666","96.0","EL TREBOL, AR","FM-12","4","","64","68","","","-0.01","1","89","","29.71","29.38","9.32","66","000","","0","","","","","","","","","","","","","","","","","","","","","","","","","","","","","","","","","","","","","","","","","","","","","","","","","","","","","","","","","","","","","","","","","","","","","","","","","","","","","","","","","","","","","","","","","","","SYN07687470 02965 00000 10198 20179 39949 40060 51004 60174 333 10198 20150 60022=","","","","","","","","","",""
"87470099999","2021-02-14T15:00:00","-32.5","-61.6666666","96.0","EL TREBOL, AR","FM-12","4","","67","83","","","+0.04","6","59","","29.69","29.36","9.32","72","230","","2","","","","","","","","","","","","","","","","","","","","","","","","","","","","","","","","","","","","","","","","","","","","","","","","","","","","","","","","","","","","","","","","","","","","","","","","","","","","","","","","","","","","","","","","","","","SYN04887470 32965 02302 10284 20196 39944 40053 56012=","","","","","","","","","",""
"87470099999","2021-02-14T18:00:00","-32.5","-61.6666666","96.0","EL TREBOL, AR","FM-12","4","","67","85","","","+0.04","6","53","","29.65","29.32","9.32","73","230","","2","","","","","","","","","","","","","","","","","","","","","","","","","","","","","","","","","","","","","","","","","","","","","","","","","","","","","","","","","","","","","","","","","","","","","","","","","","","","","","","","","","","","","","","","","","","SYN004BUFR","","","","","","","","","",""
"87470099999","2021-02-14T21:00:00","-32.5","-61.6666666","96.0","EL TREBOL, AR","FM-12","4","","66","71","","","-0.05","1","85","","29.70","29.37","9.32","68","360","","0","","","","","","","","","","","","","","","","","","","","","","","","","","","","","","","","","","","","","","","","","","","","","","","","","","","","","","","","","","","","","","","","","","","","","","","","","","","","","","","","","","","","","","","","","","","SYN004BUFR","","","","","","","","","",""
"87470099999","2021-02-15T12:00:00","-32.5","-61.6666666","96.0","EL TREBOL, AR","FM-12","4","","68","82","","","-0.06","1","62","FEW:01 20","29.86","29.53","9.32","73","180","","6","","","","","","","","","","","","","","","","","","","","","","","","","","","","","","","","","","","","","","","","","","","","","","","","","","","","","","","","","","","","","","","","","","","","","","","","","","","","","","","","","","","","","","","","","","","SYN004BUFR","","","","","","","","","",""
"87470099999","2021-02-15T15:00:00","-32.5","-61.6666666","96.0","EL TREBOL, AR","FM-12","4","","66","83","","","+0.04","6","55","SCT:03 20","29.82","29.49","9.32","72","180","","9","","","","","","","","","","","","","","","","","","","","","","","","","","","","","","","","","","","","","","","","","","","","","","","","","","","","","","","","","","","","","","","","","","","","","","","","","","","","","","","","","","","","","","","","","","","SYN004BUFR","","","","","","","","","",""
"87470099999","2021-02-15T21:00:00","-32.5","-61.6666666","96.0","EL TREBOL, AR","FM-12","4","","67","69","","","-0.06","1","93","BKN:06 20","29.88","29.56","9.32","68","360","","0","","","","","","","","","","","","","","","","","","","","","","","","","","","","","","","","","","","","","","","","","","","","","","","","","","","","","","","","","","","","","","","","","","","","","","","","","","","","","","","","","","","","","","","","","","","SYN004BUFR","","","","","","","","","",""
"87470099999","2021-02-16T09:00:00","-32.5","-61.6666666","96.0","EL TREBOL, AR","FM-12","4","","60","66","","","-0.01","1","80","FEW:01 246","29.90","29.57","9.32","62","180","","2","","","","","","","","","","","","","","","","","","","","","","","","","","","","","","","","","","","","","","","","","","","","","","","","","","","","","","","","","","","","","","","","","","","","","","","","","","","","","","","","","","","","","","","","","","","SYN004BUFR","","","","","","","","","",""
"87470099999","2021-02-16T12:00:00","-32.5","-61.6666666","96.0","EL TREBOL, AR","FM-12","4","","59","75","","","-0.00","1","57","FEW:01 20","29.90","29.57","9.32","65","180","","2","","","","","","","","","","","","","","","","","","","","","","","","","","","","","","","","","","","","","","","","","","","","","","","","","","","","","","","","","","","","","","","","","","","","","","","","","","","","","","","","","","","","","","","","","","","SYN004BUFR","","","","","","","","","",""
"87470099999","2021-02-16T15:00:00","-32.5","-61.6666666","96.0","EL TREBOL, AR","FM-12","4","","58","79","","","+0.04","6","49","","29.85","29.53","9.32","66","180","","6","","","","","","","","","","","","","","","","","","","","","","","","","","","","","","","","","","","","","","","","","","","","","","","","","","","","","","","","","","","","","","","","","","","","","","","","","","","","","","","","","","","","","","","","","","","SYN04887470 32965 01805 10260 20144 30000 40110 56015=","","","","","","","","","",""
"87470099999","2021-02-16T21:00:00","-32.5","-61.6666666","96.0","EL TREBOL, AR","FM-12","4","","60","65","","","-0.01","1","84","","29.83","29.51","9.32","62","000","","0","","","","","","","","","","","","","","","","","","","","","","","","","","","","","","","","","","","","","","","","","","","","","","","","","","","","","","","","","","","","","","","","","","","","","","","","","","","","","","","","","","","","","","","","","","","SYN06487470 32965 00000 10183 20156 39992 40103 51003 333 10269 20183=","","","","","","","","","",""
"87470099999","2021-02-17T09:00:00","-32.5","-61.6666666","96.0","EL TREBOL, AR","FM-12","4","","59","66","","","-0.01","2","79","","29.81","29.48","9.32","62","180","","6","","","","","","","","","","","","","","","","","","","","","","","","","","","","","","","","","","","","","","","","","","","","","","","","","","","","","","","","","","","","","","","","","","","","","","","","","","","","","","","","","","","","","","","","","","","SYN004BUFR","","","","","","","","","",""
"87470099999","2021-02-17T12:00:00","-32.5","-61.6666666","96.0","EL TREBOL, AR","FM-12","4","","56","81","","","+0.01","7","41","","29.80","29.47","9.32","66","230","","6","","","","","","","","","","","","","","","","","","","","","","","","","","","","","","","","","","","","","","","","","","","","","","","","","","","","","","","","","","","","","","","","","","","","","","","","","","","","","","","","","","","","","","","","","","","SYN004BUFR","","","","","","","","","",""
"87470099999","2021-02-17T15:00:00","-32.5","-61.6666666","96.0","EL TREBOL, AR","FM-12","4","","54","85","","","-0.01","3","35","","29.80","29.48","9.32","66","200","","6","","","","","","","","","","","","","","","","","","","","","","","","","","","","","","","","","","","","","","","","","","","","","","","","","","","","","","","","","","","","","","","","","","","","","","","","","","","","","","","","","","","","","","","","","","","SYN04887470 32965 02005 10293 20123 39982 40093 53003=","","","","","","","","","",""
"87470099999","2021-02-17T21:00:00","-32.5","-61.6666666","96.0","EL TREBOL, AR","FM-12","4","","59","64","","","-0.01","1","82","","29.78","29.45","9.32","61","360","","0","","","","","","","","","","","","","","","","","","","","","","","","","","","","","","","","","","","","","","","","","","","","","","","","","","","","","","","","","","","","","","","","","","","","","","","","","","","","","","","","","","","","","","","","","","","SYN004BUFR","","","","","","","","","",""
"87470099999","2021-02-18T09:00:00","-32.5","-61.6666666","96.0","EL TREBOL, AR","FM-12","4","","63","68","","","-0.03","2","83","","29.80","29.47","9.32","65","000","","0","","","","","","","","","","","","","","","","","","","","","","","","","","","","","","","","","","","","","","","","","","","","","","","","","","","","","","","","","","","","","","","","","","","","","","","","","","","","","","","","","","","","","","","","","","","SYN06487470 32965 00000 10201 20172 39981 40093 52010 333 10201 20136=","","","","","","","","","",""
"87470099999","2021-02-18T12:00:00","-32.5","-61.6666666","96.0","EL TREBOL, AR","FM-12","4","","58","85","","","+0.03","7","40","","29.77","29.44","9.32","68","320","","6","","","","","","","","","","","","","","","","","","","","","","","","","","","","","","","","","","","","","","","","","","","","","","","","","","","","","","","","","","","","","","","","","","","","","","","","","","","","","","","","","","","","","","","","","","","SYN004BUFR","","","","","","","","","",""
"87470099999","2021-02-18T15:00:00","-32.5","-61.6666666","96.0","EL TREBOL, AR","FM-12","4","","55","88","","","0.00","4","33","","29.77","29.44","9.32","67","020","","9","","","","","","","","","","","","","","","","","","","","","","","","","","","","","","","","","","","","","","","","","","","","","","","","","","","","","","","","","","","","","","","","","","","","","","","","","","","","","","","","","","","","","","","","","","","SYN04887470 32965 00208 10310 20127 39970 40080 54000=","","","","","","","","","",""
"87470099999","2021-02-18T21:00:00","-32.5","-61.6666666","96.0","EL TREBOL, AR","FM-12","4","","59","73","","","-0.01","1","61","","29.75","29.43","9.32","64","360","","0","","","","","","","","","","","","","","","","","","","","","","","","","","","","","","","","","","","","","","","","","","","","","","","","","","","","","","","","","","","","","","","","","","","","","","","","","","","","","","","","","","","","","","","","","","","SYN004BUFR","","","","","","","","","",""
"87470099999","2021-02-20T21:00:00","-32.5","-61.6666666","96.0","EL TREBOL, AR","FM-12","4","","60","73","","","-0.02","3","62","FEW:01 89","29.89","29.57","9.32","65","140","","6","","","","","","","","","","","","","","","","","","","","","","","","","","","","","","","","","","","","","","","","","","","","","","","","","","","","","","","","","","","","","","","","","","","","","","","","","","","","","","","","","","","","","","","","","","","SYN004BUFR","","","","","","","","","",""
"87470099999","2021-02-21T15:00:00","-32.5","-61.6666666","96.0","EL TREBOL, AR","FM-12","4","","66","87","","","+0.06","7","49","FEW:02 25","29.84","29.52","9.32","73","020","","9","","","","","","","","","","","","","","","","","","","","","","","","","","","","","","","","","","","","","","","","","","","","","","","","","","","","","","","","","","","","","","","","","","","","","","","","","","","","","","","","","","","","","","","","","","","SYN07687470 32565 40208 10306 20187 39997 40106 57021 82250 333 56990 57890 82825=","","","","","","","","","",""
"87470099999","2021-02-21T21:00:00","-32.5","-61.6666666","96.0","EL TREBOL, AR","FM-12","4","","67","78","","","-0.01","3","68","FEW:02 20","29.80","29.47","9.32","71","360","","6","","","","","","","","","","","","","","","","","","","","","","","","","","","","","","","","","","","","","","","","","","","","","","","","","","","","","","","","","","","","","","","","","","","","","","","","","","","","","","","","","","","","","","","","","","","SYN07687470 32565 63605 10258 20194 39981 40092 53004 82558 333 10313 20208 82620=","","","","","","","","","",""
"87470099999","2021-02-22T09:00:00","-32.5","-61.6666666","96.0","EL TREBOL, AR","FM-12","4","","67","74","","","-0.01","3","77","SCT:03 20 SCT:03 89","29.81","29.49","9.32","69","000","","0","","","","","","","","","","","","","","","","","","","","","","","","","","","","","","","","","","","","","","","","","","","","","","","","","","","","","","","","","","","","","","","","","","","","","","","","","","","","","","","","","","","","","","","","","","","SYN10087470 31565 60000 10236 20194 39986 40096 53005 702// 83280 333 10258 20207 56000 57800 83820 83359=","","","","","","","","","",""
"87470099999","2021-02-22T15:00:00","-32.5","-61.6666666","96.0","EL TREBOL, AR","FM-12","4","","66","89","","","+0.02","6","47","FEW:02 20","29.74","29.42","9.32","73","320","","15","","","","","","","","","","","","","","","","","","","","","","","","","","","","","","","","","","","","","","","","","","","","","","","","","","","","","","","","","","","","","","","","","","","","","","","","","","","","","","","","","","","","","","","","","","","SYN004BUFR","","","","","","","","","",""
"87470099999","2021-02-22T21:00:00","-32.5","-61.6666666","96.0","EL TREBOL, AR","FM-12","4","","72","78","","","-0.04","3","83","FEW:01 89","29.76","29.44","9.32","74","200","","2","","","","","","","","","","","","","","","","","","","","","","","","","","","","","","","","","","","","","","","","","","","","","","","","","","","","","","","","","","","","","","","","","","","","","","","","","","","","","","","","","","","","","","","","","","","SYN08287470 32965 12002 10256 20224 39970 40079 53012 81050 333 10330 20236 56090 81359=","","","","","","","","","",""
"87470099999","2021-02-23T09:00:00","-32.5","-61.6666666","96.0","EL TREBOL, AR","FM-12","4","","65","72","","","-0.09","2","80","OVC:08 18","29.91","29.58","9.32","68","180","","6","","","","","","","","","","","","","","","","","","","","","","","","","","","","","","","","","","","","","","","","","","","","","","","","","","","","","","","","","","","","","","","","","","","","","","","","","","","","","","","","","","","","","","","","","","","SYN08287470 32465 81805 10222 20186 30018 40129 52030 88700 333 10270 20195 56900 88718=","","","","","","","","","",""
"87470099999","2021-02-23T15:00:00","-32.5","-61.6666666","96.0","EL TREBOL, AR","FM-12","4","","59","82","","","-0.02","3","45","SCT:03 89 SCT:03 246","29.91","29.58","9.32","68","160","","6","","","","","","","","","","","","","","","","","","","","","","","","","","","","","","","","","","","","","","","","","","","","","","","","","","","","","","","","","","","","","","","","","","","","","","","","","","","","","","","","","","","","","","","","","","","SYN004BUFR","","","","","","","","","",""
"87470099999","2021-02-23T18:00:00","-32.5","-61.6666666","96.0","EL TREBOL, AR","FM-12","4","","52","83","","","+0.01","6","34","FEW:02 89","29.89","29.57","9.32","64","160","","2","","","","","","","","","","","","","","","","","","","","","","","","","","","","","","","","","","","","","","","","","","","","","","","","","","","","","","","","","","","","","","","","","","","","","","","","","","","","","","","","","","","","","","","","","","","SYN004BUFR","","","","","","","","","",""
"87470099999","2021-02-23T21:00:00","-32.5","-61.6666666","96.0","EL TREBOL, AR","FM-12","4","","60","68","","","-0.05","3","76","","29.95","29.62","9.32","63","230","","2","","","","","","","","","","","","","","","","","","","","","","","","","","","","","","","","","","","","","","","","","","","","","","","","","","","","","","","","","","","","","","","","","","","","","","","","","","","","","","","","","","","","","","","","","","","SYN06487470 32965 02302 10199 20156 30030 40142 53017 333 10288 20199=","","","","","","","","","",""
"87470099999","2021-02-24T09:00:00","-32.5","-61.6666666","96.0","EL TREBOL, AR","FM-12","4","","60","70","","","-0.03","2","71","","29.95","29.62","9.32","64","050","","2","","","","","","","","","","","","","","","","","","","","","","","","","","","","","","","","","","","","","","","","","","","","","","","","","","","","","","","","","","","","","","","","","","","","","","","","","","","","","","","","","","","","","","","","","","","SYN004BUFR","","","","","","","","","",""
"87470099999","2021-02-24T12:00:00","-32.5","-61.6666666","96.0","EL TREBOL, AR","FM-12","4","","55","84","","","+0.01","7","37","FEW:02 20","29.93","29.60","9.32","66","050","","6","","","","","","","","","","","","","","","","","","","","","","","","","","","","","","","","","","","","","","","","","","","","","","","","","","","","","","","","","","","","","","","","","","","","","","","","","","","","","","","","","","","","","","","","","","","SYN004BUFR","","","","","","","","","",""
"87470099999","2021-02-24T15:00:00","-32.5","-61.6666666","96.0","EL TREBOL, AR","FM-12","4","","56","85","","","+0.02","6","37","FEW:02 246","29.91","29.58","9.32","67","340","","6","","","","","","","","","","","","","","","","","","","","","","","","","","","","","","","","","","","","","","","","","","","","","","","","","","","","","","","","","","","","","","","","","","","","","","","","","","","","","","","","","","","","","","","","","","","SYN004BUFR","","","","","","","","","",""
"87470099999","2021-02-24T21:00:00","-32.5","-61.6666666","96.0","EL TREBOL, AR","FM-12","4","","61","71","","","-0.02","3","70","","29.89","29.56","9.32","65","090","","2","","","","","","","","","","","","","","","","","","","","","","","","","","","","","","","","","","","","","","","","","","","","","","","","","","","","","","","","","","","","","","","","","","","","","","","","","","","","","","","","","","","","","","","","","","","SYN004BUFR","","","","","","","","","",""
"87470099999","2021-02-25T09:00:00","-32.5","-61.6666666","96.0","EL TREBOL, AR","FM-12","4","","53","72","","","+0.03","7","51","","29.90","29.57","9.32","61","000","","0","","","","","","","","","","","","","","","","","","","","","","","","","","","","","","","","","","","","","","","","","","","","","","","","","","","","","","","","","","","","","","","","","","","","","","","","","","","","","","","","","","","","","","","","","","","SYN06487470 32965 00000 10224 20117 30013 40124 57010 333 10224 20125=","","","","","","","","","",""
"87470099999","2021-02-25T15:00:00","-32.5","-61.6666666","96.0","EL TREBOL, AR","FM-12","4","","55","87","","","0.00","4","33","","29.88","29.56","9.32","67","020","","9","","","","","","","","","","","","","","","","","","","","","","","","","","","","","","","","","","","","","","","","","","","","","","","","","","","","","","","","","","","","","","","","","","","","","","","","","","","","","","","","","","","","","","","","","","","SYN04887470 32965 00208 10308 20129 30010 40120 54000=","","","","","","","","","",""
"87470099999","2021-02-25T21:00:00","-32.5","-61.6666666","96.0","EL TREBOL, AR","FM-12","4","","60","74","","","-0.00","3","60","","29.86","29.54","9.32","65","090","","2","","","","","","","","","","","","","","","","","","","","","","","","","","","","","","","","","","","","","","","","","","","","","","","","","","","","","","","","","","","","","","","","","","","","","","","","","","","","","","","","","","","","","","","","","","","SYN004BUFR","","","","","","","","","",""
"87470099999","2021-02-26T09:00:00","-32.5","-61.6666666","96.0","EL TREBOL, AR","FM-12","4","","60","68","","","-0.01","2","75","","29.85","29.52","9.32","63","050","","6","","","","","","","","","","","","","","","","","","","","","","","","","","","","","","","","","","","","","","","","","","","","","","","","","","","","","","","","","","","","","","","","","","","","","","","","","","","","","","","","","","","","","","","","","","","SYN06487470 32965 00505 10202 20155 39997 40107 52005 333 10236 20155=","","","","","","","","","",""
"87470099999","2021-02-26T15:00:00","-32.5","-61.6666666","96.0","EL TREBOL, AR","FM-12","4","","55","89","","","+0.01","6","32","","29.83","29.51","9.32","68","050","","9","","","","","","","","","","","","","","","","","","","","","","","","","","","","","","","","","","","","","","","","","","","","","","","","","","","","","","","","","","","","","","","","","","","","","","","","","","","","","","","","","","","","","","","","","","","SYN004BUFR","","","","","","","","","",""
"87470099999","2021-02-26T21:00:00","-32.5","-61.6666666","96.0","EL TREBOL, AR","FM-12","4","","55","74","","","-0.07","3","50","FEW:01 89","29.87","29.54","9.32","63","070","","2","","","","","","","","","","","","","","","","","","","","","","","","","","","","","","","","","","","","","","","","","","","","","","","","","","","","","","","","","","","","","","","","","","","","","","","","","","","","","","","","","","","","","","","","","","","SYN08287470 32965 10702 10236 20126 30004 40115 53023 81050 333 10319 20202 56090 81359=","","","","","","","","","",""
"87470099999","2021-02-27T09:00:00","-32.5","-61.6666666","96.0","EL TREBOL, AR","FM-12","4","","64","72","","","-0.03","2","76","FEW:01 246","29.93","29.60","9.32","67","050","","6","","","","","","","","","","","","","","","","","","","","","","","","","","","","","","","","","","","","","","","","","","","","","","","","","","","","","","","","","","","","","","","","","","","","","","","","","","","","","","","","","","","","","","","","","","","SYN004BUFR","","","","","","","","","",""
"87470099999","2021-02-28T09:00:00","-32.5","-61.6666666","96.0","EL TREBOL, AR","FM-12","4","","67","75","","","-0.03","2","76","SCT:03 89","29.88","29.55","9.32","70","050","","6","","","","","","","","","","","","","","","","","","","","","","","","","","","","","","","","","","","","","","","","","","","","","","","","","","","","","","","","","","","","","","","","","","","","","","","","","","","","","","","","","","","","","","","","","","","SYN08287470 32965 50505 10240 20194 30008 40117 52010 83068 333 10258 20200 56099 83359=","","","","","","","","","",""
"87470099999","2021-02-28T15:00:00","-32.5","-61.6666666","96.0","EL TREBOL, AR","FM-12","4","","66","89","","","+0.08","7","46","BKN:07 20","29.80","29.47","9.32","73","050","","6","","","","","","","","","","","","","","","","","","","","","","","","","","","","","","","","","","","","","","","","","","","","","","","","","","","","","","","","","","","","","","","","","","","","","","","","","","","","","","","","","","","","","","","","","","","SYN004BUFR","","","","","","","","","",""
"87470099999","2021-02-28T18:00:00","-32.5","-61.6666666","96.0","EL TREBOL, AR","FM-12","4","","68","87","","","+0.02","7","53","BKN:05 20","29.78","29.45","9.32","74","050","","6","","","","","","","","","","","","","","","","","","","","","","","","","","","","","","","","","","","","","","","","","","","","","","","","","","","","","","","","","","","","","","","","","","","","","","","","","","","","","","","","","","","","","","","","","","","SYN004BUFR","","","","","","","","","",""
"87470099999","2021-02-28T21:00:00","-32.5","-61.6666666","96.0","EL TREBOL, AR","FM-12","4","","68","74","","||TS","+0.01","7","81","BKN:06 20","29.76","29.44","9.32","70","140","","15","","","","","","","","","","","","","","","","","","","","","","","","","","","","","","","","","","","","","","","","","","","","","","","","","","","","","","","","","","","","","","","","","","","","","","","","","","","","","","","","","","","","","","","","","","","SYN004BUFR","","","","","","","","","",""
"87470099999","2021-03-01T09:00:00","-32.5","-61.6666666","96.0","EL TREBOL, AR","FM-12","4","","69","73","","","-0.01","2","87","SCT:04 20","29.85","29.52","9.32","70","050","","6","","","","","","","","","","","","","","","","","","","","","","","","","","","","","","","","","","","","","","","","","","","","","","","","","","","","","","","","","","","","","","","","","","","","","","","","","","","","","","","","","","","","","","","","","","","SYN004BUFR","","","","","","","","","",""
"87470099999","2021-03-02T09:00:00","-32.5","-61.6666666","96.0","EL TREBOL, AR","FM-12","4","","68","72","","","-0.03","2","87","FEW:02 89 SCT:04 246","29.81","29.49","9.32","69","090","","6","","","","","","","","","","","","","","","","","","","","","","","","","","","","","","","","","","","","","","","","","","","","","","","","","","","","","","","","","","","","","","","","","","","","","","","","","","","","","","","","","","","","","","","","","","","SYN08887470 32965 60905 10220 20198 39985 40095 52010 82056 333 10253 20200 56099 82359 84275=","","","","","","","","","",""
"87470099999","2021-03-02T15:00:00","-32.5","-61.6666666","96.0","EL TREBOL, AR","FM-12","4","","64","90","","","+0.02","6","43","FEW:02 20","29.80","29.47","9.32","73","160","","6","","","","","","","","","","","","","","","","","","","","","","","","","","","","","","","","","","","","","","","","","","","","","","","","","","","","","","","","","","","","","","","","","","","","","","","","","","","","","","","","","","","","","","","","","","","SYN07687470 32565 61605 10320 20179 39981 40090 56007 82284 333 56000 57800 82820=","","","","","","","","","",""
"87470099999","2021-03-02T21:00:00","-32.5","-61.6666666","96.0","EL TREBOL, AR","FM-12","4","","66","79","","","-0.02","2","65","","29.81","29.49","9.32","70","000","","0","","","","","","","","","","","","","","","","","","","","","","","","","","","","","","","","","","","","","","","","","","","","","","","","","","","","","","","","","","","","","","","","","","","","","","","","","","","","","","","","","","","","","","","","","","","SYN06487470 32965 00000 10262 20191 39985 40095 52007 333 10325 20220=","","","","","","","","","",""
"87470099999","2021-03-03T09:00:00","-32.5","-61.6666666","96.0","EL TREBOL, AR","FM-12","4","","70","74","","","-0.01","3","86","FEW:02 20","29.91","29.58","9.32","71","110","","2","","","","","","","","","","","","","","","","","","","","","","","","","","","","","","","","","","","","","","","","","","","","","","","","","","","","","","","","","","","","","","","","","","","","","","","","","","","","","","","","","","","","","","","","","","","SYN09487470 31565 41102 10236 20212 30018 40128 53005 702// 82204 333 10262 20188 56000 57800 82820=","","","","","","","","","",""
"87470099999","2021-03-03T15:00:00","-32.5","-61.6666666","96.0","EL TREBOL, AR","FM-12","4","","68","78","","||TS","+0.04","5","71","BKN:05 17 SCT:03 89","29.87","29.54","9.32","71","070","","6","","","","","","","","","","","","","","","","","","","","","","","","","","","","","","","","","","","","","","","","","","","","","","","","","","","","","","","","","","","","","","","","","","","","","","","","","","","","","","","","","","","","","","","","","","","SYN08887470 31465 80705 10255 20199 30005 40116 55015 71792 8528/ 333 56009 57800 85817 83359=","","","","","","","","","",""
"87470099999","2021-03-04T09:00:00","-32.5","-61.6666666","96.0","EL TREBOL, AR","FM-12","4","","68","70","","","-0.01","2","95","FEW:02 89","29.82","29.49","9.32","69","180","","6","","","","","","","","","","","","","","","","","","","","","","","","","","","","","","","","","","","","","","","","","","","","","","","","","","","","","","","","","","","","","","","","","","","","","","","","","","","","","","","","","","","","","","","","","","","SYN08287470 32965 41805 10210 20202 39988 40098 52005 82053 333 10216 20200 56099 82359=","","","","","","","","","",""
"87470099999","2021-03-04T12:00:00","-32.5","-61.6666666","96.0","EL TREBOL, AR","FM-12","4","","74","79","","","-0.01","2","83","BKN:06 20","29.83","29.51","9.32","76","050","","6","","","","","","","","","","","","","","","","","","","","","","","","","","","","","","","","","","","","","","","","","","","","","","","","","","","","","","","","","","","","","","","","","","","","","","","","","","","","","","","","","","","","","","","","","","","SYN004BUFR","","","","","","","","","",""
"87470099999","2021-03-04T15:00:00","-32.5","-61.6666666","96.0","EL TREBOL, AR","FM-12","4","","71","84","","","0.00","4","65","BKN:06 20","29.83","29.51","9.32","75","160","","6","","","","","","","","","","","","","","","","","","","","","","","","","","","","","","","","","","","","","","","","","","","","","","","","","","","","","","","","","","","","","","","","","","","","","","","","","","","","","","","","","","","","","","","","","","","SYN07687470 32565 61605 10290 20217 39992 40101 54000 86200 333 56000 57800 86820=","","","","","","","","","",""
"87470099999","2021-03-05T09:00:00","-32.5","-61.6666666","96.0","EL TREBOL, AR","FM-12","4","","66","70","","","-0.03","2","87","","29.84","29.51","9.32","67","180","","9","","","","","","","","","","","","","","","","","","","","","","","","","","","","","","","","","","","","","","","","","","","","","","","","","","","","","","","","","","","","","","","","","","","","","","","","","","","","","","","","","","","","","","","","","","","SYN07087470 12965 01808 10212 20190 39994 40105 52010 69904 333 10238 20178=","","","","","","","","","",""
"87470099999","2021-03-05T12:00:00","-32.5","-61.6666666","96.0","EL TREBOL, AR","FM-12","4","","70","82","","","-0.00","2","68","SCT:03 20","29.84","29.52","9.32","74","230","","6","","","","","","","","","","","","","","","","","","","","","","","","","","","","","","","","","","","","","","","","","","","","","","","","","","","","","","","","","","","","","","","","","","","","","","","","","","","","","","","","","","","","","","","","","","","SYN004BUFR","","","","","","","","","",""
"87470099999","2021-03-05T15:00:00","-32.5","-61.6666666","96.0","EL TREBOL, AR","FM-12","4","","64","85","","","-0.01","3","50","SCT:03 20","29.85","29.52","9.32","71","200","","6","","","","","","","","","","","","","","","","","","","","","","","","","","","","","","","","","","","","","","","","","","","","","","","","","","","","","","","","","","","","","","","","","","","","","","","","","","","","","","","","","","","","","","","","","","","SYN07687470 32565 32005 10294 20180 39998 40108 53003 83200 333 56000 57800 83820=","","","","","","","","","",""
"87470099999","2021-03-05T21:00:00","-32.5","-61.6666666","96.0","EL TREBOL, AR","FM-12","4","","61","72","","","-0.02","2","68","","29.84","29.52","9.32","65","140","","9","","","","","","","","","","","","","","","","","","","","","","","","","","","","","","","","","","","","","","","","","","","","","","","","","","","","","","","","","","","","","","","","","","","","","","","","","","","","","","","","","","","","","","","","","","","SYN004BUFR","","","","","","","","","",""
"87470099999","2021-03-06T09:00:00","-32.5","-61.6666666","96.0","EL TREBOL, AR","FM-12","4","","58","63","","","-0.02","3","82","FEW:02 89","29.91","29.58","9.32","60","050","","6","","","","","","","","","","","","","","","","","","","","","","","","","","","","","","","","","","","","","","","","","","","","","","","","","","","","","","","","","","","","","","","","","","","","","","","","","","","","","","","","","","","","","","","","","","","SYN004BUFR","","","","","","","","","",""
"87470099999","2021-03-06T15:00:00","-32.5","-61.6666666","96.0","EL TREBOL, AR","FM-12","4","","61","82","","","+0.06","6","49","FEW:02 20","29.84","29.52","9.32","69","250","","2","","","","","","","","","","","","","","","","","","","","","","","","","","","","","","","","","","","","","","","","","","","","","","","","","","","","","","","","","","","","","","","","","","","","","","","","","","","","","","","","","","","","","","","","","","","SYN07087470 32565 22502 10278 20161 39996 40106 56021 82100 333 56000 82820=","","","","","","","","","",""
"87470099999","2021-03-06T21:00:00","-32.5","-61.6666666","96.0","EL TREBOL, AR","FM-12","4","","58","69","","","-0.03","3","67","","29.86","29.53","9.32","62","000","","0","","","","","","","","","","","","","","","","","","","","","","","","","","","","","","","","","","","","","","","","","","","","","","","","","","","","","","","","","","","","","","","","","","","","","","","","","","","","","","","","","","","","","","","","","","","SYN06487470 32965 00000 10208 20144 30000 40111 53009 333 10299 20174=","","","","","","","","","",""
"87470099999","2021-03-07T09:00:00","-32.5","-61.6666666","96.0","EL TREBOL, AR","FM-12","4","","57","64","","","-0.02","3","78","","29.91","29.58","9.32","60","020","","6","","","","","","","","","","","","","","","","","","","","","","","","","","","","","","","","","","","","","","","","","","","","","","","","","","","","","","","","","","","","","","","","","","","","","","","","","","","","","","","","","","","","","","","","","","","SYN07087470 31965 00205 10179 20139 30016 40127 53007 702// 333 10208 20118=","","","","","","","","","",""
"87470099999","2021-03-07T15:00:00","-32.5","-61.6666666","96.0","EL TREBOL, AR","FM-12","4","","53","86","","","+0.07","5","32","","29.81","29.48","9.32","66","050","","9","","","","","","","","","","","","","","","","","","","","","","","","","","","","","","","","","","","","","","","","","","","","","","","","","","","","","","","","","","","","","","","","","","","","","","","","","","","","","","","","","","","","","","","","","","","SYN04887470 32965 00508 10301 20118 39984 40094 55025=","","","","","","","","","",""
"87470099999","2021-03-07T21:00:00","-32.5","-61.6666666","96.0","EL TREBOL, AR","FM-12","4","","57","73","","","-0.00","3","57","","29.76","29.44","9.32","63","000","","0","","","","","","","","","","","","","","","","","","","","","","","","","","","","","","","","","","","","","","","","","","","","","","","","","","","","","","","","","","","","","","","","","","","","","","","","","","","","","","","","","","","","","","","","","","","SYN06487470 32965 00000 10230 20139 39968 40078 53001 333 10311 20179=","","","","","","","","","",""
"87470099999","2021-03-08T09:00:00","-32.5","-61.6666666","96.0","EL TREBOL, AR","FM-12","4","","62","68","","","-0.09","2","81","SCT:03 20 SCT:03 89","29.94","29.62","9.32","64","230","","6","","","","","","","","","","","","","","","","","","","","","","","","","","","","","","","","","","","","","","","","","","","","","","","","","","","","","","","","","","","","","","","","","","","","","","","","","","","","","","","","","","","","","","","","","","","SYN09487470 32565 62305 10198 20165 30029 40140 52030 83230 333 10230 20125 56990 57899 83820 83359=","","","","","","","","","",""
"87470099999","2021-03-08T15:00:00","-32.5","-61.6666666","96.0","EL TREBOL, AR","FM-12","4","","60","79","","","-0.01","3","51","BKN:05 89","29.96","29.63","9.32","67","200","","6","","","","","","","","","","","","","","","","","","","","","","","","","","","","","","","","","","","","","","","","","","","","","","","","","","","","","","","","","","","","","","","","","","","","","","","","","","","","","","","","","","","","","","","","","","","SYN004BUFR","","","","","","","","","",""
"87470099999","2021-03-08T21:00:00","-32.5","-61.6666666","96.0","EL TREBOL, AR","FM-12","4","","64","69","","","-0.03","3","84","","29.95","29.62","9.32","66","000","","0","","","","","","","","","","","","","","","","","","","","","","","","","","","","","","","","","","","","","","","","","","","","","","","","","","","","","","","","","","","","","","","","","","","","","","","","","","","","","","","","","","","","","","","","","","","SYN06487470 32965 00000 10208 20179 30030 40142 53009 333 10297 20198=","","","","","","","","","",""
"87470099999","2021-03-09T09:00:00","-32.5","-61.6666666","96.0","EL TREBOL, AR","FM-12","4","","65","65","","||FG","-0.04","3","99","","29.99","29.66","0.12","65","110","","6","","","","","","","","","","","","","","","","","","","","","","","","","","","","","","","","","","","","","","","","","","","","","","","","","","","","","","","","","","","","","","","","","","","","","","","","","","","","","","","","","","","","","","","","","","","SYN07087470 31/02 91105 10185 20183 30045 40157 53012 745// 333 10208 20149=","","","","","","","","","",""
"87470099999","2021-03-09T15:00:00","-32.5","-61.6666666","96.0","EL TREBOL, AR","FM-12","4","","60","87","","","+0.07","6","40","","29.91","29.59","9.32","70","110","","6","","","","","","","","","","","","","","","","","","","","","","","","","","","","","","","","","","","","","","","","","","","","","","","","","","","","","","","","","","","","","","","","","","","","","","","","","","","","","","","","","","","","","","","","","","","SYN04887470 32965 01105 10308 20155 30020 40130 56024=","","","","","","","","","",""
"87470099999","2021-03-09T21:00:00","-32.5","-61.6666666","96.0","EL TREBOL, AR","FM-12","4","","62","76","","","-0.01","3","62","","29.87","29.54","9.32","67","110","","2","","","","","","","","","","","","","","","","","","","","","","","","","","","","","","","","","","","","","","","","","","","","","","","","","","","","","","","","","","","","","","","","","","","","","","","","","","","","","","","","","","","","","","","","","","","SYN004BUFR","","","","","","","","","",""
"87470099999","2021-03-10T09:00:00","-32.5","-61.6666666","96.0","EL TREBOL, AR","FM-12","4","","62","68","","","-0.01","2","80","","29.85","29.52","9.32","64","050","","6","","","","","","","","","","","","","","","","","","","","","","","","","","","","","","","","","","","","","","","","","","","","","","","","","","","","","","","","","","","","","","","","","","","","","","","","","","","","","","","","","","","","","","","","","","","SYN004BUFR","","","","","","","","","",""
"87470099999","2021-03-10T21:00:00","-32.5","-61.6666666","96.0","EL TREBOL, AR","FM-12","4","","61","74","","","-0.02","3","62","","29.71","29.38","9.32","66","000","","0","","","","","","","","","","","","","","","","","","","","","","","","","","","","","","","","","","","","","","","","","","","","","","","","","","","","","","","","","","","","","","","","","","","","","","","","","","","","","","","","","","","","","","","","","","","SYN06487470 32965 00000 10236 20159 39950 40061 53007 333 10325 20202=","","","","","","","","","",""
"87470099999","2021-03-11T09:00:00","-32.5","-61.6666666","96.0","EL TREBOL, AR","FM-12","4","","61","68","","","-0.12","2","76","FEW:02 20","29.83","29.50","9.32","64","050","","6","","","","","","","","","","","","","","","","","","","","","","","","","","","","","","","","","","","","","","","","","","","","","","","","","","","","","","","","","","","","","","","","","","","","","","","","","","","","","","","","","","","","","","","","","","","SYN004BUFR","","","","","","","","","",""
"87470099999","2021-03-11T12:00:00","-32.5","-61.6666666","96.0","EL TREBOL, AR","FM-12","4","","59","86","","","-0.01","2","40","SCT:03 89","29.84","29.52","9.32","69","360","","9","","","","","","","","","","","","","","","","","","","","","","","","","","","","","","","","","","","","","","","","","","","","","","","","","","","","","","","","","","","","","","","","","","","","","","","","","","","","","","","","","","","","","","","","","","","SYN004BUFR","","","","","","","","","",""
"87470099999","2021-03-11T15:00:00","-32.5","-61.6666666","96.0","EL TREBOL, AR","FM-12","4","","59","89","","","+0.01","6","36","SCT:03 20","29.83","29.51","9.32","70","090","","2","","","","","","","","","","","","","","","","","","","","","","","","","","","","","","","","","","","","","","","","","","","","","","","","","","","","","","","","","","","","","","","","","","","","","","","","","","","","","","","","","","","","","","","","","","","SYN07687470 32565 60902 10318 20148 39993 40102 56003 83258 333 56000 57800 83820=","","","","","","","","","",""
"87470099999","2021-03-11T21:00:00","-32.5","-61.6666666","96.0","EL TREBOL, AR","FM-12","4","","58","74","","","-0.04","3","56","SCT:04 20","29.88","29.55","9.32","64","140","","2","","","","","","","","","","","","","","","","","","","","","","","","","","","","","","","","","","","","","","","","","","","","","","","","","","","","","","","","","","","","","","","","","","","","","","","","","","","","","","","","","","","","","","","","","","","SYN08887470 32565 61402 10236 20144 30006 40117 53015 84280 333 10321 20202 56000 57800 84820=","","","","","","","","","",""
"87470099999","2021-03-12T09:00:00","-32.5","-61.6666666","96.0","EL TREBOL, AR","FM-12","4","","62","68","","","-0.06","2","81","BKN:06 246","29.98","29.65","9.32","64","180","","6","","","","","","","","","","","","","","","","","","","","","","","","","","","","","","","","","","","","","","","","","","","","","","","","","","","","","","","","","","","","","","","","","","","","","","","","","","","","","","","","","","","","","","","","","","","SYN004BUFR","","","","","","","","","",""
"87470099999","2021-03-12T15:00:00","-32.5","-61.6666666","96.0","EL TREBOL, AR","FM-12","4","","66","83","","","+0.02","6","56","SCT:03 89 SCT:04 246","29.93","29.60","9.32","72","250","","2","","","","","","","","","","","","","","","","","","","","","","","","","","","","","","","","","","","","","","","","","","","","","","","","","","","","","","","","","","","","","","","","","","","","","","","","","","","","","","","","","","","","","","","","","","","SYN07687470 32965 72502 10284 20187 30025 40135 56007 83056 333 56000 83359 84275=","","","","","","","","","",""
"87470099999","2021-03-12T21:00:00","-32.5","-61.6666666","96.0","EL TREBOL, AR","FM-12","4","","69","72","","","-0.01","3","91","SCT:04 89 SCT:04 246","29.91","29.58","9.32","70","360","","0","","","","","","","","","","","","","","","","","","","","","","","","","","","","","","","","","","","","","","","","","","","","","","","","","","","","","","","","","","","","","","","","","","","","","","","","","","","","","","","","","","","","","","","","","","","SYN004BUFR","","","","","","","","","",""
"87470099999","2021-03-13T09:00:00","-32.5","-61.6666666","96.0","EL TREBOL, AR","FM-12","4","","63","70","","","-0.03","1","81","FEW:02 20 SCT:03 89","29.99","29.66","9.32","66","000","","0","","","","","","","","","","","","","","","","","","","","","","","","","","","","","","","","","","","","","","","","","","","","","","","","","","","","","","","","","","","","","","","","","","","","","","","","","","","","","","","","","","","","","","","","","","","SYN08287470 32565 70000 10210 20175 30045 40156 51009 82665 333 10222 20186 82720 83359=","","","","","","","","","",""
"87470099999","2021-03-13T12:00:00","-32.5","-61.6666666","96.0","EL TREBOL, AR","FM-12","4","","61","83","","","+0.01","6","47","FEW:02 20","29.97","29.65","9.32","69","360","","0","","","","","","","","","","","","","","","","","","","","","","","","","","","","","","","","","","","","","","","","","","","","","","","","","","","","","","","","","","","","","","","","","","","","","","","","","","","","","","","","","","","","","","","","","","","SYN004BUFR","","","","","","","","","",""
"87470099999","2021-03-13T15:00:00","-32.5","-61.6666666","96.0","EL TREBOL, AR","FM-12","4","","69","84","","","+0.05","6","61","FEW:02 20","29.92","29.59","9.32","74","360","","0","","","","","","","","","","","","","","","","","","","","","","","","","","","","","","","","","","","","","","","","","","","","","","","","","","","","","","","","","","","","","","","","","","","","","","","","","","","","","","","","","","","","","","","","","","","SYN004BUFR","","","","","","","","","",""
"87470099999","2021-03-13T21:00:00","-32.5","-61.6666666","96.0","EL TREBOL, AR","FM-12","4","","62","76","","","-0.00","1","61","","29.89","29.56","9.32","67","050","","2","","","","","","","","","","","","","","","","","","","","","","","","","","","","","","","","","","","","","","","","","","","","","","","","","","","","","","","","","","","","","","","","","","","","","","","","","","","","","","","","","","","","","","","","","","","SYN06487470 32965 00502 10247 20167 30010 40121 51001 333 10316 20210=","","","","","","","","","",""
"87470099999","2021-03-14T09:00:00","-32.5","-61.6666666","96.0","EL TREBOL, AR","FM-12","4","","57","67","","","-0.03","1","70","SCT:03 20 SCT:03 89","29.99","29.66","9.32","61","050","","2","","","","","","","","","","","","","","","","","","","","","","","","","","","","","","","","","","","","","","","","","","","","","","","","","","","","","","","","","","","","","","","","","","","","","","","","","","","","","","","","","","","","","","","","","","","SYN08287470 32565 70502 10195 20138 30045 40156 51011 83555 333 10237 20180 83620 83359=","","","","","","","","","",""
"87470099999","2021-03-14T12:00:00","-32.5","-61.6666666","96.0","EL TREBOL, AR","FM-12","4","","62","65","","||RA","-0.07","1","89","SCT:03 20 BKN:05 89","30.06","29.73","7.46","63","200","","9","","","","","","","","","","","","","","","","","","","","","","","","","","","","","","","","","","","","","","","","","","","","","","","","","","","","","","","","","","","","","","","","","","","","","","","","","","","","","","","","","","","","","","","","","","","SYN004BUFR","","","","","","","","","",""
"87470099999","2021-03-14T15:00:00","-32.5","-61.6666666","96.0","EL TREBOL, AR","FM-12","4","","65","68","","","+0.07","6","91","SCT:03 20","29.99","29.66","9.32","66","140","","6","","","","","","","","","","","","","","","","","","","","","","","","","","","","","","","","","","","","","","","","","","","","","","","","","","","","","","","","","","","","","","","","","","","","","","","","","","","","","","","","","","","","","","","","","","","SYN07687470 11565 61405 10202 20186 30045 40157 56023 60071 70262 83765 333 83720=","","","","","","","","","",""
"87470099999","2021-03-14T21:00:00","-32.5","-61.6666666","96.0","EL TREBOL, AR","FM-12","4","","65","71","","","+0.01","6","83","SCT:04 20 SCT:04 89","29.95","29.62","9.32","67","140","","2","","","","","","","","","","","","","","","","","","","","","","","","","","","","","","","","","","","","","","","","","","","","","","","","","","","","","","","","","","","","","","","","","","","","","","","","","","","","","","","","","","","","","","","","","","","SYN08887470 32565 81402 10215 20185 30030 40141 56003 84760 333 10245 20182 56990 84720 84359=","","","","","","","","","",""
"87470099999","2021-03-15T09:00:00","-32.5","-61.6666666","96.0","EL TREBOL, AR","FM-12","4","","62","62","","||RA","-0.01","2","100","OVC:08 18","29.92","29.59","3.11","62","000","","0","","","","","","","","","","","","","","","","","","","","","","","","","","","","","","","","","","","","","","","","","","","","","","","","","","","","","","","","","","","","","","","","","","","","","","","","","","","","","","","","","","","","","","","","","","","SYN10087470 01450 80000 10166 20166 30020 40132 52005 60144 76362 88700 333 10215 20166 56900 60072 88718=","","","","","","","","","",""
"87470099999","2021-03-15T15:00:00","-32.5","-61.6666666","96.0","EL TREBOL, AR","FM-12","4","","64","65","","","+0.02","6","97","SCT:03 20 BKN:05 89","29.90","29.57","9.32","64","140","","6","","","","","","","","","","","","","","","","","","","","","","","","","","","","","","","","","","","","","","","","","","","","","","","","","","","","","","","","","","","","","","","","","","","","","","","","","","","","","","","","","","","","","","","","","","","SYN09487470 11565 81405 10184 20179 30013 40125 56007 60131 70262 8325/ 333 56009 57800 83820 85359=","","","","","","","","","",""
"87470099999","2021-03-15T21:00:00","-32.5","-61.6666666","96.0","EL TREBOL, AR","FM-12","4","","61","64","","","+0.04","6","89","SCT:03 20","29.82","29.49","9.32","62","140","","6","","","","","","","","","","","","","","","","","","","","","","","","","","","","","","","","","","","","","","","","","","","","","","","","","","","","","","","","","","","","","","","","","","","","","","","","","","","","","","","","","","","","","","","","","","","SYN004BUFR","","","","","","","","","",""
"87470099999","2021-03-16T09:00:00","-32.5","-61.6666666","96.0","EL TREBOL, AR","FM-12","4","","63","63","","||RA","-0.03","2","100","OVC:08 18","29.75","29.42","3.11","63","230","","2","","","","","","","","","","","","","","","","","","","","","","","","","","","","","","","","","","","","","","","","","","","","","","","","","","","","","","","","","","","","","","","","","","","","","","","","","","","","","","","","","","","","","","","","","","","SYN10087470 01450 82302 10170 20170 39962 40074 52010 60194 76362 88700 333 10180 20170 56900 60072 88718=","","","","","","","","","",""
"87470099999","2021-03-16T12:00:00","-32.5","-61.6666666","96.0","EL TREBOL, AR","FM-12","4","","67","67","","","+0.10","7","99","SCT:04 18","29.65","29.32","9.32","67","360","","6","","","","","","","","","","","","","","","","","","","","","","","","","","","","","","","","","","","","","","","","","","","","","","","","","","","","","","","","","","","","","","","","","","","","","","","","","","","","","","","","","","","","","","","","","","","SYN004BUFR","","","","","","","","","",""
"87470099999","2021-03-16T15:00:00","-32.5","-61.6666666","96.0","EL TREBOL, AR","FM-12","4","","63","77","","","-0.01","3","64","BKN:06 20","29.65","29.33","9.32","68","290","","6","","","","","","","","","","","","","","","","","","","","","","","","","","","","","","","","","","","","","","","","","","","","","","","","","","","","","","","","","","","","","","","","","","","","","","","","","","","","","","","","","","","","","","","","","","","SYN08287470 12565 62905 10248 20174 39932 40042 53003 60071 86200 333 56000 57800 86820=","","","","","","","","","",""
"87470099999","2021-03-16T21:00:00","-32.5","-61.6666666","96.0","EL TREBOL, AR","FM-12","4","","60","66","","","-0.11","1","81","BKN:05 20","29.76","29.43","9.32","62","200","","6","","","","","","","","","","","","","","","","","","","","","","","","","","","","","","","","","","","","","","","","","","","","","","","","","","","","","","","","","","","","","","","","","","","","","","","","","","","","","","","","","","","","","","","","","","","SYN004BUFR","","","","","","","","","",""
"87470099999","2021-03-17T09:00:00","-32.5","-61.6666666","96.0","EL TREBOL, AR","FM-12","4","","63","65","","","-0.09","2","93","FEW:02 18","30.02","29.69","9.32","64","180","","9","","","","","","","","","","","","","","","","","","","","","","","","","","","","","","","","","","","","","","","","","","","","","","","","","","","","","","","","","","","","","","","","","","","","","","","","","","","","","","","","","","","","","","","","","","","SYN09487470 12465 21808 10181 20170 30053 40165 52030 60074 82200 333 10189 20163 56900 57899 82818=","","","","","","","","","",""
"87470099999","2021-03-17T12:00:00","-32.5","-61.6666666","96.0","EL TREBOL, AR","FM-12","4","","58","69","","","+0.03","7","67","BKN:06 18","29.99","29.66","9.32","62","180","","15","","","","","","","","","","","","","","","","","","","","","","","","","","","","","","","","","","","","","","","","","","","","","","","","","","","","","","","","","","","","","","","","","","","","","","","","","","","","","","","","","","","","","","","","","","","SYN004BUFR","","","","","","","","","",""
"87470099999","2021-03-17T15:00:00","-32.5","-61.6666666","96.0","EL TREBOL, AR","FM-12","4","","57","70","","","-0.04","3","64","BKN:07 20","30.03","29.70","9.32","62","180","","15","","","","","","","","","","","","","","","","","","","","","","","","","","","","","","","","","","","","","","","","","","","","","","","","","","","","","","","","","","","","","","","","","","","","","","","","","","","","","","","","","","","","","","","","","","","SYN07087470 32565 71813 10209 20139 30056 40168 53012 87700 333 56000 87720=","","","","","","","","","",""
"87470099999","2021-03-17T21:00:00","-32.5","-61.6666666","96.0","EL TREBOL, AR","FM-12","4","","56","62","","","-0.06","1","80","OVC:08 20","30.12","29.78","8.08","59","180","","6","","","","","","","","","","","","","","","","","","","","","","","","","","","","","","","","","","","","","","","","","","","","","","","","","","","","","","","","","","","","","","","","","","","","","","","","","","","","","","","","","","","","","","","","","","","SYN004BUFR","","","","","","","","","",""
"87470099999","2021-03-18T12:00:00","-32.5","-61.6666666","96.0","EL TREBOL, AR","FM-12","4","","49","67","","","+0.04","7","54","BKN:05 20","30.05","29.71","9.32","57","050","","6","","","","","","","","","","","","","","","","","","","","","","","","","","","","","","","","","","","","","","","","","","","","","","","","","","","","","","","","","","","","","","","","","","","","","","","","","","","","","","","","","","","","","","","","","","","SYN004BUFR","","","","","","","","","",""
"87470099999","2021-03-18T15:00:00","-32.5","-61.6666666","96.0","EL TREBOL, AR","FM-12","4","","48","69","","","+0.02","6","48","FEW:02 20 SCT:03 89","30.03","29.70","9.32","57","110","","6","","","","","","","","","","","","","","","","","","","","","","","","","","","","","","","","","","","","","","","","","","","","","","","","","","","","","","","","","","","","","","","","","","","","","","","","","","","","","","","","","","","","","","","","","","","SYN07687470 32565 51105 10205 20091 30056 40169 56007 82530 333 56000 82620 83359=","","","","","","","","","",""
"87470099999","2021-03-18T21:00:00","-32.5","-61.6666666","96.0","EL TREBOL, AR","FM-12","4","","47","59","","","-0.04","1","64","FEW:01 89","30.02","29.68","9.32","53","140","","6","","","","","","","","","","","","","","","","","","","","","","","","","","","","","","","","","","","","","","","","","","","","","","","","","","","","","","","","","","","","","","","","","","","","","","","","","","","","","","","","","","","","","","","","","","","SYN004BUFR","","","","","","","","","",""
"87470099999","2021-03-19T09:00:00","-32.5","-61.6666666","96.0","EL TREBOL, AR","FM-12","4","","52","59","","","0.00","4","77","SCT:04 20","29.98","29.64","9.32","55","090","","6","","","","","","","","","","","","","","","","","","","","","","","","","","","","","","","","","","","","","","","","","","","","","","","","","","","","","","","","","","","","","","","","","","","","","","","","","","","","","","","","","","","","","","","","","","","SYN004BUFR","","","","","","","","","",""
"87470099999","2021-03-19T12:00:00","-32.5","-61.6666666","96.0","EL TREBOL, AR","FM-12","4","","53","73","","","+0.10","7","49","BKN:05 20","29.88","29.54","9.32","61","360","","6","","","","","","","","","","","","","","","","","","","","","","","","","","","","","","","","","","","","","","","","","","","","","","","","","","","","","","","","","","","","","","","","","","","","","","","","","","","","","","","","","","","","","","","","","","","SYN004BUFR","","","","","","","","","",""
"87470099999","2021-03-19T15:00:00","-32.5","-61.6666666","96.0","EL TREBOL, AR","FM-12","4","","54","74","","","+0.04","6","50","BKN:06 20","29.84","29.51","9.32","62","020","","6","","","","","","","","","","","","","","","","","","","","","","","","","","","","","","","","","","","","","","","","","","","","","","","","","","","","","","","","","","","","","","","","","","","","","","","","","","","","","","","","","","","","","","","","","","","SYN07087470 32565 60205 10233 20124 39992 40104 56013 86500 333 56000 86620=","","","","","","","","","",""
"87470099999","2021-03-19T21:00:00","-32.5","-61.6666666","96.0","EL TREBOL, AR","FM-12","4","","60","66","","","-0.04","1","83","SCT:04 20 SCT:04 89","29.86","29.53","9.32","62","360","","0","","","","","","","","","","","","","","","","","","","","","","","","","","","","","","","","","","","","","","","","","","","","","","","","","","","","","","","","","","","","","","","","","","","","","","","","","","","","","","","","","","","","","","","","","","","SYN004BUFR","","","","","","","","","",""
"87470099999","2021-03-20T09:00:00","-32.5","-61.6666666","96.0","EL TREBOL, AR","FM-12","4","","63","63","","||DZ","-0.05","1","100","OVC:08 16","29.88","29.55","0.31","63","090","","6","","","","","","","","","","","","","","","","","","","","","","","","","","","","","","","","","","","","","","","","","","","","","","","","","","","","","","","","","","","","","","","","","","","","","","","","","","","","","","","","","","","","","","","","","","","SYN09487470 01405 80905 10172 20172 30006 40118 51017 60064 75386 887// 333 10188 20163 60062 88716=","","","","","","","","","",""
"87470099999","2021-03-20T15:00:00","-32.5","-61.6666666","96.0","EL TREBOL, AR","FM-12","4","","61","74","","","+0.03","7","64","SCT:04 20","29.90","29.57","9.32","66","180","","6","","","","","","","","","","","","","","","","","","","","","","","","","","","","","","","","","","","","","","","","","","","","","","","","","","","","","","","","","","","","","","","","","","","","","","","","","","","","","","","","","","","","","","","","","","","SYN004BUFR","","","","","","","","","",""
"87470099999","2021-03-20T21:00:00","-32.5","-61.6666666","96.0","EL TREBOL, AR","FM-12","4","","61","65","","","-0.07","1","84","FEW:01 89","30.01","29.67","9.32","63","200","","2","","","","","","","","","","","","","","","","","","","","","","","","","","","","","","","","","","","","","","","","","","","","","","","","","","","","","","","","","","","","","","","","","","","","","","","","","","","","","","","","","","","","","","","","","","","SYN08287470 32965 12002 10186 20159 30048 40161 51024 81050 333 10235 20172 56090 81359=","","","","","","","","","",""
"87470099999","2021-03-21T09:00:00","-32.5","-61.6666666","96.0","EL TREBOL, AR","FM-12","4","","53","58","","","-0.08","1","82","","30.13","29.79","9.32","55","200","","9","","","","","","","","","","","","","","","","","","","","","","","","","","","","","","","","","","","","","","","","","","","","","","","","","","","","","","","","","","","","","","","","","","","","","","","","","","","","","","","","","","","","","","","","","","","SYN07087470 12965 02008 10145 20114 30089 40203 51028 69914 333 10186 20108=","","","","","","","","","",""
"87470099999","2021-03-21T15:00:00","-32.5","-61.6666666","96.0","EL TREBOL, AR","FM-12","4","","47","79","","","+0.04","6","32","","30.09","29.75","9.32","61","160","","9","","","","","","","","","","","","","","","","","","","","","","","","","","","","","","","","","","","","","","","","","","","","","","","","","","","","","","","","","","","","","","","","","","","","","","","","","","","","","","","","","","","","","","","","","","","SYN04887470 32965 01608 10263 20081 30076 40188 56015=","","","","","","","","","",""
"87470099999","2021-03-21T21:00:00","-32.5","-61.6666666","96.0","EL TREBOL, AR","FM-12","4","","55","61","","","-0.02","1","81","","30.09","29.76","9.32","58","140","","2","","","","","","","","","","","","","","","","","","","","","","","","","","","","","","","","","","","","","","","","","","","","","","","","","","","","","","","","","","","","","","","","","","","","","","","","","","","","","","","","","","","","","","","","","","","SYN06487470 32965 01402 10162 20130 30077 40191 51008 333 10272 20145=","","","","","","","","","",""
"87470099999","2021-03-22T09:00:00","-32.5","-61.6666666","96.0","EL TREBOL, AR","FM-12","4","","59","61","","","-0.01","2","93","SCT:04 20 SCT:03 89","30.05","29.71","9.32","60","090","","6","","","","","","","","","","","","","","","","","","","","","","","","","","","","","","","","","","","","","","","","","","","","","","","","","","","","","","","","","","","","","","","","","","","","","","","","","","","","","","","","","","","","","","","","","","","SYN09487470 32565 70905 10160 20148 30062 40176 52005 84260 333 10182 20122 56990 57899 84820 83359=","","","","","","","","","",""
"87470099999","2021-03-22T15:00:00","-32.5","-61.6666666","96.0","EL TREBOL, AR","FM-12","4","","54","76","","","+0.01","6","47","BKN:07 89","30.05","29.72","9.32","63","180","","2","","","","","","","","","","","","","","","","","","","","","","","","","","","","","","","","","","","","","","","","","","","","","","","","","","","","","","","","","","","","","","","","","","","","","","","","","","","","","","","","","","","","","","","","","","","SYN004BUFR","","","","","","","","","",""
"87470099999","2021-03-22T21:00:00","-32.5","-61.6666666","96.0","EL TREBOL, AR","FM-12","4","","60","63","","","-0.06","3","89","","30.09","29.76","9.32","61","110","","2","","","","","","","","","","","","","","","","","","","","","","","","","","","","","","","","","","","","","","","","","","","","","","","","","","","","","","","","","","","","","","","","","","","","","","","","","","","","","","","","","","","","","","","","","","","SYN004BUFR","","","","","","","","","",""
"87470099999","2021-03-23T09:00:00","-32.5","-61.6666666","96.0","EL TREBOL, AR","FM-12","4","","58","58","","||FG","-0.01","3","98","","30.05","29.71","0.31","58","000","","0","","","","","","","","","","","","","","","","","","","","","","","","","","","","","","","","","","","","","","","","","","","","","","","","","","","","","","","","","","","","","","","","","","","","","","","","","","","","","","","","","","","","","","","","","","","SYN07087470 31905 00000 10146 20143 30062 40176 53005 746// 333 10174 20101=","","","","","","","","","",""
"87470099999","2021-03-23T15:00:00","-32.5","-61.6666666","96.0","EL TREBOL, AR","FM-12","4","","58","81","","","+0.05","5","46","SCT:03 20","29.96","29.62","9.32","67","020","","9","","","","","","","","","","","","","","","","","","","","","","","","","","","","","","","","","","","","","","","","","","","","","","","","","","","","","","","","","","","","","","","","","","","","","","","","","","","","","","","","","","","","","","","","","","","SYN004BUFR","","","","","","","","","",""
"87470099999","2021-03-23T21:00:00","-32.5","-61.6666666","96.0","EL TREBOL, AR","FM-12","4","","60","69","","","-0.02","3","75","","29.92","29.59","9.32","64","090","","6","","","","","","","","","","","","","","","","","","","","","","","","","","","","","","","","","","","","","","","","","","","","","","","","","","","","","","","","","","","","","","","","","","","","","","","","","","","","","","","","","","","","","","","","","","","SYN06487470 32965 00905 10204 20158 30020 40133 53008 333 10277 20146=","","","","","","","","","",""
"87470099999","2021-03-24T09:00:00","-32.5","-61.6666666","96.0","EL TREBOL, AR","FM-12","4","","66","68","","","-0.04","1","95","BKN:05 18 SCT:03 43","29.95","29.62","9.32","67","110","","9","","","","","","","","","","","","","","","","","","","","","","","","","","","","","","","","","","","","","","","","","","","","","","","","","","","","","","","","","","","","","","","","","","","","","","","","","","","","","","","","","","","","","","","","","","","SYN10087470 01465 81108 10198 20189 30029 40141 51013 69904 70252 8557/ 333 10204 20164 69902 85618 83544=","","","","","","","","","",""
"87470099999","2021-03-24T15:00:00","-32.5","-61.6666666","96.0","EL TREBOL, AR","FM-12","4","","67","71","","||RA","+0.04","6","87","OVC:08 16","29.89","29.57","1.24","68","050","","6","","","","","","","","","","","","","","","","","","","","","","","","","","","","","","","","","","","","","","","","","","","","","","","","","","","","","","","","","","","","","","","","","","","","","","","","","","","","","","","","","","","","","","","","","","","SYN07687470 11420 80505 10218 20196 30012 40123 56013 60041 76386 886// 333 88716=","","","","","","","","","",""
"87470099999","2021-03-24T21:00:00","-32.5","-61.6666666","96.0","EL TREBOL, AR","FM-12","4","","70","71","","","-0.01","3","96","OVC:08 16","29.86","29.53","9.32","70","090","","9","","","","","","","","","","","","","","","","","","","","","","","","","","","","","","","","","","","","","","","","","","","","","","","","","","","","","","","","","","","","","","","","","","","","","","","","","","","","","","","","","","","","","","","","","","","SYN08887470 11465 80908 10218 20212 30001 40112 53004 60051 70282 886// 333 10259 20198 88716=","","","","","","","","","",""
"87470099999","2021-03-25T09:00:00","-32.5","-61.6666666","96.0","EL TREBOL, AR","FM-12","4","","68","69","","||RA","-0.03","2","99","OVC:08 18","29.74","29.41","3.11","68","180","","2","","","","","","","","","","","","","","","","","","","","","","","","","","","","","","","","","","","","","","","","","","","","","","","","","","","","","","","","","","","","","","","","","","","","","","","","","","","","","","","","","","","","","","","","","","","SYN10087470 01450 81802 10204 20202 39961 40072 52010 60284 76362 88700 333 10222 20204 56900 60192 88718=","","","","","","","","","",""
"87470099999","2021-03-26T21:00:00","-32.5","-61.6666666","96.0","EL TREBOL, AR","FM-12","4","","59","63","","","-0.05","1","88","BKN:05 20","29.96","29.62","9.32","61","200","","9","","","","","","","","","","","","","","","","","","","","","","","","","","","","","","","","","","","","","","","","","","","","","","","","","","","","","","","","","","","","","","","","","","","","","","","","","","","","","","","","","","","","","","","","","","","SYN08887470 11565 72008 10170 20150 30032 40145 51016 69901 70252 85558 333 10215 20170 85620=","","","","","","","","","",""
"87470099999","2021-03-27T09:00:00","-32.5","-61.6666666","96.0","EL TREBOL, AR","FM-12","4","","54","58","","","-0.03","2","89","OVC:08 18","29.96","29.62","9.32","56","230","","9","","","","","","","","","","","","","","","","","","","","","","","","","","","","","","","","","","","","","","","","","","","","","","","","","","","","","","","","","","","","","","","","","","","","","","","","","","","","","","","","","","","","","","","","","","","SYN08887470 12465 82308 10142 20124 30032 40146 52010 69904 88500 333 10170 20126 56900 88618=","","","","","","","","","",""
"87470099999","2021-03-27T12:00:00","-32.5","-61.6666666","96.0","EL TREBOL, AR","FM-12","4","","54","65","","","+0.01","7","69","BKN:06 18","29.95","29.62","9.32","59","230","","9","","","","","","","","","","","","","","","","","","","","","","","","","","","","","","","","","","","","","","","","","","","","","","","","","","","","","","","","","","","","","","","","","","","","","","","","","","","","","","","","","","","","","","","","","","","SYN004BUFR","","","","","","","","","",""
"87470099999","2021-03-27T15:00:00","-32.5","-61.6666666","96.0","EL TREBOL, AR","FM-12","4","","55","67","","","+0.03","7","65","BKN:07 18","29.92","29.59","9.32","60","230","","9","","","","","","","","","","","","","","","","","","","","","","","","","","","","","","","","","","","","","","","","","","","","","","","","","","","","","","","","","","","","","","","","","","","","","","","","","","","","","","","","","","","","","","","","","","","SYN004BUFR","","","","","","","","","",""
"87470099999","2021-03-28T09:00:00","-32.5","-61.6666666","96.0","EL TREBOL, AR","FM-12","4","","56","59","","","-0.01","2","87","OVC:08 18","29.98","29.64","9.32","57","230","","6","","","","","","","","","","","","","","","","","","","","","","","","","","","","","","","","","","","","","","","","","","","","","","","","","","","","","","","","","","","","","","","","","","","","","","","","","","","","","","","","","","","","","","","","","","","SYN004BUFR","","","","","","","","","",""
"87470099999","2021-03-28T15:00:00","-32.5","-61.6666666","96.0","EL TREBOL, AR","FM-12","4","","55","68","","","+0.03","7","62","SCT:04 20","29.99","29.65","9.32","60","180","","6","","","","","","","","","","","","","","","","","","","","","","","","","","","","","","","","","","","","","","","","","","","","","","","","","","","","","","","","","","","","","","","","","","","","","","","","","","","","","","","","","","","","","","","","","","","SYN004BUFR","","","","","","","","","",""
"87470099999","2021-03-28T18:00:00","-32.5","-61.6666666","96.0","EL TREBOL, AR","FM-12","4","","52","67","","","+0.04","7","60","SCT:03 20","29.95","29.62","9.32","59","180","","6","","","","","","","","","","","","","","","","","","","","","","","","","","","","","","","","","","","","","","","","","","","","","","","","","","","","","","","","","","","","","","","","","","","","","","","","","","","","","","","","","","","","","","","","","","","SYN004BUFR","","","","","","","","","",""
"87470099999","2021-03-28T21:00:00","-32.5","-61.6666666","96.0","EL TREBOL, AR","FM-12","4","","56","62","","","-0.00","2","82","","29.96","29.62","9.32","59","180","","2","","","","","","","","","","","","","","","","","","","","","","","","","","","","","","","","","","","","","","","","","","","","","","","","","","","","","","","","","","","","","","","","","","","","","","","","","","","","","","","","","","","","","","","","","","","SYN06487470 32965 01802 10166 20134 30030 40144 52001 333 10230 20152=","","","","","","","","","",""
"87470099999","2021-03-29T09:00:00","-32.5","-61.6666666","96.0","EL TREBOL, AR","FM-12","4","","57","58","","","-0.04","3","97","","30.04","29.70","9.32","57","200","","2","","","","","","","","","","","","","","","","","","","","","","","","","","","","","","","","","","","","","","","","","","","","","","","","","","","","","","","","","","","","","","","","","","","","","","","","","","","","","","","","","","","","","","","","","","","SYN07087470 31965 02002 10146 20141 30058 40172 53015 702// 333 10166 20105=","","","","","","","","","",""
"87470099999","2021-03-29T15:00:00","-32.5","-61.6666666","96.0","EL TREBOL, AR","FM-12","4","","58","79","","","+0.06","5","48","SCT:04 20","29.98","29.65","9.32","66","160","","9","","","","","","","","","","","","","","","","","","","","","","","","","","","","","","","","","","","","","","","","","","","","","","","","","","","","","","","","","","","","","","","","","","","","","","","","","","","","","","","","","","","","","","","","","","","SYN07687470 32565 41608 10260 20142 30040 40152 55021 84200 333 56000 57800 84820=","","","","","","","","","",""
"87470099999","2021-03-30T09:00:00","-32.5","-61.6666666","96.0","EL TREBOL, AR","FM-12","4","","60","64","","","-0.01","2","86","","30.04","29.71","9.32","62","360","","0","","","","","","","","","","","","","","","","","","","","","","","","","","","","","","","","","","","","","","","","","","","","","","","","","","","","","","","","","","","","","","","","","","","","","","","","","","","","","","","","","","","","","","","","","","","SYN004BUFR","","","","","","","","","",""
"87470099999","2021-03-30T15:00:00","-32.5","-61.6666666","96.0","EL TREBOL, AR","FM-12","4","","55","80","","","+0.04","6","43","SCT:03 20","29.98","29.65","9.32","65","020","","6","","","","","","","","","","","","","","","","","","","","","","","","","","","","","","","","","","","","","","","","","","","","","","","","","","","","","","","","","","","","","","","","","","","","","","","","","","","","","","","","","","","","","","","","","","","SYN07687470 32565 30205 10265 20128 30042 40154 56015 83200 333 56000 57800 83820=","","","","","","","","","",""
"87470099999","2021-03-31T09:00:00","-32.5","-61.6666666","96.0","EL TREBOL, AR","FM-12","4","","57","61","","","-0.03","2","87","","30.00","29.67","9.32","59","090","","6","","","","","","","","","","","","","","","","","","","","","","","","","","","","","","","","","","","","","","","","","","","","","","","","","","","","","","","","","","","","","","","","","","","","","","","","","","","","","","","","","","","","","","","","","","","SYN06487470 32965 00905 10162 20141 30048 40160 52010 333 10190 20125=","","","","","","","","","",""
"87470099999","2021-03-31T15:00:00","-32.5","-61.6666666","96.0","EL TREBOL, AR","FM-12","4","","54","78","","","+0.02","6","42","SCT:04 20","29.97","29.64","9.32","64","070","","6","","","","","","","","","","","","","","","","","","","","","","","","","","","","","","","","","","","","","","","","","","","","","","","","","","","","","","","","","","","","","","","","","","","","","","","","","","","","","","","","","","","","","","","","","","","SYN07687470 32565 40705 10258 20120 30037 40149 56007 84200 333 56000 57800 84820=","","","","","","","","","",""
"87470099999","2021-03-31T21:00:00","-32.5","-61.6666666","96.0","EL TREBOL, AR","FM-12","4","","54","63","","","-0.05","2","73","","29.98","29.65","9.32","58","050","","2","","","","","","","","","","","","","","","","","","","","","","","","","","","","","","","","","","","","","","","","","","","","","","","","","","","","","","","","","","","","","","","","","","","","","","","","","","","","","","","","","","","","","","","","","","","SYN06487470 32965 00502 10174 20124 30041 40154 52016 333 10265 20162=","","","","","","","","","",""
"87470099999","2021-04-01T09:00:00","-32.5","-61.6666666","96.0","EL TREBOL, AR","FM-12","4","","55","60","","","-0.03","2","84","","29.98","29.64","9.32","57","090","","6","","","","","","","","","","","","","","","","","","","","","","","","","","","","","","","","","","","","","","","","","","","","","","","","","","","","","","","","","","","","","","","","","","","","","","","","","","","","","","","","","","","","","","","","","","","SYN06487470 32965 00905 10157 20130 30038 40152 52010 333 10174 20135=","","","","","","","","","",""
"87470099999","2021-04-01T12:00:00","-32.5","-61.6666666","96.0","EL TREBOL, AR","FM-12","4","","52","74","","","-0.01","2","46","FEW:02 20","29.98","29.65","9.32","61","090","","6","","","","","","","","","","","","","","","","","","","","","","","","","","","","","","","","","","","","","","","","","","","","","","","","","","","","","","","","","","","","","","","","","","","","","","","","","","","","","","","","","","","","","","","","","","","SYN004BUFR","","","","","","","","","",""
"87470099999","2021-04-01T15:00:00","-32.5","-61.6666666","96.0","EL TREBOL, AR","FM-12","4","","53","79","","","+0.01","6","41","SCT:04 20","29.97","29.64","9.32","64","110","","9","","","","","","","","","","","","","","","","","","","","","","","","","","","","","","","","","","","","","","","","","","","","","","","","","","","","","","","","","","","","","","","","","","","","","","","","","","","","","","","","","","","","","","","","","","","SYN07687470 32565 41108 10259 20117 30037 40148 56005 84200 333 56000 57800 84820=","","","","","","","","","",""
"87470099999","2021-04-02T09:00:00","-32.5","-61.6666666","96.0","EL TREBOL, AR","FM-12","4","","56","63","","","-0.04","2","79","FEW:01 89","30.02","29.69","9.32","59","090","","6","","","","","","","","","","","","","","","","","","","","","","","","","","","","","","","","","","","","","","","","","","","","","","","","","","","","","","","","","","","","","","","","","","","","","","","","","","","","","","","","","","","","","","","","","","","SYN004BUFR","","","","","","","","","",""
"87470099999","2021-04-02T15:00:00","-32.5","-61.6666666","96.0","EL TREBOL, AR","FM-12","4","","53","77","","","+0.04","7","44","BKN:06 20","29.96","29.64","9.32","63","090","","6","","","","","","","","","","","","","","","","","","","","","","","","","","","","","","","","","","","","","","","","","","","","","","","","","","","","","","","","","","","","","","","","","","","","","","","","","","","","","","","","","","","","","","","","","","","SYN07687470 32565 60905 10248 20118 30036 40147 57015 86200 333 56900 57899 86820=","","","","","","","","","",""
"87470099999","2021-04-02T18:00:00","-32.5","-61.6666666","96.0","EL TREBOL, AR","FM-12","4","","58","69","","","+0.02","7","66","","29.95","29.62","9.32","62","090","","6","","","","","","","","","","","","","","","","","","","","","","","","","","","","","","","","","","","","","","","","","","","","","","","","","","","","","","","","","","","","","","","","","","","","","","","","","","","","","","","","","","","","","","","","","","","SYN004BUFR","","","","","","","","","",""
"87470099999","2021-04-02T21:00:00","-32.5","-61.6666666","96.0","EL TREBOL, AR","FM-12","4","","53","58","","","-0.04","2","82","","29.99","29.66","9.32","55","360","","0","","","","","","","","","","","","","","","","","","","","","","","","","","","","","","","","","","","","","","","","","","","","","","","","","","","","","","","","","","","","","","","","","","","","","","","","","","","","","","","","","","","","","","","","","","","SYN004BUFR","","","","","","","","","",""
"87470099999","2021-04-03T09:00:00","-32.5","-61.6666666","96.0","EL TREBOL, AR","FM-12","4","","58","61","","","-0.04","3","90","","30.06","29.72","9.32","59","090","","2","","","","","","","","","","","","","","","","","","","","","","","","","","","","","","","","","","","","","","","","","","","","","","","","","","","","","","","","","","","","","","","","","","","","","","","","","","","","","","","","","","","","","","","","","","","SYN07087470 31965 00902 10161 20145 30065 40179 53015 702// 333 10161 20107=","","","","","","","","","",""
"87470099999","2021-04-03T15:00:00","-32.5","-61.6666666","96.0","EL TREBOL, AR","FM-12","4","","57","80","","","+0.04","5","46","SCT:04 20","29.97","29.64","9.32","66","050","","9","","","","","","","","","","","","","","","","","","","","","","","","","","","","","","","","","","","","","","","","","","","","","","","","","","","","","","","","","","","","","","","","","","","","","","","","","","","","","","","","","","","","","","","","","","","SYN004BUFR","","","","","","","","","",""
"87470099999","2021-04-03T21:00:00","-32.5","-61.6666666","96.0","EL TREBOL, AR","FM-12","4","","58","68","","","-0.07","3","69","","30.01","29.67","9.32","62","000","","0","","","","","","","","","","","","","","","","","","","","","","","","","","","","","","","","","","","","","","","","","","","","","","","","","","","","","","","","","","","","","","","","","","","","","","","","","","","","","","","","","","","","","","","","","","","SYN06487470 32965 00000 10202 20144 30049 40162 53023 333 10278 20161=","","","","","","","","","",""
"87470099999","2021-04-04T09:00:00","-32.5","-61.6666666","96.0","EL TREBOL, AR","FM-12","4","","57","62","","","-0.01","3","86","BKN:05 246","30.01","29.68","9.32","59","090","","2","","","","","","","","","","","","","","","","","","","","","","","","","","","","","","","","","","","","","","","","","","","","","","","","","","","","","","","","","","","","","","","","","","","","","","","","","","","","","","","","","","","","","","","","","","","SYN08887470 31965 50902 10165 20141 30050 40162 53005 702// 80005 333 10202 20122 56000 85275=","","","","","","","","","",""
"87470099999","2021-04-04T15:00:00","-32.5","-61.6666666","96.0","EL TREBOL, AR","FM-12","4","","58","83","","","+0.09","5","42","BKN:06 246","29.88","29.56","9.32","67","070","","9","","","","","","","","","","","","","","","","","","","","","","","","","","","","","","","","","","","","","","","","","","","","","","","","","","","","","","","","","","","","","","","","","","","","","","","","","","","","","","","","","","","","","","","","","","","SYN07087470 32965 60708 10282 20142 30009 40120 55029 80005 333 56000 86275=","","","","","","","","","",""
"87470099999","2021-04-04T21:00:00","-32.5","-61.6666666","96.0","EL TREBOL, AR","FM-12","4","","60","71","","","-0.01","3","68","FEW:02 246","29.86","29.53","9.32","64","000","","0","","","","","","","","","","","","","","","","","","","","","","","","","","","","","","","","","","","","","","","","","","","","","","","","","","","","","","","","","","","","","","","","","","","","","","","","","","","","","","","","","","","","","","","","","","","SYN08287470 32965 20000 10216 20153 30000 40112 53004 80005 333 10287 20165 56000 82275=","","","","","","","","","",""
"87470099999","2021-04-05T09:00:00","-32.5","-61.6666666","96.0","EL TREBOL, AR","FM-12","4","","62","67","","","-0.03","2","83","BKN:07 20","29.87","29.54","9.32","64","090","","6","","","","","","","","","","","","","","","","","","","","","","","","","","","","","","","","","","","","","","","","","","","","","","","","","","","","","","","","","","","","","","","","","","","","","","","","","","","","","","","","","","","","","","","","","","","SYN004BUFR","","","","","","","","","",""
"87470099999","2021-04-06T09:00:00","-32.5","-61.6666666","96.0","EL TREBOL, AR","FM-12","4","","63","64","","","-0.06","2","96","FEW:02 16","30.01","29.68","2.17","63","050","","6","","","","","","","","","","","","","","","","","","","","","","","","","","","","","","","","","","","","","","","","","","","","","","","","","","","","","","","","","","","","","","","","","","","","","","","","","","","","","","","","","","","","","","","","","","","SYN08887470 31435 20505 10180 20173 30050 40163 52020 71000 82600 333 10218 20130 56900 82716=","","","","","","","","","",""
"87470099999","2021-04-06T12:00:00","-32.5","-61.6666666","96.0","EL TREBOL, AR","FM-12","4","","61","80","","","+0.05","6","52","SCT:03 20","29.96","29.63","9.32","68","050","","6","","","","","","","","","","","","","","","","","","","","","","","","","","","","","","","","","","","","","","","","","","","","","","","","","","","","","","","","","","","","","","","","","","","","","","","","","","","","","","","","","","","","","","","","","","","SYN004BUFR","","","","","","","","","",""
"87470099999","2021-04-06T15:00:00","-32.5","-61.6666666","96.0","EL TREBOL, AR","FM-12","4","","63","83","","","+0.03","5","51","SCT:03 20","29.93","29.59","9.32","70","020","","6","","","","","","","","","","","","","","","","","","","","","","","","","","","","","","","","","","","","","","","","","","","","","","","","","","","","","","","","","","","","","","","","","","","","","","","","","","","","","","","","","","","","","","","","","","","SYN07687470 32565 30205 10282 20170 30022 40134 55011 83200 333 56000 57800 83820=","","","","","","","","","",""
"87470099999","2021-04-06T21:00:00","-32.5","-61.6666666","96.0","EL TREBOL, AR","FM-12","4","","65","71","","","-0.01","3","82","","29.90","29.57","9.32","67","000","","0","","","","","","","","","","","","","","","","","","","","","","","","","","","","","","","","","","","","","","","","","","","","","","","","","","","","","","","","","","","","","","","","","","","","","","","","","","","","","","","","","","","","","","","","","","","SYN06487470 32965 00000 10218 20185 30014 40125 53003 333 10286 20180=","","","","","","","","","",""
"87470099999","2021-04-07T09:00:00","-32.5","-61.6666666","96.0","EL TREBOL, AR","FM-12","4","","64","65","","","-0.01","2","96","","29.93","29.60","6.21","64","090","","2","","","","","","","","","","","","","","","","","","","","","","","","","","","","","","","","","","","","","","","","","","","","","","","","","","","","","","","","","","","","","","","","","","","","","","","","","","","","","","","","","","","","","","","","","","","SYN06487470 32960 00902 10186 20180 30024 40135 52005 333 10218 20165=","","","","","","","","","",""
"87470099999","2021-04-07T12:00:00","-32.5","-61.6666666","96.0","EL TREBOL, AR","FM-12","4","","62","85","","","+0.07","7","47","FEW:02 20","29.85","29.53","9.32","70","050","","15","","","","","","","","","","","","","","","","","","","","","","","","","","","","","","","","","","","","","","","","","","","","","","","","","","","","","","","","","","","","","","","","","","","","","","","","","","","","","","","","","","","","","","","","","","","SYN004BUFR","","","","","","","","","",""
"87470099999","2021-04-07T15:00:00","-32.5","-61.6666666","96.0","EL TREBOL, AR","FM-12","4","","62","85","","","+0.02","6","47","SCT:04 20","29.83","29.51","9.32","70","050","","15","","","","","","","","","","","","","","","","","","","","","","","","","","","","","","","","","","","","","","","","","","","","","","","","","","","","","","","","","","","","","","","","","","","","","","","","","","","","","","","","","","","","","","","","","","","SYN07687470 32565 40513 10293 20169 39993 40103 56007 84200 333 56000 57800 84820=","","","","","","","","","",""
"87470099999","2021-04-07T21:00:00","-32.5","-61.6666666","96.0","EL TREBOL, AR","FM-12","4","","66","74","","","-0.04","3","77","","29.83","29.51","9.32","69","020","","2","","","","","","","","","","","","","","","","","","","","","","","","","","","","","","","","","","","","","","","","","","","","","","","","","","","","","","","","","","","","","","","","","","","","","","","","","","","","","","","","","","","","","","","","","","","SYN06487470 32965 00202 10234 20191 39992 40103 53013 333 10305 20186=","","","","","","","","","",""
"87470099999","2021-04-08T09:00:00","-32.5","-61.6666666","96.0","EL TREBOL, AR","FM-12","4","","67","72","","","+0.01","7","84","SCT:03 89 SCT:03 246","29.75","29.42","9.32","69","050","","9","","","","","","","","","","","","","","","","","","","","","","","","","","","","","","","","","","","","","","","","","","","","","","","","","","","","","","","","","","","","","","","","","","","","","","","","","","","","","","","","","","","","","","","","","","","SYN08887470 32965 60508 10222 20194 39964 40074 57002 83028 333 10234 20192 56099 83559 83275=","","","","","","","","","",""
"87470099999","2021-04-08T15:00:00","-32.5","-61.6666666","96.0","EL TREBOL, AR","FM-12","4","","69","90","","","+0.04","6","50","SCT:03 20","29.66","29.34","9.32","75","340","","15","","","","","","","","","","","","","","","","","","","","","","","","","","","","","","","","","","","","","","","","","","","","","","","","","","","","","","","","","","","","","","","","","","","","","","","","","","","","","","","","","","","","","","","","","","","SYN07687470 32565 73413 10320 20203 39937 40045 56012 83288 333 56000 57800 83820=","","","","","","","","","",""
"87470099999","2021-04-08T18:00:00","-32.5","-61.6666666","96.0","EL TREBOL, AR","FM-12","4","","69","87","","","+0.02","6","55","FEW:02 20 SCT:03 89","29.65","29.32","9.32","75","340","","6","","","","","","","","","","","","","","","","","","","","","","","","","","","","","","","","","","","","","","","","","","","","","","","","","","","","","","","","","","","","","","","","","","","","","","","","","","","","","","","","","","","","","","","","","","","SYN004BUFR","","","","","","","","","",""
"87470099999","2021-04-08T21:00:00","-32.5","-61.6666666","96.0","EL TREBOL, AR","FM-12","4","","69","74","","","-0.09","2","85","OVC:08 17","29.74","29.41","9.32","71","160","","9","","","","","","","","","","","","","","","","","","","","","","","","","","","","","","","","","","","","","","","","","","","","","","","","","","","","","","","","","","","","","","","","","","","","","","","","","","","","","","","","","","","","","","","","","","","SYN004BUFR","","","","","","","","","",""
"87470099999","2021-04-15T09:00:00","-32.5","-61.6666666","96.0","EL TREBOL, AR","FM-12","4","","60","62","","","-0.02","3","93","","29.92","29.59","9.32","61","070","","2","","","","","","","","","","","","","","","","","","","","","","","","","","","","","","","","","","","","","","","","","","","","","","","","","","","","","","","","","","","","","","","","","","","","","","","","","","","","","","","","","","","","","","","","","","","SYN004BUFR","","","","","","","","","",""
"87470099999","2021-04-15T15:00:00","-32.5","-61.6666666","96.0","EL TREBOL, AR","FM-12","4","","60","83","","","+0.07","5","45","SCT:03 20","29.85","29.52","9.32","68","020","","6","","","","","","","","","","","","","","","","","","","","","","","","","","","","","","","","","","","","","","","","","","","","","","","","","","","","","","","","","","","","","","","","","","","","","","","","","","","","","","","","","","","","","","","","","","","SYN07087470 32565 30205 10286 20154 39996 40107 55025 83100 333 56000 83820=","","","","","","","","","",""
"87470099999","2021-04-15T21:00:00","-32.5","-61.6666666","96.0","EL TREBOL, AR","FM-12","4","","63","69","","","-0.05","1","81","","29.88","29.54","9.32","65","090","","2","","","","","","","","","","","","","","","","","","","","","","","","","","","","","","","","","","","","","","","","","","","","","","","","","","","","","","","","","","","","","","","","","","","","","","","","","","","","","","","","","","","","","","","","","","","SYN06487470 32965 00902 10206 20172 30005 40118 51016 333 10294 20168=","","","","","","","","","",""
"87470099999","2021-04-16T09:00:00","-32.5","-61.6666666","96.0","EL TREBOL, AR","FM-12","4","","62","66","","","-0.04","3","88","","29.92","29.59","9.32","64","070","","2","","","","","","","","","","","","","","","","","","","","","","","","","","","","","","","","","","","","","","","","","","","","","","","","","","","","","","","","","","","","","","","","","","","","","","","","","","","","","","","","","","","","","","","","","","","SYN07087470 31965 00702 10188 20168 30021 40133 53015 702// 333 10206 20148=","","","","","","","","","",""
"87470099999","2021-04-16T15:00:00","-32.5","-61.6666666","96.0","EL TREBOL, AR","FM-12","4","","62","83","","","+0.07","5","48","FEW:01 20","29.86","29.53","9.32","69","090","","6","","","","","","","","","","","","","","","","","","","","","","","","","","","","","","","","","","","","","","","","","","","","","","","","","","","","","","","","","","","","","","","","","","","","","","","","","","","","","","","","","","","","","","","","","","","SYN004BUFR","","","","","","","","","",""
"87470099999","2021-04-16T21:00:00","-32.5","-61.6666666","96.0","EL TREBOL, AR","FM-12","4","","62","68","","","-0.06","1","81","","29.91","29.58","9.32","64","360","","0","","","","","","","","","","","","","","","","","","","","","","","","","","","","","","","","","","","","","","","","","","","","","","","","","","","","","","","","","","","","","","","","","","","","","","","","","","","","","","","","","","","","","","","","","","","SYN004BUFR","","","","","","","","","",""
"87470099999","2021-04-17T09:00:00","-32.5","-61.6666666","96.0","EL TREBOL, AR","FM-12","4","","61","62","","||FG","-0.05","1","98","FEW:01 89","30.06","29.73","0.31","61","090","","6","","","","","","","","","","","","","","","","","","","","","","","","","","","","","","","","","","","","","","","","","","","","","","","","","","","","","","","","","","","","","","","","","","","","","","","","","","","","","","","","","","","","","","","","","","","SYN08887470 31905 20905 10166 20163 30068 40181 51017 74441 81058 333 10202 20139 56099 81359=","","","","","","","","","",""
"87470099999","2021-04-17T15:00:00","-32.5","-61.6666666","96.0","EL TREBOL, AR","FM-12","4","","62","82","","","+0.09","6","50","FEW:01 89","29.93","29.59","9.32","69","050","","9","","","","","","","","","","","","","","","","","","","","","","","","","","","","","","","","","","","","","","","","","","","","","","","","","","","","","","","","","","","","","","","","","","","","","","","","","","","","","","","","","","","","","","","","","","","SYN07087470 32965 20508 10279 20165 30022 40134 56029 81058 333 56099 81359=","","","","","","","","","",""
"87470099999","2021-04-17T21:00:00","-32.5","-61.6666666","96.0","EL TREBOL, AR","FM-12","4","","63","69","","","-0.02","3","81","FEW:01 89","29.95","29.62","9.32","65","070","","2","","","","","","","","","","","","","","","","","","","","","","","","","","","","","","","","","","","","","","","","","","","","","","","","","","","","","","","","","","","","","","","","","","","","","","","","","","","","","","","","","","","","","","","","","","","SYN08287470 32965 30702 10204 20170 30030 40143 53007 81058 333 10285 20166 56099 81359=","","","","","","","","","",""
"87470099999","2021-04-18T09:00:00","-32.5","-61.6666666","96.0","EL TREBOL, AR","FM-12","4","","62","64","","","-0.03","1","94","FEW:01 23","30.01","29.68","9.32","63","070","","6","","","","","","","","","","","","","","","","","","","","","","","","","","","","","","","","","","","","","","","","","","","","","","","","","","","","","","","","","","","","","","","","","","","","","","","","","","","","","","","","","","","","","","","","","","","SYN07687470 32565 30705 10178 20168 30052 40164 51010 81158 333 10204 20162 81823=","","","","","","","","","",""
"87470099999","2021-04-18T15:00:00","-32.5","-61.6666666","96.0","EL TREBOL, AR","FM-12","4","","60","83","","","+0.08","6","46","FEW:02 25","29.92","29.59","9.32","68","070","","9","","","","","","","","","","","","","","","","","","","","","","","","","","","","","","","","","","","","","","","","","","","","","","","","","","","","","","","","","","","","","","","","","","","","","","","","","","","","","","","","","","","","","","","","","","","SYN07687470 32565 20708 10286 20158 30022 40133 56027 82200 333 56900 57890 82825=","","","","","","","","","",""
"87470099999","2021-04-18T18:00:00","-32.5","-61.6666666","96.0","EL TREBOL, AR","FM-12","4","","62","79","","","0.00","4","56","FEW:01 25","29.93","29.59","9.32","68","050","","6","","","","","","","","","","","","","","","","","","","","","","","","","","","","","","","","","","","","","","","","","","","","","","","","","","","","","","","","","","","","","","","","","","","","","","","","","","","","","","","","","","","","","","","","","","","SYN004BUFR","","","","","","","","","",""
"87470099999","2021-04-18T21:00:00","-32.5","-61.6666666","96.0","EL TREBOL, AR","FM-12","4","","63","70","","","-0.05","3","81","","29.98","29.64","9.32","66","050","","2","","","","","","","","","","","","","","","","","","","","","","","","","","","","","","","","","","","","","","","","","","","","","","","","","","","","","","","","","","","","","","","","","","","","","","","","","","","","","","","","","","","","","","","","","","","SYN06487470 32965 00502 10210 20175 30038 40151 53016 333 10293 20178=","","","","","","","","","",""
"87470099999","2021-04-19T09:00:00","-32.5","-61.6666666","96.0","EL TREBOL, AR","FM-12","4","","61","64","","","-0.04","2","88","","30.00","29.66","9.32","62","070","","6","","","","","","","","","","","","","","","","","","","","","","","","","","","","","","","","","","","","","","","","","","","","","","","","","","","","","","","","","","","","","","","","","","","","","","","","","","","","","","","","","","","","","","","","","","","SYN06487470 32965 00705 10180 20160 30045 40158 52013 333 10210 20153=","","","","","","","","","",""
"87470099999","2021-04-19T15:00:00","-32.5","-61.6666666","96.0","EL TREBOL, AR","FM-12","4","","59","81","","","+0.05","6","46","SCT:03 20","29.95","29.62","9.32","67","050","","9","","","","","","","","","","","","","","","","","","","","","","","","","","","","","","","","","","","","","","","","","","","","","","","","","","","","","","","","","","","","","","","","","","","","","","","","","","","","","","","","","","","","","","","","","","","SYN07087470 32565 30508 10274 20148 30030 40141 56017 83100 333 56000 83820=","","","","","","","","","",""
"87470099999","2021-04-19T21:00:00","-32.5","-61.6666666","96.0","EL TREBOL, AR","FM-12","4","","59","68","","","-0.04","3","73","","29.97","29.64","9.32","63","070","","6","","","","","","","","","","","","","","","","","","","","","","","","","","","","","","","","","","","","","","","","","","","","","","","","","","","","","","","","","","","","","","","","","","","","","","","","","","","","","","","","","","","","","","","","","","","SYN004BUFR","","","","","","","","","",""
"87470099999","2021-04-20T09:00:00","-32.5","-61.6666666","96.0","EL TREBOL, AR","FM-12","4","","58","62","","","-0.02","3","88","","30.00","29.67","9.32","60","070","","6","","","","","","","","","","","","","","","","","","","","","","","","","","","","","","","","","","","","","","","","","","","","","","","","","","","","","","","","","","","","","","","","","","","","","","","","","","","","","","","","","","","","","","","","","","","SYN07087470 31965 00705 10166 20145 30046 40159 53008 702// 333 10202 20152=","","","","","","","","","",""
"87470099999","2021-04-20T15:00:00","-32.5","-61.6666666","96.0","EL TREBOL, AR","FM-12","4","","59","82","","","+0.07","5","46","SCT:03 20","29.91","29.58","9.32","68","050","","15","","","","","","","","","","","","","","","","","","","","","","","","","","","","","","","","","","","","","","","","","","","","","","","","","","","","","","","","","","","","","","","","","","","","","","","","","","","","","","","","","","","","","","","","","","","SYN07087470 32565 30513 10277 20150 30018 40129 55024 83100 333 56000 83820=","","","","","","","","","",""
"87470099999","2021-04-20T21:00:00","-32.5","-61.6666666","96.0","EL TREBOL, AR","FM-12","4","","60","68","","","-0.02","3","74","FEW:01 246","29.90","29.57","9.32","63","090","","6","","","","","","","","","","","","","","","","","","","","","","","","","","","","","","","","","","","","","","","","","","","","","","","","","","","","","","","","","","","","","","","","","","","","","","","","","","","","","","","","","","","","","","","","","","","SYN08287470 32965 10905 10200 20153 30013 40125 53008 80008 333 10280 20166 56009 81275=","","","","","","","","","",""
"87470099999","2021-04-21T09:00:00","-32.5","-61.6666666","96.0","EL TREBOL, AR","FM-12","4","","60","66","","","-0.01","2","81","FEW:01 20","29.84","29.51","9.32","62","050","","15","","","","","","","","","","","","","","","","","","","","","","","","","","","","","","","","","","","","","","","","","","","","","","","","","","","","","","","","","","","","","","","","","","","","","","","","","","","","","","","","","","","","","","","","","","","SYN004BUFR","","","","","","","","","",""
"87470099999","2021-04-21T15:00:00","-32.5","-61.6666666","96.0","EL TREBOL, AR","FM-12","4","","63","65","","||TS","+0.04","5","90","OVC:08 20","29.80","29.47","6.21","64","070","","6","","","","","","","","","","","","","","","","","","","","","","","","","","","","","","","","","","","","","","","","","","","","","","","","","","","","","","","","","","","","","","","","","","","","","","","","","","","","","","","","","","","","","","","","","","","SYN08287470 11560 80705 10186 20170 39981 40093 55013 60011 71792 887// 333 56099 88720=","","","","","","","","","",""
"87470099999","2021-04-21T21:00:00","-32.5","-61.6666666","96.0","EL TREBOL, AR","FM-12","4","","65","66","","","-0.03","3","95","OVC:08 16","29.87","29.54","6.21","65","090","","9","","","","","","","","","","","","","","","","","","","","","","","","","","","","","","","","","","","","","","","","","","","","","","","","","","","","","","","","","","","","","","","","","","","","","","","","","","","","","","","","","","","","","","","","","","","SYN004BUFR","","","","","","","","","",""
"87470099999","2021-04-22T09:00:00","-32.5","-61.6666666","96.0","EL TREBOL, AR","FM-12","4","","62","62","","","-0.03","2","99","FEW:02 89 SCT:04 246","29.89","29.56","9.32","62","360","","0","","","","","","","","","","","","","","","","","","","","","","","","","","","","","","","","","","","","","","","","","","","","","","","","","","","","","","","","","","","","","","","","","","","","","","","","","","","","","","","","","","","","","","","","","","","SYN004BUFR","","","","","","","","","",""
"87470099999","2021-04-22T12:00:00","-32.5","-61.6666666","96.0","EL TREBOL, AR","FM-12","4","","62","74","","","+0.03","7","67","SCT:04 20","29.86","29.53","9.32","66","360","","6","","","","","","","","","","","","","","","","","","","","","","","","","","","","","","","","","","","","","","","","","","","","","","","","","","","","","","","","","","","","","","","","","","","","","","","","","","","","","","","","","","","","","","","","","","","SYN004BUFR","","","","","","","","","",""
"87470099999","2021-04-22T15:00:00","-32.5","-61.6666666","96.0","EL TREBOL, AR","FM-12","4","","63","79","","","+0.01","6","58","SCT:03 20","29.85","29.52","9.32","69","050","","6","","","","","","","","","","","","","","","","","","","","","","","","","","","","","","","","","","","","","","","","","","","","","","","","","","","","","","","","","","","","","","","","","","","","","","","","","","","","","","","","","","","","","","","","","","","SYN004BUFR","","","","","","","","","",""
"87470099999","2021-04-22T18:00:00","-32.5","-61.6666666","96.0","EL TREBOL, AR","FM-12","4","","62","73","","","+0.01","6","69","","29.83","29.51","9.32","66","050","","2","","","","","","","","","","","","","","","","","","","","","","","","","","","","","","","","","","","","","","","","","","","","","","","","","","","","","","","","","","","","","","","","","","","","","","","","","","","","","","","","","","","","","","","","","","","SYN004BUFR","","","","","","","","","",""
"87470099999","2021-04-22T21:00:00","-32.5","-61.6666666","96.0","EL TREBOL, AR","FM-12","4","","63","69","","","-0.03","3","84","FEW:01 89","29.87","29.53","9.32","65","090","","2","","","","","","","","","","","","","","","","","","","","","","","","","","","","","","","","","","","","","","","","","","","","","","","","","","","","","","","","","","","","","","","","","","","","","","","","","","","","","","","","","","","","","","","","","","","SYN08287470 32965 10902 10204 20175 30001 40114 53009 81050 333 10261 20168 56090 81359=","","","","","","","","","",""
"87470099999","2021-04-23T09:00:00","-32.5","-61.6666666","96.0","EL TREBOL, AR","FM-12","4","","62","62","","","-0.03","2","97","OVC:08 18","29.85","29.52","2.17","62","090","","6","","","","","","","","","","","","","","","","","","","","","","","","","","","","","","","","","","","","","","","","","","","","","","","","","","","","","","","","","","","","","","","","","","","","","","","","","","","","","","","","","","","","","","","","","","","SYN08887470 31435 80905 10169 20164 39996 40108 52010 71022 88500 333 10204 20150 56900 88618=","","","","","","","","","",""
"87470099999","2021-04-23T15:00:00","-32.5","-61.6666666","96.0","EL TREBOL, AR","FM-12","4","","65","67","","||RA","+0.02","6","96","BKN:06 17","29.82","29.49","6.21","66","000","","0","","","","","","","","","","","","","","","","","","","","","","","","","","","","","","","","","","","","","","","","","","","","","","","","","","","","","","","","","","","","","","","","","","","","","","","","","","","","","","","","","","","","","","","","","","","SYN08287470 11460 80000 10192 20186 39988 40099 56008 60041 76096 8678/ 333 56009 86717=","","","","","","","","","",""
"87470099999","2021-04-23T21:00:00","-32.5","-61.6666666","96.0","EL TREBOL, AR","FM-12","4","","64","65","","||FG","-0.07","3","96","SCT:04 20","29.90","29.57","0.56","64","180","","2","","","","","","","","","","","","","","","","","","","","","","","","","","","","","","","","","","","","","","","","","","","","","","","","","","","","","","","","","","","","","","","","","","","","","","","","","","","","","","","","","","","","","","","","","","","SYN004BUFR","","","","","","","","","",""
"87470099999","2021-04-24T09:00:00","-32.5","-61.6666666","96.0","EL TREBOL, AR","FM-12","4","","57","60","","","-0.09","2","91","OVC:08 18","30.01","29.68","9.32","58","250","","6","","","","","","","","","","","","","","","","","","","","","","","","","","","","","","","","","","","","","","","","","","","","","","","","","","","","","","","","","","","","","","","","","","","","","","","","","","","","","","","","","","","","","","","","","","","SYN004BUFR","","","","","","","","","",""
"87470099999","2021-04-24T12:00:00","-32.5","-61.6666666","96.0","EL TREBOL, AR","FM-12","4","","60","65","","","0.00","4","84","OVC:08 18","30.01","29.68","9.32","62","180","","6","","","","","","","","","","","","","","","","","","","","","","","","","","","","","","","","","","","","","","","","","","","","","","","","","","","","","","","","","","","","","","","","","","","","","","","","","","","","","","","","","","","","","","","","","","","SYN004BUFR","","","","","","","","","",""
"87470099999","2021-04-24T15:00:00","-32.5","-61.6666666","96.0","EL TREBOL, AR","FM-12","4","","59","70","","","+0.01","7","68","BKN:06 18","30.00","29.67","9.32","63","180","","9","","","","","","","","","","","","","","","","","","","","","","","","","","","","","","","","","","","","","","","","","","","","","","","","","","","","","","","","","","","","","","","","","","","","","","","","","","","","","","","","","","","","","","","","","","","SYN07687470 32465 61808 10210 20148 30046 40158 57004 86200 333 56900 57899 86818=","","","","","","","","","",""
"87470099999","2021-04-25T09:00:00","-32.5","-61.6666666","96.0","EL TREBOL, AR","FM-12","4","","45","54","","","-0.03","2","74","","30.18","29.84","9.32","49","180","","6","","","","","","","","","","","","","","","","","","","","","","","","","","","","","","","","","","","","","","","","","","","","","","","","","","","","","","","","","","","","","","","","","","","","","","","","","","","","","","","","","","","","","","","","","","","SYN004BUFR","","","","","","","","","",""
"87470099999","2021-04-25T15:00:00","-32.5","-61.6666666","96.0","EL TREBOL, AR","FM-12","4","","47","71","","","+0.12","7","42","","30.04","29.71","9.32","58","180","","6","","","","","","","","","","","","","","","","","","","","","","","","","","","","","","","","","","","","","","","","","","","","","","","","","","","","","","","","","","","","","","","","","","","","","","","","","","","","","","","","","","","","","","","","","","","SYN004BUFR","","","","","","","","","",""
"87470099999","2021-04-25T18:00:00","-32.5","-61.6666666","96.0","EL TREBOL, AR","FM-12","4","","48","65","","","0.00","4","54","","30.05","29.71","9.32","56","360","","0","","","","","","","","","","","","","","","","","","","","","","","","","","","","","","","","","","","","","","","","","","","","","","","","","","","","","","","","","","","","","","","","","","","","","","","","","","","","","","","","","","","","","","","","","","","SYN004BUFR","","","","","","","","","",""
"87470099999","2021-04-25T21:00:00","-32.5","-61.6666666","96.0","EL TREBOL, AR","FM-12","4","","45","50","","","-0.01","2","82","","30.06","29.71","9.32","48","000","","0","","","","","","","","","","","","","","","","","","","","","","","","","","","","","","","","","","","","","","","","","","","","","","","","","","","","","","","","","","","","","","","","","","","","","","","","","","","","","","","","","","","","","","","","","","","SYN06487470 32965 00000 10102 20073 30062 40178 52003 333 10215 20102=","","","","","","","","","",""
"87470099999","2021-04-26T09:00:00","-32.5","-61.6666666","96.0","EL TREBOL, AR","FM-12","4","","48","51","","","-0.03","2","90","","30.10","29.76","9.32","49","360","","0","","","","","","","","","","","","","","","","","","","","","","","","","","","","","","","","","","","","","","","","","","","","","","","","","","","","","","","","","","","","","","","","","","","","","","","","","","","","","","","","","","","","","","","","","","","SYN004BUFR","","","","","","","","","",""
"87470099999","2021-04-26T12:00:00","-32.5","-61.6666666","96.0","EL TREBOL, AR","FM-12","4","","47","68","","","+0.04","7","47","","30.06","29.72","9.32","57","050","","6","","","","","","","","","","","","","","","","","","","","","","","","","","","","","","","","","","","","","","","","","","","","","","","","","","","","","","","","","","","","","","","","","","","","","","","","","","","","","","","","","","","","","","","","","","","SYN004BUFR","","","","","","","","","",""
"87470099999","2021-04-26T15:00:00","-32.5","-61.6666666","96.0","EL TREBOL, AR","FM-12","4","","45","72","","","+0.01","6","38","","30.05","29.71","9.32","57","050","","2","","","","","","","","","","","","","","","","","","","","","","","","","","","","","","","","","","","","","","","","","","","","","","","","","","","","","","","","","","","","","","","","","","","","","","","","","","","","","","","","","","","","","","","","","","","SYN04887470 32965 00502 10221 20072 30061 40175 56004=","","","","","","","","","",""
"87470099999","2021-04-26T21:00:00","-32.5","-61.6666666","96.0","EL TREBOL, AR","FM-12","4","","48","58","","","-0.01","2","70","","30.05","29.71","9.32","53","360","","0","","","","","","","","","","","","","","","","","","","","","","","","","","","","","","","","","","","","","","","","","","","","","","","","","","","","","","","","","","","","","","","","","","","","","","","","","","","","","","","","","","","","","","","","","","","SYN004BUFR","","","","","","","","","",""
"87470099999","2021-04-27T09:00:00","-32.5","-61.6666666","96.0","EL TREBOL, AR","FM-12","4","","50","54","","","-0.01","2","84","","30.11","29.77","9.32","52","050","","6","","","","","","","","","","","","","","","","","","","","","","","","","","","","","","","","","","","","","","","","","","","","","","","","","","","","","","","","","","","","","","","","","","","","","","","","","","","","","","","","","","","","","","","","","","","SYN004BUFR","","","","","","","","","",""
"87470099999","2021-04-27T12:00:00","-32.5","-61.6666666","96.0","EL TREBOL, AR","FM-12","4","","50","71","","","+0.03","7","48","","30.08","29.74","9.32","59","050","","9","","","","","","","","","","","","","","","","","","","","","","","","","","","","","","","","","","","","","","","","","","","","","","","","","","","","","","","","","","","","","","","","","","","","","","","","","","","","","","","","","","","","","","","","","","","SYN004BUFR","","","","","","","","","",""
"87470099999","2021-04-27T15:00:00","-32.5","-61.6666666","96.0","EL TREBOL, AR","FM-12","4","","51","74","","","+0.05","6","46","SCT:03 20","30.03","29.70","9.32","61","020","","6","","","","","","","","","","","","","","","","","","","","","","","","","","","","","","","","","","","","","","","","","","","","","","","","","","","","","","","","","","","","","","","","","","","","","","","","","","","","","","","","","","","","","","","","","","","SYN07087470 32565 30205 10231 20108 30056 40169 56016 83100 333 56000 83820=","","","","","","","","","",""
"87470099999","2021-04-27T21:00:00","-32.5","-61.6666666","96.0","EL TREBOL, AR","FM-12","4","","51","61","","","+0.01","7","71","","29.99","29.65","9.32","56","050","","6","","","","","","","","","","","","","","","","","","","","","","","","","","","","","","","","","","","","","","","","","","","","","","","","","","","","","","","","","","","","","","","","","","","","","","","","","","","","","","","","","","","","","","","","","","","SYN06487470 32965 00505 10160 20106 30042 40156 57005 333 10237 20125=","","","","","","","","","",""
"87470099999","2021-04-28T09:00:00","-32.5","-61.6666666","96.0","EL TREBOL, AR","FM-12","4","","50","58","","","-0.07","2","76","","30.15","29.81","9.32","54","050","","6","","","","","","","","","","","","","","","","","","","","","","","","","","","","","","","","","","","","","","","","","","","","","","","","","","","","","","","","","","","","","","","","","","","","","","","","","","","","","","","","","","","","","","","","","","","SYN06487470 32965 00505 10142 20100 30096 40211 52025 333 10160 20108=","","","","","","","","","",""
"87470099999","2021-04-28T12:00:00","-32.5","-61.6666666","96.0","EL TREBOL, AR","FM-12","4","","51","74","","","-0.01","2","45","","30.16","29.83","9.32","61","020","","9","","","","","","","","","","","","","","","","","","","","","","","","","","","","","","","","","","","","","","","","","","","","","","","","","","","","","","","","","","","","","","","","","","","","","","","","","","","","","","","","","","","","","","","","","","","SYN004BUFR","","","","","","","","","",""
"87470099999","2021-04-28T15:00:00","-32.5","-61.6666666","96.0","EL TREBOL, AR","FM-12","4","","49","76","","","+0.03","6","38","","30.13","29.80","9.32","61","360","","6","","","","","","","","","","","","","","","","","","","","","","","","","","","","","","","","","","","","","","","","","","","","","","","","","","","","","","","","","","","","","","","","","","","","","","","","","","","","","","","","","","","","","","","","","","","SYN004BUFR","","","","","","","","","",""
"87470099999","2021-04-28T18:00:00","-32.5","-61.6666666","96.0","EL TREBOL, AR","FM-12","4","","51","72","","","+0.01","6","48","","30.12","29.78","9.32","60","050","","2","","","","","","","","","","","","","","","","","","","","","","","","","","","","","","","","","","","","","","","","","","","","","","","","","","","","","","","","","","","","","","","","","","","","","","","","","","","","","","","","","","","","","","","","","","","SYN004BUFR","","","","","","","","","",""
"87470099999","2021-04-29T09:00:00","-32.5","-61.6666666","96.0","EL TREBOL, AR","FM-12","4","","52","58","","","0.00","4","80","","30.18","29.84","9.32","55","020","","9","","","","","","","","","","","","","","","","","","","","","","","","","","","","","","","","","","","","","","","","","","","","","","","","","","","","","","","","","","","","","","","","","","","","","","","","","","","","","","","","","","","","","","","","","","","SYN004BUFR","","","","","","","","","",""
"87470099999","2021-04-29T12:00:00","-32.5","-61.6666666","96.0","EL TREBOL, AR","FM-12","4","","48","72","","","+0.03","7","43","","30.15","29.82","9.32","59","020","","15","","","","","","","","","","","","","","","","","","","","","","","","","","","","","","","","","","","","","","","","","","","","","","","","","","","","","","","","","","","","","","","","","","","","","","","","","","","","","","","","","","","","","","","","","","","SYN004BUFR","","","","","","","","","",""
"87470099999","2021-04-29T15:00:00","-32.5","-61.6666666","96.0","EL TREBOL, AR","FM-12","4","","50","75","","","+0.03","6","42","","30.12","29.78","9.32","61","050","","6","","","","","","","","","","","","","","","","","","","","","","","","","","","","","","","","","","","","","","","","","","","","","","","","","","","","","","","","","","","","","","","","","","","","","","","","","","","","","","","","","","","","","","","","","","","SYN004BUFR","","","","","","","","","",""
"87470099999","2021-04-29T18:00:00","-32.5","-61.6666666","96.0","EL TREBOL, AR","FM-12","4","","49","66","","","+0.02","6","54","","30.10","29.76","9.32","57","050","","2","","","","","","","","","","","","","","","","","","","","","","","","","","","","","","","","","","","","","","","","","","","","","","","","","","","","","","","","","","","","","","","","","","","","","","","","","","","","","","","","","","","","","","","","","","","SYN004BUFR","","","","","","","","","",""
"87470099999","2021-04-29T21:00:00","-32.5","-61.6666666","96.0","EL TREBOL, AR","FM-12","4","","48","58","","","-0.01","2","68","","30.11","29.77","9.32","53","050","","6","","","","","","","","","","","","","","","","","","","","","","","","","","","","","","","","","","","","","","","","","","","","","","","","","","","","","","","","","","","","","","","","","","","","","","","","","","","","","","","","","","","","","","","","","","","SYN06487470 32965 00505 10146 20088 30082 40196 52004 333 10240 20144=","","","","","","","","","",""
"87470099999","2021-04-30T09:00:00","-32.5","-61.6666666","96.0","EL TREBOL, AR","FM-12","4","","48","51","","","0.00","4","88","","30.11","29.77","9.32","49","050","","6","","","","","","","","","","","","","","","","","","","","","","","","","","","","","","","","","","","","","","","","","","","","","","","","","","","","","","","","","","","","","","","","","","","","","","","","","","","","","","","","","","","","","","","","","","","SYN06487470 32965 00505 10108 20088 30080 40195 54000 333 10146 20080=","","","","","","","","","",""
"87470099999","2021-04-30T15:00:00","-32.5","-61.6666666","96.0","EL TREBOL, AR","FM-12","4","","47","74","","","+0.06","6","38","","29.96","29.63","9.32","59","360","","9","","","","","","","","","","","","","","","","","","","","","","","","","","","","","","","","","","","","","","","","","","","","","","","","","","","","","","","","","","","","","","","","","","","","","","","","","","","","","","","","","","","","","","","","","","","SYN004BUFR","","","","","","","","","",""
"87470099999","2021-04-30T18:00:00","-32.5","-61.6666666","96.0","EL TREBOL, AR","FM-12","4","","46","69","","","+0.02","6","43","","29.95","29.61","9.32","57","050","","2","","","","","","","","","","","","","","","","","","","","","","","","","","","","","","","","","","","","","","","","","","","","","","","","","","","","","","","","","","","","","","","","","","","","","","","","","","","","","","","","","","","","","","","","","","","SYN004BUFR","","","","","","","","","",""
"87470099999","2021-04-30T21:00:00","-32.5","-61.6666666","96.0","EL TREBOL, AR","FM-12","4","","48","59","","","+0.02","7","67","","29.93","29.59","9.32","53","050","","6","","","","","","","","","","","","","","","","","","","","","","","","","","","","","","","","","","","","","","","","","","","","","","","","","","","","","","","","","","","","","","","","","","","","","","","","","","","","","","","","","","","","","","","","","","","SYN06487470 32965 00505 10152 20090 30020 40134 57008 333 10237 20108=","","","","","","","","","",""
"87470099999","2021-05-01T09:00:00","-32.5","-61.6666666","96.0","EL TREBOL, AR","FM-12","4","","51","55","","","-0.02","1","87","","29.96","29.62","9.32","53","090","","2","","","","","","","","","","","","","","","","","","","","","","","","","","","","","","","","","","","","","","","","","","","","","","","","","","","","","","","","","","","","","","","","","","","","","","","","","","","","","","","","","","","","","","","","","","","SYN06487470 32965 00902 10128 20107 30030 40144 51008 333 10152 20102=","","","","","","","","","",""
"87470099999","2021-05-01T15:00:00","-32.5","-61.6666666","96.0","EL TREBOL, AR","FM-12","4","","54","79","","","+0.12","6","43","SCT:03 20","29.83","29.49","9.32","64","360","","9","","","","","","","","","","","","","","","","","","","","","","","","","","","","","","","","","","","","","","","","","","","","","","","","","","","","","","","","","","","","","","","","","","","","","","","","","","","","","","","","","","","","","","","","","","","SYN004BUFR","","","","","","","","","",""
"87470099999","2021-05-01T18:00:00","-32.5","-61.6666666","96.0","EL TREBOL, AR","FM-12","4","","53","77","","","-0.01","1","43","","29.84","29.51","9.32","63","050","","6","","","","","","","","","","","","","","","","","","","","","","","","","","","","","","","","","","","","","","","","","","","","","","","","","","","","","","","","","","","","","","","","","","","","","","","","","","","","","","","","","","","","","","","","","","","SYN004BUFR","","","","","","","","","",""
"87470099999","2021-05-01T21:00:00","-32.5","-61.6666666","96.0","EL TREBOL, AR","FM-12","4","","57","65","","","-0.03","1","74","","29.87","29.54","9.32","60","050","","2","","","","","","","","","","","","","","","","","","","","","","","","","","","","","","","","","","","","","","","","","","","","","","","","","","","","","","","","","","","","","","","","","","","","","","","","","","","","","","","","","","","","","","","","","","","SYN004BUFR","","","","","","","","","",""
"87470099999","2021-05-02T09:00:00","-32.5","-61.6666666","96.0","EL TREBOL, AR","FM-12","4","","58","60","","","-0.01","1","91","FEW:01 246","29.87","29.54","9.32","59","050","","2","","","","","","","","","","","","","","","","","","","","","","","","","","","","","","","","","","","","","","","","","","","","","","","","","","","","","","","","","","","","","","","","","","","","","","","","","","","","","","","","","","","","","","","","","","","SYN08287470 32965 10502 10158 20144 30002 40115 51004 80001 333 10185 20139 56009 81075=","","","","","","","","","",""
"87470099999","2021-05-02T15:00:00","-32.5","-61.6666666","96.0","EL TREBOL, AR","FM-12","4","","58","85","","","+0.14","6","41","FEW:01 20 SCT:03 246","29.76","29.44","9.32","68","360","","9","","","","","","","","","","","","","","","","","","","","","","","","","","","","","","","","","","","","","","","","","","","","","","","","","","","","","","","","","","","","","","","","","","","","","","","","","","","","","","","","","","","","","","","","","","","SYN004BUFR","","","","","","","","","",""
"87470099999","2021-05-02T18:00:00","-32.5","-61.6666666","96.0","EL TREBOL, AR","FM-12","4","","61","77","","","+0.00","6","58","SCT:04 246","29.76","29.44","9.32","67","360","","2","","","","","","","","","","","","","","","","","","","","","","","","","","","","","","","","","","","","","","","","","","","","","","","","","","","","","","","","","","","","","","","","","","","","","","","","","","","","","","","","","","","","","","","","","","","SYN004BUFR","","","","","","","","","",""
"87470099999","2021-05-02T21:00:00","-32.5","-61.6666666","96.0","EL TREBOL, AR","FM-12","4","","63","68","","","+0.02","6","84","","29.74","29.41","9.32","65","050","","2","","","","","","","","","","","","","","","","","","","","","","","","","","","","","","","","","","","","","","","","","","","","","","","","","","","","","","","","","","","","","","","","","","","","","","","","","","","","","","","","","","","","","","","","","","","SYN004BUFR","","","","","","","","","",""
"87470099999","2021-05-03T09:00:00","-32.5","-61.6666666","96.0","EL TREBOL, AR","FM-12","4","","65","68","","","+0.01","7","91","BKN:07 20","29.77","29.44","9.32","66","050","","6","","","","","","","","","","","","","","","","","","","","","","","","","","","","","","","","","","","","","","","","","","","","","","","","","","","","","","","","","","","","","","","","","","","","","","","","","","","","","","","","","","","","","","","","","","","SYN004BUFR","","","","","","","","","",""
"87470099999","2021-05-03T12:00:00","-32.5","-61.6666666","96.0","EL TREBOL, AR","FM-12","4","","68","83","","","+0.06","7","60","SCT:04 20","29.71","29.38","9.32","73","050","","6","","","","","","","","","","","","","","","","","","","","","","","","","","","","","","","","","","","","","","","","","","","","","","","","","","","","","","","","","","","","","","","","","","","","","","","","","","","","","","","","","","","","","","","","","","","SYN004BUFR","","","","","","","","","",""
"87470099999","2021-05-03T15:00:00","-32.5","-61.6666666","96.0","EL TREBOL, AR","FM-12","4","","69","86","","","+0.06","6","57","FEW:01 20 SCT:03 246","29.65","29.32","9.32","74","360","","0","","","","","","","","","","","","","","","","","","","","","","","","","","","","","","","","","","","","","","","","","","","","","","","","","","","","","","","","","","","","","","","","","","","","","","","","","","","","","","","","","","","","","","","","","","","SYN004BUFR","","","","","","","","","",""
"87470099999","2021-05-03T18:00:00","-32.5","-61.6666666","96.0","EL TREBOL, AR","FM-12","4","","66","77","","","-0.04","1","70","FEW:01 20","29.69","29.36","9.32","70","200","","6","","","","","","","","","","","","","","","","","","","","","","","","","","","","","","","","","","","","","","","","","","","","","","","","","","","","","","","","","","","","","","","","","","","","","","","","","","","","","","","","","","","","","","","","","","","SYN004BUFR","","","","","","","","","",""
"87470099999","2021-05-03T21:00:00","-32.5","-61.6666666","96.0","EL TREBOL, AR","FM-12","4","","62","66","","","-0.13","1","87","BKN:05 20 SCT:03 89","29.82","29.49","9.32","64","180","","15","","","","","","","","","","","","","","","","","","","","","","","","","","","","","","","","","","","","","","","","","","","","","","","","","","","","","","","","","","","","","","","","","","","","","","","","","","","","","","","","","","","","","","","","","","","SYN08887470 32565 81813 10188 20165 39986 40098 51044 85760 333 10306 20188 56990 85720 83359=","","","","","","","","","",""
"87470099999","2021-05-04T09:00:00","-32.5","-61.6666666","96.0","EL TREBOL, AR","FM-12","4","","36","55","","","-0.15","2","49","BKN:06 89","30.18","29.84","9.32","46","180","","15","","","","","","","","","","","","","","","","","","","","","","","","","","","","","","","","","","","","","","","","","","","","","","","","","","","","","","","","","","","","","","","","","","","","","","","","","","","","","","","","","","","","","","","","","","","SYN08287470 32965 61813 10126 20021 30106 40220 52050 86050 333 10188 20126 56090 86359=","","","","","","","","","",""
"87470099999","2021-05-04T15:00:00","-32.5","-61.6666666","96.0","EL TREBOL, AR","FM-12","4","","28","60","","","-0.00","1","29","FEW:02 20","30.22","29.88","9.32","46","180","","15","","","","","","","","","","","","","","","","","","","","","","","","","","","","","","","","","","","","","","","","","","","","","","","","","","","","","","","","","","","","","","","","","","","","","","","","","","","","","","","","","","","","","","","","","","","SYN004BUFR","","","","","","","","","",""
"87470099999","2021-05-04T18:00:00","-32.5","-61.6666666","96.0","EL TREBOL, AR","FM-12","4","","36","55","","","-0.09","1","49","SCT:04 20 SCT:03 89","30.31","29.97","9.32","46","180","","2","","","","","","","","","","","","","","","","","","","","","","","","","","","","","","","","","","","","","","","","","","","","","","","","","","","","","","","","","","","","","","","","","","","","","","","","","","","","","","","","","","","","","","","","","","","SYN004BUFR","","","","","","","","","",""
"87470099999","2021-05-04T21:00:00","-32.5","-61.6666666","96.0","EL TREBOL, AR","FM-12","4","","39","53","","","-0.03","1","60","BKN:05 20","30.32","29.97","9.32","46","180","","2","","","","","","","","","","","","","","","","","","","","","","","","","","","","","","","","","","","","","","","","","","","","","","","","","","","","","","","","","","","","","","","","","","","","","","","","","","","","","","","","","","","","","","","","","","","SYN004BUFR","","","","","","","","","",""
"87470099999","2021-05-05T09:00:00","-32.5","-61.6666666","96.0","EL TREBOL, AR","FM-12","4","","42","51","","","-0.03","2","74","FEW:02 20","30.30","29.96","9.32","47","180","","6","","","","","","","","","","","","","","","","","","","","","","","","","","","","","","","","","","","","","","","","","","","","","","","","","","","","","","","","","","","","","","","","","","","","","","","","","","","","","","","","","","","","","","","","","","","SYN07687470 32565 61805 10103 20058 30144 40260 52010 82538 333 10116 20090 82620=","","","","","","","","","",""
"87470099999","2021-05-05T15:00:00","-32.5","-61.6666666","96.0","EL TREBOL, AR","FM-12","4","","37","62","","","+0.26","6","40","SCT:04 20","30.24","29.90","9.32","50","180","","6","","","","","","","","","","","","","","","","","","","","","","","","","","","","","","","","","","","","","","","","","","","","","","","","","","","","","","","","","","","","","","","","","","","","","","","","","","","","","","","","","","","","","","","","","","","SYN004BUFR","","","","","","","","","",""
"87470099999","2021-05-05T18:00:00","-32.5","-61.6666666","96.0","EL TREBOL, AR","FM-12","4","","40","57","","","-0.01","1","53","FEW:02 89","30.25","29.91","9.32","49","180","","2","","","","","","","","","","","","","","","","","","","","","","","","","","","","","","","","","","","","","","","","","","","","","","","","","","","","","","","","","","","","","","","","","","","","","","","","","","","","","","","","","","","","","","","","","","","SYN004BUFR","","","","","","","","","",""
"87470099999","2021-05-05T21:00:00","-32.5","-61.6666666","96.0","EL TREBOL, AR","FM-12","4","","38","46","","","-0.02","1","73","","30.28","29.93","9.32","42","000","","0","","","","","","","","","","","","","","","","","","","","","","","","","","","","","","","","","","","","","","","","","","","","","","","","","","","","","","","","","","","","","","","","","","","","","","","","","","","","","","","","","","","","","","","","","","","SYN06487470 32965 00000 10076 20031 30137 40255 51008 333 10170 20076=","","","","","","","","","",""
"87470099999","2021-05-06T09:00:00","-32.5","-61.6666666","96.0","EL TREBOL, AR","FM-12","4","","38","40","","","-0.01","2","92","","30.32","29.97","9.32","39","270","","2","","","","","","","","","","","","","","","","","","","","","","","","","","","","","","","","","","","","","","","","","","","","","","","","","","","","","","","","","","","","","","","","","","","","","","","","","","","","","","","","","","","","","","","","","","","SYN06487470 32965 02702 10043 20031 30150 40269 52005 333 10076 20010=","","","","","","","","","",""
"87470099999","2021-05-06T15:00:00","-32.5","-61.6666666","96.0","EL TREBOL, AR","FM-12","4","","35","65","","","+0.05","6","33","","30.26","29.91","9.32","51","000","","0","","","","","","","","","","","","","","","","","","","","","","","","","","","","","","","","","","","","","","","","","","","","","","","","","","","","","","","","","","","","","","","","","","","","","","","","","","","","","","","","","","","","","","","","","","","SYN04887470 32965 00000 10183 20016 30130 40246 56016=","","","","","","","","","",""
"87470099999","2021-05-06T21:00:00","-32.5","-61.6666666","96.0","EL TREBOL, AR","FM-12","4","","38","48","","","-0.01","1","70","","30.26","29.91","9.32","43","360","","0","","","","","","","","","","","","","","","","","","","","","","","","","","","","","","","","","","","","","","","","","","","","","","","","","","","","","","","","","","","","","","","","","","","","","","","","","","","","","","","","","","","","","","","","","","","SYN004BUFR","","","","","","","","","",""
"87470099999","2021-05-07T09:00:00","-32.5","-61.6666666","96.0","EL TREBOL, AR","FM-12","4","","38","45","","","-0.04","2","77","SCT:04 246","30.27","29.91","9.32","42","050","","2","","","","","","","","","","","","","","","","","","","","","","","","","","","","","","","","","","","","","","","","","","","","","","","","","","","","","","","","","","","","","","","","","","","","","","","","","","","","","","","","","","","","","","","","","","","SYN08887470 31965 40502 10070 20032 30130 40249 52015 702// 80008 333 10088 20020 56009 84275=","","","","","","","","","",""
"87470099999","2021-05-07T15:00:00","-32.5","-61.6666666","96.0","EL TREBOL, AR","FM-12","4","","33","66","","","+0.04","6","30","FEW:01 89 SCT:04 246","30.21","29.87","9.32","50","070","","9","","","","","","","","","","","","","","","","","","","","","","","","","","","","","","","","","","","","","","","","","","","","","","","","","","","","","","","","","","","","","","","","","","","","","","","","","","","","","","","","","","","","","","","","","","","SYN07687470 32965 50708 10188 20008 30116 40231 56015 81055 333 56099 81359 84275=","","","","","","","","","",""
"87470099999","2021-05-07T18:00:00","-32.5","-61.6666666","96.0","EL TREBOL, AR","FM-12","4","","38","58","","","0.00","4","47","FEW:02 20","30.22","29.87","9.32","48","360","","0","","","","","","","","","","","","","","","","","","","","","","","","","","","","","","","","","","","","","","","","","","","","","","","","","","","","","","","","","","","","","","","","","","","","","","","","","","","","","","","","","","","","","","","","","","","SYN004BUFR","","","","","","","","","",""
"87470099999","2021-05-08T09:00:00","-32.5","-61.6666666","96.0","EL TREBOL, AR","FM-12","4","","43","46","","","-0.03","1","91","","30.26","29.91","7.46","45","360","","0","","","","","","","","","","","","","","","","","","","","","","","","","","","","","","","","","","","","","","","","","","","","","","","","","","","","","","","","","","","","","","","","","","","","","","","","","","","","","","","","","","","","","","","","","","","SYN004BUFR","","","","","","","","","",""
"87470099999","2021-05-08T12:00:00","-32.5","-61.6666666","96.0","EL TREBOL, AR","FM-12","4","","42","64","","","+0.03","6","45","","30.22","29.88","9.32","53","050","","15","","","","","","","","","","","","","","","","","","","","","","","","","","","","","","","","","","","","","","","","","","","","","","","","","","","","","","","","","","","","","","","","","","","","","","","","","","","","","","","","","","","","","","","","","","","SYN004BUFR","","","","","","","","","",""
"87470099999","2021-05-08T15:00:00","-32.5","-61.6666666","96.0","EL TREBOL, AR","FM-12","4","","40","69","","","+0.07","6","35","SCT:04 246","30.16","29.82","9.32","54","050","","9","","","","","","","","","","","","","","","","","","","","","","","","","","","","","","","","","","","","","","","","","","","","","","","","","","","","","","","","","","","","","","","","","","","","","","","","","","","","","","","","","","","","","","","","","","","SYN07087470 32965 40508 10204 20045 30097 40212 56023 80004 333 56009 84075=","","","","","","","","","",""
"87470099999","2021-05-09T09:00:00","-32.5","-61.6666666","96.0","EL TREBOL, AR","FM-12","4","","46","49","","","-0.01","1","90","FEW:02 89","30.14","29.80","9.32","48","090","","2","","","","","","","","","","","","","","","","","","","","","","","","","","","","","","","","","","","","","","","","","","","","","","","","","","","","","","","","","","","","","","","","","","","","","","","","","","","","","","","","","","","","","","","","","","","SYN004BUFR","","","","","","","","","",""
"87470099999","2021-05-10T09:00:00","-32.5","-61.6666666","96.0","EL TREBOL, AR","FM-12","4","","48","50","","","-0.07","2","92","SCT:03 89","30.13","29.79","9.32","49","180","","6","","","","","","","","","","","","","","","","","","","","","","","","","","","","","","","","","","","","","","","","","","","","","","","","","","","","","","","","","","","","","","","","","","","","","","","","","","","","","","","","","","","","","","","","","","","SYN08287470 32965 31805 10102 20090 30089 40203 52025 83020 333 10181 20068 56090 83559=","","","","","","","","","",""
"87470099999","2021-05-10T15:00:00","-32.5","-61.6666666","96.0","EL TREBOL, AR","FM-12","4","","46","64","","","+0.04","6","53","SCT:04 20 SCT:03 89","30.19","29.84","9.32","54","180","","9","","","","","","","","","","","","","","","","","","","","","","","","","","","","","","","","","","","","","","","","","","","","","","","","","","","","","","","","","","","","","","","","","","","","","","","","","","","","","","","","","","","","","","","","","","","SYN07687470 32565 71808 10178 20079 30106 40222 56013 84650 333 56990 84720 83359=","","","","","","","","","",""
"87470099999","2021-05-10T21:00:00","-32.5","-61.6666666","96.0","EL TREBOL, AR","FM-12","4","","47","53","","","-0.06","1","81","SCT:04 20 SCT:03 89","30.24","29.90","9.32","50","000","","0","","","","","","","","","","","","","","","","","","","","","","","","","","","","","","","","","","","","","","","","","","","","","","","","","","","","","","","","","","","","","","","","","","","","","","","","","","","","","","","","","","","","","","","","","","","SYN08887470 32565 70000 10118 20086 30125 40242 51021 84650 333 10181 20102 56990 84720 83359=","","","","","","","","","",""
"87470099999","2021-05-11T09:00:00","-32.5","-61.6666666","96.0","EL TREBOL, AR","FM-12","4","","36","47","","","0.00","4","67","","30.24","29.90","9.32","42","140","","6","","","","","","","","","","","","","","","","","","","","","","","","","","","","","","","","","","","","","","","","","","","","","","","","","","","","","","","","","","","","","","","","","","","","","","","","","","","","","","","","","","","","","","","","","","","SYN004BUFR","","","","","","","","","",""
"87470099999","2021-05-11T15:00:00","-32.5","-61.6666666","96.0","EL TREBOL, AR","FM-12","4","","27","63","","","+0.07","6","25","FEW:01 20","30.19","29.84","9.32","47","360","","0","","","","","","","","","","","","","","","","","","","","","","","","","","","","","","","","","","","","","","","","","","","","","","","","","","","","","","","","","","","","","","","","","","","","","","","","","","","","","","","","","","","","","","","","","","","SYN004BUFR","","","","","","","","","",""
"87470099999","2021-05-11T18:00:00","-32.5","-61.6666666","96.0","EL TREBOL, AR","FM-12","4","","35","57","","","+0.02","6","44","","30.17","29.82","9.32","47","360","","0","","","","","","","","","","","","","","","","","","","","","","","","","","","","","","","","","","","","","","","","","","","","","","","","","","","","","","","","","","","","","","","","","","","","","","","","","","","","","","","","","","","","","","","","","","","SYN004BUFR","","","","","","","","","",""
"87470099999","2021-05-11T21:00:00","-32.5","-61.6666666","96.0","EL TREBOL, AR","FM-12","4","","33","41","","","-0.05","1","75","","30.22","29.87","9.32","38","360","","0","","","","","","","","","","","","","","","","","","","","","","","","","","","","","","","","","","","","","","","","","","","","","","","","","","","","","","","","","","","","","","","","","","","","","","","","","","","","","","","","","","","","","","","","","","","SYN004BUFR","","","","","","","","","",""
"87470099999","2021-05-12T09:00:00","-32.5","-61.6666666","96.0","EL TREBOL, AR","FM-12","4","","34","46","","","-0.01","2","64","","30.18","29.84","9.32","41","360","","6","","","","","","","","","","","","","","","","","","","","","","","","","","","","","","","","","","","","","","","","","","","","","","","","","","","","","","","","","","","","","","","","","","","","","","","","","","","","","","","","","","","","","","","","","","","SYN004BUFR","","","","","","","","","",""
"87470099999","2021-05-12T12:00:00","-32.5","-61.6666666","96.0","EL TREBOL, AR","FM-12","4","","31","63","","","+0.04","7","30","","30.15","29.80","9.32","48","360","","9","","","","","","","","","","","","","","","","","","","","","","","","","","","","","","","","","","","","","","","","","","","","","","","","","","","","","","","","","","","","","","","","","","","","","","","","","","","","","","","","","","","","","","","","","","","SYN004BUFR","","","","","","","","","",""
"87470099999","2021-05-12T15:00:00","-32.5","-61.6666666","96.0","EL TREBOL, AR","FM-12","4","","31","69","","","+0.05","6","24","","30.09","29.75","9.32","51","340","","6","","","","","","","","","","","","","","","","","","","","","","","","","","","","","","","","","","","","","","","","","","","","","","","","","","","","","","","","","","","","","","","","","","","","","","","","","","","","","","","","","","","","","","","","","","","SYN004BUFR","","","","","","","","","",""
"87470099999","2021-05-12T18:00:00","-32.5","-61.6666666","96.0","EL TREBOL, AR","FM-12","4","","31","62","","","+0.02","6","31","","30.08","29.73","9.32","48","050","","2","","","","","","","","","","","","","","","","","","","","","","","","","","","","","","","","","","","","","","","","","","","","","","","","","","","","","","","","","","","","","","","","","","","","","","","","","","","","","","","","","","","","","","","","","","","SYN004BUFR","","","","","","","","","",""
"87470099999","2021-05-12T21:00:00","-32.5","-61.6666666","96.0","EL TREBOL, AR","FM-12","4","","36","50","","","-0.02","1","58","","30.09","29.75","9.32","44","050","","2","","","","","","","","","","","","","","","","","","","","","","","","","","","","","","","","","","","","","","","","","","","","","","","","","","","","","","","","","","","","","","","","","","","","","","","","","","","","","","","","","","","","","","","","","","","SYN06487470 32965 00502 10102 20023 30074 40191 51007 333 10208 20077=","","","","","","","","","",""
"87470099999","2021-05-13T09:00:00","-32.5","-61.6666666","96.0","EL TREBOL, AR","FM-12","4","","41","49","","","-0.01","2","76","BKN:05 246","30.15","29.81","9.32","45","360","","9","","","","","","","","","","","","","","","","","","","","","","","","","","","","","","","","","","","","","","","","","","","","","","","","","","","","","","","","","","","","","","","","","","","","","","","","","","","","","","","","","","","","","","","","","","","SYN004BUFR","","","","","","","","","",""
"87470099999","2021-05-13T15:00:00","-32.5","-61.6666666","96.0","EL TREBOL, AR","FM-12","4","","36","68","","","+0.04","6","31","FEW:01 20","30.09","29.75","9.32","52","360","","6","","","","","","","","","","","","","","","","","","","","","","","","","","","","","","","","","","","","","","","","","","","","","","","","","","","","","","","","","","","","","","","","","","","","","","","","","","","","","","","","","","","","","","","","","","","SYN06487470 32565 53605 10198 20022 30074 40189 56015 81468 333 81620=","","","","","","","","","",""
"87470099999","2021-05-13T21:00:00","-32.5","-61.6666666","96.0","EL TREBOL, AR","FM-12","4","","40","49","","","-0.05","1","70","FEW:02 246","30.13","29.79","9.32","45","050","","2","","","","","","","","","","","","","","","","","","","","","","","","","","","","","","","","","","","","","","","","","","","","","","","","","","","","","","","","","","","","","","","","","","","","","","","","","","","","","","","","","","","","","","","","","","","SYN004BUFR","","","","","","","","","",""
"87470099999","2021-05-14T09:00:00","-32.5","-61.6666666","96.0","EL TREBOL, AR","FM-12","4","","41","43","","","0.00","4","94","","30.14","29.79","3.11","42","050","","6","","","","","","","","","","","","","","","","","","","","","","","","","","","","","","","","","","","","","","","","","","","","","","","","","","","","","","","","","","","","","","","","","","","","","","","","","","","","","","","","","","","","","","","","","","","SYN004BUFR","","","","","","","","","",""
"87470099999","2021-05-14T12:00:00","-32.5","-61.6666666","96.0","EL TREBOL, AR","FM-12","4","","47","63s","","","+0.01","6","56","FEW:01 246","30.12","29.78","9.32","54","360","","6","","","","","","","","","","","","","","","","","","","","","","","","","","","","","","","","","","","","","","","","","","","","","","","","","","","","","","","","","","","","","","","","","","","","","","","","","","","","","","","","","","","","","","","","","","","SYN004BUFR","","","","","","","","","",""
"87470099999","2021-05-14T15:00:00","-32.5","-61.6666666","96.0","EL TREBOL, AR","FM-12","4","","36","72","","","+0.09","6","28","","30.03","29.69","9.32","54","050","","2","","","","","","","","","","","","","","","","","","","","","","","","","","","","","","","","","","","","","","","","","","","","","","","","","","","","","","","","","","","","","","","","","","","","","","","","","","","","","","","","","","","","","","","","","","","SYN004BUFR","","","","","","","","","",""
"87470099999","2021-05-14T18:00:00","-32.5","-61.6666666","96.0","EL TREBOL, AR","FM-12","4","","38","62","","","-0.02","1","42","","30.05","29.71","9.32","50","050","","2","","","","","","","","","","","","","","","","","","","","","","","","","","","","","","","","","","","","","","","","","","","","","","","","","","","","","","","","","","","","","","","","","","","","","","","","","","","","","","","","","","","","","","","","","","","SYN004BUFR","","","","","","","","","",""
"87470099999","2021-05-14T21:00:00","-32.5","-61.6666666","96.0","EL TREBOL, AR","FM-12","4","","39","53","","","-0.00","1","59","","30.06","29.71","9.32","46","360","","0","","","","","","","","","","","","","","","","","","","","","","","","","","","","","","","","","","","","","","","","","","","","","","","","","","","","","","","","","","","","","","","","","","","","","","","","","","","","","","","","","","","","","","","","","","","SYN004BUFR","","","","","","","","","",""
"87470099999","2021-05-15T09:00:00","-32.5","-61.6666666","96.0","EL TREBOL, AR","FM-12","4","","42","44","","","-0.05","1","94","FEW:02 246","30.10","29.75","9.32","43","090","","2","","","","","","","","","","","","","","","","","","","","","","","","","","","","","","","","","","","","","","","","","","","","","","","","","","","","","","","","","","","","","","","","","","","","","","","","","","","","","","","","","","","","","","","","","","","SYN08887470 31965 20902 10067 20058 30076 40192 51018 7021/ 80008 333 10122 20022 56009 82275=","","","","","","","","","",""
"87470099999","2021-05-15T12:00:00","-32.5","-61.6666666","96.0","EL TREBOL, AR","FM-12","4","","46","66s","","","+0.01","6","50","FEW:02 89 SCT:04 246","30.09","29.75","9.32","55","360","","6","","","","","","","","","","","","","","","","","","","","","","","","","","","","","","","","","","","","","","","","","","","","","","","","","","","","","","","","","","","","","","","","","","","","","","","","","","","","","","","","","","","","","","","","","","","SYN004BUFR","","","","","","","","","",""
"87470099999","2021-05-15T15:00:00","-32.5","-61.6666666","96.0","EL TREBOL, AR","FM-12","4","","44","73","","","+0.07","7","36","BKN:05 246","30.02","29.68","9.32","57","340","","6","","","","","","","","","","","","","","","","","","","","","","","","","","","","","","","","","","","","","","","","","","","","","","","","","","","","","","","","","","","","","","","","","","","","","","","","","","","","","","","","","","","","","","","","","","","SYN07087470 32965 53405 10226 20069 30050 40166 57023 80008 333 56009 85275=","","","","","","","","","",""
"87470099999","2021-05-15T21:00:00","-32.5","-61.6666666","96.0","EL TREBOL, AR","FM-12","4","","44","56","","","-0.05","3","65","FEW:02 246","30.06","29.72","9.32","50","090","","2","","","","","","","","","","","","","","","","","","","","","","","","","","","","","","","","","","","","","","","","","","","","","","","","","","","","","","","","","","","","","","","","","","","","","","","","","","","","","","","","","","","","","","","","","","","SYN004BUFR","","","","","","","","","",""
"87470099999","2021-05-16T09:00:00","-32.5","-61.6666666","96.0","EL TREBOL, AR","FM-12","4","","44","47","","","-0.01","1","88","","30.07","29.73","9.32","46","090","","6","","","","","","","","","","","","","","","","","","","","","","","","","","","","","","","","","","","","","","","","","","","","","","","","","","","","","","","","","","","","","","","","","","","","","","","","","","","","","","","","","","","","","","","","","","","SYN06487470 32965 00905 10085 20066 30068 40184 51002 333 10133 20048=","","","","","","","","","",""
"87470099999","2021-05-16T15:00:00","-32.5","-61.6666666","96.0","EL TREBOL, AR","FM-12","4","","51","73","","","+0.07","6","46","SCT:03 22","30.04","29.70","9.32","60","230","","2","","","","","","","","","","","","","","","","","","","","","","","","","","","","","","","","","","","","","","","","","","","","","","","","","","","","","","","","","","","","","","","","","","","","","","","","","","","","","","","","","","","","","","","","","","","SYN07687470 32565 42302 10228 20106 30058 40173 56023 83250 333 56990 57899 83822=","","","","","","","","","",""
"87470099999","2021-05-16T21:00:00","-32.5","-61.6666666","96.0","EL TREBOL, AR","FM-12","4","","44","55","","","-0.05","3","65","FEW:02 246","30.09","29.75","9.32","49","110","","2","","","","","","","","","","","","","","","","","","","","","","","","","","","","","","","","","","","","","","","","","","","","","","","","","","","","","","","","","","","","","","","","","","","","","","","","","","","","","","","","","","","","","","","","","","","SYN08287470 32965 21102 10129 20065 30073 40190 53016 80008 333 10240 20085 56009 82275=","","","","","","","","","",""
"87470099999","2021-05-17T09:00:00","-32.5","-61.6666666","96.0","EL TREBOL, AR","FM-12","4","","46","47","","","-0.04","3","95","","30.16","29.81","9.32","47","000","","0","","","","","","","","","","","","","","","","","","","","","","","","","","","","","","","","","","","","","","","","","","","","","","","","","","","","","","","","","","","","","","","","","","","","","","","","","","","","","","","","","","","","","","","","","","","SYN07087470 31965 00000 10086 20078 30096 40212 53015 702// 333 10129 20057=","","","","","","","","","",""
"87470099999","2021-05-17T15:00:00","-32.5","-61.6666666","96.0","EL TREBOL, AR","FM-12","4","","51","73","","","+0.07","5","46","SCT:03 246","30.11","29.77","9.32","60","090","","2","","","","","","","","","","","","","","","","","","","","","","","","","","","","","","","","","","","","","","","","","","","","","","","","","","","","","","","","","","","","","","","","","","","","","","","","","","","","","","","","","","","","","","","","","","","SYN004BUFR","","","","","","","","","",""
"87470099999","2021-05-17T21:00:00","-32.5","-61.6666666","96.0","EL TREBOL, AR","FM-12","4","","49","58","","","-0.01","3","70","FEW:02 246","30.12","29.78","9.32","53","090","","2","","","","","","","","","","","","","","","","","","","","","","","","","","","","","","","","","","","","","","","","","","","","","","","","","","","","","","","","","","","","","","","","","","","","","","","","","","","","","","","","","","","","","","","","","","","SYN08287470 32965 20902 10146 20092 30084 40199 53005 80008 333 10234 20086 56009 82275=","","","","","","","","","",""
"87470099999","2021-05-18T21:00:00","-32.5","-61.6666666","96.0","EL TREBOL, AR","FM-12","4","","47","58","","","+0.01","6","69","FEW:02 89 SCT:03 246","29.99","29.65","9.32","52","050","","6","","","","","","","","","","","","","","","","","","","","","","","","","","","","","","","","","","","","","","","","","","","","","","","","","","","","","","","","","","","","","","","","","","","","","","","","","","","","","","","","","","","","","","","","","","","SYN08887470 32965 50505 10143 20086 30041 40156 56004 82058 333 10221 20098 56099 82359 83275=","","","","","","","","","",""
"87470099999","2021-05-19T09:00:00","-32.5","-61.6666666","96.0","EL TREBOL, AR","FM-12","4","","47","52","","","0.00","4","85","SCT:03 18 SCT:04 20","29.90","29.56","9.32","49","090","","6","","","","","","","","","","","","","","","","","","","","","","","","","","","","","","","","","","","","","","","","","","","","","","","","","","","","","","","","","","","","","","","","","","","","","","","","","","","","","","","","","","","","","","","","","","","SYN08887470 32465 70905 10110 20086 30010 40125 54000 87800 333 10143 20105 56900 83618 84820=","","","","","","","","","",""
"87470099999","2021-05-19T12:00:00","-32.5","-61.6666666","96.0","EL TREBOL, AR","FM-12","4","","49","68","","","+0.03","7","51","FEW:01 20","29.87","29.53","9.32","57","050","","6","","","","","","","","","","","","","","","","","","","","","","","","","","","","","","","","","","","","","","","","","","","","","","","","","","","","","","","","","","","","","","","","","","","","","","","","","","","","","","","","","","","","","","","","","","","SYN004BUFR","","","","","","","","","",""
"87470099999","2021-05-19T15:00:00","-32.5","-61.6666666","96.0","EL TREBOL, AR","FM-12","4","","48","67","","","+0.03","6","51","FEW:02 20 SCT:03 89","29.84","29.51","9.32","57","050","","9","","","","","","","","","","","","","","","","","","","","","","","","","","","","","","","","","","","","","","","","","","","","","","","","","","","","","","","","","","","","","","","","","","","","","","","","","","","","","","","","","","","","","","","","","","","SYN08287470 32565 70508 10196 20091 39992 40105 56009 82258 333 56000 57800 82820 83359=","","","","","","","","","",""
"87470099999","2021-05-19T21:00:00","-32.5","-61.6666666","96.0","EL TREBOL, AR","FM-12","4","","50","60","","","-0.02","3","70","FEW:01 25","29.86","29.52","9.32","55","090","","6","","","","","","","","","","","","","","","","","","","","","","","","","","","","","","","","","","","","","","","","","","","","","","","","","","","","","","","","","","","","","","","","","","","","","","","","","","","","","","","","","","","","","","","","","","","SYN07687470 32565 50905 10158 20102 39997 40111 53007 81558 333 10208 20111 81625=","","","","","","","","","",""
"87470099999","2021-05-20T09:00:00","-32.5","-61.6666666","96.0","EL TREBOL, AR","FM-12","4","","50","55","","","-0.06","3","83","OVC:08 89","29.89","29.56","9.32","52","110","","6","","","","","","","","","","","","","","","","","","","","","","","","","","","","","","","","","","","","","","","","","","","","","","","","","","","","","","","","","","","","","","","","","","","","","","","","","","","","","","","","","","","","","","","","","","","SYN08887470 31965 81105 10128 20099 30009 40123 53022 702// 8805/ 333 10158 20127 56009 88359=","","","","","","","","","",""
"87470099999","2021-05-20T15:00:00","-32.5","-61.6666666","96.0","EL TREBOL, AR","FM-12","4","","58","59","","","+0.02","6","94","OVC:08 18","29.82","29.49","9.32","58","090","","6","","","","","","","","","","","","","","","","","","","","","","","","","","","","","","","","","","","","","","","","","","","","","","","","","","","","","","","","","","","","","","","","","","","","","","","","","","","","","","","","","","","","","","","","","","","SYN08287470 11465 80905 10152 20142 39985 40099 56008 60031 70252 887// 333 56099 88718=","","","","","","","","","",""
"87470099999","2021-05-20T21:00:00","-32.5","-61.6666666","96.0","EL TREBOL, AR","FM-12","4","","57","58","","","-0.03","3","97","OVC:08 18","29.83","29.49","6.21","57","160","","9","","","","","","","","","","","","","","","","","","","","","","","","","","","","","","","","","","","","","","","","","","","","","","","","","","","","","","","","","","","","","","","","","","","","","","","","","","","","","","","","","","","","","","","","","","","SYN08887470 11460 81608 10144 20140 39986 40100 53009 69911 70252 887// 333 10152 20128 88718=","","","","","","","","","",""
"87470099999","2021-05-21T09:00:00","-32.5","-61.6666666","96.0","EL TREBOL, AR","FM-12","4","","51","53","","||RA","+0.01","7","95","OVC:08 16","29.70","29.37","2.17","52","090","","6","","","","","","","","","","","","","","","","","","","","","","","","","","","","","","","","","","","","","","","","","","","","","","","","","","","","","","","","","","","","","","","","","","","","","","","","","","","","","","","","","","","","","","","","","","","SYN10087470 01435 80905 10116 20108 39945 40058 57005 60174 76362 88700 333 10144 20116 56900 60142 88716=","","","","","","","","","",""
"87470099999","2021-05-21T12:00:00","-32.5","-61.6666666","96.0","EL TREBOL, AR","FM-12","4","","54","54","","||DZ","-0.01","2","99","OVC:08 16","29.71","29.38","2.17","54","230","","6","","","","","","","","","","","","","","","","","","","","","","","","","","","","","","","","","","","","","","","","","","","","","","","","","","","","","","","","","","","","","","","","","","","","","","","","","","","","","","","","","","","","","","","","","","","SYN004BUFR","","","","","","","","","",""
"87470099999","2021-05-21T15:00:00","-32.5","-61.6666666","96.0","EL TREBOL, AR","FM-12","4","","53","55","","","-0.04","3","93","OVC:08 16","29.75","29.41","9.32","54","230","","6","","","","","","","","","","","","","","","","","","","","","","","","","","","","","","","","","","","","","","","","","","","","","","","","","","","","","","","","","","","","","","","","","","","","","","","","","","","","","","","","","","","","","","","","","","","SYN08287470 11465 82305 10128 20117 39960 40074 53012 60031 70252 887// 333 56099 88716=","","","","","","","","","",""
"87470099999","2021-05-21T21:00:00","-32.5","-61.6666666","96.0","EL TREBOL, AR","FM-12","4","","51","53","","||DZ","-0.04","3","95","OVC:08 18","29.80","29.47","3.11","52","230","","6","","","","","","","","","","","","","","","","","","","","","","","","","","","","","","","","","","","","","","","","","","","","","","","","","","","","","","","","","","","","","","","","","","","","","","","","","","","","","","","","","","","","","","","","","","","SYN08887470 11450 82305 10116 20108 39978 40093 53013 69921 75552 887// 333 10128 20116 88718=","","","","","","","","","",""
"87470099999","2021-05-22T09:00:00","-32.5","-61.6666666","96.0","EL TREBOL, AR","FM-12","4","","42","47","","","0.00","4","84","FEW:01 18","29.78","29.45","9.32","45","230","","15","","","","","","","","","","","","","","","","","","","","","","","","","","","","","","","","","","","","","","","","","","","","","","","","","","","","","","","","","","","","","","","","","","","","","","","","","","","","","","","","","","","","","","","","","","","SYN09487470 02465 12313 10083 20057 39972 40086 54000 60054 81500 333 10116 20080 56900 60022 81618=","","","","","","","","","",""
"87470099999","2021-05-22T12:00:00","-32.5","-61.6666666","96.0","EL TREBOL, AR","FM-12","4","","44","52","","","+0.01","7","76","OVC:08 18","29.77","29.44","9.32","48","230","","28","","","","","","","","","","","","","","","","","","","","","","","","","","","","","","","","","","","","","","","","","","","","","","","","","","","","","","","","","","","","","","","","","","","","","","","","","","","","","","","","","","","","","","","","","","","SYN004BUFR","","","","","","","","","",""
"87470099999","2021-05-22T15:00:00","-32.5","-61.6666666","96.0","EL TREBOL, AR","FM-12","4","","48","50","","","-0.01","2","94","OVC:08 18","29.78","29.44","9.32","49","230","","28","","","","","","","","","","","","","","","","","","","","","","","","","","","","","","","","","","","","","","","","","","","","","","","","","","","","","","","","","","","","","","","","","","","","","","","","","","","","","","","","","","","","","","","","","","","SYN004BUFR","","","","","","","","","",""
"87470099999","2021-05-22T21:00:00","-32.5","-61.6666666","96.0","EL TREBOL, AR","FM-12","4","","49","51","","","-0.08","2","91","OVC:08 18","29.89","29.55","9.32","50","230","","15","","","","","","","","","","","","","","","","","","","","","","","","","","","","","","","","","","","","","","","","","","","","","","","","","","","","","","","","","","","","","","","","","","","","","","","","","","","","","","","","","","","","","","","","","","","SYN004BUFR","","","","","","","","","",""
"87470099999","2021-05-23T09:00:00","-32.5","-61.6666666","96.0","EL TREBOL, AR","FM-12","4","","45","48","","","-0.06","2","89","OVC:08 18","30.04","29.70","9.32","47","230","","15","","","","","","","","","","","","","","","","","","","","","","","","","","","","","","","","","","","","","","","","","","","","","","","","","","","","","","","","","","","","","","","","","","","","","","","","","","","","","","","","","","","","","","","","","","","SYN08887470 12465 82313 10090 20073 30056 40172 52020 60024 88500 333 10108 20090 56900 88618=","","","","","","","","","",""
"87470099999","2021-05-23T12:00:00","-32.5","-61.6666666","96.0","EL TREBOL, AR","FM-12","4","","44","56","","","-0.02","2","62","FEW:01 18","30.05","29.71","9.32","50","230","","15","","","","","","","","","","","","","","","","","","","","","","","","","","","","","","","","","","","","","","","","","","","","","","","","","","","","","","","","","","","","","","","","","","","","","","","","","","","","","","","","","","","","","","","","","","","SYN004BUFR","","","","","","","","","",""
"87470099999","2021-05-24T09:00:00","-32.5","-61.6666666","96.0","EL TREBOL, AR","FM-12","4","","35","40","","","0.00","4","84","","30.03","29.69","9.32","38","000","","0","","","","","","","","","","","","","","","","","","","","","","","","","","","","","","","","","","","","","","","","","","","","","","","","","","","","","","","","","","","","","","","","","","","","","","","","","","","","","","","","","","","","","","","","","","","SYN06487470 32965 00000 10042 20017 30053 40171 54000 333 10060 20025=","","","","","","","","","",""
"87470099999","2021-05-24T12:00:00","-32.5","-61.6666666","96.0","EL TREBOL, AR","FM-12","4","","46","64s","","","+0.04","7","53","","29.98","29.64","9.32","54","360","","6","","","","","","","","","","","","","","","","","","","","","","","","","","","","","","","","","","","","","","","","","","","","","","","","","","","","","","","","","","","","","","","","","","","","","","","","","","","","","","","","","","","","","","","","","","","SYN004BUFR","","","","","","","","","",""
"87470099999","2021-05-24T15:00:00","-32.5","-61.6666666","96.0","EL TREBOL, AR","FM-12","4","","40","68","","","+0.08","7","36","","29.91","29.57","9.32","54","360","","6","","","","","","","","","","","","","","","","","","","","","","","","","","","","","","","","","","","","","","","","","","","","","","","","","","","","","","","","","","","","","","","","","","","","","","","","","","","","","","","","","","","","","","","","","","","SYN004BUFR","","","","","","","","","",""
"87470099999","2021-05-24T21:00:00","-32.5","-61.6666666","96.0","EL TREBOL, AR","FM-12","4","","38","55","","","0.00","4","53","","29.88","29.54","9.32","47","020","","6","","","","","","","","","","","","","","","","","","","","","","","","","","","","","","","","","","","","","","","","","","","","","","","","","","","","","","","","","","","","","","","","","","","","","","","","","","","","","","","","","","","","","","","","","","","SYN06487470 32965 00205 10126 20032 30002 40118 54000 333 10205 20042=","","","","","","","","","",""
"87470099999","2021-05-25T09:00:00","-32.5","-61.6666666","96.0","EL TREBOL, AR","FM-12","4","","42","45","","","-0.06","2","92","","30.07","29.72","9.32","44","290","","2","","","","","","","","","","","","","","","","","","","","","","","","","","","","","","","","","","","","","","","","","","","","","","","","","","","","","","","","","","","","","","","","","","","","","","","","","","","","","","","","","","","","","","","","","","","SYN06487470 32965 02902 10071 20058 30066 40182 52020 333 10126 20010=","","","","","","","","","",""
"87470099999","2021-05-25T15:00:00","-32.5","-61.6666666","96.0","EL TREBOL, AR","FM-12","4","","35","68","","","+0.04","7","30","","30.06","29.72","9.32","52","360","","0","","","","","","","","","","","","","","","","","","","","","","","","","","","","","","","","","","","","","","","","","","","","","","","","","","","","","","","","","","","","","","","","","","","","","","","","","","","","","","","","","","","","","","","","","","","SYN004BUFR","","","","","","","","","",""
"87470099999","2021-05-25T18:00:00","-32.5","-61.6666666","96.0","EL TREBOL, AR","FM-12","4","","39","61","","","+0.02","7","45","","30.04","29.70","9.32","50","360","","0","","","","","","","","","","","","","","","","","","","","","","","","","","","","","","","","","","","","","","","","","","","","","","","","","","","","","","","","","","","","","","","","","","","","","","","","","","","","","","","","","","","","","","","","","","","SYN004BUFR","","","","","","","","","",""
"87470099999","2021-05-25T21:00:00","-32.5","-61.6666666","96.0","EL TREBOL, AR","FM-12","4","","40","48","","","-0.00","2","74","","30.05","29.70","9.32","44","000","","0","","","","","","","","","","","","","","","","","","","","","","","","","","","","","","","","","","","","","","","","","","","","","","","","","","","","","","","","","","","","","","","","","","","","","","","","","","","","","","","","","","","","","","","","","","","SYN06487470 32965 00000 10089 20044 30058 40175 52001 333 10210 20071=","","","","","","","","","",""
"87470099999","2021-05-26T12:00:00","-32.5","-61.6666666","96.0","EL TREBOL, AR","FM-12","4","","48","68","","","0.00","4","49","FEW:01 246","29.97","29.63","9.32","57","320","","6","","","","","","","","","","","","","","","","","","","","","","","","","","","","","","","","","","","","","","","","","","","","","","","","","","","","","","","","","","","","","","","","","","","","","","","","","","","","","","","","","","","","","","","","","","","SYN004BUFR","","","","","","","","","",""
"87470099999","2021-05-26T15:00:00","-32.5","-61.6666666","96.0","EL TREBOL, AR","FM-12","4","","48","74","","","+0.05","7","40","","29.91","29.58","9.32","59","360","","0","","","","","","","","","","","","","","","","","","","","","","","","","","","","","","","","","","","","","","","","","","","","","","","","","","","","","","","","","","","","","","","","","","","","","","","","","","","","","","","","","","","","","","","","","","","SYN004BUFR","","","","","","","","","",""
"87470099999","2021-05-26T21:00:00","-32.5","-61.6666666","96.0","EL TREBOL, AR","FM-12","4","","44","49","","","-0.01","2","84","","29.92","29.58","9.32","47","360","","0","","","","","","","","","","","","","","","","","","","","","","","","","","","","","","","","","","","","","","","","","","","","","","","","","","","","","","","","","","","","","","","","","","","","","","","","","","","","","","","","","","","","","","","","","","","SYN004BUFR","","","","","","","","","",""
"87470099999","2021-05-27T09:00:00","-32.5","-61.6666666","96.0","EL TREBOL, AR","FM-12","4","","46","49","","","+0.02","6","90","","29.92","29.58","9.32","48","000","","0","","","","","","","","","","","","","","","","","","","","","","","","","","","","","","","","","","","","","","","","","","","","","","","","","","","","","","","","","","","","","","","","","","","","","","","","","","","","","","","","","","","","","","","","","","","SYN07087470 31965 00000 10096 20080 30016 40132 56008 702// 333 10133 20072=","","","","","","","","","",""
"87470099999","2021-05-27T15:00:00","-32.5","-61.6666666","96.0","EL TREBOL, AR","FM-12","4","","48","76","","","+0.09","5","38","","29.73","29.40","9.32","60","020","","9","","","","","","","","","","","","","","","","","","","","","","","","","","","","","","","","","","","","","","","","","","","","","","","","","","","","","","","","","","","","","","","","","","","","","","","","","","","","","","","","","","","","","","","","","","","SYN04887470 32965 00208 10242 20090 39956 40067 55032=","","","","","","","","","",""
"87470099999","2021-05-27T21:00:00","-32.5","-61.6666666","96.0","EL TREBOL, AR","FM-12","4","","49","58","","","+0.07","7","72","SCT:04 246","29.62","29.28","9.32","53","020","","6","","","","","","","","","","","","","","","","","","","","","","","","","","","","","","","","","","","","","","","","","","","","","","","","","","","","","","","","","","","","","","","","","","","","","","","","","","","","","","","","","","","","","","","","","","","SYN004BUFR","","","","","","","","","",""
"87470099999","2021-05-28T09:00:00","-32.5","-61.6666666","96.0","EL TREBOL, AR","FM-12","4","","50","52","","","-0.01","2","91","FEW:02 18 SCT:03 89","29.52","29.19","9.32","51","360","","0","","","","","","","","","","","","","","","","","","","","","","","","","","","","","","","","","","","","","","","","","","","","","","","","","","","","","","","","","","","","","","","","","","","","","","","","","","","","","","","","","","","","","","","","","","","SYN004BUFR","","","","","","","","","",""
"87470099999","2021-05-28T12:00:00","-32.5","-61.6666666","96.0","EL TREBOL, AR","FM-12","4","","52","67","","","-0.01","2","58","BKN:05 246","","","9.32","","160","","6","","","","","","","","","","","","","","","","","","","","","","","","","","","","","","","","","","","","","","","","","","","","","","","","","","","","","","","","","","","","","","","","","","","","","","","","","","","","","","","","","","","","","","","","","","","SYN004BUFR","","","","","","","","","",""
"87470099999","2021-05-28T15:00:00","-32.5","-61.6666666","96.0","EL TREBOL, AR","FM-12","4","","46","71","","","0.00","4","40","BKN:05 246","","","9.32","","160","","21","","","","","","","","","","","","","","","","","","","","","","","","","","","","","","","","","","","","","","","","","","","","","","","","","","","","","","","","","","","","","","","","","","","","","","","","","","","","","","","","","","","","","","","","","","","SYN07087470 32965 51618 10219 20077 3//// 4//// 54000 80008 333 56000 85275=","","","","","","","","","",""
"87470099999","2021-05-29T09:00:00","-32.5","-61.6666666","96.0","EL TREBOL, AR","FM-12","4","","41","54","","","-0.09","3","62","BKN:06 89","30.01","29.67","9.32","48","200","","6","","","","","","","","","","","","","","","","","","","","","","","","","","","","","","","","","","","","","","","","","","","","","","","","","","","","","","","","","","","","","","","","","","","","","","","","","","","","","","","","","","","","","","","","","","","SYN08887470 31965 62005 10122 20051 30048 40162 53030 702// 86050 333 10153 20074 56000 86359=","","","","","","","","","",""
"87470099999","2021-05-29T15:00:00","-32.5","-61.6666666","96.0","EL TREBOL, AR","FM-12","4","","35","62","","","-0.01","3","37","FEW:02 89","30.11","29.77","9.32","49","200","","9","","","","","","","","","","","","","","","","","","","","","","","","","","","","","","","","","","","","","","","","","","","","","","","","","","","","","","","","","","","","","","","","","","","","","","","","","","","","","","","","","","","","","","","","","","","SYN07687470 32965 22008 10164 20017 30080 40195 53005 82040 333 56000 57300 82359=","","","","","","","","","",""
"87470099999","2021-05-29T21:00:00","-32.5","-61.6666666","96.0","EL TREBOL, AR","FM-12","4","","34","42","","","-0.04","3","74","","30.12","29.78","9.32","39","000","","0","","","","","","","","","","","","","","","","","","","","","","","","","","","","","","","","","","","","","","","","","","","","","","","","","","","","","","","","","","","","","","","","","","","","","","","","","","","","","","","","","","","","","","","","","","","SYN06487470 32965 00000 10055 20012 30084 40200 53015 333 10170 20055=","","","","","","","","","",""
"87470099999","2021-05-30T09:00:00","-32.5","-61.6666666","96.0","EL TREBOL, AR","FM-12","4","","33","36","","","-0.05","3","87","","30.24","29.89","9.32","35","000","","0","","","","","","","","","","","","","","","","","","","","","","","","","","","","","","","","","","","","","","","","","","","","","","","","","","","","","","","","","","","","","","","","","","","","","","","","","","","","","","","","","","","","","","","","","","","SYN07087470 31965 00000 10023 20004 30121 40240 53018 702// 333 10058 21008=","","","","","","","","","",""
"87470099999","2021-05-30T15:00:00","-32.5","-61.6666666","96.0","EL TREBOL, AR","FM-12","4","","28","66","","","+0.09","6","24","FEW:02 246","30.12","29.78","9.32","49","360","","6","","","","","","","","","","","","","","","","","","","","","","","","","","","","","","","","","","","","","","","","","","","","","","","","","","","","","","","","","","","","","","","","","","","","","","","","","","","","","","","","","","","","","","","","","","","SYN07087470 32965 23605 10190 21023 30084 40200 56032 80004 333 56000 82075=","","","","","","","","","",""
"87470099999","2021-05-30T21:00:00","-32.5","-61.6666666","96.0","EL TREBOL, AR","FM-12","4","","36","51","","","-0.02","3","56","FEW:02 246","30.10","29.75","9.32","44","360","","2","","","","","","","","","","","","","","","","","","","","","","","","","","","","","","","","","","","","","","","","","","","","","","","","","","","","","","","","","","","","","","","","","","","","","","","","","","","","","","","","","","","","","","","","","","","SYN08287470 32965 23602 10104 20020 30076 40193 53007 80004 333 10192 20023 56000 82075=","","","","","","","","","",""
"87470099999","2021-05-31T09:00:00","-32.5","-61.6666666","96.0","EL TREBOL, AR","FM-12","4","","43","50","","","0.00","4","77","","30.06","29.71","9.32","47","320","","6","","","","","","","","","","","","","","","","","","","","","","","","","","","","","","","","","","","","","","","","","","","","","","","","","","","","","","","","","","","","","","","","","","","","","","","","","","","","","","","","","","","","","","","","","","","SYN06487470 32965 03205 10100 20062 30062 40179 54000 333 10112 20060=","","","","","","","","","",""
"87470099999","2021-05-31T15:00:00","-32.5","-61.6666666","96.0","EL TREBOL, AR","FM-12","4","","40","74","","","+0.08","6","30","SCT:04 246","29.96","29.63","9.32","56","340","","9","","","","","","","","","","","","","","","","","","","","","","","","","","","","","","","","","","","","","","","","","","","","","","","","","","","","","","","","","","","","","","","","","","","","","","","","","","","","","","","","","","","","","","","","","","","SYN07087470 32965 43408 10232 20044 30033 40147 56027 80008 333 56009 84275=","","","","","","","","","",""
"87470099999","2021-05-31T18:00:00","-32.5","-61.6666666","96.0","EL TREBOL, AR","FM-12","4","","39","66","","","+0.03","6","37","FEW:02 246","29.94","29.60","9.32","52","340","","6","","","","","","","","","","","","","","","","","","","","","","","","","","","","","","","","","","","","","","","","","","","","","","","","","","","","","","","","","","","","","","","","","","","","","","","","","","","","","","","","","","","","","","","","","","","SYN004BUFR","","","","","","","","","",""
"87470099999","2021-05-31T21:00:00","-32.5","-61.6666666","96.0","EL TREBOL, AR","FM-12","4","","42","56","","","+0.00","6","59","FEW:02 246","29.93","29.59","9.32","49","050","","6","","","","","","","","","","","","","","","","","","","","","","","","","","","","","","","","","","","","","","","","","","","","","","","","","","","","","","","","","","","","","","","","","","","","","","","","","","","","","","","","","","","","","","","","","","","SYN08287470 32965 20505 10134 20054 30022 40137 56001 80008 333 10232 20100 56009 82275=","","","","","","","","","",""
"87470099999","2021-06-01T09:00:00","-32.5","-61.6666666","96.0","EL TREBOL, AR","FM-12","4","","38","46","","","0.00","4","73","SCT:03 89","29.80","29.45","9.32","42","050","","2","","","","","","","","","","","","","","","","","","","","","","","","","","","","","","","","","","","","","","","","","","","","","","","","","","","","","","","","","","","","","","","","","","","","","","","","","","","","","","","","","","","","","","","","","","","SYN08887470 31965 30502 10080 20034 39974 40090 54000 702// 83030 333 10134 20062 56000 83359=","","","","","","","","","",""
"87470099999","2021-06-02T15:00:00","-32.5","-61.6666666","96.0","EL TREBOL, AR","FM-12","4","","52","72","","","+0.02","6","49","FEW:01 20 SCT:03 246","29.97","29.64","9.32","61","230","","9","","","","","","","","","","","","","","","","","","","","","","","","","","","","","","","","","","","","","","","","","","","","","","","","","","","","","","","","","","","","","","","","","","","","","","","","","","","","","","","","","","","","","","","","","","","SYN07687470 32565 42308 10224 20110 30036 40150 56007 81108 333 56000 81820 83275=","","","","","","","","","",""
"87470099999","2021-06-02T21:00:00","-32.5","-61.6666666","96.0","EL TREBOL, AR","FM-12","4","","42","58","","","-0.05","3","56","","30.02","29.68","9.32","50","140","","2","","","","","","","","","","","","","","","","","","","","","","","","","","","","","","","","","","","","","","","","","","","","","","","","","","","","","","","","","","","","","","","","","","","","","","","","","","","","","","","","","","","","","","","","","","","SYN06487470 32965 01402 10142 20054 30050 40166 53017 333 10231 20090=","","","","","","","","","",""
"87470099999","2021-06-03T09:00:00","-32.5","-61.6666666","96.0","EL TREBOL, AR","FM-12","4","","47","52","","","-0.03","3","82","SCT:03 246","29.97","29.63","9.32","49","360","","6","","","","","","","","","","","","","","","","","","","","","","","","","","","","","","","","","","","","","","","","","","","","","","","","","","","","","","","","","","","","","","","","","","","","","","","","","","","","","","","","","","","","","","","","","","","SYN08287470 32965 33605 10111 20081 30033 40148 53010 80004 333 10142 20084 56000 83075=","","","","","","","","","",""
"87470099999","2021-06-03T15:00:00","-32.5","-61.6666666","96.0","EL TREBOL, AR","FM-12","4","","38","75","","","+0.09","5","26","BKN:06 246","29.85","29.52","9.32","56","360","","15","","","","","","","","","","","","","","","","","","","","","","","","","","","","","","","","","","","","","","","","","","","","","","","","","","","","","","","","","","","","","","","","","","","","","","","","","","","","","","","","","","","","","","","","","","","SYN07087470 32965 63613 10240 20033 39996 40109 55032 80005 333 56000 86275=","","","","","","","","","",""
"87470099999","2021-06-03T21:00:00","-32.5","-61.6666666","96.0","EL TREBOL, AR","FM-12","4","","45","61","","","+0.01","6","55","FEW:02 246","29.84","29.50","9.32","53","360","","6","","","","","","","","","","","","","","","","","","","","","","","","","","","","","","","","","","","","","","","","","","","","","","","","","","","","","","","","","","","","","","","","","","","","","","","","","","","","","","","","","","","","","","","","","","","SYN08287470 32965 23605 10162 20070 39990 40104 56003 80005 333 10242 20111 56000 82275=","","","","","","","","","",""
"87470099999","2021-06-04T09:00:00","-32.5","-61.6666666","96.0","EL TREBOL, AR","FM-12","4","","52","55","","","-0.03","2","90","OVC:08 89","29.76","29.43","9.32","53","090","","6","","","","","","","","","","","","","","","","","","","","","","","","","","","","","","","","","","","","","","","","","","","","","","","","","","","","","","","","","","","","","","","","","","","","","","","","","","","","","","","","","","","","","","","","","","","SYN08287470 32965 80905 10130 20113 39965 40078 52010 88010 333 10162 20130 56090 88459=","","","","","","","","","",""
"87470099999","2021-06-04T15:00:00","-32.5","-61.6666666","96.0","EL TREBOL, AR","FM-12","4","","63","81","","","+0.11","5","55","SCT:03 89 SCT:03 246","29.65","29.32","9.32","69","340","","9","","","","","","","","","","","","","","","","","","","","","","","","","","","","","","","","","","","","","","","","","","","","","","","","","","","","","","","","","","","","","","","","","","","","","","","","","","","","","","","","","","","","","","","","","","","SYN07687470 32965 63408 10273 20174 39929 40040 55036 83085 333 56000 83359 83275=","","","","","","","","","",""
"87470099999","2021-06-04T18:00:00","-32.5","-61.6666666","96.0","EL TREBOL, AR","FM-12","4","","63","76","","","-0.06","3","65","SCT:03 89 SCT:04 246","29.71","29.38","9.32","68","340","","6","","","","","","","","","","","","","","","","","","","","","","","","","","","","","","","","","","","","","","","","","","","","","","","","","","","","","","","","","","","","","","","","","","","","","","","","","","","","","","","","","","","","","","","","","","","SYN004BUFR","","","","","","","","","",""
"87470099999","2021-06-04T21:00:00","-32.5","-61.6666666","96.0","EL TREBOL, AR","FM-12","4","","58","69","","","-0.02","3","68","FEW:02 89 SCT:03 246","29.73","29.40","9.32","62","200","","6","","","","","","","","","","","","","","","","","","","","","","","","","","","","","","","","","","","","","","","","","","","","","","","","","","","","","","","","","","","","","","","","","","","","","","","","","","","","","","","","","","","","","","","","","","","SYN08887470 32965 52005 10208 20147 39956 40067 53007 82055 333 10279 20130 56000 82359 83275=","","","","","","","","","",""
"87470099999","2021-06-05T09:00:00","-32.5","-61.6666666","96.0","EL TREBOL, AR","FM-12","4","","54","56","","","-0.13","3","93","BKN:05 89 SCT:03 246","29.91","29.57","9.32","55","180","","9","","","","","","","","","","","","","","","","","","","","","","","","","","","","","","","","","","","","","","","","","","","","","","","","","","","","","","","","","","","","","","","","","","","","","","","","","","","","","","","","","","","","","","","","","","","SYN10687470 01965 81808 10134 20123 30014 40127 53045 69954 702// 85026 333 10208 20134 56000 69952 85559 83275=","","","","","","","","","",""
"87470099999","2021-06-05T15:00:00","-32.5","-61.6666666","96.0","EL TREBOL, AR","FM-12","4","","43","66","","","-0.00","3","42","FEW:01 89","30.00","29.67","9.32","54","160","","15","","","","","","","","","","","","","","","","","","","","","","","","","","","","","","","","","","","","","","","","","","","","","","","","","","","","","","","","","","","","","","","","","","","","","","","","","","","","","","","","","","","","","","","","","","","SYN07687470 32965 11613 10191 20059 30046 40160 53001 81040 333 56000 57300 81359=","","","","","","","","","",""
"87470099999","2021-06-05T21:00:00","-32.5","-61.6666666","96.0","EL TREBOL, AR","FM-12","4","","40","54","","","-0.07","2","58","","30.12","29.78","9.32","47","000","","0","","","","","","","","","","","","","","","","","","","","","","","","","","","","","","","","","","","","","","","","","","","","","","","","","","","","","","","","","","","","","","","","","","","","","","","","","","","","","","","","","","","","","","","","","","","SYN06487470 32965 00000 10123 20042 30084 40199 52024 333 10198 20123=","","","","","","","","","",""
"87470099999","2021-06-06T09:00:00","-32.5","-61.6666666","96.0","EL TREBOL, AR","FM-12","4","","33","42","","","+0.01","6","72","","30.12","29.77","9.32","38","070","","6","","","","","","","","","","","","","","","","","","","","","","","","","","","","","","","","","","","","","","","","","","","","","","","","","","","","","","","","","","","","","","","","","","","","","","","","","","","","","","","","","","","","","","","","","","","SYN07087470 31965 00705 10055 20007 30082 40199 56002 702// 333 10123 20003=","","","","","","","","","",""
"87470099999","2021-06-06T15:00:00","-32.5","-61.6666666","96.0","EL TREBOL, AR","FM-12","4","","31","60","","","+0.05","6","33","BKN:07 89","30.10","29.75","9.32","47","070","","9","","","","","","","","","","","","","","","","","","","","","","","","","","","","","","","","","","","","","","","","","","","","","","","","","","","","","","","","","","","","","","","","","","","","","","","","","","","","","","","","","","","","","","","","","","","SYN07087470 32965 70708 10154 21007 30076 40192 56016 87050 333 56000 87359=","","","","","","","","","",""
"87470099999","2021-06-06T21:00:00","-32.5","-61.6666666","96.0","EL TREBOL, AR","FM-12","4","","38","52","","","-0.01","3","60","FEW:02 246","30.08","29.73","9.32","45","070","","2","","","","","","","","","","","","","","","","","","","","","","","","","","","","","","","","","","","","","","","","","","","","","","","","","","","","","","","","","","","","","","","","","","","","","","","","","","","","","","","","","","","","","","","","","","","SYN08287470 32965 20702 10112 20036 30069 40186 53004 80004 333 10166 20055 56000 82075=","","","","","","","","","",""
"87470099999","2021-06-07T09:00:00","-32.5","-61.6666666","96.0","EL TREBOL, AR","FM-12","4","","39","42","","","-0.01","2","88","SCT:04 246","30.10","29.75","9.32","41","090","","6","","","","","","","","","","","","","","","","","","","","","","","","","","","","","","","","","","","","","","","","","","","","","","","","","","","","","","","","","","","","","","","","","","","","","","","","","","","","","","","","","","","","","","","","","","","SYN08287470 32965 40905 10058 20039 30076 40193 52003 80008 333 10112 20048 56009 84275=","","","","","","","","","",""
"87470099999","2021-06-07T15:00:00","-32.5","-61.6666666","96.0","EL TREBOL, AR","FM-12","4","","51","60","","","+0.03","6","71","BKN:07 20","30.05","29.71","9.32","55","140","","2","","","","","","","","","","","","","","","","","","","","","","","","","","","","","","","","","","","","","","","","","","","","","","","","","","","","","","","","","","","","","","","","","","","","","","","","","","","","","","","","","","","","","","","","","","","SYN07087470 32565 71402 10156 20103 30060 40175 56009 87500 333 56000 87620=","","","","","","","","","",""
"87470099999","2021-06-07T21:00:00","-32.5","-61.6666666","96.0","EL TREBOL, AR","FM-12","4","","51","56","","","-0.04","3","83","OVC:08 20","30.08","29.73","9.32","53","000","","0","","","","","","","","","","","","","","","","","","","","","","","","","","","","","","","","","","","","","","","","","","","","","","","","","","","","","","","","","","","","","","","","","","","","","","","","","","","","","","","","","","","","","","","","","","","SYN08287470 32565 80000 10134 20106 30069 40185 53012 885// 333 10166 20058 56099 88620=","","","","","","","","","",""
"87470099999","2021-06-08T09:00:00","-32.5","-61.6666666","96.0","EL TREBOL, AR","FM-12","4","","45","46","","","-0.01","3","96","BKN:06 20","30.07","29.72","0.62","46","000","","0","","","","","","","","","","","","","","","","","","","","","","","","","","","","","","","","","","","","","","","","","","","","","","","","","","","","","","","","","","","","","","","","","","","","","","","","","","","","","","","","","","","","","","","","","","","SYN08887470 31510 60000 10077 20071 30066 40183 53005 710// 86700 333 10134 20076 56000 86720=","","","","","","","","","",""
"87470099999","2021-06-08T15:00:00","-32.5","-61.6666666","96.0","EL TREBOL, AR","FM-12","4","","53","67","","","+0.07","5","60","SCT:03 20","29.99","29.65","9.32","59","020","","9","","","","","","","","","","","","","","","","","","","","","","","","","","","","","","","","","","","","","","","","","","","","","","","","","","","","","","","","","","","","","","","","","","","","","","","","","","","","","","","","","","","","","","","","","","","SYN07687470 32565 30208 10194 20115 30041 40155 55025 83200 333 56000 57800 83820=","","","","","","","","","",""
"87470099999","2021-06-08T21:00:00","-32.5","-61.6666666","96.0","EL TREBOL, AR","FM-12","4","","53","57","","","-0.04","3","84","","30.02","29.68","9.32","55","000","","0","","","","","","","","","","","","","","","","","","","","","","","","","","","","","","","","","","","","","","","","","","","","","","","","","","","","","","","","","","","","","","","","","","","","","","","","","","","","","","","","","","","","","","","","","","","SYN06487470 32965 00000 10140 20114 30050 40167 53013 333 10202 20077=","","","","","","","","","",""
"87470099999","2021-06-09T09:00:00","-32.5","-61.6666666","96.0","EL TREBOL, AR","FM-12","4","","55","55","","||FG","-0.03","2","100","","30.01","29.67","0.00","55","090","","6","","","","","","","","","","","","","","","","","","","","","","","","","","","","","","","","","","","","","","","","","","","","","","","","","","","","","","","","","","","","","","","","","","","","","","","","","","","","","","","","","","","","","","","","","","","SYN07087470 31/00 90905 10126 20126 30049 40163 52010 74542 333 10145 20105=","","","","","","","","","",""
"87470099999","2021-06-09T15:00:00","-32.5","-61.6666666","96.0","EL TREBOL, AR","FM-12","4","","55","68","","","+0.06","6","64","BKN:06 18","29.93","29.60","9.32","60","020","","2","","","","","","","","","","","","","","","","","","","","","","","","","","","","","","","","","","","","","","","","","","","","","","","","","","","","","","","","","","","","","","","","","","","","","","","","","","","","","","","","","","","","","","","","","","","SYN07087470 32465 60202 10201 20130 30024 40137 56020 86700 333 56000 86718=","","","","","","","","","",""
"87470099999","2021-06-09T21:00:00","-32.5","-61.6666666","96.0","EL TREBOL, AR","FM-12","4","","57","62","","","-0.07","3","84","OVC:08 18","29.98","29.64","9.32","59","000","","0","","","","","","","","","","","","","","","","","","","","","","","","","","","","","","","","","","","","","","","","","","","","","","","","","","","","","","","","","","","","","","","","","","","","","","","","","","","","","","","","","","","","","","","","","","","SYN08287470 32465 80000 10166 20138 30037 40151 53023 887// 333 10213 20126 56099 88718=","","","","","","","","","",""
"87470099999","2021-06-10T09:00:00","-32.5","-61.6666666","96.0","EL TREBOL, AR","FM-12","4","","53","54","","","-0.07","2","97","BKN:05 246","30.11","29.77","9.32","53","230","","6","","","","","","","","","","","","","","","","","","","","","","","","","","","","","","","","","","","","","","","","","","","","","","","","","","","","","","","","","","","","","","","","","","","","","","","","","","","","","","","","","","","","","","","","","","","SYN08287470 32965 52305 10122 20118 30082 40196 52025 80008 333 10166 20112 56009 85275=","","","","","","","","","",""
"87470099999","2021-06-10T15:00:00","-32.5","-61.6666666","96.0","EL TREBOL, AR","FM-12","4","","54","68","","","+0.01","6","61","SCT:03 20","30.14","29.80","9.32","60","180","","9","","","","","","","","","","","","","","","","","","","","","","","","","","","","","","","","","","","","","","","","","","","","","","","","","","","","","","","","","","","","","","","","","","","","","","","","","","","","","","","","","","","","","","","","","","","SYN07687470 32565 51808 10200 20122 30092 40205 56004 83204 333 56000 57800 83820=","","","","","","","","","",""
"87470099999","2021-06-10T21:00:00","-32.5","-61.6666666","96.0","EL TREBOL, AR","FM-12","4","","36","55","","","-0.04","3","50","","30.23","29.88","9.32","46","180","","6","","","","","","","","","","","","","","","","","","","","","","","","","","","","","","","","","","","","","","","","","","","","","","","","","","","","","","","","","","","","","","","","","","","","","","","","","","","","","","","","","","","","","","","","","","","SYN004BUFR","","","","","","","","","",""
"87470099999","2021-06-11T09:00:00","-32.5","-61.6666666","96.0","EL TREBOL, AR","FM-12","4","","32","37","","","-0.01","3","84","SCT:03 246","30.24","29.90","9.32","35","000","","0","","","","","","","","","","","","","","","","","","","","","","","","","","","","","","","","","","","","","","","","","","","","","","","","","","","","","","","","","","","","","","","","","","","","","","","","","","","","","","","","","","","","","","","","","","","SYN08887470 31965 30000 10026 20002 30124 40241 53005 702// 80004 333 10126 20005 56000 83075=","","","","","","","","","",""
"87470099999","2021-06-11T15:00:00","-32.5","-61.6666666","96.0","EL TREBOL, AR","FM-12","4","","35","68s","","","+0.06","6","31","FEW:02 246","30.16","29.83","9.32","52","340","","9","","","","","","","","","","","","","","","","","","","","","","","","","","","","","","","","","","","","","","","","","","","","","","","","","","","","","","","","","","","","","","","","","","","","","","","","","","","","","","","","","","","","","","","","","","","SYN07087470 32965 23408 10198 20019 30100 40215 56019 80004 333 56000 82075=","","","","","","","","","",""
"87470099999","2021-06-11T21:00:00","-32.5","-61.6666666","96.0","EL TREBOL, AR","FM-12","4","","43","51","","","0.00","4","73","","30.11","29.77","9.32","47","000","","0","","","","","","","","","","","","","","","","","","","","","","","","","","","","","","","","","","","","","","","","","","","","","","","","","","","","","","","","","","","","","","","","","","","","","","","","","","","","","","","","","","","","","","","","","","","SYN06487470 32965 00000 10106 20059 30081 40198 54000 333 10201 20026=","","","","","","","","","",""
"87470099999","2021-06-12T09:00:00","-32.5","-61.6666666","96.0","EL TREBOL, AR","FM-12","4","","50","53","","","+0.02","6","92","","30.00","29.66","9.32","51","360","","9","","","","","","","","","","","","","","","","","","","","","","","","","","","","","","","","","","","","","","","","","","","","","","","","","","","","","","","","","","","","","","","","","","","","","","","","","","","","","","","","","","","","","","","","","","","SYN06487470 32965 03608 10114 20102 30044 40159 56007 333 10120 20074=","","","","","","","","","",""
"87470099999","2021-06-12T12:00:00","-32.5","-61.6666666","96.0","EL TREBOL, AR","FM-12","4","","52","67","","","-0.01","3","58","","30.01","29.67","9.32","59","360","","15","","","","","","","","","","","","","","","","","","","","","","","","","","","","","","","","","","","","","","","","","","","","","","","","","","","","","","","","","","","","","","","","","","","","","","","","","","","","","","","","","","","","","","","","","","","SYN004BUFR","","","","","","","","","",""
"87470099999","2021-06-12T15:00:00","-32.5","-61.6666666","96.0","EL TREBOL, AR","FM-12","4","","52","73","","","+0.07","6","49","","29.93","29.60","9.32","61","360","","21","","","","","","","","","","","","","","","","","","","","","","","","","","","","","","","","","","","","","","","","","","","","","","","","","","","","","","","","","","","","","","","","","","","","","","","","","","","","","","","","","","","","","","","","","","","SYN04887470 32965 03618 10226 20113 30024 40136 56025=","","","","","","","","","",""
"87470099999","2021-06-12T21:00:00","-32.5","-61.6666666","96.0","EL TREBOL, AR","FM-12","4","","53","59","","","-0.01","3","81","","29.96","29.62","9.32","56","050","","9","","","","","","","","","","","","","","","","","","","","","","","","","","","","","","","","","","","","","","","","","","","","","","","","","","","","","","","","","","","","","","","","","","","","","","","","","","","","","","","","","","","","","","","","","","","SYN06487470 32965 00508 10150 20117 30030 40145 53004 333 10230 20114=","","","","","","","","","",""
"87470099999","2021-06-13T09:00:00","-32.5","-61.6666666","96.0","EL TREBOL, AR","FM-12","4","","49","53","","","-0.02","1","85","","29.98","29.64","9.32","51","360","","6","","","","","","","","","","","","","","","","","","","","","","","","","","","","","","","","","","","","","","","","","","","","","","","","","","","","","","","","","","","","","","","","","","","","","","","","","","","","","","","","","","","","","","","","","","","SYN06487470 32965 03605 10116 20092 30037 40152 51006 333 10150 20113=","","","","","","","","","",""
"87470099999","2021-06-13T15:00:00","-32.5","-61.6666666","96.0","EL TREBOL, AR","FM-12","4","","47","74","","","+0.06","7","38","","29.91","29.58","9.32","59","360","","9","","","","","","","","","","","","","","","","","","","","","","","","","","","","","","","","","","","","","","","","","","","","","","","","","","","","","","","","","","","","","","","","","","","","","","","","","","","","","","","","","","","","","","","","","","","SYN04887470 32965 03608 10235 20085 30016 40128 57021=","","","","","","","","","",""
"87470099999","2021-06-13T21:00:00","-32.5","-61.6666666","96.0","EL TREBOL, AR","FM-12","4","","49","56","","","-0.04","3","75","","29.93","29.59","9.32","52","050","","6","","","","","","","","","","","","","","","","","","","","","","","","","","","","","","","","","","","","","","","","","","","","","","","","","","","","","","","","","","","","","","","","","","","","","","","","","","","","","","","","","","","","","","","","","","","SYN06487470 32965 00505 10136 20093 30021 40136 53015 333 10237 20116=","","","","","","","","","",""
"87470099999","2021-06-14T09:00:00","-32.5","-61.6666666","96.0","EL TREBOL, AR","FM-12","4","","43","44","","","-0.06","3","94","","30.09","29.74","9.32","44","000","","0","","","","","","","","","","","","","","","","","","","","","","","","","","","","","","","","","","","","","","","","","","","","","","","","","","","","","","","","","","","","","","","","","","","","","","","","","","","","","","","","","","","","","","","","","","","SYN07087470 31965 00000 10068 20059 30072 40188 53022 702// 333 10136 20052=","","","","","","","","","",""
"87470099999","2021-06-14T15:00:00","-32.5","-61.6666666","96.0","EL TREBOL, AR","FM-12","4","","50","65","","","+0.03","6","60","","30.09","29.75","9.32","57","180","","15","","","","","","","","","","","","","","","","","","","","","","","","","","","","","","","","","","","","","","","","","","","","","","","","","","","","","","","","","","","","","","","","","","","","","","","","","","","","","","","","","","","","","","","","","","","SYN04887470 32965 01813 10181 20101 30076 40191 56009=","","","","","","","","","",""
"87470099999","2021-06-14T21:00:00","-32.5","-61.6666666","96.0","EL TREBOL, AR","FM-12","4","","42","54","","","-0.12","3","65","BKN:06 89","30.28","29.93","9.32","48","180","","9","","","","","","","","","","","","","","","","","","","","","","","","","","","","","","","","","","","","","","","","","","","","","","","","","","","","","","","","","","","","","","","","","","","","","","","","","","","","","","","","","","","","","","","","","","","SYN004BUFR","","","","","","","","","",""
"87470099999","2021-06-15T09:00:00","-32.5","-61.6666666","96.0","EL TREBOL, AR","FM-12","4","","34","41","","","-0.05","3","76","FEW:02 89","30.41","30.06","9.32","38","180","","6","","","","","","","","","","","","","","","","","","","","","","","","","","","","","","","","","","","","","","","","","","","","","","","","","","","","","","","","","","","","","","","","","","","","","","","","","","","","","","","","","","","","","","","","","","","SYN08887470 31965 21805 10052 20012 30178 40297 53017 702// 82030 333 10121 20052 56000 82359=","","","","","","","","","",""
"87470099999","2021-06-15T15:00:00","-32.5","-61.6666666","96.0","EL TREBOL, AR","FM-12","4","","29","54","","","+0.04","6","39","FEW:02 89","30.37","30.03","9.32","43","160","","9","","","","","","","","","","","","","","","","","","","","","","","","","","","","","","","","","","","","","","","","","","","","","","","","","","","","","","","","","","","","","","","","","","","","","","","","","","","","","","","","","","","","","","","","","","","SYN07087470 32965 21608 10121 21017 30168 40285 56015 82060 333 56000 82359=","","","","","","","","","",""
"87470099999","2021-06-15T21:00:00","-32.5","-61.6666666","96.0","EL TREBOL, AR","FM-12","4","","34","49","","","-0.02","3","57","BKN:07 89","30.40","30.05","9.32","42","180","","6","","","","","","","","","","","","","","","","","","","","","","","","","","","","","","","","","","","","","","","","","","","","","","","","","","","","","","","","","","","","","","","","","","","","","","","","","","","","","","","","","","","","","","","","","","","SYN08287470 32965 71805 10094 20012 30176 40294 53007 87050 333 10123 20052 56090 87359=","","","","","","","","","",""
"87470099999","2021-06-16T09:00:00","-32.5","-61.6666666","96.0","EL TREBOL, AR","FM-12","4","","33","41","","","-0.04","3","72","OVC:08 89","30.44","30.09","9.32","38","000","","0","","","","","","","","","","","","","","","","","","","","","","","","","","","","","","","","","","","","","","","","","","","","","","","","","","","","","","","","","","","","","","","","","","","","","","","","","","","","","","","","","","","","","","","","","","","SYN08887470 31965 80000 10052 20006 30190 40309 53015 702// 8805/ 333 10094 20052 56009 88359=","","","","","","","","","",""
"87470099999","2021-06-16T15:00:00","-32.5","-61.6666666","96.0","EL TREBOL, AR","FM-12","4","","35","45","","","+0.04","6","68","OVC:08 89","30.40","30.05","9.32","41","200","","6","","","","","","","","","","","","","","","","","","","","","","","","","","","","","","","","","","","","","","","","","","","","","","","","","","","","","","","","","","","","","","","","","","","","","","","","","","","","","","","","","","","","","","","","","","","SYN07087470 32965 82005 10072 20016 30177 40296 56015 8805/ 333 56009 88359=","","","","","","","","","",""
"87470099999","2021-06-16T21:00:00","-32.5","-61.6666666","96.0","EL TREBOL, AR","FM-12","4","","38","42","","","-0.00","3","87","FEW:02 20 BKN:06 89","30.43","30.08","9.32","40","200","","6","","","","","","","","","","","","","","","","","","","","","","","","","","","","","","","","","","","","","","","","","","","","","","","","","","","","","","","","","","","","","","","","","","","","","","","","","","","","","","","","","","","","","","","","","","","SYN004BUFR","","","","","","","","","",""
"87470099999","2021-06-17T09:00:00","-32.5","-61.6666666","96.0","EL TREBOL, AR","FM-12","4","","39","41","","","-0.01","3","94","OVC:08 89","30.42","30.07","9.32","40","180","","2","","","","","","","","","","","","","","","","","","","","","","","","","","","","","","","","","","","","","","","","","","","","","","","","","","","","","","","","","","","","","","","","","","","","","","","","","","","","","","","","","","","","","","","","","","","SYN08887470 31965 81802 10048 20039 30182 40302 53005 702// 8805/ 333 10056 20040 56009 88359=","","","","","","","","","",""
"87470099999","2021-06-17T15:00:00","-32.5","-61.6666666","96.0","EL TREBOL, AR","FM-12","4","","35","51","","","+0.07","6","54","BKN:05 20","30.35","30.00","9.32","44","110","","2","","","","","","","","","","","","","","","","","","","","","","","","","","","","","","","","","","","","","","","","","","","","","","","","","","","","","","","","","","","","","","","","","","","","","","","","","","","","","","","","","","","","","","","","","","","SYN07687470 32565 51102 10104 20014 30158 40276 56023 85200 333 56000 57800 85820=","","","","","","","","","",""
"87470099999","2021-06-17T21:00:00","-32.5","-61.6666666","96.0","EL TREBOL, AR","FM-12","4","","30","36","","","-0.04","1","80","","30.37","30.02","9.32","34","180","","6","","","","","","","","","","","","","","","","","","","","","","","","","","","","","","","","","","","","","","","","","","","","","","","","","","","","","","","","","","","","","","","","","","","","","","","","","","","","","","","","","","","","","","","","","","","SYN06487470 32965 01805 10020 21011 30165 40286 51012 333 10121 20020=","","","","","","","","","",""
"87470099999","2021-06-22T09:00:00","-32.5","-61.6666666","96.0","EL TREBOL, AR","FM-12","4","","48","49","","||FG","","","99","","","","0.12","","020","","2","","","","","","","","","","","","","","","","","","","","","","","","","","","","","","","","","","","","","","","","","","","","","","","","","","","","","","","","","","","","","","","","","","","","","","","","","","","","","","","","","","","","","","","","","","","SYN07087470 31/02 90202 10093 20091 3//// 4//// 5//// 74542 333 1//// 2////=","","","","","","","","","",""
"87470099999","2021-06-22T18:00:00","-32.5","-61.6666666","96.0","EL TREBOL, AR","FM-12","4","","48","59","","","+0.04","6","66","","","","9.32","","070","","6","","","","","","","","","","","","","","","","","","","","","","","","","","","","","","","","","","","","","","","","","","","","","","","","","","","","","","","","","","","","","","","","","","","","","","","","","","","","","","","","","","","","","","","","","","","SYN004BUFR","","","","","","","","","",""
"87470099999","2021-06-22T21:00:00","-32.5","-61.6666666","96.0","EL TREBOL, AR","FM-12","4","","46","51","","","+0.01","6","83","BKN:06 20","30.03","29.68","9.32","48","090","","2","","","","","","","","","","","","","","","","","","","","","","","","","","","","","","","","","","","","","","","","","","","","","","","","","","","","","","","","","","","","","","","","","","","","","","","","","","","","","","","","","","","","","","","","","","","SYN004BUFR","","","","","","","","","",""
"87470099999","2021-06-23T09:00:00","-32.5","-61.6666666","96.0","EL TREBOL, AR","FM-12","4","","53","54","","","0.00","4","96","OVC:08 17","29.91","29.57","9.32","53","050","","6","","","","","","","","","","","","","","","","","","","","","","","","","","","","","","","","","","","","","","","","","","","","","","","","","","","","","","","","","","","","","","","","","","","","","","","","","","","","","","","","","","","","","","","","","","","SYN08887470 31465 80505 10123 20117 30014 40130 54000 702// 887// 333 10123 20104 56099 88717=","","","","","","","","","",""
"87470099999","2021-06-23T15:00:00","-32.5","-61.6666666","96.0","EL TREBOL, AR","FM-12","4","","52","62","","","+0.07","6","69","OVC:08 18","29.83","29.49","9.32","56","050","","6","","","","","","","","","","","","","","","","","","","","","","","","","","","","","","","","","","","","","","","","","","","","","","","","","","","","","","","","","","","","","","","","","","","","","","","","","","","","","","","","","","","","","","","","","","","SYN07087470 32465 80505 10166 20109 39986 40100 56025 887// 333 56099 88718=","","","","","","","","","",""
"87470099999","2021-06-23T21:00:00","-32.5","-61.6666666","96.0","EL TREBOL, AR","FM-12","4","","51","54","","","-0.02","1","89","BKN:06 20","29.84","29.51","9.32","52","360","","0","","","","","","","","","","","","","","","","","","","","","","","","","","","","","","","","","","","","","","","","","","","","","","","","","","","","","","","","","","","","","","","","","","","","","","","","","","","","","","","","","","","","","","","","","","","SYN004BUFR","","","","","","","","","",""
"87470099999","2021-06-24T09:00:00","-32.5","-61.6666666","96.0","EL TREBOL, AR","FM-12","4","","50","50","","||DZ","-0.06","2","100","OVC:08 18","29.90","29.56","3.11","50","230","","6","","","","","","","","","","","","","","","","","","","","","","","","","","","","","","","","","","","","","","","","","","","","","","","","","","","","","","","","","","","","","","","","","","","","","","","","","","","","","","","","","","","","","","","","","","","SYN08887470 31450 82305 10098 20098 30010 40126 52020 75052 88700 333 10122 20085 56900 88718=","","","","","","","","","",""
"87470099999","2021-06-24T12:00:00","-32.5","-61.6666666","96.0","EL TREBOL, AR","FM-12","4","","49","55","","","-0.05","2","79","BKN:05 18","29.95","29.61","9.32","52","230","","6","","","","","","","","","","","","","","","","","","","","","","","","","","","","","","","","","","","","","","","","","","","","","","","","","","","","","","","","","","","","","","","","","","","","","","","","","","","","","","","","","","","","","","","","","","","SYN004BUFR","","","","","","","","","",""
"87470099999","2021-06-24T15:00:00","-32.5","-61.6666666","96.0","EL TREBOL, AR","FM-12","4","","49","60","","","+0.04","6","68","FEW:02 246","29.91","29.58","9.32","54","200","","6","","","","","","","","","","","","","","","","","","","","","","","","","","","","","","","","","","","","","","","","","","","","","","","","","","","","","","","","","","","","","","","","","","","","","","","","","","","","","","","","","","","","","","","","","","","SYN07087470 32965 22005 10154 20095 30016 40130 56012 80004 333 56000 82075=","","","","","","","","","",""
"87470099999","2021-06-24T21:00:00","-32.5","-61.6666666","96.0","EL TREBOL, AR","FM-12","4","","38","42","","","-0.06","1","86","","29.97","29.62","9.32","40","000","","0","","","","","","","","","","","","","","","","","","","","","","","","","","","","","","","","","","","","","","","","","","","","","","","","","","","","","","","","","","","","","","","","","","","","","","","","","","","","","","","","","","","","","","","","","","","SYN06487470 32965 00000 10054 20032 30032 40148 51019 333 10169 20054=","","","","","","","","","",""
"87470099999","2021-06-25T09:00:00","-32.5","-61.6666666","96.0","EL TREBOL, AR","FM-12","4","","38","39","","||FG","0.00","4","97","","29.94","29.59","0.00","39","360","","0","","","","","","","","","","","","","","","","","","","","","","","","","","","","","","","","","","","","","","","","","","","","","","","","","","","","","","","","","","","","","","","","","","","","","","","","","","","","","","","","","","","","","","","","","","","SYN004BUFR","","","","","","","","","",""
"87470099999","2021-06-25T12:00:00","-32.5","-61.6666666","96.0","EL TREBOL, AR","FM-12","4","","45","61s","","","+0.04","7","57","BKN:05 246","29.89","29.55","9.32","53","360","","9","","","","","","","","","","","","","","","","","","","","","","","","","","","","","","","","","","","","","","","","","","","","","","","","","","","","","","","","","","","","","","","","","","","","","","","","","","","","","","","","","","","","","","","","","","","SYN004BUFR","","","","","","","","","",""
"87470099999","2021-06-25T15:00:00","-32.5","-61.6666666","96.0","EL TREBOL, AR","FM-12","4","","44","64","","","+0.01","6","48","BKN:05 246","29.87","29.53","9.32","54","020","","9","","","","","","","","","","","","","","","","","","","","","","","","","","","","","","","","","","","","","","","","","","","","","","","","","","","","","","","","","","","","","","","","","","","","","","","","","","","","","","","","","","","","","","","","","","","SYN07087470 32965 50208 10180 20069 30001 40115 56005 80004 333 56000 85075=","","","","","","","","","",""
"87470099999","2021-06-25T21:00:00","-32.5","-61.6666666","96.0","EL TREBOL, AR","FM-12","4","","49","51","","","-0.01","1","95","FEW:02 20 SCT:03 89","29.87","29.53","9.32","50","050","","2","","","","","","","","","","","","","","","","","","","","","","","","","","","","","","","","","","","","","","","","","","","","","","","","","","","","","","","","","","","","","","","","","","","","","","","","","","","","","","","","","","","","","","","","","","","SYN09487470 32565 50502 10104 20096 30000 40116 51004 82250 333 10185 20041 56990 57899 82820 83359=","","","","","","","","","",""
"87470099999","2021-06-26T09:00:00","-32.5","-61.6666666","96.0","EL TREBOL, AR","FM-12","4","","42","47","","","-0.09","3","83","OVC:08 89","29.98","29.64","9.32","45","180","","15","","","","","","","","","","","","","","","","","","","","","","","","","","","","","","","","","","","","","","","","","","","","","","","","","","","","","","","","","","","","","","","","","","","","","","","","","","","","","","","","","","","","","","","","","","","SYN10087470 01965 81813 10085 20057 30037 40152 53030 69904 702// 8805/ 333 10110 20085 56009 69902 88359=","","","","","","","","","",""
"87470099999","2021-06-26T15:00:00","-32.5","-61.6666666","96.0","EL TREBOL, AR","FM-12","4","","38","54","","","+0.04","6","55","BKN:05 20","30.04","29.70","9.32","46","230","","15","","","","","","","","","","","","","","","","","","","","","","","","","","","","","","","","","","","","","","","","","","","","","","","","","","","","","","","","","","","","","","","","","","","","","","","","","","","","","","","","","","","","","","","","","","","SYN07687470 32565 52313 10124 20035 30057 40173 56012 85200 333 56000 57800 85820=","","","","","","","","","",""
"87470099999","2021-06-26T21:00:00","-32.5","-61.6666666","96.0","EL TREBOL, AR","FM-12","4","","36","43","","","-0.06","2","75","","30.14","29.79","9.32","40","230","","2","","","","","","","","","","","","","","","","","","","","","","","","","","","","","","","","","","","","","","","","","","","","","","","","","","","","","","","","","","","","","","","","","","","","","","","","","","","","","","","","","","","","","","","","","","","SYN004BUFR","","","","","","","","","",""
"87470099999","2021-06-27T09:00:00","-32.5","-61.6666666","96.0","EL TREBOL, AR","FM-12","4","","27","32","","","-0.04","3","82","","30.26","29.91","9.32","30","230","","6","","","","","","","","","","","","","","","","","","","","","","","","","","","","","","","","","","","","","","","","","","","","","","","","","","","","","","","","","","","","","","","","","","","","","","","","","","","","","","","","","","","","","","","","","","","SYN07087470 31965 02305 11001 21028 30128 40248 53013 702// 333 10062 21016=","","","","","","","","","",""
"87470099999","2021-06-27T15:00:00","-32.5","-61.6666666","96.0","EL TREBOL, AR","FM-12","4","","25","49","","","+0.01","6","38","SCT:04 21","30.24","29.89","9.32","39","230","","15","","","","","","","","","","","","","","","","","","","","","","","","","","","","","","","","","","","","","","","","","","","","","","","","","","","","","","","","","","","","","","","","","","","","","","","","","","","","","","","","","","","","","","","","","","","SYN07087470 32565 42313 10096 21040 30121 40239 56005 84400 333 56000 84621=","","","","","","","","","",""
"87470099999","2021-06-27T21:00:00","-32.5","-61.6666666","96.0","EL TREBOL, AR","FM-12","4","","29","33","","","-0.05","3","85","","30.32","29.96","9.32","31","270","","2","","","","","","","","","","","","","","","","","","","","","","","","","","","","","","","","","","","","","","","","","","","","","","","","","","","","","","","","","","","","","","","","","","","","","","","","","","","","","","","","","","","","","","","","","","","SYN06487470 32965 02702 10006 21017 30145 40267 53016 333 10110 21001=","","","","","","","","","",""
"87470099999","2021-06-28T09:00:00","-32.5","-61.6666666","96.0","EL TREBOL, AR","FM-12","4","","35","39","","","-0.04","2","84","OVC:08 18","30.35","30.00","9.32","37","200","","9","","","","","","","","","","","","","","","","","","","","","","","","","","","","","","","","","","","","","","","","","","","","","","","","","","","","","","","","","","","","","","","","","","","","","","","","","","","","","","","","","","","","","","","","","","","SYN08287470 32465 82008 10040 20015 30158 40279 52015 88500 333 10040 21005 56900 88618=","","","","","","","","","",""
"87470099999","2021-06-28T15:00:00","-32.5","-61.6666666","96.0","EL TREBOL, AR","FM-12","4","","31","50","","","+0.02","6","47","FEW:02 20","30.35","30.00","9.32","42","200","","15","","","","","","","","","","","","","","","","","","","","","","","","","","","","","","","","","","","","","","","","","","","","","","","","","","","","","","","","","","","","","","","","","","","","","","","","","","","","","","","","","","","","","","","","","","","SYN07087470 32565 22013 10101 21007 30158 40277 56007 82500 333 56000 82620=","","","","","","","","","",""
"87470099999","2021-06-28T21:00:00","-32.5","-61.6666666","96.0","EL TREBOL, AR","FM-12","4","","26","30","","","-0.02","3","83","","30.37","30.02","9.32","29","000","","0","","","","","","","","","","","","","","","","","","","","","","","","","","","","","","","","","","","","","","","","","","","","","","","","","","","","","","","","","","","","","","","","","","","","","","","","","","","","","","","","","","","","","","","","","","","SYN06487470 32965 00000 11010 21035 30165 40285 53007 333 10103 21010=","","","","","","","","","",""
"87470099999","2021-06-29T09:00:00","-32.5","-61.6666666","96.0","EL TREBOL, AR","FM-12","4","","23","27","","","-0.03","2","86","","30.43","30.07","9.32","26","230","","2","","","","","","","","","","","","","","","","","","","","","","","","","","","","","","","","","","","","","","","","","","","","","","","","","","","","","","","","","","","","","","","","","","","","","","","","","","","","","","","","","","","","","","","","","","","SYN06487470 32965 02302 11030 21050 30184 40306 52010 333 11010 21055=","","","","","","","","","",""
"87470099999","2021-06-29T12:00:00","-32.5","-61.6666666","96.0","EL TREBOL, AR","FM-12","4","","33","49s","","","+0.03","7","54","","30.40","30.04","9.32","42","230","","6","","","","","","","","","","","","","","","","","","","","","","","","","","","","","","","","","","","","","","","","","","","","","","","","","","","","","","","","","","","","","","","","","","","","","","","","","","","","","","","","","","","","","","","","","","","SYN004BUFR","","","","","","","","","",""
"87470099999","2021-06-29T15:00:00","-32.5","-61.6666666","96.0","EL TREBOL, AR","FM-12","4","","29","52","","","+0.02","6","41","","30.37","30.02","9.32","42","230","","6","","","","","","","","","","","","","","","","","","","","","","","","","","","","","","","","","","","","","","","","","","","","","","","","","","","","","","","","","","","","","","","","","","","","","","","","","","","","","","","","","","","","","","","","","","","SYN04887470 32965 02305 10111 21019 30165 40284 56008=","","","","","","","","","",""
"87470099999","2021-06-29T21:00:00","-32.5","-61.6666666","96.0","EL TREBOL, AR","FM-12","4","","25","33","","","-0.01","3","73","","30.35","29.99","9.32","30","000","","0","","","","","","","","","","","","","","","","","","","","","","","","","","","","","","","","","","","","","","","","","","","","","","","","","","","","","","","","","","","","","","","","","","","","","","","","","","","","","","","","","","","","","","","","","","","SYN06487470 32965 00000 10005 21038 30157 40279 53004 333 10126 21030=","","","","","","","","","",""
"87470099999","2021-06-30T09:00:00","-32.5","-61.6666666","96.0","EL TREBOL, AR","FM-12","4","","28","34","","","-0.01","2","78","SCT:04 246","30.31","29.95","9.32","32","360","","6","","","","","","","","","","","","","","","","","","","","","","","","","","","","","","","","","","","","","","","","","","","","","","","","","","","","","","","","","","","","","","","","","","","","","","","","","","","","","","","","","","","","","","","","","","","SYN004BUFR","","","","","","","","","",""
"87470099999","2021-06-30T12:00:00","-32.5","-61.6666666","96.0","EL TREBOL, AR","FM-12","4","","29","55s","","","+0.09","7","37","SCT:04 246","30.20","29.85","9.32","44","050","","15","","","","","","","","","","","","","","","","","","","","","","","","","","","","","","","","","","","","","","","","","","","","","","","","","","","","","","","","","","","","","","","","","","","","","","","","","","","","","","","","","","","","","","","","","","","SYN004BUFR","","","","","","","","","",""
"87470099999","2021-06-30T15:00:00","-32.5","-61.6666666","96.0","EL TREBOL, AR","FM-12","4","","27","57","","","+0.04","6","32","BKN:07 246","30.16","29.82","9.32","44","050","","15","","","","","","","","","","","","","","","","","","","","","","","","","","","","","","","","","","","","","","","","","","","","","","","","","","","","","","","","","","","","","","","","","","","","","","","","","","","","","","","","","","","","","","","","","","","SYN07087470 32965 70513 10137 21027 30097 40214 56013 80005 333 56000 87275=","","","","","","","","","",""
"87470099999","2021-06-30T21:00:00","-32.5","-61.6666666","96.0","EL TREBOL, AR","FM-12","4","","38","44","","","-0.01","3","81","BKN:06 246","30.15","29.80","9.32","41","050","","6","","","","","","","","","","","","","","","","","","","","","","","","","","","","","","","","","","","","","","","","","","","","","","","","","","","","","","","","","","","","","","","","","","","","","","","","","","","","","","","","","","","","","","","","","","","SYN08287470 32965 60505 10065 20034 30090 40209 53005 80005 333 10142 20012 56000 86275=","","","","","","","","","",""
"87470099999","2021-07-01T09:00:00","-32.5","-61.6666666","96.0","EL TREBOL, AR","FM-12","4","","35","36","","","0.00","4","97","","30.12","29.77","9.32","36","050","","6","","","","","","","","","","","","","","","","","","","","","","","","","","","","","","","","","","","","","","","","","","","","","","","","","","","","","","","","","","","","","","","","","","","","","","","","","","","","","","","","","","","","","","","","","","","SYN06487470 32965 00505 10023 20018 30080 40199 54000 333 10065 20010=","","","","","","","","","",""
"87470099999","2021-07-01T15:00:00","-32.5","-61.6666666","96.0","EL TREBOL, AR","FM-12","4","","32","63","","","+0.09","5","32","","29.99","29.65","9.32","49","020","","9","","","","","","","","","","","","","","","","","","","","","","","","","","","","","","","","","","","","","","","","","","","","","","","","","","","","","","","","","","","","","","","","","","","","","","","","","","","","","","","","","","","","","","","","","","","SYN004BUFR","","","","","","","","","",""
"87470099999","2021-07-01T21:00:00","-32.5","-61.6666666","96.0","EL TREBOL, AR","FM-12","4","","38","47","","","-0.04","3","70","","30.01","29.65","9.32","43","020","","2","","","","","","","","","","","","","","","","","","","","","","","","","","","","","","","","","","","","","","","","","","","","","","","","","","","","","","","","","","","","","","","","","","","","","","","","","","","","","","","","","","","","","","","","","","","SYN06487470 32965 00202 10086 20033 30042 40161 53013 333 10176 20023=","","","","","","","","","",""
"87470099999","2021-07-02T09:00:00","-32.5","-61.6666666","96.0","EL TREBOL, AR","FM-12","4","","33","34","","","-0.06","2","97","","30.24","29.90","9.32","34","000","","0","","","","","","","","","","","","","","","","","","","","","","","","","","","","","","","","","","","","","","","","","","","","","","","","","","","","","","","","","","","","","","","","","","","","","","","","","","","","","","","","","","","","","","","","","","","SYN06487470 32965 00000 10013 20008 30124 40242 52020 333 10087 21005=","","","","","","","","","",""
"87470099999","2021-07-02T15:00:00","-32.5","-61.6666666","96.0","EL TREBOL, AR","FM-12","4","","35","63","","","+0.06","6","35","FEW:01 246","30.21","29.87","9.32","50","230","","6","","","","","","","","","","","","","","","","","","","","","","","","","","","","","","","","","","","","","","","","","","","","","","","","","","","","","","","","","","","","","","","","","","","","","","","","","","","","","","","","","","","","","","","","","","","SYN07087470 32965 12305 10172 20017 30116 40231 56019 80008 333 56000 81275=","","","","","","","","","",""
"87470099999","2021-07-02T21:00:00","-32.5","-61.6666666","96.0","EL TREBOL, AR","FM-12","4","","29","40","","","-0.05","3","66","","30.27","29.91","9.32","36","230","","2","","","","","","","","","","","","","","","","","","","","","","","","","","","","","","","","","","","","","","","","","","","","","","","","","","","","","","","","","","","","","","","","","","","","","","","","","","","","","","","","","","","","","","","","","","","SYN06487470 32965 02302 10042 21016 30130 40251 53016 333 10179 20013=","","","","","","","","","",""
"87470099999","2021-07-03T09:00:00","-32.5","-61.6666666","96.0","EL TREBOL, AR","FM-12","4","","24","28","","","0.00","4","85","BKN:06 246","30.34","29.98","9.32","27","230","","2","","","","","","","","","","","","","","","","","","","","","","","","","","","","","","","","","","","","","","","","","","","","","","","","","","","","","","","","","","","","","","","","","","","","","","","","","","","","","","","","","","","","","","","","","","","SYN08287470 32965 62302 11022 21044 30153 40275 54000 80008 333 10042 21055 56009 86275=","","","","","","","","","",""
"87470099999","2021-07-04T09:00:00","-32.5","-61.6666666","96.0","EL TREBOL, AR","FM-12","4","","37","41","","","-0.03","2","85","BKN:06 246","30.10","29.76","9.32","39","050","","6","","","","","","","","","","","","","","","","","","","","","","","","","","","","","","","","","","","","","","","","","","","","","","","","","","","","","","","","","","","","","","","","","","","","","","","","","","","","","","","","","","","","","","","","","","","SYN08287470 32965 60505 10052 20028 30077 40194 52010 80008 333 10088 20040 56009 86275=","","","","","","","","","",""
"87470099999","2021-07-04T21:00:00","-32.5","-61.6666666","96.0","EL TREBOL, AR","FM-12","4","","40","49","","","-0.06","2","73","","30.13","29.78","9.32","45","090","","6","","","","","","","","","","","","","","","","","","","","","","","","","","","","","","","","","","","","","","","","","","","","","","","","","","","","","","","","","","","","","","","","","","","","","","","","","","","","","","","","","","","","","","","","","","","SYN06487470 32965 00905 10092 20045 30085 40203 52021 333 10191 20052=","","","","","","","","","",""
"87470099999","2021-07-05T09:00:00","-32.5","-61.6666666","96.0","EL TREBOL, AR","FM-12","4","","33","34","","","-0.03","2","97","FEW:01 246","30.24","29.89","9.32","34","000","","0","","","","","","","","","","","","","","","","","","","","","","","","","","","","","","","","","","","","","","","","","","","","","","","","","","","","","","","","","","","","","","","","","","","","","","","","","","","","","","","","","","","","","","","","","","","SYN08887470 31965 10000 10012 20007 30122 40242 52010 702// 80008 333 10092 20005 56009 81275=","","","","","","","","","",""
"87470099999","2021-07-05T15:00:00","-32.5","-61.6666666","96.0","EL TREBOL, AR","FM-12","4","","42","68s","","","+0.07","6","39","","30.14","29.79","9.32","54","020","","2","","","","","","","","","","","","","","","","","","","","","","","","","","","","","","","","","","","","","","","","","","","","","","","","","","","","","","","","","","","","","","","","","","","","","","","","","","","","","","","","","","","","","","","","","","","SYN04887470 32965 00202 10201 20055 30089 40205 56023=","","","","","","","","","",""
"87470099999","2021-07-05T21:00:00","-32.5","-61.6666666","96.0","EL TREBOL, AR","FM-12","4","","39","53","","","0.00","4","60","","30.13","29.78","9.32","46","090","","2","","","","","","","","","","","","","","","","","","","","","","","","","","","","","","","","","","","","","","","","","","","","","","","","","","","","","","","","","","","","","","","","","","","","","","","","","","","","","","","","","","","","","","","","","","","SYN06487470 32965 00902 10116 20041 30086 40204 54000 333 10209 20012=","","","","","","","","","",""
"87470099999","2021-07-06T09:00:00","-32.5","-61.6666666","96.0","EL TREBOL, AR","FM-12","4","","42","44","","","-0.01","2","94","FEW:01 89","30.03","29.69","6.21","43","090","","6","","","","","","","","","","","","","","","","","","","","","","","","","","","","","","","","","","","","","","","","","","","","","","","","","","","","","","","","","","","","","","","","","","","","","","","","","","","","","","","","","","","","","","","","","","","SYN08287470 32960 10905 10066 20057 30053 40170 52005 81030 333 10122 20055 56090 81359=","","","","","","","","","",""
"87470099999","2021-07-06T15:00:00","-32.5","-61.6666666","96.0","EL TREBOL, AR","FM-12","4","","53","74","","","+0.08","5","47","SCT:03 89","29.88","29.54","9.32","62","020","","9","","","","","","","","","","","","","","","","","","","","","","","","","","","","","","","","","","","","","","","","","","","","","","","","","","","","","","","","","","","","","","","","","","","","","","","","","","","","","","","","","","","","","","","","","","","SYN07087470 32965 30208 10234 20114 30004 40117 55027 83030 333 56000 83359=","","","","","","","","","",""
"87470099999","2021-07-06T21:00:00","-32.5","-61.6666666","96.0","EL TREBOL, AR","FM-12","4","","53","61","","","-0.06","1","76","FEW:01 20","29.89","29.55","9.32","57","090","","2","","","","","","","","","","","","","","","","","","","","","","","","","","","","","","","","","","","","","","","","","","","","","","","","","","","","","","","","","","","","","","","","","","","","","","","","","","","","","","","","","","","","","","","","","","","SYN08887470 32565 20902 10160 20118 30006 40122 51021 81540 333 10245 20066 56990 57399 81620=","","","","","","","","","",""
"87470099999","2021-07-07T09:00:00","-32.5","-61.6666666","96.0","EL TREBOL, AR","FM-12","4","","54","57","","","-0.05","3","92","SCT:04 20","30.00","29.67","9.32","55","000","","0","","","","","","","","","","","","","","","","","","","","","","","","","","","","","","","","","","","","","","","","","","","","","","","","","","","","","","","","","","","","","","","","","","","","","","","","","","","","","","","","","","","","","","","","","","","SYN10687470 01565 60000 10138 20125 30046 40160 53017 69954 702// 84280 333 10168 20084 56000 57800 69952 84820=","","","","","","","","","",""
"87470099999","2021-07-07T15:00:00","-32.5","-61.6666666","96.0","EL TREBOL, AR","FM-12","4","","54","74","","","+0.06","6","50","","29.94","29.61","9.32","62","050","","6","","","","","","","","","","","","","","","","","","","","","","","","","","","","","","","","","","","","","","","","","","","","","","","","","","","","","","","","","","","","","","","","","","","","","","","","","","","","","","","","","","","","","","","","","","","SYN04887470 32965 00505 10234 20123 30028 40139 56019=","","","","","","","","","",""
"87470099999","2021-07-07T21:00:00","-32.5","-61.6666666","96.0","EL TREBOL, AR","FM-12","4","","48","53","","","-0.04","1","84","","29.96","29.62","9.32","50","000","","0","","","","","","","","","","","","","","","","","","","","","","","","","","","","","","","","","","","","","","","","","","","","","","","","","","","","","","","","","","","","","","","","","","","","","","","","","","","","","","","","","","","","","","","","","","","SYN06487470 32965 00000 10115 20089 30030 40145 51012 333 10237 20115=","","","","","","","","","",""
"87470099999","2021-07-08T09:00:00","-32.5","-61.6666666","96.0","EL TREBOL, AR","FM-12","4","","44","44","","||FG","-0.03","2","100","","29.98","29.63","0.00","44","000","","0","","","","","","","","","","","","","","","","","","","","","","","","","","","","","","","","","","","","","","","","","","","","","","","","","","","","","","","","","","","","","","","","","","","","","","","","","","","","","","","","","","","","","","","","","","","SYN07087470 31/00 90000 10066 20066 30034 40151 52010 74540 333 10115 20060=","","","","","","","","","",""
"87470099999","2021-07-08T15:00:00","-32.5","-61.6666666","96.0","EL TREBOL, AR","FM-12","4","","56","69","","","+0.06","6","64","","29.92","29.58","9.32","61","360","","9","","","","","","","","","","","","","","","","","","","","","","","","","","","","","","","","","","","","","","","","","","","","","","","","","","","","","","","","","","","","","","","","","","","","","","","","","","","","","","","","","","","","","","","","","","","SYN04887470 32965 03608 10203 20132 30018 40131 56020=","","","","","","","","","",""
"87470099999","2021-07-08T21:00:00","-32.5","-61.6666666","96.0","EL TREBOL, AR","FM-12","4","","55","62","","","-0.20","1","77","","30.07","29.73","9.32","58","090","","2","","","","","","","","","","","","","","","","","","","","","","","","","","","","","","","","","","","","","","","","","","","","","","","","","","","","","","","","","","","","","","","","","","","","","","","","","","","","","","","","","","","","","","","","","","","SYN06487470 32965 00902 10167 20126 30068 40183 51069 333 10218 20066=","","","","","","","","","",""
"87470099999","2021-07-09T09:00:00","-32.5","-61.6666666","96.0","EL TREBOL, AR","FM-12","4","","53","57","","","-0.02","1","88","","29.85","29.52","9.32","55","050","","6","","","","","","","","","","","","","","","","","","","","","","","","","","","","","","","","","","","","","","","","","","","","","","","","","","","","","","","","","","","","","","","","","","","","","","","","","","","","","","","","","","","","","","","","","","","SYN06487470 32965 00505 10139 20119 39996 40109 51006 333 10167 20135=","","","","","","","","","",""
"87470099999","2021-07-09T15:00:00","-32.5","-61.6666666","96.0","EL TREBOL, AR","FM-12","4","","46","81","","","+0.08","6","29","SCT:03 89","29.76","29.44","9.32","61","360","","9","","","","","","","","","","","","","","","","","","","","","","","","","","","","","","","","","","","","","","","","","","","","","","","","","","","","","","","","","","","","","","","","","","","","","","","","","","","","","","","","","","","","","","","","","","","SYN07087470 32965 33608 10273 20079 39969 40079 56027 83050 333 56090 83359=","","","","","","","","","",""
"87470099999","2021-07-09T21:00:00","-32.5","-61.6666666","96.0","EL TREBOL, AR","FM-12","4","","51","64","","","-0.04","1","61","","29.79","29.45","9.32","57","050","","2","","","","","","","","","","","","","","","","","","","","","","","","","","","","","","","","","","","","","","","","","","","","","","","","","","","","","","","","","","","","","","","","","","","","","","","","","","","","","","","","","","","","","","","","","","","SYN06487470 32965 00502 10179 20103 39974 40087 51013 333 10273 20139=","","","","","","","","","",""
"87470099999","2021-07-10T09:00:00","-32.5","-61.6666666","96.0","EL TREBOL, AR","FM-12","4","","44","52","","","-0.14","1","75","FEW:01 89","30.13","29.79","9.32","48","180","","9","","","","","","","","","","","","","","","","","","","","","","","","","","","","","","","","","","","","","","","","","","","","","","","","","","","","","","","","","","","","","","","","","","","","","","","","","","","","","","","","","","","","","","","","","","","SYN08287470 32965 11808 10111 20067 30088 40203 51049 81050 333 10179 20111 56090 81359=","","","","","","","","","",""
"87470099999","2021-07-10T15:00:00","-32.5","-61.6666666","96.0","EL TREBOL, AR","FM-12","4","","20","61","","","+0.04","6","20","","30.14","29.80","9.32","44","180","","15","","","","","","","","","","","","","","","","","","","","","","","","","","","","","","","","","","","","","","","","","","","","","","","","","","","","","","","","","","","","","","","","","","","","","","","","","","","","","","","","","","","","","","","","","","","SYN04887470 32965 01813 10162 21069 30090 40205 56012=","","","","","","","","","",""
"87470099999","2021-07-10T21:00:00","-32.5","-61.6666666","96.0","EL TREBOL, AR","FM-12","4","","22","35","","","-0.02","1","59","","30.15","29.80","9.32","30","180","","6","","","","","","","","","","","","","","","","","","","","","","","","","","","","","","","","","","","","","","","","","","","","","","","","","","","","","","","","","","","","","","","","","","","","","","","","","","","","","","","","","","","","","","","","","","","SYN06487470 32965 01805 10019 21053 30093 40211 51007 333 10167 20019=","","","","","","","","","",""
"87470099999","2021-07-11T09:00:00","-32.5","-61.6666666","96.0","EL TREBOL, AR","FM-12","4","","25","39","","","+0.03","6","57","FEW:01 89","30.07","29.72","9.32","34","090","","6","","","","","","","","","","","","","","","","","","","","","","","","","","","","","","","","","","","","","","","","","","","","","","","","","","","","","","","","","","","","","","","","","","","","","","","","","","","","","","","","","","","","","","","","","","","SYN08887470 31965 30905 10041 21038 30065 40184 56009 7026/ 81058 333 10041 21027 56099 81359=","","","","","","","","","",""
"87470099999","2021-07-11T15:00:00","-32.5","-61.6666666","96.0","EL TREBOL, AR","FM-12","4","","33","63","","","+0.12","6","32","FEW:02 23","29.93","29.58","9.32","49","050","","9","","","","","","","","","","","","","","","","","","","","","","","","","","","","","","","","","","","","","","","","","","","","","","","","","","","","","","","","","","","","","","","","","","","","","","","","","","","","","","","","","","","","","","","","","","","SYN06487470 32565 50508 10172 20004 30017 40134 56040 82558 333 82623=","","","","","","","","","",""
"87470099999","2021-07-11T21:00:00","-32.5","-61.6666666","96.0","EL TREBOL, AR","FM-12","4","","35","55","","","0.00","4","47","FEW:02 23 SCT:03 89","29.90","29.55","9.32","46","090","","6","","","","","","","","","","","","","","","","","","","","","","","","","","","","","","","","","","","","","","","","","","","","","","","","","","","","","","","","","","","","","","","","","","","","","","","","","","","","","","","","","","","","","","","","","","","SYN08287470 32565 60905 10128 20018 30008 40124 54000 82558 333 10182 20041 82623 83359=","","","","","","","","","",""
"87470099999","2021-07-12T09:00:00","-32.5","-61.6666666","96.0","EL TREBOL, AR","FM-12","4","","46","54","","","0.00","4","77","BKN:07 20","29.82","29.48","9.32","50","140","","6","","","","","","","","","","","","","","","","","","","","","","","","","","","","","","","","","","","","","","","","","","","","","","","","","","","","","","","","","","","","","","","","","","","","","","","","","","","","","","","","","","","","","","","","","","","SYN004BUFR","","","","","","","","","",""
"87470099999","2021-07-12T15:00:00","-32.5","-61.6666666","96.0","EL TREBOL, AR","FM-12","4","","59","74","","","+0.01","6","58","FEW:02 20 SCT:03 89","29.80","29.47","9.32","65","070","","6","","","","","","","","","","","","","","","","","","","","","","","","","","","","","","","","","","","","","","","","","","","","","","","","","","","","","","","","","","","","","","","","","","","","","","","","","","","","","","","","","","","","","","","","","","","SYN08287470 32565 50705 10236 20148 39978 40091 56005 82220 333 56000 57800 82820 83559=","","","","","","","","","",""
"87470099999","2021-07-12T21:00:00","-32.5","-61.6666666","96.0","EL TREBOL, AR","FM-12","4","","56","66","","","-0.07","3","72","BKN:05 20 SCT:03 89","29.86","29.52","9.32","60","180","","6","","","","","","","","","","","","","","","","","","","","","","","","","","","","","","","","","","","","","","","","","","","","","","","","","","","","","","","","","","","","","","","","","","","","","","","","","","","","","","","","","","","","","","","","","","","SYN08287470 32565 81805 10187 20135 39998 40111 53025 8555/ 333 10244 20120 85620 83359=","","","","","","","","","",""
"87470099999","2021-07-13T09:00:00","-32.5","-61.6666666","96.0","EL TREBOL, AR","FM-12","4","","48","53","","","-0.06","3","83","OVC:08 17","29.96","29.63","9.32","50","180","","6","","","","","","","","","","","","","","","","","","","","","","","","","","","","","","","","","","","","","","","","","","","","","","","","","","","","","","","","","","","","","","","","","","","","","","","","","","","","","","","","","","","","","","","","","","","SYN10087470 01465 81805 10115 20087 30033 40147 53020 69904 702// 887// 333 10187 20105 56099 69902 88717=","","","","","","","","","",""
"87470099999","2021-07-13T15:00:00","-32.5","-61.6666666","96.0","EL TREBOL, AR","FM-12","4","","42","60","","","-0.01","3","51","OVC:08 22","29.97","29.64","9.32","51","200","","9","","","","","","","","","","","","","","","","","","","","","","","","","","","","","","","","","","","","","","","","","","","","","","","","","","","","","","","","","","","","","","","","","","","","","","","","","","","","","","","","","","","","","","","","","","","SYN07087470 32565 82008 10157 20056 30036 40149 53005 887// 333 56099 88722=","","","","","","","","","",""
"87470099999","2021-07-14T09:00:00","-32.5","-61.6666666","96.0","EL TREBOL, AR","FM-12","4","","48","48","","||RA","-0.04","2","100","OVC:08 16","29.99","29.65","2.17","48","230","","6","","","","","","","","","","","","","","","","","","","","","","","","","","","","","","","","","","","","","","","","","","","","","","","","","","","","","","","","","","","","","","","","","","","","","","","","","","","","","","","","","","","","","","","","","","","SYN10087470 01435 82305 10090 20090 30042 40157 52015 60164 76362 88700 333 10144 20090 56900 60162 88716=","","","","","","","","","",""
"87470099999","2021-07-14T15:00:00","-32.5","-61.6666666","96.0","EL TREBOL, AR","FM-12","4","","47","47","","||RA","+0.03","6","100","OVC:08 16","","","3.11","","140","","6","","","","","","","","","","","","","","","","","","","","","","","","","","","","","","","","","","","","","","","","","","","","","","","","","","","","","","","","","","","","","","","","","","","","","","","","","","","","","","","","","","","","","","","","","","","SYN08287470 11450 81405 10086 20086 3//// 4//// 56010 60111 76062 887// 333 56099 88716=","","","","","","","","","",""
"87470099999","2021-07-14T21:00:00","-32.5","-61.6666666","96.0","EL TREBOL, AR","FM-12","4","","48","48","","","-0.06","3","100","OVC:08 18","30.04","29.70","9.32","48","180","","6","","","","","","","","","","","","","","","","","","","","","","","","","","","","","","","","","","","","","","","","","","","","","","","","","","","","","","","","","","","","","","","","","","","","","","","","","","","","","","","","","","","","","","","","","","","SYN08287470 12465 81805 10091 20091 30057 40173 53020 60021 887// 333 10094 20084 88718=","","","","","","","","","",""
"87470099999","2021-07-15T09:00:00","-32.5","-61.6666666","96.0","EL TREBOL, AR","FM-12","4","","40","42","","","-0.09","2","94","OVC:08 16","30.15","29.80","6.21","41","140","","6","","","","","","","","","","","","","","","","","","","","","","","","","","","","","","","","","","","","","","","","","","","","","","","","","","","","","","","","","","","","","","","","","","","","","","","","","","","","","","","","","","","","","","","","","","","SYN10087470 01460 81405 10056 20047 30092 40209 52030 60134 70252 88600 333 10091 20035 56900 69902 88716=","","","","","","","","","",""
"87470099999","2021-07-15T15:00:00","-32.5","-61.6666666","96.0","EL TREBOL, AR","FM-12","4","","45","57","","","+0.02","6","63","","30.14","29.79","9.32","51","230","","6","","","","","","","","","","","","","","","","","","","","","","","","","","","","","","","","","","","","","","","","","","","","","","","","","","","","","","","","","","","","","","","","","","","","","","","","","","","","","","","","","","","","","","","","","","","SYN04887470 32965 02305 10139 20070 30089 40205 56007=","","","","","","","","","",""
"87470099999","2021-07-15T21:00:00","-32.5","-61.6666666","96.0","EL TREBOL, AR","FM-12","4","","38","42","","","+0.01","6","85","","30.13","29.78","9.32","40","000","","0","","","","","","","","","","","","","","","","","","","","","","","","","","","","","","","","","","","","","","","","","","","","","","","","","","","","","","","","","","","","","","","","","","","","","","","","","","","","","","","","","","","","","","","","","","","SYN06487470 32965 00000 10056 20032 30085 40203 56003 333 10152 20056=","","","","","","","","","",""
"87470099999","2021-07-16T09:00:00","-32.5","-61.6666666","96.0","EL TREBOL, AR","FM-12","4","","38","38","","||FG","+0.01","6","99","","30.05","29.70","0.06","38","000","","0","","","","","","","","","","","","","","","","","","","","","","","","","","","","","","","","","","","","","","","","","","","","","","","","","","","","","","","","","","","","","","","","","","","","","","","","","","","","","","","","","","","","","","","","","","","SYN07087470 31/01 90000 10036 20034 30058 40176 56002 745// 333 10056 20018=","","","","","","","","","",""
"87470099999","2021-07-16T15:00:00","-32.5","-61.6666666","96.0","EL TREBOL, AR","FM-12","4","","41","56","","","+0.07","5","58","FEW:02 246","29.95","29.60","9.32","49","360","","9","","","","","","","","","","","","","","","","","","","","","","","","","","","","","","","","","","","","","","","","","","","","","","","","","","","","","","","","","","","","","","","","","","","","","","","","","","","","","","","","","","","","","","","","","","","SYN07087470 32965 23608 10131 20050 30025 40142 55025 80004 333 56000 82075=","","","","","","","","","",""
"87470099999","2021-07-16T21:00:00","-32.5","-61.6666666","96.0","EL TREBOL, AR","FM-12","4","","42","45","","","-0.01","3","88","","29.92","29.58","9.32","44","020","","6","","","","","","","","","","","","","","","","","","","","","","","","","","","","","","","","","","","","","","","","","","","","","","","","","","","","","","","","","","","","","","","","","","","","","","","","","","","","","","","","","","","","","","","","","","","SYN06487470 32965 00205 10074 20056 30016 40133 53004 333 10142 20036=","","","","","","","","","",""
"87470099999","2021-07-17T09:00:00","-32.5","-61.6666666","96.0","EL TREBOL, AR","FM-12","4","","35","37","","","-0.09","2","90","","30.21","29.86","9.32","36","230","","9","","","","","","","","","","","","","","","","","","","","","","","","","","","","","","","","","","","","","","","","","","","","","","","","","","","","","","","","","","","","","","","","","","","","","","","","","","","","","","","","","","","","","","","","","","","SYN06487470 32965 02308 10030 20015 30113 40231 52030 333 10074 20030=","","","","","","","","","",""
"87470099999","2021-07-17T15:00:00","-32.5","-61.6666666","96.0","EL TREBOL, AR","FM-12","4","","27","57","","","+0.01","7","32","","30.21","29.86","9.32","44","230","","9","","","","","","","","","","","","","","","","","","","","","","","","","","","","","","","","","","","","","","","","","","","","","","","","","","","","","","","","","","","","","","","","","","","","","","","","","","","","","","","","","","","","","","","","","","","SYN04887470 32965 02308 10140 21025 30113 40230 57004=","","","","","","","","","",""
"87470099999","2021-07-17T21:00:00","-32.5","-61.6666666","96.0","EL TREBOL, AR","FM-12","4","","27","36","","","-0.06","2","71","","30.30","29.95","9.32","33","230","","6","","","","","","","","","","","","","","","","","","","","","","","","","","","","","","","","","","","","","","","","","","","","","","","","","","","","","","","","","","","","","","","","","","","","","","","","","","","","","","","","","","","","","","","","","","","SYN06487470 32965 02305 10020 21027 30141 40262 52021 333 10140 20020=","","","","","","","","","",""
"87470099999","2021-07-18T09:00:00","-32.5","-61.6666666","96.0","EL TREBOL, AR","FM-12","4","","31","33","","","-0.03","2","92","","30.44","30.08","9.32","32","230","","6","","","","","","","","","","","","","","","","","","","","","","","","","","","","","","","","","","","","","","","","","","","","","","","","","","","","","","","","","","","","","","","","","","","","","","","","","","","","","","","","","","","","","","","","","","","SYN06487470 32965 02305 10006 21005 30186 40308 52010 333 10030 21010=","","","","","","","","","",""
"87470099999","2021-07-18T15:00:00","-32.5","-61.6666666","96.0","EL TREBOL, AR","FM-12","4","","30","55","","","+0.04","7","39","","30.37","30.02","9.32","44","230","","6","","","","","","","","","","","","","","","","","","","","","","","","","","","","","","","","","","","","","","","","","","","","","","","","","","","","","","","","","","","","","","","","","","","","","","","","","","","","","","","","","","","","","","","","","","","SYN04887470 32965 02305 10128 21009 30166 40285 57013=","","","","","","","","","",""
"87470099999","2021-07-18T21:00:00","-32.5","-61.6666666","96.0","EL TREBOL, AR","FM-12","4","","28","32","","","+0.02","7","84","","30.34","29.98","9.32","31","000","","0","","","","","","","","","","","","","","","","","","","","","","","","","","","","","","","","","","","","","","","","","","","","","","","","","","","","","","","","","","","","","","","","","","","","","","","","","","","","","","","","","","","","","","","","","","","SYN06487470 32965 00000 10000 21024 30152 40273 57008 333 10135 20000=","","","","","","","","","",""
"87470099999","2021-07-19T09:00:00","-32.5","-61.6666666","96.0","EL TREBOL, AR","FM-12","4","","26","30","","","-0.01","2","83","","30.36","30.00","9.32","29","000","","0","","","","","","","","","","","","","","","","","","","","","","","","","","","","","","","","","","","","","","","","","","","","","","","","","","","","","","","","","","","","","","","","","","","","","","","","","","","","","","","","","","","","","","","","","","","SYN06487470 32965 00000 11010 21035 30158 40280 52002 333 10010 21040=","","","","","","","","","",""
"87470099999","2021-07-19T15:00:00","-32.5","-61.6666666","96.0","EL TREBOL, AR","FM-12","4","","26","59","","","+0.07","6","28","","30.26","29.91","9.32","45","360","","6","","","","","","","","","","","","","","","","","","","","","","","","","","","","","","","","","","","","","","","","","","","","","","","","","","","","","","","","","","","","","","","","","","","","","","","","","","","","","","","","","","","","","","","","","","","SYN04887470 32965 03605 10151 21032 30128 40246 56025=","","","","","","","","","",""
"87470099999","2021-07-19T21:00:00","-32.5","-61.6666666","96.0","EL TREBOL, AR","FM-12","4","","31","46","","","+0.03","7","56","","30.20","29.85","9.32","40","360","","2","","","","","","","","","","","","","","","","","","","","","","","","","","","","","","","","","","","","","","","","","","","","","","","","","","","","","","","","","","","","","","","","","","","","","","","","","","","","","","","","","","","","","","","","","","","SYN06487470 32965 03602 10078 21004 30109 40228 57009 333 10160 21010=","","","","","","","","","",""
"87470099999","2021-07-20T09:00:00","-32.5","-61.6666666","96.0","EL TREBOL, AR","FM-12","4","","26","42","","","-0.01","2","53","","30.17","29.82","9.32","36","360","","9","","","","","","","","","","","","","","","","","","","","","","","","","","","","","","","","","","","","","","","","","","","","","","","","","","","","","","","","","","","","","","","","","","","","","","","","","","","","","","","","","","","","","","","","","","","SYN06487470 32965 03608 10057 21033 30098 40216 52005 333 10085 21005=","","","","","","","","","",""
"87470099999","2021-07-20T15:00:00","-32.5","-61.6666666","96.0","EL TREBOL, AR","FM-12","4","","26","66","","","+0.03","6","22","","30.09","29.75","9.32","48","360","","9","","","","","","","","","","","","","","","","","","","","","","","","","","","","","","","","","","","","","","","","","","","","","","","","","","","","","","","","","","","","","","","","","","","","","","","","","","","","","","","","","","","","","","","","","","","SYN04887470 32965 03608 10188 21036 30074 40190 56009=","","","","","","","","","",""
"87470099999","2021-07-21T09:00:00","-32.5","-61.6666666","96.0","EL TREBOL, AR","FM-12","4","","31","35","","","-0.01","2","84","","30.11","29.77","9.32","33","050","","2","","","","","","","","","","","","","","","","","","","","","","","","","","","","","","","","","","","","","","","","","","","","","","","","","","","","","","","","","","","","","","","","","","","","","","","","","","","","","","","","","","","","","","","","","","","SYN06487470 32965 00502 10017 21008 30080 40197 52005 333 10098 20010=","","","","","","","","","",""
"87470099999","2021-07-21T15:00:00","-32.5","-61.6666666","96.0","EL TREBOL, AR","FM-12","4","","31","70s","","","+0.02","6","24","SCT:04 246","30.08","29.74","9.32","51","360","","9","","","","","","","","","","","","","","","","","","","","","","","","","","","","","","","","","","","","","","","","","","","","","","","","","","","","","","","","","","","","","","","","","","","","","","","","","","","","","","","","","","","","","","","","","","","SYN07087470 32965 43608 10209 21007 30070 40185 56008 80008 333 56000 84275=","","","","","","","","","",""
"87470099999","2021-07-21T21:00:00","-32.5","-61.6666666","96.0","EL TREBOL, AR","FM-12","4","","39","51","","","-0.02","2","64","SCT:03 246","30.09","29.75","9.32","45","020","","6","","","","","","","","","","","","","","","","","","","","","","","","","","","","","","","","","","","","","","","","","","","","","","","","","","","","","","","","","","","","","","","","","","","","","","","","","","","","","","","","","","","","","","","","","","","SYN08287470 32965 30205 10106 20039 30073 40190 52008 80008 333 10215 20017 56009 83275=","","","","","","","","","",""
"87470099999","2021-07-22T09:00:00","-32.5","-61.6666666","96.0","EL TREBOL, AR","FM-12","4","","36","41","","","-0.03","2","83","BKN:06 246","30.13","29.78","9.32","39","050","","6","","","","","","","","","","","","","","","","","","","","","","","","","","","","","","","","","","","","","","","","","","","","","","","","","","","","","","","","","","","","","","","","","","","","","","","","","","","","","","","","","","","","","","","","","","","SYN08287470 32965 60505 10052 20025 30086 40204 52010 80008 333 10106 20047 56009 86275=","","","","","","","","","",""
"87470099999","2021-07-22T15:00:00","-32.5","-61.6666666","96.0","EL TREBOL, AR","FM-12","4","","42","73s","","","+0.04","6","33","BKN:05 246","30.03","29.70","9.32","57","340","","9","","","","","","","","","","","","","","","","","","","","","","","","","","","","","","","","","","","","","","","","","","","","","","","","","","","","","","","","","","","","","","","","","","","","","","","","","","","","","","","","","","","","","","","","","","","SYN07087470 32965 53408 10228 20055 30056 40170 56012 80008 333 56000 85275=","","","","","","","","","",""
"87470099999","2021-07-22T21:00:00","-32.5","-61.6666666","96.0","EL TREBOL, AR","FM-12","4","","45","55","","","+0.02","7","68","SCT:04 246","29.98","29.63","9.32","50","050","","6","","","","","","","","","","","","","","","","","","","","","","","","","","","","","","","","","","","","","","","","","","","","","","","","","","","","","","","","","","","","","","","","","","","","","","","","","","","","","","","","","","","","","","","","","","","SYN08287470 32965 40505 10130 20071 30034 40151 57007 80008 333 10235 20052 56009 84275=","","","","","","","","","",""
"87470099999","2021-07-23T09:00:00","-32.5","-61.6666666","96.0","EL TREBOL, AR","FM-12","4","","45","49","","","-0.01","2","87","","29.96","29.62","6.21","47","050","","6","","","","","","","","","","","","","","","","","","","","","","","","","","","","","","","","","","","","","","","","","","","","","","","","","","","","","","","","","","","","","","","","","","","","","","","","","","","","","","","","","","","","","","","","","","","SYN07087470 31960 00505 10096 20075 30029 40144 52005 71000 333 10130 20072=","","","","","","","","","",""
"87470099999","2021-07-23T15:00:00","-32.5","-61.6666666","96.0","EL TREBOL, AR","FM-12","4","","45","81s","","","+0.06","6","28","","29.83","29.50","9.32","61","020","","9","","","","","","","","","","","","","","","","","","","","","","","","","","","","","","","","","","","","","","","","","","","","","","","","","","","","","","","","","","","","","","","","","","","","","","","","","","","","","","","","","","","","","","","","","","","SYN04887470 32965 00208 10274 20072 39990 40102 56021=","","","","","","","","","",""
"87470099999","2021-07-23T21:00:00","-32.5","-61.6666666","96.0","EL TREBOL, AR","FM-12","4","","53","64","","","-0.01","2","67","","29.82","29.49","9.32","58","090","","6","","","","","","","","","","","","","","","","","","","","","","","","","","","","","","","","","","","","","","","","","","","","","","","","","","","","","","","","","","","","","","","","","","","","","","","","","","","","","","","","","","","","","","","","","","","SYN06487470 32965 00905 10176 20114 39985 40098 52003 333 10282 20096=","","","","","","","","","",""
"87470099999","2021-07-24T09:00:00","-32.5","-61.6666666","96.0","EL TREBOL, AR","FM-12","4","","46","52","","","-0.01","3","81","OVC:08 89","29.87","29.53","9.32","49","230","","2","","","","","","","","","","","","","","","","","","","","","","","","","","","","","","","","","","","","","","","","","","","","","","","","","","","","","","","","","","","","","","","","","","","","","","","","","","","","","","","","","","","","","","","","","","","SYN08887470 31965 82302 10109 20078 30001 40114 53005 702// 8805/ 333 10180 20099 56009 88359=","","","","","","","","","",""
"87470099999","2021-07-24T15:00:00","-32.5","-61.6666666","96.0","EL TREBOL, AR","FM-12","4","","51","68","","","+0.11","6","55","BKN:05 89","29.71","29.37","9.32","58","250","","2","","","","","","","","","","","","","","","","","","","","","","","","","","","","","","","","","","","","","","","","","","","","","","","","","","","","","","","","","","","","","","","","","","","","","","","","","","","","","","","","","","","","","","","","","","","SYN07087470 32965 52502 10202 20108 39946 40060 56037 85080 333 56000 85359=","","","","","","","","","",""
"87470099999","2021-07-24T21:00:00","-32.5","-61.6666666","96.0","EL TREBOL, AR","FM-12","4","","48","53","","","-0.07","3","84","FEW:02 89","29.74","29.40","9.32","50","000","","0","","","","","","","","","","","","","","","","","","","","","","","","","","","","","","","","","","","","","","","","","","","","","","","","","","","","","","","","","","","","","","","","","","","","","","","","","","","","","","","","","","","","","","","","","","","SYN08287470 32965 20000 10114 20088 39956 40070 53024 82080 333 10216 20109 56000 82359=","","","","","","","","","",""
"87470099999","2021-07-25T09:00:00","-32.5","-61.6666666","96.0","EL TREBOL, AR","FM-12","4","","43","46","","","-0.10","2","90","","29.85","29.51","9.32","45","230","","9","","","","","","","","","","","","","","","","","","","","","","","","","","","","","","","","","","","","","","","","","","","","","","","","","","","","","","","","","","","","","","","","","","","","","","","","","","","","","","","","","","","","","","","","","","","SYN07087470 31965 02308 10078 20063 39993 40109 52035 702// 333 10121 20078=","","","","","","","","","",""
"87470099999","2021-07-25T15:00:00","-32.5","-61.6666666","96.0","EL TREBOL, AR","FM-12","4","","45","61","","","+0.07","6","55","","29.82","29.48","9.32","53","180","","9","","","","","","","","","","","","","","","","","","","","","","","","","","","","","","","","","","","","","","","","","","","","","","","","","","","","","","","","","","","","","","","","","","","","","","","","","","","","","","","","","","","","","","","","","","","SYN04887470 32965 01808 10162 20070 39984 40098 56023=","","","","","","","","","",""
"87470099999","2021-07-25T21:00:00","-32.5","-61.6666666","96.0","EL TREBOL, AR","FM-12","4","","35","52","","","-0.04","3","53","","29.86","29.52","9.32","44","200","","6","","","","","","","","","","","","","","","","","","","","","","","","","","","","","","","","","","","","","","","","","","","","","","","","","","","","","","","","","","","","","","","","","","","","","","","","","","","","","","","","","","","","","","","","","","","SYN06487470 32965 02005 10112 20019 39996 40111 53012 333 10172 20078=","","","","","","","","","",""
"87470099999","2021-07-26T09:00:00","-32.5","-61.6666666","96.0","EL TREBOL, AR","FM-12","4","","34","41","","","-0.07","2","77","","30.08","29.73","9.32","38","180","","6","","","","","","","","","","","","","","","","","","","","","","","","","","","","","","","","","","","","","","","","","","","","","","","","","","","","","","","","","","","","","","","","","","","","","","","","","","","","","","","","","","","","","","","","","","","SYN06487470 32965 01805 10050 20012 30069 40186 52025 333 10112 20035=","","","","","","","","","",""
"87470099999","2021-07-26T15:00:00","-32.5","-61.6666666","96.0","EL TREBOL, AR","FM-12","4","","33","62","","","+0.00","6","34","","30.06","29.71","9.32","48","180","","6","","","","","","","","","","","","","","","","","","","","","","","","","","","","","","","","","","","","","","","","","","","","","","","","","","","","","","","","","","","","","","","","","","","","","","","","","","","","","","","","","","","","","","","","","","","SYN04887470 32965 01805 10167 20005 30062 40179 56001=","","","","","","","","","",""
"87470099999","2021-07-26T21:00:00","-32.5","-61.6666666","96.0","EL TREBOL, AR","FM-12","4","","29","48","","","-0.09","3","47","","30.17","29.83","9.32","40","200","","6","","","","","","","","","","","","","","","","","","","","","","","","","","","","","","","","","","","","","","","","","","","","","","","","","","","","","","","","","","","","","","","","","","","","","","","","","","","","","","","","","","","","","","","","","","","SYN06487470 32965 02005 10091 21018 30100 40217 53029 333 10171 20050=","","","","","","","","","",""
"87470099999","2021-07-27T09:00:00","-32.5","-61.6666666","96.0","EL TREBOL, AR","FM-12","4","","22","32","","","0.00","4","65","","30.29","29.94","9.32","29","230","","9","","","","","","","","","","","","","","","","","","","","","","","","","","","","","","","","","","","","","","","","","","","","","","","","","","","","","","","","","","","","","","","","","","","","","","","","","","","","","","","","","","","","","","","","","","","SYN06487470 32965 02308 10002 21056 30138 40258 54000 333 10091 21035=","","","","","","","","","",""
"87470099999","2021-07-27T15:00:00","-32.5","-61.6666666","96.0","EL TREBOL, AR","FM-12","4","","17","58","","","+0.03","6","20","","30.26","29.91","9.32","42","230","","9","","","","","","","","","","","","","","","","","","","","","","","","","","","","","","","","","","","","","","","","","","","","","","","","","","","","","","","","","","","","","","","","","","","","","","","","","","","","","","","","","","","","","","","","","","","SYN04887470 32965 02308 10144 21082 30128 40246 56009=","","","","","","","","","",""
"87470099999","2021-07-27T21:00:00","-32.5","-61.6666666","96.0","EL TREBOL, AR","FM-12","4","","24","38","","","-0.02","3","56","","30.31","29.95","9.32","33","230","","2","","","","","","","","","","","","","","","","","","","","","","","","","","","","","","","","","","","","","","","","","","","","","","","","","","","","","","","","","","","","","","","","","","","","","","","","","","","","","","","","","","","","","","","","","","","SYN06487470 32965 02302 10034 21047 30142 40264 53007 333 10146 20002=","","","","","","","","","",""
"87470099999","2021-07-28T09:00:00","-32.5","-61.6666666","96.0","EL TREBOL, AR","FM-12","4","","25","30","","","-0.04","3","82","","30.45","30.10","9.32","28","230","","6","","","","","","","","","","","","","","","","","","","","","","","","","","","","","","","","","","","","","","","","","","","","","","","","","","","","","","","","","","","","","","","","","","","","","","","","","","","","","","","","","","","","","","","","","","","SYN07087470 31965 02305 11009 21037 30192 40313 53012 702// 333 10034 21024=","","","","","","","","","",""
"87470099999","2021-07-28T15:00:00","-32.5","-61.6666666","96.0","EL TREBOL, AR","FM-12","4","","28","51","","","+0.04","6","41","SCT:03 20","30.41","30.06","9.32","41","250","","9","","","","","","","","","","","","","","","","","","","","","","","","","","","","","","","","","","","","","","","","","","","","","","","","","","","","","","","","","","","","","","","","","","","","","","","","","","","","","","","","","","","","","","","","","","","SYN07087470 32565 32508 10106 21023 30178 40298 56012 83100 333 56000 83820=","","","","","","","","","",""
"87470099999","2021-07-28T21:00:00","-32.5","-61.6666666","96.0","EL TREBOL, AR","FM-12","4","","23","32","","","+0.22","7","69","","30.18","29.83","9.32","29","000","","0","","","","","","","","","","","","","","","","","","","","","","","","","","","","","","","","","","","","","","","","","","","","","","","","","","","","","","","","","","","","","","","","","","","","","","","","","","","","","","","","","","","","","","","","","","","SYN06487470 32965 00000 10000 21051 30100 40221 57076 333 10110 21009=","","","","","","","","","",""
"87470099999","2021-07-29T09:00:00","-32.5","-61.6666666","96.0","EL TREBOL, AR","FM-12","4","","22","31","","","0.00","4","69","","30.38","30.02","9.32","28","000","","0","","","","","","","","","","","","","","","","","","","","","","","","","","","","","","","","","","","","","","","","","","","","","","","","","","","","","","","","","","","","","","","","","","","","","","","","","","","","","","","","","","","","","","","","","","","SYN06487470 32965 00000 11006 21057 30166 40289 54000 333 11003 21050=","","","","","","","","","",""
"87470099999","2021-07-29T15:00:00","-32.5","-61.6666666","96.0","EL TREBOL, AR","FM-12","4","","25","59","","","+0.05","6","27","","30.29","29.93","9.32","45","360","","6","","","","","","","","","","","","","","","","","","","","","","","","","","","","","","","","","","","","","","","","","","","","","","","","","","","","","","","","","","","","","","","","","","","","","","","","","","","","","","","","","","","","","","","","","","","SYN04887470 32965 03605 10149 21041 30137 40256 56016=","","","","","","","","","",""
"87470099999","2021-07-29T21:00:00","-32.5","-61.6666666","96.0","EL TREBOL, AR","FM-12","4","","27","47","","","-0.01","3","47","","30.29","29.93","9.32","39","360","","2","","","","","","","","","","","","","","","","","","","","","","","","","","","","","","","","","","","","","","","","","","","","","","","","","","","","","","","","","","","","","","","","","","","","","","","","","","","","","","","","","","","","","","","","","","","SYN06487470 32965 03602 10084 21025 30137 40257 53005 333 10158 21002=","","","","","","","","","",""
"87470099999","2021-07-30T09:00:00","-32.5","-61.6666666","96.0","EL TREBOL, AR","FM-12","4","","19","33","","||HZ","0.00","4","56","","30.27","29.91","3.11","28","050","","2","","","","","","","","","","","","","","","","","","","","","","","","","","","","","","","","","","","","","","","","","","","","","","","","","","","","","","","","","","","","","","","","","","","","","","","","","","","","","","","","","","","","","","","","","","","SYN07087470 31950 00502 10004 21074 30130 40250 54000 70500 333 10084 21012=","","","","","","","","","",""
"87470099999","2021-07-30T15:00:00","-32.5","-61.6666666","96.0","EL TREBOL, AR","FM-12","4","","22","63","","","+0.07","6","20","","30.19","29.84","9.32","46","360","","15","","","","","","","","","","","","","","","","","","","","","","","","","","","","","","","","","","","","","","","","","","","","","","","","","","","","","","","","","","","","","","","","","","","","","","","","","","","","","","","","","","","","","","","","","","","SYN04887470 32965 03613 10173 21057 30105 40222 56023=","","","","","","","","","",""
"87470099999","2021-07-30T21:00:00","-32.5","-61.6666666","96.0","EL TREBOL, AR","FM-12","4","","26","44","","","-0.01","3","49","","30.18","29.83","9.32","37","020","","2","","","","","","","","","","","","","","","","","","","","","","","","","","","","","","","","","","","","","","","","","","","","","","","","","","","","","","","","","","","","","","","","","","","","","","","","","","","","","","","","","","","","","","","","","","","SYN06487470 32965 00202 10068 21032 30101 40221 53005 333 10177 20004=","","","","","","","","","",""
"87470099999","2021-07-31T09:00:00","-32.5","-61.6666666","96.0","EL TREBOL, AR","FM-12","4","","32","36","","","-0.06","1","84","","30.28","29.93","9.32","34","090","","2","","","","","","","","","","","","","","","","","","","","","","","","","","","","","","","","","","","","","","","","","","","","","","","","","","","","","","","","","","","","","","","","","","","","","","","","","","","","","","","","","","","","","","","","","","","SYN06487470 32965 00902 10023 21001 30136 40255 51020 333 10068 20010=","","","","","","","","","",""
"87470099999","2021-07-31T15:00:00","-32.5","-61.6666666","96.0","EL TREBOL, AR","FM-12","4","","32","67s","","","+0.04","6","27","","30.26","29.91","9.32","50","250","","2","","","","","","","","","","","","","","","","","","","","","","","","","","","","","","","","","","","","","","","","","","","","","","","","","","","","","","","","","","","","","","","","","","","","","","","","","","","","","","","","","","","","","","","","","","","SYN04887470 32965 02502 10194 20001 30130 40248 56012=","","","","","","","","","",""
"87470099999","2021-07-31T21:00:00","-32.5","-61.6666666","96.0","EL TREBOL, AR","FM-12","4","","32","43","","","-0.05","1","65","","30.35","30.00","9.32","38","000","","0","","","","","","","","","","","","","","","","","","","","","","","","","","","","","","","","","","","","","","","","","","","","","","","","","","","","","","","","","","","","","","","","","","","","","","","","","","","","","","","","","","","","","","","","","","","SYN06487470 32965 00000 10062 20000 30160 40279 51017 333 10206 20023=","","","","","","","","","",""
"87470099999","2021-08-01T09:00:00","-32.5","-61.6666666","96.0","EL TREBOL, AR","FM-12","4","","30","34","","","-0.02","1","87","","30.44","30.09","9.32","32","000","","0","","","","","","","","","","","","","","","","","","","","","","","","","","","","","","","","","","","","","","","","","","","","","","","","","","","","","","","","","","","","","","","","","","","","","","","","","","","","","","","","","","","","","","","","","","","SYN06487470 32965 00000 10009 21011 30188 40308 51008 333 10062 21026=","","","","","","","","","",""
"87470099999","2021-08-01T15:00:00","-32.5","-61.6666666","96.0","EL TREBOL, AR","FM-12","4","","41","65s","","","+0.03","6","41","","30.39","30.04","9.32","53","050","","2","","","","","","","","","","","","","","","","","","","","","","","","","","","","","","","","","","","","","","","","","","","","","","","","","","","","","","","","","","","","","","","","","","","","","","","","","","","","","","","","","","","","","","","","","","","SYN04887470 32965 00502 10185 20050 30173 40291 56010=","","","","","","","","","",""
"87470099999","2021-08-01T21:00:00","-32.5","-61.6666666","96.0","EL TREBOL, AR","FM-12","4","","33","49","","","+0.00","6","53","","30.37","30.02","9.32","42","050","","2","","","","","","","","","","","","","","","","","","","","","","","","","","","","","","","","","","","","","","","","","","","","","","","","","","","","","","","","","","","","","","","","","","","","","","","","","","","","","","","","","","","","","","","","","","","SYN06487470 32965 00502 10095 20004 30166 40286 56001 333 10205 20009=","","","","","","","","","",""
"87470099999","2021-08-02T09:00:00","-32.5","-61.6666666","96.0","EL TREBOL, AR","FM-12","4","","35","40","","||HZ","0.00","4","79","","","","6.21","","050","","6","","","","","","","","","","","","","","","","","","","","","","","","","","","","","","","","","","","","","","","","","","","","","","","","","","","","","","","","","","","","","","","","","","","","","","","","","","","","","","","","","","","","","","","","","","","SYN07087470 31960 00505 10047 20014 3//// 4//// 54000 70500 333 10095 20025=","","","","","","","","","",""
"87470099999","2021-08-02T15:00:00","-32.5","-61.6666666","96.0","EL TREBOL, AR","FM-12","4","","25","66","","","+0.07","5","21","","30.31","29.97","9.32","48","050","","6","","","","","","","","","","","","","","","","","","","","","","","","","","","","","","","","","","","","","","","","","","","","","","","","","","","","","","","","","","","","","","","","","","","","","","","","","","","","","","","","","","","","","","","","","","","SYN04887470 32965 00505 10190 21041 30148 40264 55023=","","","","","","","","","",""
"87470099999","2021-08-02T21:00:00","-32.5","-61.6666666","96.0","EL TREBOL, AR","FM-12","4","","35","49","","","-0.02","1","59","","30.30","29.96","9.32","43","050","","2","","","","","","","","","","","","","","","","","","","","","","","","","","","","","","","","","","","","","","","","","","","","","","","","","","","","","","","","","","","","","","","","","","","","","","","","","","","","","","","","","","","","","","","","","","","SYN06487470 32965 00502 10096 20018 30144 40262 51007 333 10193 20047=","","","","","","","","","",""
"87470099999","2021-08-03T09:00:00","-32.5","-61.6666666","96.0","EL TREBOL, AR","FM-12","4","","35","39","","","-0.01","2","84","FEW:01 246","30.31","29.96","9.32","37","050","","6","","","","","","","","","","","","","","","","","","","","","","","","","","","","","","","","","","","","","","","","","","","","","","","","","","","","","","","","","","","","","","","","","","","","","","","","","","","","","","","","","","","","","","","","","","","SYN08287470 32965 10505 10040 20015 30145 40263 52002 80008 333 10096 20027 56009 81275=","","","","","","","","","",""
"87470099999","2021-08-03T15:00:00","-32.5","-61.6666666","96.0","EL TREBOL, AR","FM-12","4","","36","67","","","+0.03","6","32","","30.27","29.93","9.32","52","050","","9","","","","","","","","","","","","","","","","","","","","","","","","","","","","","","","","","","","","","","","","","","","","","","","","","","","","","","","","","","","","","","","","","","","","","","","","","","","","","","","","","","","","","","","","","","","SYN04887470 32965 00508 10197 20024 30134 40250 56009=","","","","","","","","","",""
"87470099999","2021-08-03T21:00:00","-32.5","-61.6666666","96.0","EL TREBOL, AR","FM-12","4","","37","49","","","-0.04","1","63","","30.32","29.97","9.32","44","000","","0","","","","","","","","","","","","","","","","","","","","","","","","","","","","","","","","","","","","","","","","","","","","","","","","","","","","","","","","","","","","","","","","","","","","","","","","","","","","","","","","","","","","","","","","","","","SYN06487470 32965 00000 10095 20028 30148 40266 51015 333 10206 20040=","","","","","","","","","",""
"87470099999","2021-08-04T10:00:00","-32.5","-61.6666666","96.0","EL TREBOL, AR","FM-12","4","","36","42","","","-0.01","3","80","","30.38","30.03","9.32","39","000","","0","","","","","","","","","","","","","","","","","","","","","","","","","","","","","","","","","","","","","","","","","","","","","","","","","","","","","","","","","","","","","","","","","","","","","","","","","","","","","","","","","","","","","","","","","","","SYN04887470 42965 00000 10056 20024 30169 40287 53005=","","","","","","","","","",""
"87470099999","2021-08-04T15:00:00","-32.5","-61.6666666","96.0","EL TREBOL, AR","FM-12","4","","32","70","","","+0.06","6","25","","30.32","29.97","9.32","52","050","","9","","","","","","","","","","","","","","","","","","","","","","","","","","","","","","","","","","","","","","","","","","","","","","","","","","","","","","","","","","","","","","","","","","","","","","","","","","","","","","","","","","","","","","","","","","","SYN04887470 32965 00508 10210 21001 30150 40266 56019=","","","","","","","","","",""
"87470099999","2021-08-04T21:00:00","-32.5","-61.6666666","96.0","EL TREBOL, AR","FM-12","4","","39","53","","","-0.00","3","59","","30.27","29.93","9.32","46","000","","0","","","","","","","","","","","","","","","","","","","","","","","","","","","","","","","","","","","","","","","","","","","","","","","","","","","","","","","","","","","","","","","","","","","","","","","","","","","","","","","","","","","","","","","","","","","SYN06487470 32965 00000 10115 20037 30134 40251 53001 333 10217 20056=","","","","","","","","","",""
"87470099999","2021-08-05T09:00:00","-32.5","-61.6666666","96.0","EL TREBOL, AR","FM-12","4","","39","41","","||FG","0.00","4","95","","30.22","29.87","0.50","40","050","","6","","","","","","","","","","","","","","","","","","","","","","","","","","","","","","","","","","","","","","","","","","","","","","","","","","","","","","","","","","","","","","","","","","","","","","","","","","","","","","","","","","","","","","","","","","","SYN07087470 31908 00505 10048 20041 30114 40232 54000 74240 333 10115 20030=","","","","","","","","","",""
"87470099999","2021-08-05T15:00:00","-32.5","-61.6666666","96.0","EL TREBOL, AR","FM-12","4","","45","71","","","+0.04","6","40","","30.12","29.78","9.32","57","020","","9","","","","","","","","","","","","","","","","","","","","","","","","","","","","","","","","","","","","","","","","","","","","","","","","","","","","","","","","","","","","","","","","","","","","","","","","","","","","","","","","","","","","","","","","","","","SYN04887470 32965 00208 10214 20072 30086 40201 56015=","","","","","","","","","",""
"87470099999","2021-08-05T21:00:00","-32.5","-61.6666666","96.0","EL TREBOL, AR","FM-12","4","","48","56","","","-0.04","3","76","","30.14","29.80","9.32","52","000","","0","","","","","","","","","","","","","","","","","","","","","","","","","","","","","","","","","","","","","","","","","","","","","","","","","","","","","","","","","","","","","","","","","","","","","","","","","","","","","","","","","","","","","","","","","","","SYN06487470 32965 00000 10132 20091 30090 40208 53012 333 10220 20048=","","","","","","","","","",""
"87470099999","2021-08-06T09:00:00","-32.5","-61.6666666","96.0","EL TREBOL, AR","FM-12","4","","43","44","","","-0.01","3","95","FEW:02 246","30.11","29.77","9.32","44","070","","2","","","","","","","","","","","","","","","","","","","","","","","","","","","","","","","","","","","","","","","","","","","","","","","","","","","","","","","","","","","","","","","","","","","","","","","","","","","","","","","","","","","","","","","","","","","SYN08887470 31965 20702 10066 20059 30081 40197 53005 702// 80004 333 10132 20056 56000 82075=","","","","","","","","","",""
"87470099999","2021-08-06T15:00:00","-32.5","-61.6666666","96.0","EL TREBOL, AR","FM-12","4","","49","76s","","","+0.10","6","38","SCT:04 246","29.98","29.64","9.32","61","360","","9","","","","","","","","","","","","","","","","","","","","","","","","","","","","","","","","","","","","","","","","","","","","","","","","","","","","","","","","","","","","","","","","","","","","","","","","","","","","","","","","","","","","","","","","","","","SYN07087470 32965 43608 10243 20092 30038 40152 56035 80004 333 56009 84075=","","","","","","","","","",""
"87470099999","2021-08-06T21:00:00","-32.5","-61.6666666","96.0","EL TREBOL, AR","FM-12","4","","50","59","","","+0.01","6","72","","29.94","29.59","9.32","54","050","","2","","","","","","","","","","","","","","","","","","","","","","","","","","","","","","","","","","","","","","","","","","","","","","","","","","","","","","","","","","","","","","","","","","","","","","","","","","","","","","","","","","","","","","","","","","","SYN06487470 32965 00502 10150 20099 30022 40138 56003 333 10249 20066=","","","","","","","","","",""
"87470099999","2021-08-07T09:00:00","-32.5","-61.6666666","96.0","EL TREBOL, AR","FM-12","4","","49","51","","","-0.06","3","94","","29.89","29.55","9.32","50","090","","6","","","","","","","","","","","","","","","","","","","","","","","","","","","","","","","","","","","","","","","","","","","","","","","","","","","","","","","","","","","","","","","","","","","","","","","","","","","","","","","","","","","","","","","","","","","SYN06487470 32965 00905 10107 20097 30008 40122 53020 333 10150 20090=","","","","","","","","","",""
"87470099999","2021-08-07T15:00:00","-32.5","-61.6666666","96.0","EL TREBOL, AR","FM-12","4","","52","83s","","","+0.08","6","33","","29.80","29.47","9.32","64","360","","9","","","","","","","","","","","","","","","","","","","","","","","","","","","","","","","","","","","","","","","","","","","","","","","","","","","","","","","","","","","","","","","","","","","","","","","","","","","","","","","","","","","","","","","","","","","SYN04887470 32965 03608 10286 20110 39981 40092 56027=","","","","","","","","","",""
"87470099999","2021-08-07T21:00:00","-32.5","-61.6666666","96.0","EL TREBOL, AR","FM-12","4","","55","68","","","-0.04","3","63","","29.84","29.50","9.32","60","090","","6","","","","","","","","","","","","","","","","","","","","","","","","","","","","","","","","","","","","","","","","","","","","","","","","","","","","","","","","","","","","","","","","","","","","","","","","","","","","","","","","","","","","","","","","","","","SYN06487470 32965 00905 10200 20126 39990 40104 53013 333 10298 20107=","","","","","","","","","",""
"87470099999","2021-08-08T09:00:00","-32.5","-61.6666666","96.0","EL TREBOL, AR","FM-12","4","","54","57","","","-0.01","1","88","FEW:02 23","29.85","29.52","9.32","55","180","","2","","","","","","","","","","","","","","","","","","","","","","","","","","","","","","","","","","","","","","","","","","","","","","","","","","","","","","","","","","","","","","","","","","","","","","","","","","","","","","","","","","","","","","","","","","","SYN07687470 32565 41802 10141 20121 39997 40110 51004 82558 333 10200 20125 82623=","","","","","","","","","",""
"87470099999","2021-08-08T15:00:00","-32.5","-61.6666666","96.0","EL TREBOL, AR","FM-12","4","","49","54","","","+0.01","6","84","OVC:08 20","29.87","29.53","9.32","51","180","","21","","","","","","","","","","","","","","","","","","","","","","","","","","","","","","","","","","","","","","","","","","","","","","","","","","","","","","","","","","","","","","","","","","","","","","","","","","","","","","","","","","","","","","","","","","","SYN06487470 32565 81818 10122 20095 30001 40116 56004 887// 333 88720=","","","","","","","","","",""
"87470099999","2021-08-08T21:00:00","-32.5","-61.6666666","96.0","EL TREBOL, AR","FM-12","4","","42","47","","||DZ","-0.12","1","84","OVC:08 16","30.07","29.72","6.21","45","180","","15","","","","","","","","","","","","","","","","","","","","","","","","","","","","","","","","","","","","","","","","","","","","","","","","","","","","","","","","","","","","","","","","","","","","","","","","","","","","","","","","","","","","","","","","","","","SYN08887470 11460 81813 10082 20056 30066 40182 51039 69901 75052 887// 333 10183 20082 88716=","","","","","","","","","",""
"87470099999","2021-08-09T09:00:00","-32.5","-61.6666666","96.0","EL TREBOL, AR","FM-12","4","","42","42","","||DZ","-0.07","2","99","OVC:08 16","30.22","29.87","3.11","42","180","","15","","","","","","","","","","","","","","","","","","","","","","","","","","","","","","","","","","","","","","","","","","","","","","","","","","","","","","","","","","","","","","","","","","","","","","","","","","","","","","","","","","","","","","","","","","","SYN10087470 01450 81813 10058 20056 30116 40234 52025 60054 755// 887// 333 10082 20057 56099 60052 88716=","","","","","","","","","",""
"87470099999","2021-08-09T15:00:00","-32.5","-61.6666666","96.0","EL TREBOL, AR","FM-12","4","","33","55","","","+0.03","6","44","FEW:02 20","30.26","29.91","9.32","45","180","","15","","","","","","","","","","","","","","","","","","","","","","","","","","","","","","","","","","","","","","","","","","","","","","","","","","","","","","","","","","","","","","","","","","","","","","","","","","","","","","","","","","","","","","","","","","","SYN07087470 32565 21813 10126 20005 30130 40247 56009 82400 333 56000 82620=","","","","","","","","","",""
"87470099999","2021-08-09T21:00:00","-32.5","-61.6666666","96.0","EL TREBOL, AR","FM-12","4","","30","44","","","-0.06","3","59","","30.32","29.97","9.32","38","180","","6","","","","","","","","","","","","","","","","","","","","","","","","","","","","","","","","","","","","","","","","","","","","","","","","","","","","","","","","","","","","","","","","","","","","","","","","","","","","","","","","","","","","","","","","","","","SYN06487470 32965 01805 10064 21010 30148 40267 53021 333 10131 20058=","","","","","","","","","",""
"87470099999","2021-08-10T09:00:00","-32.5","-61.6666666","96.0","EL TREBOL, AR","FM-12","4","","29","31","","","0.00","4","90","","30.33","29.97","9.32","30","230","","6","","","","","","","","","","","","","","","","","","","","","","","","","","","","","","","","","","","","","","","","","","","","","","","","","","","","","","","","","","","","","","","","","","","","","","","","","","","","","","","","","","","","","","","","","","","SYN06487470 32965 02305 11003 21018 30149 40270 54000 333 10064 21034=","","","","","","","","","",""
"87470099999","2021-08-11T15:00:00","-32.5","-61.6666666","96.0","EL TREBOL, AR","FM-12","4","","31","63","","","+0.05","6","29","","30.33","29.98","9.32","48","020","","6","","","","","","","","","","","","","","","","","","","","","","","","","","","","","","","","","","","","","","","","","","","","","","","","","","","","","","","","","","","","","","","","","","","","","","","","","","","","","","","","","","","","","","","","","","","SYN04887470 32965 00205 10174 21007 30153 40271 56016=","","","","","","","","","",""
"87470099999","2021-08-11T21:00:00","-32.5","-61.6666666","96.0","EL TREBOL, AR","FM-12","4","","31","49","","","-0.04","3","49","","30.36","30.01","9.32","41","020","","6","","","","","","","","","","","","","","","","","","","","","","","","","","","","","","","","","","","","","","","","","","","","","","","","","","","","","","","","","","","","","","","","","","","","","","","","","","","","","","","","","","","","","","","","","","","SYN06487470 32965 00205 10096 21007 30161 40280 53013 333 10176 20010=","","","","","","","","","",""
"87470099999","2021-08-12T09:00:00","-32.5","-61.6666666","96.0","EL TREBOL, AR","FM-12","4","","31","34","","","0.00","4","89","BKN:06 246","30.38","30.03","9.32","33","180","","2","","","","","","","","","","","","","","","","","","","","","","","","","","","","","","","","","","","","","","","","","","","","","","","","","","","","","","","","","","","","","","","","","","","","","","","","","","","","","","","","","","","","","","","","","","","SYN08287470 32965 61802 10010 21007 30169 40289 54000 80008 333 10096 21010 56009 86275=","","","","","","","","","",""
"87470099999","2021-08-12T15:00:00","-32.5","-61.6666666","96.0","EL TREBOL, AR","FM-12","4","","33","63","","","+0.06","6","33","BKN:06 246","30.31","29.96","9.32","49","020","","9","","","","","","","","","","","","","","","","","","","","","","","","","","","","","","","","","","","","","","","","","","","","","","","","","","","","","","","","","","","","","","","","","","","","","","","","","","","","","","","","","","","","","","","","","","","SYN07087470 32965 60208 10170 20007 30146 40264 56020 80008 333 56000 86275=","","","","","","","","","",""
"87470099999","2021-08-12T21:00:00","-32.5","-61.6666666","96.0","EL TREBOL, AR","FM-12","4","","35","49","","","-0.04","3","59","FEW:02 246","30.35","30.00","9.32","43","140","","2","","","","","","","","","","","","","","","","","","","","","","","","","","","","","","","","","","","","","","","","","","","","","","","","","","","","","","","","","","","","","","","","","","","","","","","","","","","","","","","","","","","","","","","","","","","SYN08287470 32965 21402 10094 20018 30160 40278 53013 80008 333 10178 20010 56009 82275=","","","","","","","","","",""
"87470099999","2021-08-13T09:00:00","-32.5","-61.6666666","96.0","EL TREBOL, AR","FM-12","4","","37","38","","||HZ","-0.01","3","97","","30.35","29.99","6.21","38","090","","6","","","","","","","","","","","","","","","","","","","","","","","","","","","","","","","","","","","","","","","","","","","","","","","","","","","","","","","","","","","","","","","","","","","","","","","","","","","","","","","","","","","","","","","","","","","SYN07087470 31960 00905 10034 20029 30157 40276 53003 705// 333 10094 20033=","","","","","","","","","",""
"87470099999","2021-08-13T15:00:00","-32.5","-61.6666666","96.0","EL TREBOL, AR","FM-12","4","","39","62","","","+0.08","5","44","SCT:03 246","30.26","29.91","9.32","51","360","","2","","","","","","","","","","","","","","","","","","","","","","","","","","","","","","","","","","","","","","","","","","","","","","","","","","","","","","","","","","","","","","","","","","","","","","","","","","","","","","","","","","","","","","","","","","","SYN07087470 32965 33602 10165 20040 30129 40246 55027 80004 333 56000 83075=","","","","","","","","","",""
"87470099999","2021-08-13T21:00:00","-32.5","-61.6666666","96.0","EL TREBOL, AR","FM-12","4","","36","51","","","-0.02","3","57","FEW:02 246","30.23","29.88","9.32","44","110","","2","","","","","","","","","","","","","","","","","","","","","","","","","","","","","","","","","","","","","","","","","","","","","","","","","","","","","","","","","","","","","","","","","","","","","","","","","","","","","","","","","","","","","","","","","","","SYN08287470 32965 21102 10108 20025 30120 40238 53007 80008 333 10171 20034 56009 82275=","","","","","","","","","",""
"87470099999","2021-08-15T09:00:00","-32.5","-61.6666666","96.0","EL TREBOL, AR","FM-12","4","","42","49","","","+0.03","7","77","FEW:01 246","30.06","29.72","9.32","46","050","","6","","","","","","","","","","","","","","","","","","","","","","","","","","","","","","","","","","","","","","","","","","","","","","","","","","","","","","","","","","","","","","","","","","","","","","","","","","","","","","","","","","","","","","","","","","","SYN08287470 32965 10505 10096 20057 30065 40181 57010 80008 333 10119 21015 56009 81275=","","","","","","","","","",""
"87470099999","2021-08-15T15:00:00","-32.5","-61.6666666","96.0","EL TREBOL, AR","FM-12","4","","39","68","","","+0.05","7","35","SCT:04 246","30.00","29.66","9.32","53","050","","9","","","","","","","","","","","","","","","","","","","","","","","","","","","","","","","","","","","","","","","","","","","","","","","","","","","","","","","","","","","","","","","","","","","","","","","","","","","","","","","","","","","","","","","","","","","SYN07087470 32965 40508 10201 20040 30044 40160 57016 80008 333 56009 84275=","","","","","","","","","",""
"87470099999","2021-08-15T21:00:00","-32.5","-61.6666666","96.0","EL TREBOL, AR","FM-12","4","","42","55","","","+0.02","7","62","","29.89","29.55","9.32","49","050","","6","","","","","","","","","","","","","","","","","","","","","","","","","","","","","","","","","","","","","","","","","","","","","","","","","","","","","","","","","","","","","","","","","","","","","","","","","","","","","","","","","","","","","","","","","","","SYN06487470 32965 00505 10126 20054 30008 40122 57007 333 10207 20096=","","","","","","","","","",""
"87470099999","2021-08-16T09:00:00","-32.5","-61.6666666","96.0","EL TREBOL, AR","FM-12","4","","45","51","","","0.00","4","80","BKN:07 246","29.85","29.52","9.32","48","050","","9","","","","","","","","","","","","","","","","","","","","","","","","","","","","","","","","","","","","","","","","","","","","","","","","","","","","","","","","","","","","","","","","","","","","","","","","","","","","","","","","","","","","","","","","","","","SYN08287470 32965 70508 10104 20071 39996 40110 54000 80006 333 10126 20070 56009 87275=","","","","","","","","","",""
"87470099999","2021-08-16T15:00:00","-32.5","-61.6666666","96.0","EL TREBOL, AR","FM-12","4","","41","78","","","+0.12","7","27","SCT:03 246","29.69","29.36","9.32","58","020","","9","","","","","","","","","","","","","","","","","","","","","","","","","","","","","","","","","","","","","","","","","","","","","","","","","","","","","","","","","","","","","","","","","","","","","","","","","","","","","","","","","","","","","","","","","","","SYN07087470 32965 30208 10255 20050 39942 40054 57041 80008 333 56009 83275=","","","","","","","","","",""
"87470099999","2021-08-16T21:00:00","-32.5","-61.6666666","96.0","EL TREBOL, AR","FM-12","4","","50","61","","","-0.08","2","68","FEW:01 246","29.78","29.44","9.32","55","050","","6","","","","","","","","","","","","","","","","","","","","","","","","","","","","","","","","","","","","","","","","","","","","","","","","","","","","","","","","","","","","","","","","","","","","","","","","","","","","","","","","","","","","","","","","","","","SYN08287470 32965 10505 10160 20100 39969 40083 52028 80008 333 10262 20104 56009 81275=","","","","","","","","","",""
"87470099999","2021-08-17T09:00:00","-32.5","-61.6666666","96.0","EL TREBOL, AR","FM-12","4","","47","51","","","-0.04","3","89","","29.84","29.50","9.32","49","110","","2","","","","","","","","","","","","","","","","","","","","","","","","","","","","","","","","","","","","","","","","","","","","","","","","","","","","","","","","","","","","","","","","","","","","","","","","","","","","","","","","","","","","","","","","","","","SYN07087470 31965 01102 10103 20085 39990 40105 53014 702// 333 10160 20094=","","","","","","","","","",""
"87470099999","2021-08-17T15:00:00","-32.5","-61.6666666","96.0","EL TREBOL, AR","FM-12","4","","54","82s","","","+0.06","5","38","","29.78","29.45","9.32","65","070","","6","","","","","","","","","","","","","","","","","","","","","","","","","","","","","","","","","","","","","","","","","","","","","","","","","","","","","","","","","","","","","","","","","","","","","","","","","","","","","","","","","","","","","","","","","","","SYN04887470 32965 00705 10278 20121 39973 40084 55021=","","","","","","","","","",""
"87470099999","2021-08-17T21:00:00","-32.5","-61.6666666","96.0","EL TREBOL, AR","FM-12","4","","54","66","","","-0.01","2","66","","29.77","29.44","9.32","59","140","","6","","","","","","","","","","","","","","","","","","","","","","","","","","","","","","","","","","","","","","","","","","","","","","","","","","","","","","","","","","","","","","","","","","","","","","","","","","","","","","","","","","","","","","","","","","","SYN06487470 32965 01405 10187 20121 39969 40082 52003 333 10280 20103=","","","","","","","","","",""
"87470099999","2021-08-18T09:00:00","-32.5","-61.6666666","96.0","EL TREBOL, AR","FM-12","4","","54","56","","||HZ","0.00","4","93","","29.72","29.39","6.21","55","090","","6","","","","","","","","","","","","","","","","","","","","","","","","","","","","","","","","","","","","","","","","","","","","","","","","","","","","","","","","","","","","","","","","","","","","","","","","","","","","","","","","","","","","","","","","","","","SYN07087470 31960 00905 10136 20125 39954 40066 54000 70500 333 10187 20125=","","","","","","","","","",""
"87470099999","2021-08-18T15:00:00","-32.5","-61.6666666","96.0","EL TREBOL, AR","FM-12","4","","61","86","","","+0.04","6","43","","29.60","29.28","9.32","70","340","","2","","","","","","","","","","","","","","","","","","","","","","","","","","","","","","","","","","","","","","","","","","","","","","","","","","","","","","","","","","","","","","","","","","","","","","","","","","","","","","","","","","","","","","","","","","","SYN04887470 32965 03402 10299 20161 39916 40025 56013=","","","","","","","","","",""
"87470099999","2021-08-19T09:00:00","-32.5","-61.6666666","96.0","EL TREBOL, AR","FM-12","4","","55","55","","||FG","-0.09","2","97","","29.58","29.25","0.00","55","230","","2","","","","","","","","","","","","","","","","","","","","","","","","","","","","","","","","","","","","","","","","","","","","","","","","","","","","","","","","","","","","","","","","","","","","","","","","","","","","","","","","","","","","","","","","","","","SYN07087470 31/00 92302 10130 20126 39906 40018 52030 74540 333 10218 20125=","","","","","","","","","",""
"87470099999","2021-08-19T15:00:00","-32.5","-61.6666666","96.0","EL TREBOL, AR","FM-12","4","","48","68","","","-0.00","3","49","","29.70","29.37","9.32","57","160","","21","","","","","","","","","","","","","","","","","","","","","","","","","","","","","","","","","","","","","","","","","","","","","","","","","","","","","","","","","","","","","","","","","","","","","","","","","","","","","","","","","","","","","","","","","","","SYN07087470 32965 51618 10202 20090 39946 40058 53001 80006 333 56000 852//=","","","","","","","","","",""
"87470099999","2021-08-19T21:00:00","-32.5","-61.6666666","96.0","EL TREBOL, AR","FM-12","4","","48","62","","","-0.07","2","61","BKN:05 246","29.78","29.44","9.32","54","140","","6","","","","","","","","","","","","","","","","","","","","","","","","","","","","","","","","","","","","","","","","","","","","","","","","","","","","","","","","","","","","","","","","","","","","","","","","","","","","","","","","","","","","","","","","","","","SYN08287470 32965 51405 10165 20090 39970 40084 52023 80006 333 10210 20130 56009 85275=","","","","","","","","","",""
"87470099999","2021-08-20T09:00:00","-32.5","-61.6666666","96.0","EL TREBOL, AR","FM-12","4","","42","50","","","-0.07","3","76","SCT:04 246","30.04","29.70","9.32","46","160","","9","","","","","","","","","","","","","","","","","","","","","","","","","","","","","","","","","","","","","","","","","","","","","","","","","","","","","","","","","","","","","","","","","","","","","","","","","","","","","","","","","","","","","","","","","","","SYN08887470 31965 41608 10098 20057 30057 40172 53024 701// 80005 333 10165 20094 56000 84275=","","","","","","","","","",""
"87470099999","2021-08-20T15:00:00","-32.5","-61.6666666","96.0","EL TREBOL, AR","FM-12","4","","33","68","","","+0.04","6","27","FEW:02 89","29.99","29.66","9.32","51","200","","6","","","","","","","","","","","","","","","","","","","","","","","","","","","","","","","","","","","","","","","","","","","","","","","","","","","","","","","","","","","","","","","","","","","","","","","","","","","","","","","","","","","","","","","","","","","SYN07687470 32965 42005 10202 20005 30044 40157 56013 82044 333 56000 57300 82359=","","","","","","","","","",""
"87470099999","2021-08-20T21:00:00","-32.5","-61.6666666","96.0","EL TREBOL, AR","FM-12","4","","51","58","","","-0.02","2","78","","30.03","29.69","9.32","54","140","","9","","","","","","","","","","","","","","","","","","","","","","","","","","","","","","","","","","","","","","","","","","","","","","","","","","","","","","","","","","","","","","","","","","","","","","","","","","","","","","","","","","","","","","","","","","","SYN06487470 32965 01408 10142 20104 30054 40170 52008 333 10215 20098=","","","","","","","","","",""
"87470099999","2021-08-21T09:00:00","-32.5","-61.6666666","96.0","EL TREBOL, AR","FM-12","4","","37","47","","","+0.04","6","68","BKN:05 246","29.98","29.64","9.32","42","070","","2","","","","","","","","","","","","","","","","","","","","","","","","","","","","","","","","","","","","","","","","","","","","","","","","","","","","","","","","","","","","","","","","","","","","","","","","","","","","","","","","","","","","","","","","","","","SYN08887470 31965 50702 10083 20026 30036 40151 56013 702// 80005 333 10142 20076 56000 85275=","","","","","","","","","",""
"87470099999","2021-08-21T15:00:00","-32.5","-61.6666666","96.0","EL TREBOL, AR","FM-12","4","","31","70","","","+0.17","5","23","SCT:03 246","29.75","29.41","9.32","51","050","","15","","","","","","","","","","","","","","","","","","","","","","","","","","","","","","","","","","","","","","","","","","","","","","","","","","","","","","","","","","","","","","","","","","","","","","","","","","","","","","","","","","","","","","","","","","","SYN07087470 32965 30513 10211 21007 39961 40074 55056 80005 333 56000 83275=","","","","","","","","","",""
"87470099999","2021-08-21T21:00:00","-32.5","-61.6666666","96.0","EL TREBOL, AR","FM-12","4","","44","58","","","+0.02","6","61","FEW:02 246","29.60","29.26","9.32","51","050","","2","","","","","","","","","","","","","","","","","","","","","","","","","","","","","","","","","","","","","","","","","","","","","","","","","","","","","","","","","","","","","","","","","","","","","","","","","","","","","","","","","","","","","","","","","","","SYN08287470 32965 20502 10144 20069 39910 40025 56008 80005 333 10222 20083 56000 82275=","","","","","","","","","",""
"87470099999","2021-08-22T09:00:00","-32.5","-61.6666666","96.0","EL TREBOL, AR","FM-12","4","","44","46","","","-0.09","3","92","","29.79","29.45","9.32","45","230","","2","","","","","","","","","","","","","","","","","","","","","","","","","","","","","","","","","","","","","","","","","","","","","","","","","","","","","","","","","","","","","","","","","","","","","","","","","","","","","","","","","","","","","","","","","","","SYN07087470 31965 02302 10080 20067 39972 40087 53032 702// 333 10144 20057=","","","","","","","","","",""
"87470099999","2021-08-22T15:00:00","-32.5","-61.6666666","96.0","EL TREBOL, AR","FM-12","4","","22","72","","","+0.04","6","15","FEW:02 246","29.79","29.45","9.32","50","200","","15","","","","","","","","","","","","","","","","","","","","","","","","","","","","","","","","","","","","","","","","","","","","","","","","","","","","","","","","","","","","","","","","","","","","","","","","","","","","","","","","","","","","","","","","","","","SYN07087470 32965 22013 10225 21056 39974 40087 56013 80004 333 56000 82075=","","","","","","","","","",""
"87470099999","2021-08-22T21:00:00","-32.5","-61.6666666","96.0","EL TREBOL, AR","FM-12","4","","25","53","","","-0.06","3","34","","29.86","29.52","9.32","41","200","","2","","","","","","","","","","","","","","","","","","","","","","","","","","","","","","","","","","","","","","","","","","","","","","","","","","","","","","","","","","","","","","","","","","","","","","","","","","","","","","","","","","","","","","","","","","","SYN06487470 32965 02002 10114 21041 39997 40112 53019 333 10226 20080=","","","","","","","","","",""
"87470099999","2021-08-23T09:00:00","-32.5","-61.6666666","96.0","EL TREBOL, AR","FM-12","4","","23","47","","","-0.06","2","40","","29.94","29.59","9.32","38","180","","6","","","","","","","","","","","","","","","","","","","","","","","","","","","","","","","","","","","","","","","","","","","","","","","","","","","","","","","","","","","","","","","","","","","","","","","","","","","","","","","","","","","","","","","","","","","SYN06487470 32965 01805 10082 21048 30022 40138 52020 333 10121 20005=","","","","","","","","","",""
"87470099999","2021-08-23T15:00:00","-32.5","-61.6666666","96.0","EL TREBOL, AR","FM-12","4","","9","66","","","+0.04","6","11","FEW:02 246","29.88","29.54","9.32","44","140","","15","","","","","","","","","","","","","","","","","","","","","","","","","","","","","","","","","","","","","","","","","","","","","","","","","","","","","","","","","","","","","","","","","","","","","","","","","","","","","","","","","","","","","","","","","","","SYN07087470 32965 21413 10188 21125 30004 40118 56015 80004 333 56000 82075=","","","","","","","","","",""
"87470099999","2021-08-23T21:00:00","-32.5","-61.6666666","96.0","EL TREBOL, AR","FM-12","4","","25","53","","","-0.07","3","33","","29.95","29.60","9.32","41","160","","9","","","","","","","","","","","","","","","","","","","","","","","","","","","","","","","","","","","","","","","","","","","","","","","","","","","","","","","","","","","","","","","","","","","","","","","","","","","","","","","","","","","","","","","","","","","SYN06487470 32965 01608 10116 21041 30025 40141 53025 333 10191 20082=","","","","","","","","","",""
"87470099999","2021-08-24T09:00:00","-32.5","-61.6666666","96.0","EL TREBOL, AR","FM-12","4","","27","43","","","-0.03","3","55","","29.99","29.64","9.32","37","180","","6","","","","","","","","","","","","","","","","","","","","","","","","","","","","","","","","","","","","","","","","","","","","","","","","","","","","","","","","","","","","","","","","","","","","","","","","","","","","","","","","","","","","","","","","","","","SYN07087470 31965 01805 10060 21025 30038 40155 53010 702// 333 10116 20039=","","","","","","","","","",""
"87470099999","2021-08-24T15:00:00","-32.5","-61.6666666","96.0","EL TREBOL, AR","FM-12","4","","21","63","","","+0.08","6","19","SCT:03 246","29.88","29.55","9.32","45","140","","9","","","","","","","","","","","","","","","","","","","","","","","","","","","","","","","","","","","","","","","","","","","","","","","","","","","","","","","","","","","","","","","","","","","","","","","","","","","","","","","","","","","","","","","","","","","SYN07087470 32965 31408 10175 21062 30006 40120 56027 80004 333 56000 83075=","","","","","","","","","",""
"87470099999","2021-08-24T21:00:00","-32.5","-61.6666666","96.0","EL TREBOL, AR","FM-12","4","","26","54","","","-0.06","3","33","SCT:03 246","29.95","29.61","9.32","42","140","","6","","","","","","","","","","","","","","","","","","","","","","","","","","","","","","","","","","","","","","","","","","","","","","","","","","","","","","","","","","","","","","","","","","","","","","","","","","","","","","","","","","","","","","","","","","","SYN08287470 32965 31405 10125 21033 30026 40142 53021 80004 333 10185 20060 56000 83075=","","","","","","","","","",""
"87470099999","2021-08-25T09:00:00","-32.5","-61.6666666","96.0","EL TREBOL, AR","FM-12","4","","33","47","","","-0.05","3","59","SCT:03 246","29.98","29.64","9.32","41","160","","9","","","","","","","","","","","","","","","","","","","","","","","","","","","","","","","","","","","","","","","","","","","","","","","","","","","","","","","","","","","","","","","","","","","","","","","","","","","","","","","","","","","","","","","","","","","SYN08887470 31965 31608 10084 20008 30038 40154 53018 702// 80004 333 10125 20040 56000 83075=","","","","","","","","","",""
"87470099999","2021-08-25T15:00:00","-32.5","-61.6666666","96.0","EL TREBOL, AR","FM-12","4","","24","66","","","+0.03","6","20","SCT:03 246","29.95","29.61","9.32","48","200","","9","","","","","","","","","","","","","","","","","","","","","","","","","","","","","","","","","","","","","","","","","","","","","","","","","","","","","","","","","","","","","","","","","","","","","","","","","","","","","","","","","","","","","","","","","","","SYN07087470 32965 32008 10188 21045 30026 40141 56009 80005 333 56000 83275=","","","","","","","","","",""
"87470099999","2021-08-25T21:00:00","-32.5","-61.6666666","96.0","EL TREBOL, AR","FM-12","4","","28","44","","","-0.06","3","54","","30.01","29.67","9.32","38","000","","0","","","","","","","","","","","","","","","","","","","","","","","","","","","","","","","","","","","","","","","","","","","","","","","","","","","","","","","","","","","","","","","","","","","","","","","","","","","","","","","","","","","","","","","","","","","SYN06487470 32965 00000 10064 21023 30046 40164 53021 333 10191 20064=","","","","","","","","","",""
"87470099999","2021-08-26T09:00:00","-32.5","-61.6666666","96.0","EL TREBOL, AR","FM-12","4","","31","51","","","-0.03","2","47","","30.01","29.66","9.32","42","360","","6","","","","","","","","","","","","","","","","","","","","","","","","","","","","","","","","","","","","","","","","","","","","","","","","","","","","","","","","","","","","","","","","","","","","","","","","","","","","","","","","","","","","","","","","","","","SYN06487470 32965 03605 10103 21007 30045 40162 52010 333 10103 20010=","","","","","","","","","",""
"87470099999","2021-08-26T15:00:00","-32.5","-61.6666666","96.0","EL TREBOL, AR","FM-12","4","","26","72","","","+0.04","6","18","","29.92","29.58","9.32","51","360","","15","","","","","","","","","","","","","","","","","","","","","","","","","","","","","","","","","","","","","","","","","","","","","","","","","","","","","","","","","","","","","","","","","","","","","","","","","","","","","","","","","","","","","","","","","","","SYN04887470 32965 03613 10220 21034 30017 40131 56015=","","","","","","","","","",""
"87470099999","2021-08-26T21:00:00","-32.5","-61.6666666","96.0","EL TREBOL, AR","FM-12","4","","27","56","","","-0.04","3","33","","29.95","29.61","9.32","44","020","","2","","","","","","","","","","","","","","","","","","","","","","","","","","","","","","","","","","","","","","","","","","","","","","","","","","","","","","","","","","","","","","","","","","","","","","","","","","","","","","","","","","","","","","","","","","","SYN06487470 32965 00202 10135 21026 30028 40143 53012 333 10222 20103=","","","","","","","","","",""
"87470099999","2021-08-27T09:00:00","-32.5","-61.6666666","96.0","EL TREBOL, AR","FM-12","4","","30","47","","","-0.07","2","51","BKN:05 246","30.09","29.75","9.32","40","090","","6","","","","","","","","","","","","","","","","","","","","","","","","","","","","","","","","","","","","","","","","","","","","","","","","","","","","","","","","","","","","","","","","","","","","","","","","","","","","","","","","","","","","","","","","","","","SYN08287470 32965 50905 10083 21013 30076 40191 52025 80008 333 10142 20065 56009 85275=","","","","","","","","","",""
"87470099999","2021-08-27T15:00:00","-32.5","-61.6666666","96.0","EL TREBOL, AR","FM-12","4","","35","71","","","+0.04","6","27","SCT:04 246","30.04","29.70","9.32","53","340","","6","","","","","","","","","","","","","","","","","","","","","","","","","","","","","","","","","","","","","","","","","","","","","","","","","","","","","","","","","","","","","","","","","","","","","","","","","","","","","","","","","","","","","","","","","","","SYN07087470 32965 43405 10214 20018 30058 40172 56012 80008 333 56000 84275=","","","","","","","","","",""
"87470099999","2021-08-27T21:00:00","-32.5","-61.6666666","96.0","EL TREBOL, AR","FM-12","4","","39","56","","","-0.02","3","53","SCT:03 246","30.06","29.71","9.32","48","000","","0","","","","","","","","","","","","","","","","","","","","","","","","","","","","","","","","","","","","","","","","","","","","","","","","","","","","","","","","","","","","","","","","","","","","","","","","","","","","","","","","","","","","","","","","","","","SYN08287470 32965 30000 10136 20040 30062 40178 53008 80008 333 10219 20083 56000 83275=","","","","","","","","","",""
"87470099999","2021-08-28T09:00:00","-32.5","-61.6666666","96.0","EL TREBOL, AR","FM-12","4","","44","48","","","-0.06","1","85","FEW:02 89 SCT:03 246","30.11","29.77","9.32","46","050","","2","","","","","","","","","","","","","","","","","","","","","","","","","","","","","","","","","","","","","","","","","","","","","","","","","","","","","","","","","","","","","","","","","","","","","","","","","","","","","","","","","","","","","","","","","","","SYN08887470 32965 50502 10089 20065 30081 40197 51020 82054 333 10136 20073 56099 82359 83075=","","","","","","","","","",""
"87470099999","2021-08-28T15:00:00","-32.5","-61.6666666","96.0","EL TREBOL, AR","FM-12","4","","39","74","","","+0.07","6","28","FEW:02 246","30.07","29.73","9.32","56","360","","6","","","","","","","","","","","","","","","","","","","","","","","","","","","","","","","","","","","","","","","","","","","","","","","","","","","","","","","","","","","","","","","","","","","","","","","","","","","","","","","","","","","","","","","","","","","SYN07087470 32965 23605 10232 20037 30069 40183 56023 80004 333 56009 82075=","","","","","","","","","",""
"87470099999","2021-08-28T21:00:00","-32.5","-61.6666666","96.0","EL TREBOL, AR","FM-12","4","","43","59","","","-0.06","1","57","","30.14","29.80","9.32","51","000","","0","","","","","","","","","","","","","","","","","","","","","","","","","","","","","","","","","","","","","","","","","","","","","","","","","","","","","","","","","","","","","","","","","","","","","","","","","","","","","","","","","","","","","","","","","","","SYN06487470 32965 00000 10148 20062 30092 40207 51020 333 10243 20089=","","","","","","","","","",""
"87470099999","2021-08-29T09:00:00","-32.5","-61.6666666","96.0","EL TREBOL, AR","FM-12","4","","47","55","","","-0.02","1","74","","30.22","29.88","9.32","51","000","","0","","","","","","","","","","","","","","","","","","","","","","","","","","","","","","","","","","","","","","","","","","","","","","","","","","","","","","","","","","","","","","","","","","","","","","","","","","","","","","","","","","","","","","","","","","","SYN06487470 32965 00000 10128 20082 30118 40233 51008 333 10148 20043=","","","","","","","","","",""
"87470099999","2021-08-29T15:00:00","-32.5","-61.6666666","96.0","EL TREBOL, AR","FM-12","4","","48","78","","","+0.09","6","35","","30.08","29.75","9.32","61","050","","9","","","","","","","","","","","","","","","","","","","","","","","","","","","","","","","","","","","","","","","","","","","","","","","","","","","","","","","","","","","","","","","","","","","","","","","","","","","","","","","","","","","","","","","","","","","SYN04887470 32965 00508 10257 20090 30073 40186 56031=","","","","","","","","","",""
"87470099999","2021-08-29T21:00:00","-32.5","-61.6666666","96.0","EL TREBOL, AR","FM-12","4","","44","61","","","0.00","4","53","","30.07","29.73","9.32","52","050","","2","","","","","","","","","","","","","","","","","","","","","","","","","","","","","","","","","","","","","","","","","","","","","","","","","","","","","","","","","","","","","","","","","","","","","","","","","","","","","","","","","","","","","","","","","","","SYN06487470 32965 00502 10162 20065 30068 40183 54000 333 10261 20128=","","","","","","","","","",""
"87470099999","2021-08-30T09:00:00","-32.5","-61.6666666","96.0","EL TREBOL, AR","FM-12","4","","49","53","","","0.00","4","85","","30.01","29.67","9.32","51","090","","2","","","","","","","","","","","","","","","","","","","","","","","","","","","","","","","","","","","","","","","","","","","","","","","","","","","","","","","","","","","","","","","","","","","","","","","","","","","","","","","","","","","","","","","","","","","SYN06487470 32965 00902 10116 20092 30046 40161 54000 333 10162 20090=","","","","","","","","","",""
"87470099999","2021-08-30T15:00:00","-32.5","-61.6666666","96.0","EL TREBOL, AR","FM-12","4","","55","85s","","","+0.04","6","36","SCT:04 20","29.87","29.54","9.32","67","020","","9","","","","","","","","","","","","","","","","","","","","","","","","","","","","","","","","","","","","","","","","","","","","","","","","","","","","","","","","","","","","","","","","","","","","","","","","","","","","","","","","","","","","","","","","","","","SYN07687470 32565 40208 10293 20127 30002 40114 56015 84200 333 56000 57800 84820=","","","","","","","","","",""
"87470099999","2021-08-30T21:00:00","-32.5","-61.6666666","96.0","EL TREBOL, AR","FM-12","4","","55","69","","","-0.06","1","61","FEW:02 20","29.89","29.56","9.32","61","050","","2","","","","","","","","","","","","","","","","","","","","","","","","","","","","","","","","","","","","","","","","","","","","","","","","","","","","","","","","","","","","","","","","","","","","","","","","","","","","","","","","","","","","","","","","","","","SYN08287470 32565 40502 10208 20130 30009 40122 51020 82254 333 10297 20116 57899 82820=","","","","","","","","","",""
"87470099999","2021-08-31T09:00:00","-32.5","-61.6666666","96.0","EL TREBOL, AR","FM-12","4","","59","67","","","-0.04","2","76","BKN:06 20","29.91","29.58","9.32","62","050","","9","","","","","","","","","","","","","","","","","","","","","","","","","","","","","","","","","","","","","","","","","","","","","","","","","","","","","","","","","","","","","","","","","","","","","","","","","","","","","","","","","","","","","","","","","","","SYN08887470 32565 60508 10194 20150 30016 40127 52015 86200 333 10215 20180 56900 57899 86820=","","","","","","","","","",""
"87470099999","2021-08-31T15:00:00","-32.5","-61.6666666","96.0","EL TREBOL, AR","FM-12","4","","56","88","","","+0.09","5","35","BKN:05 21","29.78","29.45","9.32","68","020","","9","","","","","","","","","","","","","","","","","","","","","","","","","","","","","","","","","","","","","","","","","","","","","","","","","","","","","","","","","","","","","","","","","","","","","","","","","","","","","","","","","","","","","","","","","","","SYN07687470 32565 50208 10309 20135 39974 40083 55029 85200 333 56000 57800 85821=","","","","","","","","","",""
"87470099999","2021-08-31T21:00:00","-32.5","-61.6666666","96.0","EL TREBOL, AR","FM-12","4","","58","73","","","-0.05","1","60","","29.82","29.49","9.32","64","050","","9","","","","","","","","","","","","","","","","","","","","","","","","","","","","","","","","","","","","","","","","","","","","","","","","","","","","","","","","","","","","","","","","","","","","","","","","","","","","","","","","","","","","","","","","","","","SYN07087470 31965 00508 10228 20146 39988 40098 51018 7020/ 333 10314 20194=","","","","","","","","","",""
"87470099999","2021-09-01T09:00:00","-32.5","-61.6666666","96.0","EL TREBOL, AR","FM-12","4","","58","66","","","-0.03","2","75","SCT:04 20","29.80","29.47","9.32","61","050","","6","","","","","","","","","","","","","","","","","","","","","","","","","","","","","","","","","","","","","","","","","","","","","","","","","","","","","","","","","","","","","","","","","","","","","","","","","","","","","","","","","","","","","","","","","","","SYN004BUFR","","","","","","","","","",""
"87470099999","2021-09-01T15:00:00","-32.5","-61.6666666","96.0","EL TREBOL, AR","FM-12","4","","57","84","","","+0.09","6","39","SCT:04 20 SCT:04 89","29.69","29.36","9.32","67","020","","6","","","","","","","","","","","","","","","","","","","","","","","","","","","","","","","","","","","","","","","","","","","","","","","","","","","","","","","","","","","","","","","","","","","","","","","","","","","","","","","","","","","","","","","","","","","SYN08287470 32565 80205 10291 20138 39944 40054 56032 8425/ 333 56009 57800 84820 84359=","","","","","","","","","",""
"87470099999","2021-09-01T21:00:00","-32.5","-61.6666666","96.0","EL TREBOL, AR","FM-12","4","","63","64","","","-0.10","1","98","BKN:05 18 SCT:03 89","29.83","29.49","8.08","63","140","","9","","","","","","","","","","","","","","","","","","","","","","","","","","","","","","","","","","","","","","","","","","","","","","","","","","","","","","","","","","","","","","","","","","","","","","","","","","","","","","","","","","","","","","","","","","","SYN10087470 11463 81408 10178 20175 39988 40100 51033 60031 71322 85720 333 10291 20178 56990 85718 83559=","","","","","","","","","",""
"87470099999","2021-09-02T09:00:00","-32.5","-61.6666666","96.0","EL TREBOL, AR","FM-12","4","","59","59","","","-0.09","3","99","OVC:08 17","29.98","29.65","9.32","59","180","","9","","","","","","","","","","","","","","","","","","","","","","","","","","","","","","","","","","","","","","","","","","","","","","","","","","","","","","","","","","","","","","","","","","","","","","","","","","","","","","","","","","","","","","","","","","","SYN10087470 01465 81808 10150 20148 30040 40153 53030 60354 702// 887// 333 10178 20150 56099 60322 88717=","","","","","","","","","",""
"87470099999","2021-09-02T15:00:00","-32.5","-61.6666666","96.0","EL TREBOL, AR","FM-12","4","","61","61","","||DZ","+0.08","6","99","OVC:08 16","30.00","29.67","1.86","61","160","","6","","","","","","","","","","","","","","","","","","","","","","","","","","","","","","","","","","","","","","","","","","","","","","","","","","","","","","","","","","","","","","","","","","","","","","","","","","","","","","","","","","","","","","","","","","","SYN08287470 11430 81605 10161 20159 30046 40160 56027 60021 75552 887// 333 56099 88716=","","","","","","","","","",""
"87470099999","2021-09-02T21:00:00","-32.5","-61.6666666","96.0","EL TREBOL, AR","FM-12","4","","56","58","","||DZ","-0.04","1","96","BKN:05 18 SCT:03 89","30.04","29.70","7.46","57","160","","6","","","","","","","","","","","","","","","","","","","","","","","","","","","","","","","","","","","","","","","","","","","","","","","","","","","","","","","","","","","","","","","","","","","","","","","","","","","","","","","","","","","","","","","","","","","SYN10087470 11462 81605 10142 20135 30058 40173 51015 69951 75052 85720 333 10165 20142 56990 85718 83559=","","","","","","","","","",""
"87470099999","2021-09-03T09:00:00","-32.5","-61.6666666","96.0","EL TREBOL, AR","FM-12","4","","57","58","","||DZ","-0.01","2","99","OVC:08 18","30.05","29.71","3.11","57","140","","6","","","","","","","","","","","","","","","","","","","","","","","","","","","","","","","","","","","","","","","","","","","","","","","","","","","","","","","","","","","","","","","","","","","","","","","","","","","","","","","","","","","","","","","","","","","SYN10087470 01450 81405 10142 20140 30062 40176 52005 60014 75052 88700 333 10145 20137 56900 69952 88718=","","","","","","","","","",""
"87470099999","2021-09-03T15:00:00","-32.5","-61.6666666","96.0","EL TREBOL, AR","FM-12","4","","56","61","","","+0.02","6","85","OVC:08 17","30.01","29.67","9.32","58","070","","2","","","","","","","","","","","","","","","","","","","","","","","","","","","","","","","","","","","","","","","","","","","","","","","","","","","","","","","","","","","","","","","","","","","","","","","","","","","","","","","","","","","","","","","","","","","SYN07087470 32465 80702 10161 20135 30048 40162 56008 887// 333 56099 88717=","","","","","","","","","",""
"87470099999","2021-09-03T21:00:00","-32.5","-61.6666666","96.0","EL TREBOL, AR","FM-12","4","","58","59","","","+0.02","6","94","BKN:06 18","29.96","29.63","8.08","58","140","","6","","","","","","","","","","","","","","","","","","","","","","","","","","","","","","","","","","","","","","","","","","","","","","","","","","","","","","","","","","","","","","","","","","","","","","","","","","","","","","","","","","","","","","","","","","","SYN08287470 32463 81405 10152 20142 30033 40147 56008 86720 333 10163 20142 56990 86718=","","","","","","","","","",""
"87470099999","2021-09-04T09:00:00","-32.5","-61.6666666","96.0","EL TREBOL, AR","FM-12","4","","58","59","","","+0.06","6","97","OVC:08 20","29.91","29.57","9.32","58","050","","9","","","","","","","","","","","","","","","","","","","","","","","","","","","","","","","","","","","","","","","","","","","","","","","","","","","","","","","","","","","","","","","","","","","","","","","","","","","","","","","","","","","","","","","","","","","SYN07687470 32565 80508 10151 20146 30014 40127 56020 887// 333 10152 20147 88720=","","","","","","","","","",""
"87470099999","2021-09-04T15:00:00","-32.5","-61.6666666","96.0","EL TREBOL, AR","FM-12","4","","60","70","","","+0.07","6","72","OVC:08 20","29.85","29.52","9.32","64","360","","6","","","","","","","","","","","","","","","","","","","","","","","","","","","","","","","","","","","","","","","","","","","","","","","","","","","","","","","","","","","","","","","","","","","","","","","","","","","","","","","","","","","","","","","","","","","SYN06487470 32565 83605 10210 20157 39997 40109 56023 887// 333 88720=","","","","","","","","","",""
"87470099999","2021-09-04T21:00:00","-32.5","-61.6666666","96.0","EL TREBOL, AR","FM-12","4","","55","61","","","-0.05","1","81","FEW:02 25","29.93","29.59","9.32","58","230","","9","","","","","","","","","","","","","","","","","","","","","","","","","","","","","","","","","","","","","","","","","","","","","","","","","","","","","","","","","","","","","","","","","","","","","","","","","","","","","","","","","","","","","","","","","","","SYN09487470 11565 22308 10162 20130 30021 40134 51017 69901 70181 82500 333 10213 20151 56900 82625=","","","","","","","","","",""
"87470099999","2021-09-05T15:00:00","-32.5","-61.6666666","96.0","EL TREBOL, AR","FM-12","4","","54","63","","","+0.07","6","73","BKN:05 20","29.96","29.63","9.32","58","070","","9","","","","","","","","","","","","","","","","","","","","","","","","","","","","","","","","","","","","","","","","","","","","","","","","","","","","","","","","","","","","","","","","","","","","","","","","","","","","","","","","","","","","","","","","","","","SYN07087470 32565 50708 10172 20122 30033 40147 56024 85500 333 56900 85620=","","","","","","","","","",""
"87470099999","2021-09-05T21:00:00","-32.5","-61.6666666","96.0","EL TREBOL, AR","FM-12","4","","54","59","","","-0.01","3","85","FEW:02 20","29.97","29.63","9.32","56","140","","6","","","","","","","","","","","","","","","","","","","","","","","","","","","","","","","","","","","","","","","","","","","","","","","","","","","","","","","","","","","","","","","","","","","","","","","","","","","","","","","","","","","","","","","","","","","SYN08287470 32565 31405 10150 20125 30034 40149 53003 82550 333 10182 20121 56990 82620=","","","","","","","","","",""
"87470099999","2021-09-06T09:00:00","-32.5","-61.6666666","96.0","EL TREBOL, AR","FM-12","4","","54","56","","","0.00","4","91","SCT:04 20","29.93","29.59","9.32","55","090","","6","","","","","","","","","","","","","","","","","","","","","","","","","","","","","","","","","","","","","","","","","","","","","","","","","","","","","","","","","","","","","","","","","","","","","","","","","","","","","","","","","","","","","","","","","","","SYN004BUFR","","","","","","","","","",""
"87470099999","2021-09-06T15:00:00","-32.5","-61.6666666","96.0","EL TREBOL, AR","FM-12","4","","56","71","","","+0.02","6","60","SCT:04 20","29.83","29.50","9.32","62","070","","9","","","","","","","","","","","","","","","","","","","","","","","","","","","","","","","","","","","","","","","","","","","","","","","","","","","","","","","","","","","","","","","","","","","","","","","","","","","","","","","","","","","","","","","","","","","SYN07687470 32565 60708 10217 20135 39990 40103 56008 84260 333 56000 57800 84820=","","","","","","","","","",""
"87470099999","2021-09-06T21:00:00","-32.5","-61.6666666","96.0","EL TREBOL, AR","FM-12","4","","60","62","","","-0.07","3","91","BKN:05 20 SCT:03 89","29.88","29.55","9.32","61","140","","6","","","","","","","","","","","","","","","","","","","","","","","","","","","","","","","","","","","","","","","","","","","","","","","","","","","","","","","","","","","","","","","","","","","","","","","","","","","","","","","","","","","","","","","","","","","SYN08287470 32565 81405 10169 20154 30006 40120 53025 8555/ 333 10221 20136 85620 83359=","","","","","","","","","",""
"87470099999","2021-09-07T09:00:00","-32.5","-61.6666666","96.0","EL TREBOL, AR","FM-12","4","","57","59","","","-0.04","2","93","OVC:08 18","29.82","29.49","9.32","58","160","","6","","","","","","","","","","","","","","","","","","","","","","","","","","","","","","","","","","","","","","","","","","","","","","","","","","","","","","","","","","","","","","","","","","","","","","","","","","","","","","","","","","","","","","","","","","","SYN10087470 01465 81605 10150 20139 39986 40099 52015 69904 70252 88700 333 10169 20130 56900 69902 88718=","","","","","","","","","",""
"87470099999","2021-09-07T15:00:00","-32.5","-61.6666666","96.0","EL TREBOL, AR","FM-12","4","","57","64","","","+0.03","6","77","OVC:08 17","29.75","29.41","9.32","60","200","","9","","","","","","","","","","","","","","","","","","","","","","","","","","","","","","","","","","","","","","","","","","","","","","","","","","","","","","","","","","","","","","","","","","","","","","","","","","","","","","","","","","","","","","","","","","","SYN07087470 32465 82008 10180 20138 39961 40074 56011 887// 333 56099 88717=","","","","","","","","","",""
"87470099999","2021-09-07T21:00:00","-32.5","-61.6666666","96.0","EL TREBOL, AR","FM-12","4","","58","61","","||DZ","-0.12","1","91","OVC:08 20","29.85","29.51","9.32","59","180","","9","","","","","","","","","","","","","","","","","","","","","","","","","","","","","","","","","","","","","","","","","","","","","","","","","","","","","","","","","","","","","","","","","","","","","","","","","","","","","","","","","","","","","","","","","","","SYN08887470 11565 81808 10159 20145 39993 40107 51040 69901 75052 887// 333 10185 20150 88720=","","","","","","","","","",""
"87470099999","2021-09-08T09:00:00","-32.5","-61.6666666","96.0","EL TREBOL, AR","FM-12","4","","49","52","","","0.00","4","90","OVC:08 18","29.83","29.50","9.32","50","230","","9","","","","","","","","","","","","","","","","","","","","","","","","","","","","","","","","","","","","","","","","","","","","","","","","","","","","","","","","","","","","","","","","","","","","","","","","","","","","","","","","","","","","","","","","","","","SYN10087470 01465 82308 10110 20094 39989 40103 54000 69954 702// 887// 333 10159 20106 56099 69952 88718=","","","","","","","","","",""
"87470099999","2021-09-08T15:00:00","-32.5","-61.6666666","96.0","EL TREBOL, AR","FM-12","4","","50","57","","","+0.02","6","77","OVC:08 17","29.86","29.52","9.32","53","230","","21","","","","","","","","","","","","","","","","","","","","","","","","","","","","","","","","","","","","","","","","","","","","","","","","","","","","","","","","","","","","","","","","","","","","","","","","","","","","","","","","","","","","","","","","","","","SYN08287470 11465 82318 10139 20099 39997 40111 56008 69971 70252 887// 333 56099 88717=","","","","","","","","","",""
"87470099999","2021-09-10T15:00:00","-32.5","-61.6666666","96.0","EL TREBOL, AR","FM-12","4","","51","67","","","+0.04","7","58","","30.03","29.70","9.32","58","090","","2","","","","","","","","","","","","","","","","","","","","","","","","","","","","","","","","","","","","","","","","","","","","","","","","","","","","","","","","","","","","","","","","","","","","","","","","","","","","","","","","","","","","","","","","","","","SYN04887470 32965 00902 10192 20108 30056 40170 57013=","","","","","","","","","",""
"87470099999","2021-09-10T21:00:00","-32.5","-61.6666666","96.0","EL TREBOL, AR","FM-12","4","","49","55","","","-0.06","1","78","FEW:01 89","30.04","29.70","9.32","52","050","","2","","","","","","","","","","","","","","","","","","","","","","","","","","","","","","","","","","","","","","","","","","","","","","","","","","","","","","","","","","","","","","","","","","","","","","","","","","","","","","","","","","","","","","","","","","","SYN08287470 32965 10502 10130 20093 30057 40173 51020 81050 333 10195 20092 56090 81359=","","","","","","","","","",""
"87470099999","2021-09-11T09:00:00","-32.5","-61.6666666","96.0","EL TREBOL, AR","FM-12","4","","51","54","","","-0.03","2","89","FEW:02 246","29.96","29.62","9.32","52","050","","9","","","","","","","","","","","","","","","","","","","","","","","","","","","","","","","","","","","","","","","","","","","","","","","","","","","","","","","","","","","","","","","","","","","","","","","","","","","","","","","","","","","","","","","","","","","SYN08287470 32965 20508 10123 20106 30030 40145 52010 80008 333 10130 20075 56009 82275=","","","","","","","","","",""
"87470099999","2021-09-12T09:00:00","-32.5","-61.6666666","96.0","EL TREBOL, AR","FM-12","4","","54","64","","","-0.04","2","71","FEW:01 246","29.66","29.33","9.32","58","360","","9","","","","","","","","","","","","","","","","","","","","","","","","","","","","","","","","","","","","","","","","","","","","","","","","","","","","","","","","","","","","","","","","","","","","","","","","","","","","","","","","","","","","","","","","","","","SYN08287470 32965 13608 10176 20122 39933 40045 52015 80008 333 10177 20120 56009 81275=","","","","","","","","","",""
"87470099999","2021-09-12T15:00:00","-32.5","-61.6666666","96.0","EL TREBOL, AR","FM-12","4","","60","84","","","+0.08","7","45","","29.57","29.24","9.32","69","320","","6","","","","","","","","","","","","","","","","","","","","","","","","","","","","","","","","","","","","","","","","","","","","","","","","","","","","","","","","","","","","","","","","","","","","","","","","","","","","","","","","","","","","","","","","","","","SYN04887470 32965 03205 10288 20157 39902 40012 57028=","","","","","","","","","",""
"87470099999","2021-09-12T21:00:00","-32.5","-61.6666666","96.0","EL TREBOL, AR","FM-12","4","","55","65","","","-0.08","2","70","FEW:01 246","29.72","29.39","9.32","59","180","","15","","","","","","","","","","","","","","","","","","","","","","","","","","","","","","","","","","","","","","","","","","","","","","","","","","","","","","","","","","","","","","","","","","","","","","","","","","","","","","","","","","","","","","","","","","","SYN08287470 32965 11813 10186 20130 39952 40063 52028 80008 333 10290 20176 56009 81275=","","","","","","","","","",""
"87470099999","2021-09-13T09:00:00","-32.5","-61.6666666","96.0","EL TREBOL, AR","FM-12","4","","57","59","","","-0.04","2","93","BKN:05 18","29.70","29.37","9.32","58","360","","0","","","","","","","","","","","","","","","","","","","","","","","","","","","","","","","","","","","","","","","","","","","","","","","","","","","","","","","","","","","","","","","","","","","","","","","","","","","","","","","","","","","","","","","","","","","SYN004BUFR","","","","","","","","","",""
"87470099999","2021-09-13T15:00:00","-32.5","-61.6666666","96.0","EL TREBOL, AR","FM-12","4","","56","73","","","+0.02","6","55","","29.67","29.34","9.32","63","180","","15","","","","","","","","","","","","","","","","","","","","","","","","","","","","","","","","","","","","","","","","","","","","","","","","","","","","","","","","","","","","","","","","","","","","","","","","","","","","","","","","","","","","","","","","","","","SYN04887470 32965 01813 10230 20135 39937 40048 56007=","","","","","","","","","",""
"87470099999","2021-09-14T09:00:00","-32.5","-61.6666666","96.0","EL TREBOL, AR","FM-12","4","","36","50","","","-0.06","2","58","","30.10","29.76","9.32","44","230","","9","","","","","","","","","","","","","","","","","","","","","","","","","","","","","","","","","","","","","","","","","","","","","","","","","","","","","","","","","","","","","","","","","","","","","","","","","","","","","","","","","","","","","","","","","","","SYN06487470 32965 02308 10102 20023 30077 40192 52020 333 10166 20060=","","","","","","","","","",""
"87470099999","2021-09-14T15:00:00","-32.5","-61.6666666","96.0","EL TREBOL, AR","FM-12","4","","27","66","","","+0.02","6","23","","30.06","29.73","9.32","48","230","","9","","","","","","","","","","","","","","","","","","","","","","","","","","","","","","","","","","","","","","","","","","","","","","","","","","","","","","","","","","","","","","","","","","","","","","","","","","","","","","","","","","","","","","","","","","","SYN04887470 32965 02308 10188 21027 30068 40181 56007=","","","","","","","","","",""
"87470099999","2021-09-15T09:00:00","-32.5","-61.6666666","96.0","EL TREBOL, AR","FM-12","4","","40","50","","","-0.04","2","67","","30.19","29.84","9.32","45","000","","0","","","","","","","","","","","","","","","","","","","","","","","","","","","","","","","","","","","","","","","","","","","","","","","","","","","","","","","","","","","","","","","","","","","","","","","","","","","","","","","","","","","","","","","","","","","SYN06487470 32965 00000 10102 20042 30106 40223 52015 333 10102 20010=","","","","","","","","","",""
"87470099999","2021-09-15T15:00:00","-32.5","-61.6666666","96.0","EL TREBOL, AR","FM-12","4","","30","70","","","+0.05","6","23","","30.12","29.78","9.32","51","360","","2","","","","","","","","","","","","","","","","","","","","","","","","","","","","","","","","","","","","","","","","","","","","","","","","","","","","","","","","","","","","","","","","","","","","","","","","","","","","","","","","","","","","","","","","","","","SYN04887470 32965 03602 10212 21009 30085 40200 56017=","","","","","","","","","",""
"87470099999","2021-09-16T09:00:00","-32.5","-61.6666666","96.0","EL TREBOL, AR","FM-12","4","","39","56","","","-0.04","2","54","","30.25","29.91","9.32","48","360","","9","","","","","","","","","","","","","","","","","","","","","","","","","","","","","","","","","","","","","","","","","","","","","","","","","","","","","","","","","","","","","","","","","","","","","","","","","","","","","","","","","","","","","","","","","","","SYN06487470 32965 03608 10132 20040 30129 40245 52015 333 10133 20065=","","","","","","","","","",""
"87470099999","2021-09-16T15:00:00","-32.5","-61.6666666","96.0","EL TREBOL, AR","FM-12","4","","31","75","","","+0.09","5","20","","30.15","29.81","9.32","54","020","","9","","","","","","","","","","","","","","","","","","","","","","","","","","","","","","","","","","","","","","","","","","","","","","","","","","","","","","","","","","","","","","","","","","","","","","","","","","","","","","","","","","","","","","","","","","","SYN04887470 32965 00208 10241 21006 30096 40210 55029=","","","","","","","","","",""
"87470099999","2021-09-17T09:00:00","-32.5","-61.6666666","96.0","EL TREBOL, AR","FM-12","4","","44","53","","","-0.01","2","72","","30.04","29.71","9.32","49","090","","6","","","","","","","","","","","","","","","","","","","","","","","","","","","","","","","","","","","","","","","","","","","","","","","","","","","","","","","","","","","","","","","","","","","","","","","","","","","","","","","","","","","","","","","","","","","SYN06487470 32965 00905 10116 20066 30060 40174 52005 333 10142 20082=","","","","","","","","","",""
"87470099999","2021-09-17T15:00:00","-32.5","-61.6666666","96.0","EL TREBOL, AR","FM-12","4","","39","78","","","+0.06","6","25","","29.92","29.59","9.32","57","050","","6","","","","","","","","","","","","","","","","","","","","","","","","","","","","","","","","","","","","","","","","","","","","","","","","","","","","","","","","","","","","","","","","","","","","","","","","","","","","","","","","","","","","","","","","","","","SYN04887470 32965 00505 10253 20040 30020 40133 56019=","","","","","","","","","",""
"87470099999","2021-09-17T21:00:00","-32.5","-61.6666666","96.0","EL TREBOL, AR","FM-12","4","","50","61","","","-0.01","2","66","","29.89","29.56","9.32","55","000","","0","","","","","","","","","","","","","","","","","","","","","","","","","","","","","","","","","","","","","","","","","","","","","","","","","","","","","","","","","","","","","","","","","","","","","","","","","","","","","","","","","","","","","","","","","","","SYN06487470 32965 00000 10162 20098 30009 40123 52003 333 10262 20116=","","","","","","","","","",""
"87470099999","2021-09-18T09:00:00","-32.5","-61.6666666","96.0","EL TREBOL, AR","FM-12","4","","53","58","","","-0.01","3","86","","29.93","29.59","9.32","55","050","","6","","","","","","","","","","","","","","","","","","","","","","","","","","","","","","","","","","","","","","","","","","","","","","","","","","","","","","","","","","","","","","","","","","","","","","","","","","","","","","","","","","","","","","","","","","","SYN07087470 31965 00505 10142 20118 30021 40135 53005 702// 333 10162 20094=","","","","","","","","","",""
"87470099999","2021-09-18T15:00:00","-32.5","-61.6666666","96.0","EL TREBOL, AR","FM-12","4","","51","81","","","+0.08","6","35","","29.82","29.49","9.32","63","050","","9","","","","","","","","","","","","","","","","","","","","","","","","","","","","","","","","","","","","","","","","","","","","","","","","","","","","","","","","","","","","","","","","","","","","","","","","","","","","","","","","","","","","","","","","","","","SYN04887470 32965 00508 10271 20104 39988 40099 56028=","","","","","","","","","",""
"87470099999","2021-09-18T21:00:00","-32.5","-61.6666666","96.0","EL TREBOL, AR","FM-12","4","","54","65","","","-0.04","3","67","","29.83","29.50","9.32","59","070","","6","","","","","","","","","","","","","","","","","","","","","","","","","","","","","","","","","","","","","","","","","","","","","","","","","","","","","","","","","","","","","","","","","","","","","","","","","","","","","","","","","","","","","","","","","","","SYN06487470 32965 00705 10186 20122 39989 40102 53015 333 10271 20142=","","","","","","","","","",""
"87470099999","2021-09-19T09:00:00","-32.5","-61.6666666","96.0","EL TREBOL, AR","FM-12","4","","57","59","","","-0.06","3","91","BKN:06 89","29.85","29.51","9.32","58","050","","2","","","","","","","","","","","","","","","","","","","","","","","","","","","","","","","","","","","","","","","","","","","","","","","","","","","","","","","","","","","","","","","","","","","","","","","","","","","","","","","","","","","","","","","","","","","SYN08887470 31965 80502 10151 20137 39994 40107 53020 702// 86054 333 10186 20127 56000 86359=","","","","","","","","","",""
"87470099999","2021-09-19T15:00:00","-32.5","-61.6666666","96.0","EL TREBOL, AR","FM-12","4","","58","77","","","+0.12","5","51","BKN:07 246","29.68","29.35","9.32","65","090","","6","","","","","","","","","","","","","","","","","","","","","","","","","","","","","","","","","","","","","","","","","","","","","","","","","","","","","","","","","","","","","","","","","","","","","","","","","","","","","","","","","","","","","","","","","","","SYN07087470 32965 70905 10251 20143 39940 40051 55040 80005 333 56000 87275=","","","","","","","","","",""
"87470099999","2021-09-19T21:00:00","-32.5","-61.6666666","96.0","EL TREBOL, AR","FM-12","4","","60","65","","","-0.12","3","84","BKN:05 20 SCT:03 89","29.79","29.46","9.32","62","140","","9","","","","","","","","","","","","","","","","","","","","","","","","","","","","","","","","","","","","","","","","","","","","","","","","","","","","","","","","","","","","","","","","","","","","","","","","","","","","","","","","","","","","","","","","","","","SYN08887470 32565 81408 10185 20158 39976 40088 53040 8575/ 333 10257 20151 56009 85720 83359=","","","","","","","","","",""
"87470099999","2021-09-20T09:00:00","-32.5","-61.6666666","96.0","EL TREBOL, AR","FM-12","4","","57","61","","","-0.15","2","89","FEW:02 18","30.01","29.67","9.32","59","200","","9","","","","","","","","","","","","","","","","","","","","","","","","","","","","","","","","","","","","","","","","","","","","","","","","","","","","","","","","","","","","","","","","","","","","","","","","","","","","","","","","","","","","","","","","","","","SYN08287470 32465 22008 10160 20141 30049 40162 52050 82500 333 10185 20150 56900 82618=","","","","","","","","","",""
"87470099999","2021-09-20T15:00:00","-32.5","-61.6666666","96.0","EL TREBOL, AR","FM-12","4","","51","71","","","0.00","4","49","SCT:03 21","30.05","29.71","9.32","60","180","","21","","","","","","","","","","","","","","","","","","","","","","","","","","","","","","","","","","","","","","","","","","","","","","","","","","","","","","","","","","","","","","","","","","","","","","","","","","","","","","","","","","","","","","","","","","","SYN07087470 32565 31818 10218 20106 30062 40175 54000 83400 333 56000 83621=","","","","","","","","","",""
"87470099999","2021-09-20T21:00:00","-32.5","-61.6666666","96.0","EL TREBOL, AR","FM-12","4","","49","63","","","-0.08","3","61","FEW:02 20","30.18","29.84","9.32","55","180","","9","","","","","","","","","","","","","","","","","","","","","","","","","","","","","","","","","","","","","","","","","","","","","","","","","","","","","","","","","","","","","","","","","","","","","","","","","","","","","","","","","","","","","","","","","","","SYN08287470 32565 21808 10170 20094 30106 40220 53028 82400 333 10221 20160 56000 82620=","","","","","","","","","",""
"87470099999","2021-09-21T09:00:00","-32.5","-61.6666666","96.0","EL TREBOL, AR","FM-12","4","","35","50","","","-0.07","2","56","SCT:03 246","30.34","30.00","9.32","43","140","","9","","","","","","","","","","","","","","","","","","","","","","","","","","","","","","","","","","","","","","","","","","","","","","","","","","","","","","","","","","","","","","","","","","","","","","","","","","","","","","","","","","","","","","","","","","","SYN08287470 32965 31408 10102 20017 30158 40274 52025 80008 333 10170 20030 56009 83275=","","","","","","","","","",""
"87470099999","2021-09-21T15:00:00","-32.5","-61.6666666","96.0","EL TREBOL, AR","FM-12","4","","29","66","","","+0.07","6","25","SCT:03 246","30.26","29.91","9.32","49","090","","2","","","","","","","","","","","","","","","","","","","","","","","","","","","","","","","","","","","","","","","","","","","","","","","","","","","","","","","","","","","","","","","","","","","","","","","","","","","","","","","","","","","","","","","","","","","SYN07087470 32965 30902 10191 21017 30130 40246 56023 80008 333 56000 83275=","","","","","","","","","",""
"87470099999","2021-09-21T21:00:00","-32.5","-61.6666666","96.0","EL TREBOL, AR","FM-12","4","","33","56","","","-0.02","3","42","","30.26","29.91","9.32","46","090","","6","","","","","","","","","","","","","","","","","","","","","","","","","","","","","","","","","","","","","","","","","","","","","","","","","","","","","","","","","","","","","","","","","","","","","","","","","","","","","","","","","","","","","","","","","","","SYN06487470 32965 00905 10134 20008 30130 40246 53007 333 10202 20102=","","","","","","","","","",""
"87470099999","2021-09-22T09:00:00","-32.5","-61.6666666","96.0","EL TREBOL, AR","FM-12","4","","44","48","","","0.00","4","87","SCT:03 18 BKN:05 89","30.16","29.82","9.32","46","090","","6","","","","","","","","","","","","","","","","","","","","","","","","","","","","","","","","","","","","","","","","","","","","","","","","","","","","","","","","","","","","","","","","","","","","","","","","","","","","","","","","","","","","","","","","","","","SYN10687470 01465 80905 10090 20069 30097 40213 54000 69954 70262 83720 333 10134 20085 56990 69952 83718 85559=","","","","","","","","","",""
"87470099999","2021-09-22T12:00:00","-32.5","-61.6666666","96.0","EL TREBOL, AR","FM-12","4","","46","57","","","+0.00","7","67","BKN:06 20","30.16","29.81","9.32","51","050","","6","","","","","","","","","","","","","","","","","","","","","","","","","","","","","","","","","","","","","","","","","","","","","","","","","","","","","","","","","","","","","","","","","","","","","","","","","","","","","","","","","","","","","","","","","","","SYN004BUFR","","","","","","","","","",""
"87470099999","2021-09-22T15:00:00","-32.5","-61.6666666","96.0","EL TREBOL, AR","FM-12","4","","46","59","","","+0.00","6","62","SCT:03 20 BKN:05 89","30.15","29.81","9.32","52","140","","6","","","","","","","","","","","","","","","","","","","","","","","","","","","","","","","","","","","","","","","","","","","","","","","","","","","","","","","","","","","","","","","","","","","","","","","","","","","","","","","","","","","","","","","","","","","SYN08287470 12565 81405 10151 20078 30094 40209 56001 69951 8375/ 333 56009 83720 85359=","","","","","","","","","",""
"87470099999","2021-09-22T21:00:00","-32.5","-61.6666666","96.0","EL TREBOL, AR","FM-12","4","","48","54","","","-0.04","3","81","BKN:05 89","30.12","29.78","9.32","51","140","","2","","","","","","","","","","","","","","","","","","","","","","","","","","","","","","","","","","","","","","","","","","","","","","","","","","","","","","","","","","","","","","","","","","","","","","","","","","","","","","","","","","","","","","","","","","","SYN08287470 32965 51402 10122 20090 30084 40200 53015 85060 333 10157 20090 56000 85359=","","","","","","","","","",""
"87470099999","2021-09-23T09:00:00","-32.5","-61.6666666","96.0","EL TREBOL, AR","FM-12","4","","48","49","","||FG","-0.03","2","97","","30.15","29.81","0.00","48","200","","6","","","","","","","","","","","","","","","","","","","","","","","","","","","","","","","","","","","","","","","","","","","","","","","","","","","","","","","","","","","","","","","","","","","","","","","","","","","","","","","","","","","","","","","","","","","SYN07687470 11/00 92005 10092 20088 30096 40211 52010 69954 74540 333 10122 20045=","","","","","","","","","",""
"87470099999","2021-09-23T15:00:00","-32.5","-61.6666666","96.0","EL TREBOL, AR","FM-12","4","","48","67","","","+0.01","6","50","BKN:05 20","30.13","29.79","9.32","57","200","","6","","","","","","","","","","","","","","","","","","","","","","","","","","","","","","","","","","","","","","","","","","","","","","","","","","","","","","","","","","","","","","","","","","","","","","","","","","","","","","","","","","","","","","","","","","","SYN07687470 32565 52005 10195 20087 30088 40203 56003 85200 333 56000 57800 85820=","","","","","","","","","",""
"87470099999","2021-09-23T21:00:00","-32.5","-61.6666666","96.0","EL TREBOL, AR","FM-12","4","","44","52","","","-0.03","3","74","","30.13","29.78","9.32","48","360","","0","","","","","","","","","","","","","","","","","","","","","","","","","","","","","","","","","","","","","","","","","","","","","","","","","","","","","","","","","","","","","","","","","","","","","","","","","","","","","","","","","","","","","","","","","","","SYN004BUFR","","","","","","","","","",""
"87470099999","2021-09-24T09:00:00","-32.5","-61.6666666","96.0","EL TREBOL, AR","FM-12","4","","53","59","","","-0.04","2","81","","30.20","29.86","9.32","56","090","","6","","","","","","","","","","","","","","","","","","","","","","","","","","","","","","","","","","","","","","","","","","","","","","","","","","","","","","","","","","","","","","","","","","","","","","","","","","","","","","","","","","","","","","","","","","","SYN004BUFR","","","","","","","","","",""
"87470099999","2021-09-24T15:00:00","-32.5","-61.6666666","96.0","EL TREBOL, AR","FM-12","4","","47","74","","","+0.04","6","38","","30.10","29.77","9.32","59","020","","6","","","","","","","","","","","","","","","","","","","","","","","","","","","","","","","","","","","","","","","","","","","","","","","","","","","","","","","","","","","","","","","","","","","","","","","","","","","","","","","","","","","","","","","","","","","SYN004BUFR","","","","","","","","","",""
"87470099999","2021-09-24T21:00:00","-32.5","-61.6666666","96.0","EL TREBOL, AR","FM-12","4","","49","62","","","-0.02","3","61","","30.10","29.76","9.32","55","000","","0","","","","","","","","","","","","","","","","","","","","","","","","","","","","","","","","","","","","","","","","","","","","","","","","","","","","","","","","","","","","","","","","","","","","","","","","","","","","","","","","","","","","","","","","","","","SYN06487470 32965 00000 10168 20092 30078 40192 53007 333 10245 20152=","","","","","","","","","",""
"87470099999","2021-09-25T09:00:00","-32.5","-61.6666666","96.0","EL TREBOL, AR","FM-12","4","","51","58","","","-0.01","1","80","","30.08","29.74","9.32","54","050","","9","","","","","","","","","","","","","","","","","","","","","","","","","","","","","","","","","","","","","","","","","","","","","","","","","","","","","","","","","","","","","","","","","","","","","","","","","","","","","","","","","","","","","","","","","","","SYN004BUFR","","","","","","","","","",""
"87470099999","2021-09-25T12:00:00","-32.5","-61.6666666","96.0","EL TREBOL, AR","FM-12","4","","48","68","","","+0.10","6","49","","29.98","29.64","9.32","57","050","","6","","","","","","","","","","","","","","","","","","","","","","","","","","","","","","","","","","","","","","","","","","","","","","","","","","","","","","","","","","","","","","","","","","","","","","","","","","","","","","","","","","","","","","","","","","","SYN004BUFR","","","","","","","","","",""
"87470099999","2021-09-25T15:00:00","-32.5","-61.6666666","96.0","EL TREBOL, AR","FM-12","4","","47","77","","","+0.09","6","35","","29.89","29.55","9.32","60","020","","6","","","","","","","","","","","","","","","","","","","","","","","","","","","","","","","","","","","","","","","","","","","","","","","","","","","","","","","","","","","","","","","","","","","","","","","","","","","","","","","","","","","","","","","","","","","SYN04887470 32965 00205 10248 20081 30008 40121 56029=","","","","","","","","","",""
"87470099999","2021-09-25T18:00:00","-32.5","-61.6666666","96.0","EL TREBOL, AR","FM-12","4","","45","74","","","+0.05","6","35","","29.84","29.51","9.32","58","020","","6","","","","","","","","","","","","","","","","","","","","","","","","","","","","","","","","","","","","","","","","","","","","","","","","","","","","","","","","","","","","","","","","","","","","","","","","","","","","","","","","","","","","","","","","","","","SYN004BUFR","","","","","","","","","",""
"87470099999","2021-09-25T21:00:00","-32.5","-61.6666666","96.0","EL TREBOL, AR","FM-12","4","","49","61","","","-0.04","1","65","","29.88","29.55","9.32","55","050","","2","","","","","","","","","","","","","","","","","","","","","","","","","","","","","","","","","","","","","","","","","","","","","","","","","","","","","","","","","","","","","","","","","","","","","","","","","","","","","","","","","","","","","","","","","","","SYN004BUFR","","","","","","","","","",""
"87470099999","2021-09-26T09:00:00","-32.5","-61.6666666","96.0","EL TREBOL, AR","FM-12","4","","53","61","","","-0.06","2","75","","29.95","29.62","9.32","57","360","","9","","","","","","","","","","","","","","","","","","","","","","","","","","","","","","","","","","","","","","","","","","","","","","","","","","","","","","","","","","","","","","","","","","","","","","","","","","","","","","","","","","","","","","","","","","","SYN06487470 32965 03608 10160 20116 30029 40142 52022 333 10161 20108=","","","","","","","","","",""
"87470099999","2021-09-26T12:00:00","-32.5","-61.6666666","96.0","EL TREBOL, AR","FM-12","4","","57","77","","","+0.01","6","50","","29.94","29.61","9.32","65","360","","2","","","","","","","","","","","","","","","","","","","","","","","","","","","","","","","","","","","","","","","","","","","","","","","","","","","","","","","","","","","","","","","","","","","","","","","","","","","","","","","","","","","","","","","","","","","SYN004BUFR","","","","","","","","","",""
"87470099999","2021-09-26T15:00:00","-32.5","-61.6666666","96.0","EL TREBOL, AR","FM-12","4","","54","84","","","+0.03","6","36","","29.91","29.58","9.32","66","360","","2","","","","","","","","","","","","","","","","","","","","","","","","","","","","","","","","","","","","","","","","","","","","","","","","","","","","","","","","","","","","","","","","","","","","","","","","","","","","","","","","","","","","","","","","","","","SYN04887470 32965 03602 10290 20125 30017 40129 56009=","","","","","","","","","",""
"87470099999","2021-09-27T09:00:00","-32.5","-61.6666666","96.0","EL TREBOL, AR","FM-12","4","","56","61","","","-0.04","2","83","","29.97","29.64","9.32","58","180","","2","","","","","","","","","","","","","","","","","","","","","","","","","","","","","","","","","","","","","","","","","","","","","","","","","","","","","","","","","","","","","","","","","","","","","","","","","","","","","","","","","","","","","","","","","","","SYN004BUFR","","","","","","","","","",""
"87470099999","2021-09-27T12:00:00","-32.5","-61.6666666","96.0","EL TREBOL, AR","FM-12","4","","56","77","","","-0.01","1","49","","29.98","29.64","9.32","64","360","","0","","","","","","","","","","","","","","","","","","","","","","","","","","","","","","","","","","","","","","","","","","","","","","","","","","","","","","","","","","","","","","","","","","","","","","","","","","","","","","","","","","","","","","","","","","","SYN004BUFR","","","","","","","","","",""
"87470099999","2021-09-27T15:00:00","-32.5","-61.6666666","96.0","EL TREBOL, AR","FM-12","4","","56","84","","","+0.08","6","38","","29.89","29.56","9.32","67","360","","0","","","","","","","","","","","","","","","","","","","","","","","","","","","","","","","","","","","","","","","","","","","","","","","","","","","","","","","","","","","","","","","","","","","","","","","","","","","","","","","","","","","","","","","","","","","SYN004BUFR","","","","","","","","","",""
"87470099999","2021-09-27T18:00:00","-32.5","-61.6666666","96.0","EL TREBOL, AR","FM-12","4","","51","83","","","0.00","4","33","","29.89","29.56","9.32","64","090","","2","","","","","","","","","","","","","","","","","","","","","","","","","","","","","","","","","","","","","","","","","","","","","","","","","","","","","","","","","","","","","","","","","","","","","","","","","","","","","","","","","","","","","","","","","","","SYN004BUFR","","","","","","","","","",""
"87470099999","2021-09-27T21:00:00","-32.5","-61.6666666","96.0","EL TREBOL, AR","FM-12","4","","59","66","","","-0.06","1","78","FEW:01 89","29.94","29.61","9.32","62","180","","15","","","","","","","","","","","","","","","","","","","","","","","","","","","","","","","","","","","","","","","","","","","","","","","","","","","","","","","","","","","","","","","","","","","","","","","","","","","","","","","","","","","","","","","","","","","SYN08287470 32965 11813 10189 20150 30026 40140 51020 81020 333 10297 20163 56090 81559=","","","","","","","","","",""
"87470099999","2021-09-28T09:00:00","-32.5","-61.6666666","96.0","EL TREBOL, AR","FM-12","4","","51","54","","","-0.09","2","91","OVC:08 18","30.06","29.72","9.32","52","180","","9","","","","","","","","","","","","","","","","","","","","","","","","","","","","","","","","","","","","","","","","","","","","","","","","","","","","","","","","","","","","","","","","","","","","","","","","","","","","","","","","","","","","","","","","","","","SYN004BUFR","","","","","","","","","",""
"87470099999","2021-09-28T15:00:00","-32.5","-61.6666666","96.0","EL TREBOL, AR","FM-12","4","","56","65","","","+0.02","6","72","SCT:04 20 SCT:03 89","30.05","29.71","9.32","60","140","","6","","","","","","","","","","","","","","","","","","","","","","","","","","","","","","","","","","","","","","","","","","","","","","","","","","","","","","","","","","","","","","","","","","","","","","","","","","","","","","","","","","","","","","","","","","","SYN004BUFR","","","","","","","","","",""
"87470099999","2021-09-28T21:00:00","-32.5","-61.6666666","96.0","EL TREBOL, AR","FM-12","4","","55","59","","","-0.01","1","89","FEW:01 20","30.05","29.71","9.32","57","140","","6","","","","","","","","","","","","","","","","","","","","","","","","","","","","","","","","","","","","","","","","","","","","","","","","","","","","","","","","","","","","","","","","","","","","","","","","","","","","","","","","","","","","","","","","","","","SYN07687470 32565 31405 10148 20130 30061 40175 51005 81558 333 10193 20120 81620=","","","","","","","","","",""
"87470099999","2021-09-29T09:00:00","-32.5","-61.6666666","96.0","EL TREBOL, AR","FM-12","4","","57","58","","","0.00","4","97","BKN:07 16","29.98","29.65","9.32","57","090","","9","","","","","","","","","","","","","","","","","","","","","","","","","","","","","","","","","","","","","","","","","","","","","","","","","","","","","","","","","","","","","","","","","","","","","","","","","","","","","","","","","","","","","","","","","","","SYN08287470 32465 70908 10143 20139 30040 40154 54000 87600 333 10148 20118 56900 87716=","","","","","","","","","",""
"87470099999","2021-09-29T15:00:00","-32.5","-61.6666666","96.0","EL TREBOL, AR","FM-12","4","","53","76","","","+0.04","6","43","FEW:02 20 SCT:04 89","29.90","29.57","9.32","62","050","","6","","","","","","","","","","","","","","","","","","","","","","","","","","","","","","","","","","","","","","","","","","","","","","","","","","","","","","","","","","","","","","","","","","","","","","","","","","","","","","","","","","","","","","","","","","","SYN004BUFR","","","","","","","","","",""
"87470099999","2021-09-29T21:00:00","-32.5","-61.6666666","96.0","EL TREBOL, AR","FM-12","4","","55","65","","","+0.01","6","70","FEW:02 20","29.82","29.49","9.32","59","050","","6","","","","","","","","","","","","","","","","","","","","","","","","","","","","","","","","","","","","","","","","","","","","","","","","","","","","","","","","","","","","","","","","","","","","","","","","","","","","","","","","","","","","","","","","","","","SYN08287470 32565 40505 10181 20126 39986 40099 56005 82550 333 10252 20143 56990 82620=","","","","","","","","","",""
"87470099999","2021-09-30T09:00:00","-32.5","-61.6666666","96.0","EL TREBOL, AR","FM-12","4","","61","63","","||DZ","-0.03","2","94","OVC:08 18","29.71","29.38","3.11","62","070","","6","","","","","","","","","","","","","","","","","","","","","","","","","","","","","","","","","","","","","","","","","","","","","","","","","","","","","","","","","","","","","","","","","","","","","","","","","","","","","","","","","","","","","","","","","","","SYN004BUFR","","","","","","","","","",""
"87470099999","2021-09-30T12:00:00","-32.5","-61.6666666","96.0","EL TREBOL, AR","FM-12","4","","63","72","","","0.00","4","75","OVC:08 18","29.71","29.38","9.32","66","320","","6","","","","","","","","","","","","","","","","","","","","","","","","","","","","","","","","","","","","","","","","","","","","","","","","","","","","","","","","","","","","","","","","","","","","","","","","","","","","","","","","","","","","","","","","","","","SYN004BUFR","","","","","","","","","",""
"87470099999","2021-09-30T15:00:00","-32.5","-61.6666666","96.0","EL TREBOL, AR","FM-12","4","","59","61","","","+0.02","6","93","BKN:05 20 SCT:03 89","29.70","29.36","9.32","60","180","","9","","","","","","","","","","","","","","","","","","","","","","","","","","","","","","","","","","","","","","","","","","","","","","","","","","","","","","","","","","","","","","","","","","","","","","","","","","","","","","","","","","","","","","","","","","","SYN08287470 12565 81808 10163 20151 39944 40056 56007 69901 85760 333 56990 85720 83359=","","","","","","","","","",""
"87470099999","2021-09-30T21:00:00","-32.5","-61.6666666","96.0","EL TREBOL, AR","FM-12","4","","50","59","","","-0.09","1","73","","29.87","29.54","9.32","54","180","","9","","","","","","","","","","","","","","","","","","","","","","","","","","","","","","","","","","","","","","","","","","","","","","","","","","","","","","","","","","","","","","","","","","","","","","","","","","","","","","","","","","","","","","","","","","","SYN06487470 32965 01808 10149 20100 30004 40116 51031 333 10223 20149=","","","","","","","","","",""
"87470099999","2021-10-01T09:00:00","-32.5","-61.6666666","96.0","EL TREBOL, AR","FM-12","4","","44","57","","","-0.06","2","62","FEW:01 22","29.98","29.64","9.32","50","180","","6","","","","","","","","","","","","","","","","","","","","","","","","","","","","","","","","","","","","","","","","","","","","","","","","","","","","","","","","","","","","","","","","","","","","","","","","","","","","","","","","","","","","","","","","","","","SYN004BUFR","","","","","","","","","",""
"87470099999","2021-10-01T12:00:00","-32.5","-61.6666666","96.0","EL TREBOL, AR","FM-12","4","","31","73","","","+0.04","7","22","","29.93","29.59","9.32","53","180","","9","","","","","","","","","","","","","","","","","","","","","","","","","","","","","","","","","","","","","","","","","","","","","","","","","","","","","","","","","","","","","","","","","","","","","","","","","","","","","","","","","","","","","","","","","","","SYN004BUFR","","","","","","","","","",""
"87470099999","2021-10-01T15:00:00","-32.5","-61.6666666","96.0","EL TREBOL, AR","FM-12","4","","34","76","","","+0.06","6","22","","29.87","29.53","9.32","55","180","","9","","","","","","","","","","","","","","","","","","","","","","","","","","","","","","","","","","","","","","","","","","","","","","","","","","","","","","","","","","","","","","","","","","","","","","","","","","","","","","","","","","","","","","","","","","","SYN004BUFR","","","","","","","","","",""
"87470099999","2021-10-01T21:00:00","-32.5","-61.6666666","96.0","EL TREBOL, AR","FM-12","4","","41","63","","","-0.02","1","45","","29.88","29.55","9.32","52","090","","6","","","","","","","","","","","","","","","","","","","","","","","","","","","","","","","","","","","","","","","","","","","","","","","","","","","","","","","","","","","","","","","","","","","","","","","","","","","","","","","","","","","","","","","","","","","SYN06487470 32965 00905 10173 20052 30006 40120 51008 333 10250 20139=","","","","","","","","","",""
"87470099999","2021-10-02T09:00:00","-32.5","-61.6666666","96.0","EL TREBOL, AR","FM-12","4","","47","59","","","+0.01","6","64","FEW:02 20","29.78","29.45","9.32","53","360","","9","","","","","","","","","","","","","","","","","","","","","","","","","","","","","","","","","","","","","","","","","","","","","","","","","","","","","","","","","","","","","","","","","","","","","","","","","","","","","","","","","","","","","","","","","","","SYN07687470 32565 53608 10151 20082 39974 40086 56003 82558 333 10175 20097 82620=","","","","","","","","","",""
"87470099999","2021-10-02T15:00:00","-32.5","-61.6666666","96.0","EL TREBOL, AR","FM-12","4","","55","77","","","+0.04","7","47","SCT:04 18","29.67","29.34","9.32","64","360","","9","","","","","","","","","","","","","","","","","","","","","","","","","","","","","","","","","","","","","","","","","","","","","","","","","","","","","","","","","","","","","","","","","","","","","","","","","","","","","","","","","","","","","","","","","","","SYN004BUFR","","","","","","","","","",""
"87470099999","2021-10-02T21:00:00","-32.5","-61.6666666","96.0","EL TREBOL, AR","FM-12","4","","36","61","","","-0.18","3","39","FEW:01 20","29.89","29.56","9.32","49","180","","15","","","","","","","","","","","","","","","","","","","","","","","","","","","","","","","","","","","","","","","","","","","","","","","","","","","","","","","","","","","","","","","","","","","","","","","","","","","","","","","","","","","","","","","","","","","SYN07687470 32565 31813 10162 20020 30010 40123 53060 81558 333 10257 20151 81620=","","","","","","","","","",""
"87470099999","2021-10-03T09:00:00","-32.5","-61.6666666","96.0","EL TREBOL, AR","FM-12","4","","38","52","","","-0.07","1","59","FEW:01 89 SCT:03 266","30.06","29.72","9.32","45","180","","9","","","","","","","","","","","","","","","","","","","","","","","","","","","","","","","","","","","","","","","","","","","","","","","","","","","","","","","","","","","","","","","","","","","","","","","","","","","","","","","","","","","","","","","","","","","SYN09487470 12965 41808 10110 20033 30065 40180 51023 69974 81058 333 10162 20082 56099 81359 83277=","","","","","","","","","",""
"87470099999","2021-10-03T15:00:00","-32.5","-61.6666666","96.0","EL TREBOL, AR","FM-12","4","","26","67","","","+0.08","7","21","FEW:01 246","29.97","29.64","9.32","49","200","","9","","","","","","","","","","","","","","","","","","","","","","","","","","","","","","","","","","","","","","","","","","","","","","","","","","","","","","","","","","","","","","","","","","","","","","","","","","","","","","","","","","","","","","","","","","","SYN07087470 32965 12008 10192 21036 30036 40150 57027 80008 333 56009 81275=","","","","","","","","","",""
"87470099999","2021-10-03T21:00:00","-32.5","-61.6666666","96.0","EL TREBOL, AR","FM-12","4","","31","49","","","-0.06","3","50","","30.03","29.69","9.32","41","180","","6","","","","","","","","","","","","","","","","","","","","","","","","","","","","","","","","","","","","","","","","","","","","","","","","","","","","","","","","","","","","","","","","","","","","","","","","","","","","","","","","","","","","","","","","","","","SYN06487470 32965 01805 10094 21007 30054 40170 53020 333 10205 20094=","","","","","","","","","",""
"87470099999","2021-10-04T09:00:00","-32.5","-61.6666666","96.0","EL TREBOL, AR","FM-12","4","","39","55","","","-0.06","2","54","","30.07","29.72","9.32","47","360","","0","","","","","","","","","","","","","","","","","","","","","","","","","","","","","","","","","","","","","","","","","","","","","","","","","","","","","","","","","","","","","","","","","","","","","","","","","","","","","","","","","","","","","","","","","","","SYN004BUFR","","","","","","","","","",""
"87470099999","2021-10-04T15:00:00","-32.5","-61.6666666","96.0","EL TREBOL, AR","FM-12","4","","32","75","","","+0.05","7","20","","29.99","29.65","9.32","54","360","","6","","","","","","","","","","","","","","","","","","","","","","","","","","","","","","","","","","","","","","","","","","","","","","","","","","","","","","","","","","","","","","","","","","","","","","","","","","","","","","","","","","","","","","","","","","","SYN04887470 32965 03605 10241 21002 30042 40156 57016=","","","","","","","","","",""
"87470099999","2021-10-04T18:00:00","-32.5","-61.6666666","96.0","EL TREBOL, AR","FM-12","4","","36","72","","","+0.01","6","27","","29.98","29.65","9.32","54","360","","6","","","","","","","","","","","","","","","","","","","","","","","","","","","","","","","","","","","","","","","","","","","","","","","","","","","","","","","","","","","","","","","","","","","","","","","","","","","","","","","","","","","","","","","","","","","SYN004BUFR","","","","","","","","","",""
"87470099999","2021-10-04T21:00:00","-32.5","-61.6666666","96.0","EL TREBOL, AR","FM-12","4","","38","61","","","0.00","4","42","","29.98","29.65","9.32","50","050","","6","","","","","","","","","","","","","","","","","","","","","","","","","","","","","","","","","","","","","","","","","","","","","","","","","","","","","","","","","","","","","","","","","","","","","","","","","","","","","","","","","","","","","","","","","","","SYN004BUFR","","","","","","","","","",""
"87470099999","2021-10-05T09:00:00","-32.5","-61.6666666","96.0","EL TREBOL, AR","FM-12","4","","39","62","","","-0.03","2","43","","29.98","29.64","9.32","51","360","","9","","","","","","","","","","","","","","","","","","","","","","","","","","","","","","","","","","","","","","","","","","","","","","","","","","","","","","","","","","","","","","","","","","","","","","","","","","","","","","","","","","","","","","","","","","","SYN004BUFR","","","","","","","","","",""
"87470099999","2021-10-05T12:00:00","-32.5","-61.6666666","96.0","EL TREBOL, AR","FM-12","4","","32","74","","","+0.04","7","22","SCT:03 89","29.93","29.59","9.32","53","050","","9","","","","","","","","","","","","","","","","","","","","","","","","","","","","","","","","","","","","","","","","","","","","","","","","","","","","","","","","","","","","","","","","","","","","","","","","","","","","","","","","","","","","","","","","","","","SYN004BUFR","","","","","","","","","",""
"87470099999","2021-10-05T15:00:00","-32.5","-61.6666666","96.0","EL TREBOL, AR","FM-12","4","","33","77","","","+0.09","7","20","FEW:01 246","","","9.32","","360","","9","","","","","","","","","","","","","","","","","","","","","","","","","","","","","","","","","","","","","","","","","","","","","","","","","","","","","","","","","","","","","","","","","","","","","","","","","","","","","","","","","","","","","","","","","","","SYN004BUFR","","","","","","","","","",""
"87470099999","2021-10-05T18:00:00","-32.5","-61.6666666","96.0","EL TREBOL, AR","FM-12","4","","33","76","","","+0.06","6","21","FEW:01 246","29.83","29.50","9.32","55","050","","6","","","","","","","","","","","","","","","","","","","","","","","","","","","","","","","","","","","","","","","","","","","","","","","","","","","","","","","","","","","","","","","","","","","","","","","","","","","","","","","","","","","","","","","","","","","SYN004BUFR","","","","","","","","","",""
"87470099999","2021-10-05T21:00:00","-32.5","-61.6666666","96.0","EL TREBOL, AR","FM-12","4","","41","62","","","-0.01","3","47","","29.85","29.52","9.32","51","090","","6","","","","","","","","","","","","","","","","","","","","","","","","","","","","","","","","","","","","","","","","","","","","","","","","","","","","","","","","","","","","","","","","","","","","","","","","","","","","","","","","","","","","","","","","","","","SYN06487470 32965 00905 10168 20052 39996 40108 53005 333 10252 20166=","","","","","","","","","",""
"87470099999","2021-10-06T09:00:00","-32.5","-61.6666666","96.0","EL TREBOL, AR","FM-12","4","","43","58","","","-0.06","1","56","","30.07","29.73","9.32","50","180","","9","","","","","","","","","","","","","","","","","","","","","","","","","","","","","","","","","","","","","","","","","","","","","","","","","","","","","","","","","","","","","","","","","","","","","","","","","","","","","","","","","","","","","","","","","","","SYN06487470 32965 01808 10146 20059 30069 40183 51022 333 10168 20069=","","","","","","","","","",""
"87470099999","2021-10-06T21:00:00","-32.5","-61.6666666","96.0","EL TREBOL, AR","FM-12","4","","36","56","","","-0.06","1","47","","30.20","29.86","9.32","47","180","","6","","","","","","","","","","","","","","","","","","","","","","","","","","","","","","","","","","","","","","","","","","","","","","","","","","","","","","","","","","","","","","","","","","","","","","","","","","","","","","","","","","","","","","","","","","","SYN06487470 32965 01805 10133 20022 30112 40227 51021 333 10205 20133=","","","","","","","","","",""
"87470099999","2021-10-07T09:00:00","-32.5","-61.6666666","96.0","EL TREBOL, AR","FM-12","4","","40","53","","","-0.02","2","62","","30.16","29.82","9.32","47","050","","9","","","","","","","","","","","","","","","","","","","","","","","","","","","","","","","","","","","","","","","","","","","","","","","","","","","","","","","","","","","","","","","","","","","","","","","","","","","","","","","","","","","","","","","","","","","SYN06487470 32965 00508 10117 20047 30097 40212 52008 333 10130 20042=","","","","","","","","","",""
"87470099999","2021-10-07T15:00:00","-32.5","-61.6666666","96.0","EL TREBOL, AR","FM-12","4","","32","67","","","+0.06","7","27","","30.06","29.72","9.32","50","140","","6","","","","","","","","","","","","","","","","","","","","","","","","","","","","","","","","","","","","","","","","","","","","","","","","","","","","","","","","","","","","","","","","","","","","","","","","","","","","","","","","","","","","","","","","","","","SYN004BUFR","","","","","","","","","",""
"87470099999","2021-10-07T18:00:00","-32.5","-61.6666666","96.0","EL TREBOL, AR","FM-12","4","","32","67","","","+0.05","6","28","","30.01","29.67","9.32","50","090","","9","","","","","","","","","","","","","","","","","","","","","","","","","","","","","","","","","","","","","","","","","","","","","","","","","","","","","","","","","","","","","","","","","","","","","","","","","","","","","","","","","","","","","","","","","","","SYN004BUFR","","","","","","","","","",""
"87470099999","2021-10-07T21:00:00","-32.5","-61.6666666","96.0","EL TREBOL, AR","FM-12","4","","36","58","","","-0.02","3","44","","30.03","29.69","9.32","48","090","","6","","","","","","","","","","","","","","","","","","","","","","","","","","","","","","","","","","","","","","","","","","","","","","","","","","","","","","","","","","","","","","","","","","","","","","","","","","","","","","","","","","","","","","","","","","","SYN06487470 32965 00905 10144 20023 30053 40168 53007 333 10207 20117=","","","","","","","","","",""
"87470099999","2021-10-08T09:00:00","-32.5","-61.6666666","96.0","EL TREBOL, AR","FM-12","4","","41","53","","","-0.04","1","64","FEW:02 20 SCT:04 89","30.03","29.69","9.32","47","110","","9","","","","","","","","","","","","","","","","","","","","","","","","","","","","","","","","","","","","","","","","","","","","","","","","","","","","","","","","","","","","","","","","","","","","","","","","","","","","","","","","","","","","","","","","","","","SYN08287470 32565 81108 10117 20050 30054 40170 51014 82558 333 10144 20085 82620 84359=","","","","","","","","","",""
"87470099999","2021-10-08T15:00:00","-32.5","-61.6666666","96.0","EL TREBOL, AR","FM-12","4","","31","68","","","+0.07","7","25","FEW:02 20","29.93","29.59","9.32","50","090","","9","","","","","","","","","","","","","","","","","","","","","","","","","","","","","","","","","","","","","","","","","","","","","","","","","","","","","","","","","","","","","","","","","","","","","","","","","","","","","","","","","","","","","","","","","","","SYN06487470 32565 60908 10202 21006 30021 40134 57024 82558 333 82620=","","","","","","","","","",""
"87470099999","2021-10-08T21:00:00","-32.5","-61.6666666","96.0","EL TREBOL, AR","FM-12","4","","42","60","","","-0.11","1","52","FEW:01 89","30.03","29.69","9.32","51","140","","6","","","","","","","","","","","","","","","","","","","","","","","","","","","","","","","","","","","","","","","","","","","","","","","","","","","","","","","","","","","","","","","","","","","","","","","","","","","","","","","","","","","","","","","","","","","SYN08287470 32965 11405 10156 20057 30054 40169 51036 81050 333 10217 20117 56090 81359=","","","","","","","","","",""
"87470099999","2021-10-09T09:00:00","-32.5","-61.6666666","96.0","EL TREBOL, AR","FM-12","4","","45","55","","","-0.04","2","69","","30.05","29.71","9.32","50","090","","6","","","","","","","","","","","","","","","","","","","","","","","","","","","","","","","","","","","","","","","","","","","","","","","","","","","","","","","","","","","","","","","","","","","","","","","","","","","","","","","","","","","","","","","","","","","SYN06487470 32965 00905 10128 20073 30060 40175 52015 333 10156 20090=","","","","","","","","","",""
"87470099999","2021-10-09T15:00:00","-32.5","-61.6666666","96.0","EL TREBOL, AR","FM-12","4","","44","76","","","+0.09","7","32","","29.96","29.62","9.32","58","140","","9","","","","","","","","","","","","","","","","","","","","","","","","","","","","","","","","","","","","","","","","","","","","","","","","","","","","","","","","","","","","","","","","","","","","","","","","","","","","","","","","","","","","","","","","","","","SYN004BUFR","","","","","","","","","",""
"87470099999","2021-10-09T21:00:00","-32.5","-61.6666666","96.0","EL TREBOL, AR","FM-12","4","","50","65","","","-0.06","2","59","","29.97","29.64","9.32","57","090","","6","","","","","","","","","","","","","","","","","","","","","","","","","","","","","","","","","","","","","","","","","","","","","","","","","","","","","","","","","","","","","","","","","","","","","","","","","","","","","","","","","","","","","","","","","","","SYN004BUFR","","","","","","","","","",""
"87470099999","2021-10-10T12:00:00","-32.5","-61.6666666","96.0","EL TREBOL, AR","FM-12","4","","58","63","","","+0.01","7","86","BKN:05 20 SCT:03 89","30.01","29.68","9.32","60","140","","9","","","","","","","","","","","","","","","","","","","","","","","","","","","","","","","","","","","","","","","","","","","","","","","","","","","","","","","","","","","","","","","","","","","","","","","","","","","","","","","","","","","","","","","","","","","SYN004BUFR","","","","","","","","","",""
"87470099999","2021-10-10T15:00:00","-32.5","-61.6666666","96.0","EL TREBOL, AR","FM-12","4","","62","64","","||RA","+0.08","7","93","OVC:08 18","29.93","29.59","3.11","63","140","","6","","","","","","","","","","","","","","","","","","","","","","","","","","","","","","","","","","","","","","","","","","","","","","","","","","","","","","","","","","","","","","","","","","","","","","","","","","","","","","","","","","","","","","","","","","","SYN004BUFR","","","","","","","","","",""
"87470099999","2021-10-10T21:00:00","-32.5","-61.6666666","96.0","EL TREBOL, AR","FM-12","4","","58","61","","","-0.02","2","91","","29.94","29.60","9.32","59","140","","6","","","","","","","","","","","","","","","","","","","","","","","","","","","","","","","","","","","","","","","","","","","","","","","","","","","","","","","","","","","","","","","","","","","","","","","","","","","","","","","","","","","","","","","","","","","SYN06487470 32965 01405 10160 20146 30024 40138 52008 333 10195 20130=","","","","","","","","","",""
"87470099999","2021-10-11T09:00:00","-32.5","-61.6666666","96.0","EL TREBOL, AR","FM-12","4","","59","62","","","-0.03","2","92","","30.02","29.68","9.32","60","230","","2","","","","","","","","","","","","","","","","","","","","","","","","","","","","","","","","","","","","","","","","","","","","","","","","","","","","","","","","","","","","","","","","","","","","","","","","","","","","","","","","","","","","","","","","","","","SYN07087470 12965 02302 10164 20150 30052 40165 52010 60034 333 10164 20087=","","","","","","","","","",""
"87470099999","2021-10-11T15:00:00","-32.5","-61.6666666","96.0","EL TREBOL, AR","FM-12","4","","51","78","","","+0.06","7","39","SCT:03 20","29.95","29.62","9.32","62","180","","2","","","","","","","","","","","","","","","","","","","","","","","","","","","","","","","","","","","","","","","","","","","","","","","","","","","","","","","","","","","","","","","","","","","","","","","","","","","","","","","","","","","","","","","","","","","SYN004BUFR","","","","","","","","","",""
"87470099999","2021-10-11T21:00:00","-32.5","-61.6666666","96.0","EL TREBOL, AR","FM-12","4","","54","63","","","-0.01","2","73","","29.92","29.59","9.32","58","180","","2","","","","","","","","","","","","","","","","","","","","","","","","","","","","","","","","","","","","","","","","","","","","","","","","","","","","","","","","","","","","","","","","","","","","","","","","","","","","","","","","","","","","","","","","","","","SYN004BUFR","","","","","","","","","",""
"87470099999","2021-10-12T09:00:00","-32.5","-61.6666666","96.0","EL TREBOL, AR","FM-12","4","","55","62","","","-0.01","2","79","SCT:04 246","29.93","29.59","9.32","58","050","","6","","","","","","","","","","","","","","","","","","","","","","","","","","","","","","","","","","","","","","","","","","","","","","","","","","","","","","","","","","","","","","","","","","","","","","","","","","","","","","","","","","","","","","","","","","","SYN08287470 32965 40505 10167 20130 30021 40134 52005 80008 333 10178 20110 56009 84275=","","","","","","","","","",""
"87470099999","2021-10-12T15:00:00","-32.5","-61.6666666","96.0","EL TREBOL, AR","FM-12","4","","51","82","","","+0.10","7","34","SCT:04 246","29.74","29.41","9.32","64","050","","6","","","","","","","","","","","","","","","","","","","","","","","","","","","","","","","","","","","","","","","","","","","","","","","","","","","","","","","","","","","","","","","","","","","","","","","","","","","","","","","","","","","","","","","","","","","SYN07087470 32965 40505 10276 20104 39960 40070 57033 80008 333 56009 84275=","","","","","","","","","",""
"87470099999","2021-10-13T09:00:00","-32.5","-61.6666666","96.0","EL TREBOL, AR","FM-12","4","","60","60","","||RA","-0.03","2","100","OVC:08 18","29.69","29.36","3.11","60","140","","9","","","","","","","","","","","","","","","","","","","","","","","","","","","","","","","","","","","","","","","","","","","","","","","","","","","","","","","","","","","","","","","","","","","","","","","","","","","","","","","","","","","","","","","","","","","SYN004BUFR","","","","","","","","","",""
"87470099999","2021-10-13T15:00:00","-32.5","-61.6666666","96.0","EL TREBOL, AR","FM-12","4","","60","65","","","+0.05","7","83","OVC:08 18","29.69","29.36","9.32","62","160","","9","","","","","","","","","","","","","","","","","","","","","","","","","","","","","","","","","","","","","","","","","","","","","","","","","","","","","","","","","","","","","","","","","","","","","","","","","","","","","","","","","","","","","","","","","","","SYN08287470 11465 81608 10186 20156 39942 40053 57017 60131 70262 88500 333 56900 88618=","","","","","","","","","",""
"87470099999","2021-10-13T21:00:00","-32.5","-61.6666666","96.0","EL TREBOL, AR","FM-12","4","","58","58","","","-0.00","2","97","","29.71","29.37","1.86","58","360","","0","","","","","","","","","","","","","","","","","","","","","","","","","","","","","","","","","","","","","","","","","","","","","","","","","","","","","","","","","","","","","","","","","","","","","","","","","","","","","","","","","","","","","","","","","","","SYN004BUFR","","","","","","","","","",""
"87470099999","2021-10-14T09:00:00","-32.5","-61.6666666","96.0","EL TREBOL, AR","FM-12","4","","56","56","","","0.00","4","100","OVC:08 16","29.64","29.31","2.17","56","090","","6","","","","","","","","","","","","","","","","","","","","","","","","","","","","","","","","","","","","","","","","","","","","","","","","","","","","","","","","","","","","","","","","","","","","","","","","","","","","","","","","","","","","","","","","","","","SYN09487470 11435 80905 10136 20136 39925 40038 54000 60134 71022 88700 333 10147 20120 56900 88716=","","","","","","","","","",""
"87470099999","2021-10-14T15:00:00","-32.5","-61.6666666","96.0","EL TREBOL, AR","FM-12","4","","60","72","","","-0.02","2","65","BKN:07 18","29.64","29.31","9.32","65","180","","6","","","","","","","","","","","","","","","","","","","","","","","","","","","","","","","","","","","","","","","","","","","","","","","","","","","","","","","","","","","","","","","","","","","","","","","","","","","","","","","","","","","","","","","","","","","SYN004BUFR","","","","","","","","","",""
"87470099999","2021-10-14T18:00:00","-32.5","-61.6666666","96.0","EL TREBOL, AR","FM-12","4","","46","56","","","-0.19","2","71","FEW:02 20","29.84","29.50","9.32","51","180","","15","","","","","","","","","","","","","","","","","","","","","","","","","","","","","","","","","","","","","","","","","","","","","","","","","","","","","","","","","","","","","","","","","","","","","","","","","","","","","","","","","","","","","","","","","","","SYN004BUFR","","","","","","","","","",""
"87470099999","2021-10-14T21:00:00","-32.5","-61.6666666","96.0","EL TREBOL, AR","FM-12","4","","45","53","","","-0.06","2","74","OVC:08 18","29.90","29.57","9.32","49","180","","15","","","","","","","","","","","","","","","","","","","","","","","","","","","","","","","","","","","","","","","","","","","","","","","","","","","","","","","","","","","","","","","","","","","","","","","","","","","","","","","","","","","","","","","","","","","SYN08287470 32465 81813 10117 20072 30012 40126 52021 88500 333 10227 20117 56900 88618=","","","","","","","","","",""
"87470099999","2021-10-15T09:00:00","-32.5","-61.6666666","96.0","EL TREBOL, AR","FM-12","4","","43","54","","","-0.12","2","67","FEW:01 89","30.21","29.87","9.32","49","180","","9","","","","","","","","","","","","","","","","","","","","","","","","","","","","","","","","","","","","","","","","","","","","","","","","","","","","","","","","","","","","","","","","","","","","","","","","","","","","","","","","","","","","","","","","","","","SYN08287470 32965 11808 10120 20061 30116 40231 52040 81060 333 10120 20085 56090 81359=","","","","","","","","","",""
"87470099999","2021-10-15T15:00:00","-32.5","-61.6666666","96.0","EL TREBOL, AR","FM-12","4","","32","66","","","+0.06","7","28","","30.13","29.78","9.32","50","230","","9","","","","","","","","","","","","","","","","","","","","","","","","","","","","","","","","","","","","","","","","","","","","","","","","","","","","","","","","","","","","","","","","","","","","","","","","","","","","","","","","","","","","","","","","","","","SYN004BUFR","","","","","","","","","",""
"87470099999","2021-10-15T21:00:00","-32.5","-61.6666666","96.0","EL TREBOL, AR","FM-12","4","","43","50","","","-0.04","2","75","","30.17","29.83","9.32","47","360","","0","","","","","","","","","","","","","","","","","","","","","","","","","","","","","","","","","","","","","","","","","","","","","","","","","","","","","","","","","","","","","","","","","","","","","","","","","","","","","","","","","","","","","","","","","","","SYN004BUFR","","","","","","","","","",""
"87470099999","2021-10-16T09:00:00","-32.5","-61.6666666","96.0","EL TREBOL, AR","FM-12","4","","39","55","","","-0.02","1","54","","30.26","29.92","9.32","47","050","","6","","","","","","","","","","","","","","","","","","","","","","","","","","","","","","","","","","","","","","","","","","","","","","","","","","","","","","","","","","","","","","","","","","","","","","","","","","","","","","","","","","","","","","","","","","","SYN004BUFR","","","","","","","","","",""
"87470099999","2021-10-16T15:00:00","-32.5","-61.6666666","96.0","EL TREBOL, AR","FM-12","4","","38","68","","","+0.05","6","33","","30.14","29.80","9.32","53","050","","2","","","","","","","","","","","","","","","","","","","","","","","","","","","","","","","","","","","","","","","","","","","","","","","","","","","","","","","","","","","","","","","","","","","","","","","","","","","","","","","","","","","","","","","","","","","SYN04887470 32965 00502 10202 20033 30093 40208 56017=","","","","","","","","","",""
"87470099999","2021-10-16T18:00:00","-32.5","-61.6666666","96.0","EL TREBOL, AR","FM-12","4","","41","67","","","+0.05","6","38","","30.09","29.75","9.32","54","050","","2","","","","","","","","","","","","","","","","","","","","","","","","","","","","","","","","","","","","","","","","","","","","","","","","","","","","","","","","","","","","","","","","","","","","","","","","","","","","","","","","","","","","","","","","","","","SYN004BUFR","","","","","","","","","",""
"87470099999","2021-10-16T21:00:00","-32.5","-61.6666666","96.0","EL TREBOL, AR","FM-12","4","","41","56","","","-0.04","1","57","","30.13","29.79","9.32","49","050","","2","","","","","","","","","","","","","","","","","","","","","","","","","","","","","","","","","","","","","","","","","","","","","","","","","","","","","","","","","","","","","","","","","","","","","","","","","","","","","","","","","","","","","","","","","","","SYN06487470 32965 00502 10132 20049 30088 40203 51012 333 10210 20129=","","","","","","","","","",""
"87470099999","2021-10-17T09:00:00","-32.5","-61.6666666","96.0","EL TREBOL, AR","FM-12","4","","45","59","","","-0.03","1","61","","30.13","29.79","9.32","52","360","","9","","","","","","","","","","","","","","","","","","","","","","","","","","","","","","","","","","","","","","","","","","","","","","","","","","","","","","","","","","","","","","","","","","","","","","","","","","","","","","","","","","","","","","","","","","","SYN004BUFR","","","","","","","","","",""
"87470099999","2021-10-17T15:00:00","-32.5","-61.6666666","96.0","EL TREBOL, AR","FM-12","4","","44","76","","","+0.04","6","32","SCT:03 246","30.08","29.74","9.32","59","140","","2","","","","","","","","","","","","","","","","","","","","","","","","","","","","","","","","","","","","","","","","","","","","","","","","","","","","","","","","","","","","","","","","","","","","","","","","","","","","","","","","","","","","","","","","","","","SYN004BUFR","","","","","","","","","",""
"87470099999","2021-10-17T21:00:00","-32.5","-61.6666666","96.0","EL TREBOL, AR","FM-12","4","","47","62","","","-0.06","1","58","FEW:01 246","30.09","29.75","9.32","54","000","","0","","","","","","","","","","","","","","","","","","","","","","","","","","","","","","","","","","","","","","","","","","","","","","","","","","","","","","","","","","","","","","","","","","","","","","","","","","","","","","","","","","","","","","","","","","","SYN08287470 32965 10000 10169 20086 30076 40189 51020 80004 333 10251 20151 56009 81075=","","","","","","","","","",""
"87470099999","2021-10-18T09:00:00","-32.5","-61.6666666","96.0","EL TREBOL, AR","FM-12","4","","45","66","","","-0.03","2","48","","30.16","29.83","9.32","55","180","","6","","","","","","","","","","","","","","","","","","","","","","","","","","","","","","","","","","","","","","","","","","","","","","","","","","","","","","","","","","","","","","","","","","","","","","","","","","","","","","","","","","","","","","","","","","","SYN06487470 32965 01805 10188 20075 30100 40213 52010 333 10188 20087=","","","","","","","","","",""
"87470099999","2021-10-18T12:00:00","-32.5","-61.6666666","96.0","EL TREBOL, AR","FM-12","4","","54","75","","","+0.05","7","48","FEW:01 20","30.11","29.78","9.32","63","180","","6","","","","","","","","","","","","","","","","","","","","","","","","","","","","","","","","","","","","","","","","","","","","","","","","","","","","","","","","","","","","","","","","","","","","","","","","","","","","","","","","","","","","","","","","","","","SYN004BUFR","","","","","","","","","",""
"87470099999","2021-10-18T15:00:00","-32.5","-61.6666666","96.0","EL TREBOL, AR","FM-12","4","","39","78","","","+0.01","7","25","SCT:03 20","30.09","29.76","9.32","57","140","","6","","","","","","","","","","","","","","","","","","","","","","","","","","","","","","","","","","","","","","","","","","","","","","","","","","","","","","","","","","","","","","","","","","","","","","","","","","","","","","","","","","","","","","","","","","","SYN004BUFR","","","","","","","","","",""
"87470099999","2021-10-18T21:00:00","-32.5","-61.6666666","96.0","EL TREBOL, AR","FM-12","4","","45","59","","","-0.02","1","61","","30.09","29.76","9.32","52","000","","0","","","","","","","","","","","","","","","","","","","","","","","","","","","","","","","","","","","","","","","","","","","","","","","","","","","","","","","","","","","","","","","","","","","","","","","","","","","","","","","","","","","","","","","","","","","SYN06487470 32965 00000 10149 20073 30078 40191 51008 333 10263 20149=","","","","","","","","","",""
"87470099999","2021-10-19T09:00:00","-32.5","-61.6666666","96.0","EL TREBOL, AR","FM-12","4","","52","65","","","-0.03","2","63","","30.12","29.78","9.32","58","090","","2","","","","","","","","","","","","","","","","","","","","","","","","","","","","","","","","","","","","","","","","","","","","","","","","","","","","","","","","","","","","","","","","","","","","","","","","","","","","","","","","","","","","","","","","","","","SYN06487470 32965 00902 10182 20109 30086 40201 52010 333 10182 20100=","","","","","","","","","",""
"87470099999","2021-10-19T12:00:00","-32.5","-61.6666666","96.0","EL TREBOL, AR","FM-12","4","","56","75","","","-0.25","2","51","","30.11","29.78","9.32","64","090","","2","","","","","","","","","","","","","","","","","","","","","","","","","","","","","","","","","","","","","","","","","","","","","","","","","","","","","","","","","","","","","","","","","","","","","","","","","","","","","","","","","","","","","","","","","","","SYN004BUFR","","","","","","","","","",""
"87470099999","2021-10-19T15:00:00","-32.5","-61.6666666","96.0","EL TREBOL, AR","FM-12","4","","46","83","","","+0.09","7","27","FEW:01 20","30.02","29.69","9.32","62","000","","0","","","","","","","","","","","","","","","","","","","","","","","","","","","","","","","","","","","","","","","","","","","","","","","","","","","","","","","","","","","","","","","","","","","","","","","","","","","","","","","","","","","","","","","","","","","SYN07687470 32565 10000 10282 20077 30053 40165 57031 81200 333 56900 57899 81820=","","","","","","","","","",""
"87470099999","2021-10-19T21:00:00","-32.5","-61.6666666","96.0","EL TREBOL, AR","FM-12","4","","41","67","","","-0.03","1","40","","30.03","29.70","9.32","54","050","","2","","","","","","","","","","","","","","","","","","","","","","","","","","","","","","","","","","","","","","","","","","","","","","","","","","","","","","","","","","","","","","","","","","","","","","","","","","","","","","","","","","","","","","","","","","","SYN004BUFR","","","","","","","","","",""
"87470099999","2021-10-20T09:00:00","-32.5","-61.6666666","96.0","EL TREBOL, AR","FM-12","4","","50","70","","","-0.01","2","50","","30.02","29.69","9.32","59","360","","6","","","","","","","","","","","","","","","","","","","","","","","","","","","","","","","","","","","","","","","","","","","","","","","","","","","","","","","","","","","","","","","","","","","","","","","","","","","","","","","","","","","","","","","","","","","SYN06487470 32965 03605 10210 20100 30054 40167 52005 333 10210 20122=","","","","","","","","","",""
"87470099999","2021-10-20T15:00:00","-32.5","-61.6666666","96.0","EL TREBOL, AR","FM-12","4","","45","84","","","+0.04","7","26","FEW:02 20","29.94","29.62","9.32","62","020","","6","","","","","","","","","","","","","","","","","","","","","","","","","","","","","","","","","","","","","","","","","","","","","","","","","","","","","","","","","","","","","","","","","","","","","","","","","","","","","","","","","","","","","","","","","","","SYN004BUFR","","","","","","","","","",""
"87470099999","2021-10-20T21:00:00","-32.5","-61.6666666","96.0","EL TREBOL, AR","FM-12","4","","50","67","","","-0.06","1","55","FEW:01 89","29.96","29.63","9.32","58","050","","2","","","","","","","","","","","","","","","","","","","","","","","","","","","","","","","","","","","","","","","","","","","","","","","","","","","","","","","","","","","","","","","","","","","","","","","","","","","","","","","","","","","","","","","","","","","SYN004BUFR","","","","","","","","","",""
"87470099999","2021-10-21T09:00:00","-32.5","-61.6666666","96.0","EL TREBOL, AR","FM-12","4","","51","68","","","-0.03","2","55","","29.96","29.62","9.32","58","360","","9","","","","","","","","","","","","","","","","","","","","","","","","","","","","","","","","","","","","","","","","","","","","","","","","","","","","","","","","","","","","","","","","","","","","","","","","","","","","","","","","","","","","","","","","","","","SYN06487470 32965 03608 10202 20108 30032 40144 52010 333 10202 20155=","","","","","","","","","",""
"87470099999","2021-10-21T15:00:00","-32.5","-61.6666666","96.0","EL TREBOL, AR","FM-12","4","","42","85","","","+0.07","7","22","","29.88","29.56","9.32","61","050","","6","","","","","","","","","","","","","","","","","","","","","","","","","","","","","","","","","","","","","","","","","","","","","","","","","","","","","","","","","","","","","","","","","","","","","","","","","","","","","","","","","","","","","","","","","","","SYN04887470 32965 00505 10292 20053 30009 40120 57025=","","","","","","","","","",""
"87470099999","2021-10-22T09:00:00","-32.5","-61.6666666","96.0","EL TREBOL, AR","FM-12","4","","53","61","","||RA","-0.03","1","73","BKN:07 18","29.78","29.45","9.32","57","050","","6","","","","","","","","","","","","","","","","","","","","","","","","","","","","","","","","","","","","","","","","","","","","","","","","","","","","","","","","","","","","","","","","","","","","","","","","","","","","","","","","","","","","","","","","","","","SYN004BUFR","","","","","","","","","",""
"87470099999","2021-10-22T15:00:00","-32.5","-61.6666666","96.0","EL TREBOL, AR","FM-12","4","","51","73","","","+0.10","7","46","OVC:08 89","29.67","29.34","9.32","60","090","","6","","","","","","","","","","","","","","","","","","","","","","","","","","","","","","","","","","","","","","","","","","","","","","","","","","","","","","","","","","","","","","","","","","","","","","","","","","","","","","","","","","","","","","","","","","","SYN004BUFR","","","","","","","","","",""
"87470099999","2021-10-22T21:00:00","-32.5","-61.6666666","96.0","EL TREBOL, AR","FM-12","4","","58","64","","","-0.01","1","79","SCT:04 20 SCT:04 89","29.68","29.35","9.32","60","140","","9","","","","","","","","","","","","","","","","","","","","","","","","","","","","","","","","","","","","","","","","","","","","","","","","","","","","","","","","","","","","","","","","","","","","","","","","","","","","","","","","","","","","","","","","","","","SYN004BUFR","","","","","","","","","",""
"87470099999","2021-10-23T09:00:00","-32.5","-61.6666666","96.0","EL TREBOL, AR","FM-12","4","","58","58","","","-0.06","1","98","SCT:04 20 SCT:04 89","29.77","29.44","8.08","58","180","","6","","","","","","","","","","","","","","","","","","","","","","","","","","","","","","","","","","","","","","","","","","","","","","","","","","","","","","","","","","","","","","","","","","","","","","","","","","","","","","","","","","","","","","","","","","","SYN10687470 01563 81805 10146 20143 39969 40082 51020 60184 70262 84720 333 10180 20132 56990 60182 84720 84559=","","","","","","","","","",""
"87470099999","2021-10-23T15:00:00","-32.5","-61.6666666","96.0","EL TREBOL, AR","FM-12","4","","53","71","","","+0.01","6","53","SCT:04 20","29.79","29.45","9.32","61","200","","9","","","","","","","","","","","","","","","","","","","","","","","","","","","","","","","","","","","","","","","","","","","","","","","","","","","","","","","","","","","","","","","","","","","","","","","","","","","","","","","","","","","","","","","","","","","SYN004BUFR","","","","","","","","","",""
"87470099999","2021-10-23T18:00:00","-32.5","-61.6666666","96.0","EL TREBOL, AR","FM-12","4","","48","70","","","-0.02","1","45","","29.81","29.48","9.32","58","180","","6","","","","","","","","","","","","","","","","","","","","","","","","","","","","","","","","","","","","","","","","","","","","","","","","","","","","","","","","","","","","","","","","","","","","","","","","","","","","","","","","","","","","","","","","","","","SYN004BUFR","","","","","","","","","",""
"87470099999","2021-10-23T21:00:00","-32.5","-61.6666666","96.0","EL TREBOL, AR","FM-12","4","","50","57","","","-0.04","1","77","","29.88","29.54","9.32","53","000","","0","","","","","","","","","","","","","","","","","","","","","","","","","","","","","","","","","","","","","","","","","","","","","","","","","","","","","","","","","","","","","","","","","","","","","","","","","","","","","","","","","","","","","","","","","","","SYN06487470 32965 00000 10138 20098 30005 40119 51015 333 10227 20138=","","","","","","","","","",""
"87470099999","2021-10-24T09:00:00","-32.5","-61.6666666","96.0","EL TREBOL, AR","FM-12","4","","49","60","","","-0.06","1","68","","30.03","29.70","9.32","54","270","","6","","","","","","","","","","","","","","","","","","","","","","","","","","","","","","","","","","","","","","","","","","","","","","","","","","","","","","","","","","","","","","","","","","","","","","","","","","","","","","","","","","","","","","","","","","","SYN004BUFR","","","","","","","","","",""
"87470099999","2021-10-24T15:00:00","-32.5","-61.6666666","96.0","EL TREBOL, AR","FM-12","4","","42","79","","","+0.07","6","26","","29.95","29.62","9.32","59","250","","2","","","","","","","","","","","","","","","","","","","","","","","","","","","","","","","","","","","","","","","","","","","","","","","","","","","","","","","","","","","","","","","","","","","","","","","","","","","","","","","","","","","","","","","","","","","SYN04887470 32965 02502 10263 20053 30030 40143 56025=","","","","","","","","","",""
"87470099999","2021-10-25T09:00:00","-32.5","-61.6666666","96.0","EL TREBOL, AR","FM-12","4","","48","70","","","-0.04","2","45","","29.84","29.51","9.32","58","320","","15","","","","","","","","","","","","","","","","","","","","","","","","","","","","","","","","","","","","","","","","","","","","","","","","","","","","","","","","","","","","","","","","","","","","","","","","","","","","","","","","","","","","","","","","","","","SYN06487470 32965 03213 10213 20088 39993 40105 52012 333 10213 20145=","","","","","","","","","",""
"87470099999","2021-10-26T12:00:00","-32.5","-61.6666666","96.0","EL TREBOL, AR","FM-12","4","","50","94","","","+0.05","6","22","","29.84","29.52","9.32","67","320","","6","","","","","","","","","","","","","","","","","","","","","","","","","","","","","","","","","","","","","","","","","","","","","","","","","","","","","","","","","","","","","","","","","","","","","","","","","","","","","","","","","","","","","","","","","","","SYN004BUFR","","","","","","","","","",""
"87470099999","2021-10-26T15:00:00","-32.5","-61.6666666","96.0","EL TREBOL, AR","FM-12","4","","37","97","","","+0.06","6","12","","29.79","29.47","9.32","64","360","","9","","","","","","","","","","","","","","","","","","","","","","","","","","","","","","","","","","","","","","","","","","","","","","","","","","","","","","","","","","","","","","","","","","","","","","","","","","","","","","","","","","","","","","","","","","","SYN004BUFR","","","","","","","","","",""
"87470099999","2021-10-26T18:00:00","-32.5","-61.6666666","96.0","EL TREBOL, AR","FM-12","4","","43","93","","","-0.04","1","17","","29.83","29.51","9.32","64","020","","6","","","","","","","","","","","","","","","","","","","","","","","","","","","","","","","","","","","","","","","","","","","","","","","","","","","","","","","","","","","","","","","","","","","","","","","","","","","","","","","","","","","","","","","","","","","SYN004BUFR","","","","","","","","","",""
"87470099999","2021-10-27T09:00:00","-32.5","-61.6666666","96.0","EL TREBOL, AR","FM-12","4","","53","78","","","-0.06","2","42","","29.98","29.65","9.32","63","360","","6","","","","","","","","","","","","","","","","","","","","","","","","","","","","","","","","","","","","","","","","","","","","","","","","","","","","","","","","","","","","","","","","","","","","","","","","","","","","","","","","","","","","","","","","","","","SYN004BUFR","","","","","","","","","",""
"87470099999","2021-10-27T15:00:00","-32.5","-61.6666666","96.0","EL TREBOL, AR","FM-12","4","","41","94","","","+0.05","7","16","FEW:01 246","29.94","29.61","9.32","64","050","","15","","","","","","","","","","","","","","","","","","","","","","","","","","","","","","","","","","","","","","","","","","","","","","","","","","","","","","","","","","","","","","","","","","","","","","","","","","","","","","","","","","","","","","","","","","","SYN004BUFR","","","","","","","","","",""
"87470099999","2021-10-27T21:00:00","-32.5","-61.6666666","96.0","EL TREBOL, AR","FM-12","4","","57","78","","","-0.09","3","50","","30.00","29.67","9.32","65","070","","6","","","","","","","","","","","","","","","","","","","","","","","","","","","","","","","","","","","","","","","","","","","","","","","","","","","","","","","","","","","","","","","","","","","","","","","","","","","","","","","","","","","","","","","","","","","SYN06487470 32965 00705 10253 20141 30049 40159 53031 333 10350 20253=","","","","","","","","","",""
"87470099999","2021-10-28T09:00:00","-32.5","-61.6666666","96.0","EL TREBOL, AR","FM-12","4","","57","75","","","-0.06","2","55","FEW:01 20","30.08","29.75","9.32","64","070","","6","","","","","","","","","","","","","","","","","","","","","","","","","","","","","","","","","","","","","","","","","","","","","","","","","","","","","","","","","","","","","","","","","","","","","","","","","","","","","","","","","","","","","","","","","","","SYN004BUFR","","","","","","","","","",""
"87470099999","2021-10-28T12:00:00","-32.5","-61.6666666","96.0","EL TREBOL, AR","FM-12","4","","45","91","","","+0.05","7","21","FEW:01 246","30.03","29.70","9.32","64","050","","6","","","","","","","","","","","","","","","","","","","","","","","","","","","","","","","","","","","","","","","","","","","","","","","","","","","","","","","","","","","","","","","","","","","","","","","","","","","","","","","","","","","","","","","","","","","SYN004BUFR","","","","","","","","","",""
"87470099999","2021-10-28T15:00:00","-32.5","-61.6666666","96.0","EL TREBOL, AR","FM-12","4","","41","94","","","+0.05","7","16","FEW:01 246","29.98","29.65","9.32","64","050","","9","","","","","","","","","","","","","","","","","","","","","","","","","","","","","","","","","","","","","","","","","","","","","","","","","","","","","","","","","","","","","","","","","","","","","","","","","","","","","","","","","","","","","","","","","","","SYN07087470 32965 10508 10344 20050 30041 40151 57017 80008 333 56009 81275=","","","","","","","","","",""
"87470099999","2021-10-28T18:00:00","-32.5","-61.6666666","96.0","EL TREBOL, AR","FM-12","4","","49","87","","","+0.04","7","27","","29.93","29.61","9.32","65","050","","6","","","","","","","","","","","","","","","","","","","","","","","","","","","","","","","","","","","","","","","","","","","","","","","","","","","","","","","","","","","","","","","","","","","","","","","","","","","","","","","","","","","","","","","","","","","SYN004BUFR","","","","","","","","","",""
"87470099999","2021-10-28T21:00:00","-32.5","-61.6666666","96.0","EL TREBOL, AR","FM-12","4","","46","76","","","-0.02","3","34","","29.96","29.63","9.32","59","070","","9","","","","","","","","","","","","","","","","","","","","","","","","","","","","","","","","","","","","","","","","","","","","","","","","","","","","","","","","","","","","","","","","","","","","","","","","","","","","","","","","","","","","","","","","","","","SYN06487470 32965 00708 10246 20078 30034 40145 53008 333 10345 20238=","","","","","","","","","",""
"87470099999","2021-10-29T09:00:00","-32.5","-61.6666666","96.0","EL TREBOL, AR","FM-12","4","","55","74","","","-0.03","2","51","FEW:01 246","29.98","29.65","9.32","63","090","","6","","","","","","","","","","","","","","","","","","","","","","","","","","","","","","","","","","","","","","","","","","","","","","","","","","","","","","","","","","","","","","","","","","","","","","","","","","","","","","","","","","","","","","","","","","","SYN08287470 32965 10905 10234 20127 30040 40151 52010 80008 333 10246 20177 56009 81275=","","","","","","","","","",""
"87470099999","2021-10-29T15:00:00","-32.5","-61.6666666","96.0","EL TREBOL, AR","FM-12","4","","45","93","","","+0.12","7","20","","29.84","29.52","9.32","65","050","","6","","","","","","","","","","","","","","","","","","","","","","","","","","","","","","","","","","","","","","","","","","","","","","","","","","","","","","","","","","","","","","","","","","","","","","","","","","","","","","","","","","","","","","","","","","","SYN004BUFR","","","","","","","","","",""
"87470099999","2021-10-29T18:00:00","-32.5","-61.6666666","96.0","EL TREBOL, AR","FM-12","4","","46","90","","","+0.05","7","22","FEW:01 246","29.79","29.47","9.32","64","050","","6","","","","","","","","","","","","","","","","","","","","","","","","","","","","","","","","","","","","","","","","","","","","","","","","","","","","","","","","","","","","","","","","","","","","","","","","","","","","","","","","","","","","","","","","","","","SYN004BUFR","","","","","","","","","",""
"87470099999","2021-10-30T09:00:00","-32.5","-61.6666666","96.0","EL TREBOL, AR","FM-12","4","","65","77","","","-0.01","1","65","","29.85","29.53","9.32","69","050","","6","","","","","","","","","","","","","","","","","","","","","","","","","","","","","","","","","","","","","","","","","","","","","","","","","","","","","","","","","","","","","","","","","","","","","","","","","","","","","","","","","","","","","","","","","","","SYN07087470 31965 00505 10251 20181 30001 40110 51004 702// 333 10254 20167=","","","","","","","","","",""
"87470099999","2021-10-30T15:00:00","-32.5","-61.6666666","96.0","EL TREBOL, AR","FM-12","4","","60","95","","","+0.05","6","32","SCT:03 25","29.80","29.48","9.32","72","070","","9","","","","","","","","","","","","","","","","","","","","","","","","","","","","","","","","","","","","","","","","","","","","","","","","","","","","","","","","","","","","","","","","","","","","","","","","","","","","","","","","","","","","","","","","","","","SYN07087470 32565 30708 10348 20156 39982 40091 56016 83100 333 56900 83825=","","","","","","","","","",""
"87470099999","2021-10-30T21:00:00","-32.5","-61.6666666","96.0","EL TREBOL, AR","FM-12","4","","63","83","","","-0.06","3","50","FEW:01 89 SCT:03 246","29.85","29.53","9.32","70","110","","9","","","","","","","","","","","","","","","","","","","","","","","","","","","","","","","","","","","","","","","","","","","","","","","","","","","","","","","","","","","","","","","","","","","","","","","","","","","","","","","","","","","","","","","","","","","SYN08887470 32965 41108 10285 20170 30000 40108 53019 81058 333 10352 20251 56099 81359 83275=","","","","","","","","","",""
"87470099999","2021-10-31T09:00:00","-32.5","-61.6666666","96.0","EL TREBOL, AR","FM-12","4","","63","71","","","-0.04","1","75","FEW:02 20","29.98","29.66","9.32","66","180","","9","","","","","","","","","","","","","","","","","","","","","","","","","","","","","","","","","","","","","","","","","","","","","","","","","","","","","","","","","","","","","","","","","","","","","","","","","","","","","","","","","","","","","","","","","","","SYN004BUFR","","","","","","","","","",""
"87470099999","2021-10-31T15:00:00","-32.5","-61.6666666","96.0","EL TREBOL, AR","FM-12","4","","63","81","","","+0.04","7","55","SCT:03 20","29.93","29.60","9.32","69","180","","15","","","","","","","","","","","","","","","","","","","","","","","","","","","","","","","","","","","","","","","","","","","","","","","","","","","","","","","","","","","","","","","","","","","","","","","","","","","","","","","","","","","","","","","","","","","SYN06487470 32565 71813 10272 20175 30025 40134 57015 83558 333 83620=","","","","","","","","","",""
"87470099999","2021-10-31T21:00:00","-32.5","-61.6666666","96.0","EL TREBOL, AR","FM-12","4","","58","65","","","-0.06","1","78","SCT:04 20","29.99","29.66","9.32","61","180","","9","","","","","","","","","","","","","","","","","","","","","","","","","","","","","","","","","","","","","","","","","","","","","","","","","","","","","","","","","","","","","","","","","","","","","","","","","","","","","","","","","","","","","","","","","","","SYN07687470 32565 71808 10184 20145 30045 40157 51019 84558 333 10280 20184 84620=","","","","","","","","","",""
"87470099999","2021-11-01T09:00:00","-32.5","-61.6666666","96.0","EL TREBOL, AR","FM-12","4","","59","59","","||RA","-0.09","2","97","OVC:08 18","30.00","29.66","2.17","59","230","","6","","","","","","","","","","","","","","","","","","","","","","","","","","","","","","","","","","","","","","","","","","","","","","","","","","","","","","","","","","","","","","","","","","","","","","","","","","","","","","","","","","","","","","","","","","","SYN004BUFR","","","","","","","","","",""
"87470099999","2021-11-01T15:00:00","-32.5","-61.6666666","96.0","EL TREBOL, AR","FM-12","4","","62","63","","","-0.05","1","98","BKN:05 20 SCT:03 89","29.99","29.65","9.32","62","140","","2","","","","","","","","","","","","","","","","","","","","","","","","","","","","","","","","","","","","","","","","","","","","","","","","","","","","","","","","","","","","","","","","","","","","","","","","","","","","","","","","","","","","","","","","","","","SYN004BUFR","","","","","","","","","",""
"87470099999","2021-11-01T21:00:00","-32.5","-61.6666666","96.0","EL TREBOL, AR","FM-12","4","","57","62","","","-0.06","1","86","SCT:04 20 SCT:04 89","30.00","29.67","7.46","59","200","","6","","","","","","","","","","","","","","","","","","","","","","","","","","","","","","","","","","","","","","","","","","","","","","","","","","","","","","","","","","","","","","","","","","","","","","","","","","","","","","","","","","","","","","","","","","","SYN004BUFR","","","","","","","","","",""
"87470099999","2021-11-02T09:00:00","-32.5","-61.6666666","96.0","EL TREBOL, AR","FM-12","4","","60","61","","||DZ","-0.03","2","96","OVC:08 18","29.98","29.64","3.11","60","180","","6","","","","","","","","","","","","","","","","","","","","","","","","","","","","","","","","","","","","","","","","","","","","","","","","","","","","","","","","","","","","","","","","","","","","","","","","","","","","","","","","","","","","","","","","","","","SYN004BUFR","","","","","","","","","",""
"87470099999","2021-11-02T12:00:00","-32.5","-61.6666666","96.0","EL TREBOL, AR","FM-12","4","","60","65","","","+0.00","7","82","OVC:08 18","29.97","29.64","9.32","62","180","","2","","","","","","","","","","","","","","","","","","","","","","","","","","","","","","","","","","","","","","","","","","","","","","","","","","","","","","","","","","","","","","","","","","","","","","","","","","","","","","","","","","","","","","","","","","","SYN004BUFR","","","","","","","","","",""
"87470099999","2021-11-02T15:00:00","-32.5","-61.6666666","96.0","EL TREBOL, AR","FM-12","4","","62","69","","","+0.06","7","78","OVC:08 18","29.91","29.58","9.32","65","200","","6","","","","","","","","","","","","","","","","","","","","","","","","","","","","","","","","","","","","","","","","","","","","","","","","","","","","","","","","","","","","","","","","","","","","","","","","","","","","","","","","","","","","","","","","","","","SYN004BUFR","","","","","","","","","",""
"87470099999","2021-11-02T21:00:00","-32.5","-61.6666666","96.0","EL TREBOL, AR","FM-12","4","","61","64","","","-0.02","1","90","","29.93","29.60","9.32","62","360","","0","","","","","","","","","","","","","","","","","","","","","","","","","","","","","","","","","","","","","","","","","","","","","","","","","","","","","","","","","","","","","","","","","","","","","","","","","","","","","","","","","","","","","","","","","","","SYN004BUFR","","","","","","","","","",""
"87470099999","2021-11-03T09:00:00","-32.5","-61.6666666","96.0","EL TREBOL, AR","FM-12","4","","62","68","","","0.00","4","80","","29.83","29.51","9.32","64","000","","0","","","","","","","","","","","","","","","","","","","","","","","","","","","","","","","","","","","","","","","","","","","","","","","","","","","","","","","","","","","","","","","","","","","","","","","","","","","","","","","","","","","","","","","","","","","SYN06487470 32965 00000 10202 20166 39992 40103 54000 333 10202 20132=","","","","","","","","","",""
"87470099999","2021-11-03T12:00:00","-32.5","-61.6666666","96.0","EL TREBOL, AR","FM-12","4","","61","74","","","+0.05","7","62","BKN:07 20","29.78","29.45","9.32","66","360","","0","","","","","","","","","","","","","","","","","","","","","","","","","","","","","","","","","","","","","","","","","","","","","","","","","","","","","","","","","","","","","","","","","","","","","","","","","","","","","","","","","","","","","","","","","","","SYN004BUFR","","","","","","","","","",""
"87470099999","2021-11-03T15:00:00","-32.5","-61.6666666","96.0","EL TREBOL, AR","FM-12","4","","59","79","","","+0.12","7","50","BKN:06 20","29.67","29.34","9.32","67","070","","6","","","","","","","","","","","","","","","","","","","","","","","","","","","","","","","","","","","","","","","","","","","","","","","","","","","","","","","","","","","","","","","","","","","","","","","","","","","","","","","","","","","","","","","","","","","SYN004BUFR","","","","","","","","","",""
"87470099999","2021-11-03T21:00:00","-32.5","-61.6666666","96.0","EL TREBOL, AR","FM-12","4","","62","69","","","-0.03","1","77","","29.69","29.36","9.32","65","050","","2","","","","","","","","","","","","","","","","","","","","","","","","","","","","","","","","","","","","","","","","","","","","","","","","","","","","","","","","","","","","","","","","","","","","","","","","","","","","","","","","","","","","","","","","","","","SYN004BUFR","","","","","","","","","",""
"87470099999","2021-11-04T09:00:00","-32.5","-61.6666666","96.0","EL TREBOL, AR","FM-12","4","","62","71","","","-0.09","1","72","","29.77","29.45","9.32","65","140","","6","","","","","","","","","","","","","","","","","","","","","","","","","","","","","","","","","","","","","","","","","","","","","","","","","","","","","","","","","","","","","","","","","","","","","","","","","","","","","","","","","","","","","","","","","","","SYN06487470 32965 01405 10218 20166 39972 40082 51030 333 10218 20162=","","","","","","","","","",""
"87470099999","2021-11-04T15:00:00","-32.5","-61.6666666","96.0","EL TREBOL, AR","FM-12","4","","57","85","","","+0.06","7","39","BKN:05 20","29.71","29.39","9.32","67","160","","6","","","","","","","","","","","","","","","","","","","","","","","","","","","","","","","","","","","","","","","","","","","","","","","","","","","","","","","","","","","","","","","","","","","","","","","","","","","","","","","","","","","","","","","","","","","SYN004BUFR","","","","","","","","","",""
"87470099999","2021-11-04T21:00:00","-32.5","-61.6666666","96.0","EL TREBOL, AR","FM-12","4","","56","58","","||RA","-0.12","1","92","OVC:08 17","29.90","29.57","5.59","57","180","","15","","","","","","","","","","","","","","","","","","","","","","","","","","","","","","","","","","","","","","","","","","","","","","","","","","","","","","","","","","","","","","","","","","","","","","","","","","","","","","","","","","","","","","","","","","","SYN004BUFR","","","","","","","","","",""
"87470099999","2021-11-05T09:00:00","-32.5","-61.6666666","96.0","EL TREBOL, AR","FM-12","4","","54","56","","||RA","-0.04","2","96","OVC:08 16","30.06","29.72","2.17","55","180","","6","","","","","","","","","","","","","","","","","","","","","","","","","","","","","","","","","","","","","","","","","","","","","","","","","","","","","","","","","","","","","","","","","","","","","","","","","","","","","","","","","","","","","","","","","","","SYN10087470 01435 81805 10132 20125 30066 40181 52015 60174 76362 88700 333 10148 20132 56900 60152 88716=","","","","","","","","","",""
"87470099999","2021-11-05T15:00:00","-32.5","-61.6666666","96.0","EL TREBOL, AR","FM-12","4","","47","58","","||RA","+0.03","7","65","OVC:08 18","30.10","29.76","6.21","52","180","","9","","","","","","","","","","","","","","","","","","","","","","","","","","","","","","","","","","","","","","","","","","","","","","","","","","","","","","","","","","","","","","","","","","","","","","","","","","","","","","","","","","","","","","","","","","","SYN08287470 11460 81808 10146 20081 30078 40193 57011 60021 76062 88700 333 56900 88718=","","","","","","","","","",""
"87470099999","2021-11-05T21:00:00","-32.5","-61.6666666","96.0","EL TREBOL, AR","FM-12","4","","46","57","","","0.00","4","67","OVC:08 18","30.18","29.84","9.32","51","230","","6","","","","","","","","","","","","","","","","","","","","","","","","","","","","","","","","","","","","","","","","","","","","","","","","","","","","","","","","","","","","","","","","","","","","","","","","","","","","","","","","","","","","","","","","","","","SYN08287470 12465 82305 10140 20080 30104 40219 54000 69921 887// 333 10162 20122 88718=","","","","","","","","","",""
"87470099999","2021-11-06T09:00:00","-32.5","-61.6666666","96.0","EL TREBOL, AR","FM-12","4","","47","59","","","-0.01","2","66","FEW:01 20","30.18","29.84","9.32","53","140","","6","","","","","","","","","","","","","","","","","","","","","","","","","","","","","","","","","","","","","","","","","","","","","","","","","","","","","","","","","","","","","","","","","","","","","","","","","","","","","","","","","","","","","","","","","","","SYN08287470 12565 51405 10148 20085 30104 40219 52005 60024 81139 333 10148 20105 81820=","","","","","","","","","",""
"87470099999","2021-11-06T12:00:00","-32.5","-61.6666666","96.0","EL TREBOL, AR","FM-12","4","","48","66","","","+0.05","7","52","FEW:01 20","30.12","29.78","9.32","56","140","","6","","","","","","","","","","","","","","","","","","","","","","","","","","","","","","","","","","","","","","","","","","","","","","","","","","","","","","","","","","","","","","","","","","","","","","","","","","","","","","","","","","","","","","","","","","","SYN004BUFR","","","","","","","","","",""
"87470099999","2021-11-06T15:00:00","-32.5","-61.6666666","96.0","EL TREBOL, AR","FM-12","4","","48","70","","","+0.04","7","45","FEW:02 20","30.08","29.74","9.32","58","140","","9","","","","","","","","","","","","","","","","","","","","","","","","","","","","","","","","","","","","","","","","","","","","","","","","","","","","","","","","","","","","","","","","","","","","","","","","","","","","","","","","","","","","","","","","","","","SYN07087470 32565 41408 10212 20087 30072 40185 57015 82130 333 56990 82820=","","","","","","","","","",""
"87470099999","2021-11-07T09:00:00","-32.5","-61.6666666","96.0","EL TREBOL, AR","FM-12","4","","55","65","","","+0.01","7","69","FEW:02 20","30.03","29.70","9.32","59","020","","6","","","","","","","","","","","","","","","","","","","","","","","","","","","","","","","","","","","","","","","","","","","","","","","","","","","","","","","","","","","","","","","","","","","","","","","","","","","","","","","","","","","","","","","","","","","SYN004BUFR","","","","","","","","","",""
"87470099999","2021-11-07T15:00:00","-32.5","-61.6666666","96.0","EL TREBOL, AR","FM-12","4","","56","79","","","+0.06","7","46","SCT:04 20","29.92","29.59","9.32","65","050","","6","","","","","","","","","","","","","","","","","","","","","","","","","","","","","","","","","","","","","","","","","","","","","","","","","","","","","","","","","","","","","","","","","","","","","","","","","","","","","","","","","","","","","","","","","","","SYN004BUFR","","","","","","","","","",""
"87470099999","2021-11-07T18:00:00","-32.5","-61.6666666","96.0","EL TREBOL, AR","FM-12","4","","57","78","","","+0.04","7","49","SCT:04 20","29.88","29.56","9.32","65","050","","6","","","","","","","","","","","","","","","","","","","","","","","","","","","","","","","","","","","","","","","","","","","","","","","","","","","","","","","","","","","","","","","","","","","","","","","","","","","","","","","","","","","","","","","","","","","SYN004BUFR","","","","","","","","","",""
"87470099999","2021-11-07T21:00:00","-32.5","-61.6666666","96.0","EL TREBOL, AR","FM-12","4","","60","69","","","-0.02","2","72","BKN:05 20","29.91","29.58","9.32","64","050","","6","","","","","","","","","","","","","","","","","","","","","","","","","","","","","","","","","","","","","","","","","","","","","","","","","","","","","","","","","","","","","","","","","","","","","","","","","","","","","","","","","","","","","","","","","","","SYN004BUFR","","","","","","","","","",""
"87470099999","2021-11-08T09:00:00","-32.5","-61.6666666","96.0","EL TREBOL, AR","FM-12","4","","60","72","","","-0.03","2","65","","29.98","29.65","9.32","65","050","","6","","","","","","","","","","","","","","","","","","","","","","","","","","","","","","","","","","","","","","","","","","","","","","","","","","","","","","","","","","","","","","","","","","","","","","","","","","","","","","","","","","","","","","","","","","","SYN06487470 32965 00505 10223 20154 30040 40151 52010 333 10223 20170=","","","","","","","","","",""
"87470099999","2021-11-08T15:00:00","-32.5","-61.6666666","96.0","EL TREBOL, AR","FM-12","4","","57","85","","","+0.12","7","40","FEW:02 20","29.85","29.52","9.32","68","090","","6","","","","","","","","","","","","","","","","","","","","","","","","","","","","","","","","","","","","","","","","","","","","","","","","","","","","","","","","","","","","","","","","","","","","","","","","","","","","","","","","","","","","","","","","","","","SYN004BUFR","","","","","","","","","",""
"87470099999","2021-11-08T18:00:00","-32.5","-61.6666666","96.0","EL TREBOL, AR","FM-12","4","","57","83","","","-0.04","1","41","","29.88","29.56","9.32","67","050","","6","","","","","","","","","","","","","","","","","","","","","","","","","","","","","","","","","","","","","","","","","","","","","","","","","","","","","","","","","","","","","","","","","","","","","","","","","","","","","","","","","","","","","","","","","","","SYN004BUFR","","","","","","","","","",""
"87470099999","2021-11-09T09:00:00","-32.5","-61.6666666","96.0","EL TREBOL, AR","FM-12","4","","58","74","","","-0.04","2","59","SCT:03 246","30.01","29.68","9.32","64","050","","6","","","","","","","","","","","","","","","","","","","","","","","","","","","","","","","","","","","","","","","","","","","","","","","","","","","","","","","","","","","","","","","","","","","","","","","","","","","","","","","","","","","","","","","","","","","SYN004BUFR","","","","","","","","","",""
"87470099999","2021-11-09T12:00:00","-32.5","-61.6666666","96.0","EL TREBOL, AR","FM-12","4","","52","83","","","+0.04","7","35","SCT:03 20","29.97","29.64","9.32","64","050","","6","","","","","","","","","","","","","","","","","","","","","","","","","","","","","","","","","","","","","","","","","","","","","","","","","","","","","","","","","","","","","","","","","","","","","","","","","","","","","","","","","","","","","","","","","","","SYN004BUFR","","","","","","","","","",""
"87470099999","2021-11-09T15:00:00","-32.5","-61.6666666","96.0","EL TREBOL, AR","FM-12","4","","59","78","","","+0.04","7","52","SCT:04 18 SCT:04 20","29.93","29.61","9.32","66","230","","2","","","","","","","","","","","","","","","","","","","","","","","","","","","","","","","","","","","","","","","","","","","","","","","","","","","","","","","","","","","","","","","","","","","","","","","","","","","","","","","","","","","","","","","","","","","SYN004BUFR","","","","","","","","","",""
"87470099999","2021-11-09T21:00:00","-32.5","-61.6666666","96.0","EL TREBOL, AR","FM-12","4","","58","69","","","-0.02","2","69","SCT:04 20","29.92","29.59","9.32","62","230","","6","","","","","","","","","","","","","","","","","","","","","","","","","","","","","","","","","","","","","","","","","","","","","","","","","","","","","","","","","","","","","","","","","","","","","","","","","","","","","","","","","","","","","","","","","","","SYN08887470 32565 42305 10206 20147 30022 40133 52008 84200 333 10285 20206 56900 57899 84820=","","","","","","","","","",""
"87470099999","2021-11-10T09:00:00","-32.5","-61.6666666","96.0","EL TREBOL, AR","FM-12","4","","59","70","","","-0.04","2","69","SCT:03 246","29.98","29.65","9.32","63","090","","6","","","","","","","","","","","","","","","","","","","","","","","","","","","","","","","","","","","","","","","","","","","","","","","","","","","","","","","","","","","","","","","","","","","","","","","","","","","","","","","","","","","","","","","","","","","SYN004BUFR","","","","","","","","","",""
"87470099999","2021-11-10T12:00:00","-32.5","-61.6666666","96.0","EL TREBOL, AR","FM-12","4","","57","83","","","+0.05","7","41","SCT:03 246","29.93","29.60","9.32","67","050","","6","","","","","","","","","","","","","","","","","","","","","","","","","","","","","","","","","","","","","","","","","","","","","","","","","","","","","","","","","","","","","","","","","","","","","","","","","","","","","","","","","","","","","","","","","","","SYN004BUFR","","","","","","","","","",""
"87470099999","2021-11-10T15:00:00","-32.5","-61.6666666","96.0","EL TREBOL, AR","FM-12","4","","56","86","","","+0.04","7","35","SCT:04 20","29.89","29.57","9.32","67","050","","6","","","","","","","","","","","","","","","","","","","","","","","","","","","","","","","","","","","","","","","","","","","","","","","","","","","","","","","","","","","","","","","","","","","","","","","","","","","","","","","","","","","","","","","","","","","SYN07687470 32565 40505 10300 20131 30012 40122 57013 84200 333 56900 57899 84820=","","","","","","","","","",""
"87470099999","2021-11-10T21:00:00","-32.5","-61.6666666","96.0","EL TREBOL, AR","FM-12","4","","62","70","","","-0.04","2","77","OVC:08 18","29.97","29.64","9.32","65","230","","6","","","","","","","","","","","","","","","","","","","","","","","","","","","","","","","","","","","","","","","","","","","","","","","","","","","","","","","","","","","","","","","","","","","","","","","","","","","","","","","","","","","","","","","","","","","SYN004BUFR","","","","","","","","","",""
"87470099999","2021-11-11T09:00:00","-32.5","-61.6666666","96.0","EL TREBOL, AR","FM-12","4","","54","68","","","-0.06","2","60","FEW:01 20 SCT:03 89","30.12","29.78","9.32","60","070","","6","","","","","","","","","","","","","","","","","","","","","","","","","","","","","","","","","","","","","","","","","","","","","","","","","","","","","","","","","","","","","","","","","","","","","","","","","","","","","","","","","","","","","","","","","","","SYN10087470 12565 40705 10202 20121 30086 40199 52020 69904 81230 333 10210 20167 56990 57899 81820 83359=","","","","","","","","","",""
"87470099999","2021-11-11T12:00:00","-32.5","-61.6666666","96.0","EL TREBOL, AR","FM-12","4","","56","81","","","+0.06","7","43","","30.05","29.72","9.32","66","360","","6","","","","","","","","","","","","","","","","","","","","","","","","","","","","","","","","","","","","","","","","","","","","","","","","","","","","","","","","","","","","","","","","","","","","","","","","","","","","","","","","","","","","","","","","","","","SYN004BUFR","","","","","","","","","",""
"87470099999","2021-11-11T15:00:00","-32.5","-61.6666666","96.0","EL TREBOL, AR","FM-12","4","","56","84","","","+0.06","7","39","","29.99","29.66","9.32","67","050","","9","","","","","","","","","","","","","","","","","","","","","","","","","","","","","","","","","","","","","","","","","","","","","","","","","","","","","","","","","","","","","","","","","","","","","","","","","","","","","","","","","","","","","","","","","","","SYN004BUFR","","","","","","","","","",""
"87470099999","2021-11-12T09:00:00","-32.5","-61.6666666","96.0","EL TREBOL, AR","FM-12","4","","54","68","","","-0.03","2","60","","30.02","29.69","9.32","60","050","","9","","","","","","","","","","","","","","","","","","","","","","","","","","","","","","","","","","","","","","","","","","","","","","","","","","","","","","","","","","","","","","","","","","","","","","","","","","","","","","","","","","","","","","","","","","","SYN06487470 32965 00508 10200 20120 30054 40165 52010 333 10237 20145=","","","","","","","","","",""
"87470099999","2021-11-12T15:00:00","-32.5","-61.6666666","96.0","EL TREBOL, AR","FM-12","4","","54","83","","","+0.07","7","36","","29.92","29.59","9.32","65","090","","6","","","","","","","","","","","","","","","","","","","","","","","","","","","","","","","","","","","","","","","","","","","","","","","","","","","","","","","","","","","","","","","","","","","","","","","","","","","","","","","","","","","","","","","","","","","SYN04887470 32965 00905 10285 20120 30021 40131 57023=","","","","","","","","","",""
"87470099999","2021-11-12T21:00:00","-32.5","-61.6666666","96.0","EL TREBOL, AR","FM-12","4","","51","71","","","+0.03","7","50","","29.85","29.53","9.32","60","090","","6","","","","","","","","","","","","","","","","","","","","","","","","","","","","","","","","","","","","","","","","","","","","","","","","","","","","","","","","","","","","","","","","","","","","","","","","","","","","","","","","","","","","","","","","","","","SYN004BUFR","","","","","","","","","",""
"87470099999","2021-11-13T09:00:00","-32.5","-61.6666666","96.0","EL TREBOL, AR","FM-12","4","","59","74","","","+0.01","6","60","FEW:01 89","29.76","29.44","9.32","65","050","","9","","","","","","","","","","","","","","","","","","","","","","","","","","","","","","","","","","","","","","","","","","","","","","","","","","","","","","","","","","","","","","","","","","","","","","","","","","","","","","","","","","","","","","","","","","","SYN08287470 32965 10508 10232 20151 39968 40078 56005 81050 333 10232 20157 56090 81359=","","","","","","","","","",""
"87470099999","2021-11-13T15:00:00","-32.5","-61.6666666","96.0","EL TREBOL, AR","FM-12","4","","66","91","","","+0.15","6","43","SCT:03 20","29.53","29.21","9.32","74","020","","9","","","","","","","","","","","","","","","","","","","","","","","","","","","","","","","","","","","","","","","","","","","","","","","","","","","","","","","","","","","","","","","","","","","","","","","","","","","","","","","","","","","","","","","","","","","SYN004BUFR","","","","","","","","","",""
"87470099999","2021-11-15T15:00:00","-32.5","-61.6666666","96.0","EL TREBOL, AR","FM-12","4","","61","82","","","+0.07","6","50","BKN:05 20","29.68","29.35","9.32","69","050","","9","","","","","","","","","","","","","","","","","","","","","","","","","","","","","","","","","","","","","","","","","","","","","","","","","","","","","","","","","","","","","","","","","","","","","","","","","","","","","","","","","","","","","","","","","","","SYN004BUFR","","","","","","","","","",""
"87470099999","2021-11-16T09:00:00","-32.5","-61.6666666","96.0","EL TREBOL, AR","FM-12","4","","53","62","","","-0.07","2","75","BKN:05 18","30.07","29.74","9.32","57","180","","15","","","","","","","","","","","","","","","","","","","","","","","","","","","","","","","","","","","","","","","","","","","","","","","","","","","","","","","","","","","","","","","","","","","","","","","","","","","","","","","","","","","","","","","","","","","SYN08287470 32465 51813 10164 20119 30070 40183 52025 85700 333 10210 20158 56900 85718=","","","","","","","","","",""
"87470099999","2021-11-16T15:00:00","-32.5","-61.6666666","96.0","EL TREBOL, AR","FM-12","4","","51","66","","","+0.00","6","59","SCT:04 20","30.09","29.76","9.32","58","180","","15","","","","","","","","","","","","","","","","","","","","","","","","","","","","","","","","","","","","","","","","","","","","","","","","","","","","","","","","","","","","","","","","","","","","","","","","","","","","","","","","","","","","","","","","","","","SYN06487470 32565 71813 10188 20106 30077 40190 56001 84558 333 84620=","","","","","","","","","",""
"87470099999","2021-11-17T09:00:00","-32.5","-61.6666666","96.0","EL TREBOL, AR","FM-12","4","","46","57","","","-0.01","2","66","","30.13","29.79","9.32","51","140","","6","","","","","","","","","","","","","","","","","","","","","","","","","","","","","","","","","","","","","","","","","","","","","","","","","","","","","","","","","","","","","","","","","","","","","","","","","","","","","","","","","","","","","","","","","","","SYN06487470 32965 01405 10140 20076 30088 40202 52005 333 10157 20092=","","","","","","","","","",""
"87470099999","2021-11-18T09:00:00","-32.5","-61.6666666","96.0","EL TREBOL, AR","FM-12","4","","44","64","","","-0.01","2","48","","29.93","29.60","9.32","54","050","","6","","","","","","","","","","","","","","","","","","","","","","","","","","","","","","","","","","","","","","","","","","","","","","","","","","","","","","","","","","","","","","","","","","","","","","","","","","","","","","","","","","","","","","","","","","","SYN06487470 32965 00505 10176 20064 30024 40136 52005 333 10176 20075=","","","","","","","","","",""
"87470099999","2021-11-18T12:00:00","-32.5","-61.6666666","96.0","EL TREBOL, AR","FM-12","4","","44","79","","","+0.05","7","29","","29.88","29.55","9.32","60","360","","6","","","","","","","","","","","","","","","","","","","","","","","","","","","","","","","","","","","","","","","","","","","","","","","","","","","","","","","","","","","","","","","","","","","","","","","","","","","","","","","","","","","","","","","","","","","SYN004BUFR","","","","","","","","","",""
"87470099999","2021-11-18T15:00:00","-32.5","-61.6666666","96.0","EL TREBOL, AR","FM-12","4","","43","81","","","+0.04","6","26","","29.84","29.51","9.32","60","000","","0","","","","","","","","","","","","","","","","","","","","","","","","","","","","","","","","","","","","","","","","","","","","","","","","","","","","","","","","","","","","","","","","","","","","","","","","","","","","","","","","","","","","","","","","","","","SYN04887470 32965 00000 10274 20063 39994 40106 56013=","","","","","","","","","",""
"87470099999","2021-11-18T18:00:00","-32.5","-61.6666666","96.0","EL TREBOL, AR","FM-12","4","","45","81","","","+0.04","7","28","","29.80","29.47","9.32","61","050","","6","","","","","","","","","","","","","","","","","","","","","","","","","","","","","","","","","","","","","","","","","","","","","","","","","","","","","","","","","","","","","","","","","","","","","","","","","","","","","","","","","","","","","","","","","","","SYN004BUFR","","","","","","","","","",""
"87470099999","2021-11-18T21:00:00","-32.5","-61.6666666","96.0","EL TREBOL, AR","FM-12","4","","50","69","","","-0.07","3","52","","29.87","29.54","9.32","58","050","","9","","","","","","","","","","","","","","","","","","","","","","","","","","","","","","","","","","","","","","","","","","","","","","","","","","","","","","","","","","","","","","","","","","","","","","","","","","","","","","","","","","","","","","","","","","","SYN06487470 32965 00508 10204 20102 30002 40115 53023 333 10285 20176=","","","","","","","","","",""
"87470099999","2021-11-19T09:00:00","-32.5","-61.6666666","96.0","EL TREBOL, AR","FM-12","4","","50","75","","","-0.06","2","41","","29.97","29.64","9.32","61","340","","6","","","","","","","","","","","","","","","","","","","","","","","","","","","","","","","","","","","","","","","","","","","","","","","","","","","","","","","","","","","","","","","","","","","","","","","","","","","","","","","","","","","","","","","","","","","SYN004BUFR","","","","","","","","","",""
"87470099999","2021-11-19T12:00:00","-32.5","-61.6666666","96.0","EL TREBOL, AR","FM-12","4","","50","85","","","+0.06","7","30","","29.91","29.58","9.32","64","360","","0","","","","","","","","","","","","","","","","","","","","","","","","","","","","","","","","","","","","","","","","","","","","","","","","","","","","","","","","","","","","","","","","","","","","","","","","","","","","","","","","","","","","","","","","","","","SYN004BUFR","","","","","","","","","",""
"87470099999","2021-11-19T15:00:00","-32.5","-61.6666666","96.0","EL TREBOL, AR","FM-12","4","","48","89","","","+0.03","6","24","FEW:01 25","29.88","29.55","9.32","65","000","","0","","","","","","","","","","","","","","","","","","","","","","","","","","","","","","","","","","","","","","","","","","","","","","","","","","","","","","","","","","","","","","","","","","","","","","","","","","","","","","","","","","","","","","","","","","","SYN07087470 32565 10000 10316 20089 30008 40118 56011 81100 333 56900 81825=","","","","","","","","","",""
"87470099999","2021-11-19T18:00:00","-32.5","-61.6666666","96.0","EL TREBOL, AR","FM-12","4","","54","78","","","+0.04","7","43","","29.85","29.52","9.32","64","050","","6","","","","","","","","","","","","","","","","","","","","","","","","","","","","","","","","","","","","","","","","","","","","","","","","","","","","","","","","","","","","","","","","","","","","","","","","","","","","","","","","","","","","","","","","","","","SYN004BUFR","","","","","","","","","",""
"87470099999","2021-11-19T21:00:00","-32.5","-61.6666666","96.0","EL TREBOL, AR","FM-12","4","","52","76","","","-0.06","3","43","FEW:01 89","29.90","29.57","9.32","62","360","","6","","","","","","","","","","","","","","","","","","","","","","","","","","","","","","","","","","","","","","","","","","","","","","","","","","","","","","","","","","","","","","","","","","","","","","","","","","","","","","","","","","","","","","","","","","","SYN08287470 32965 13605 10243 20109 30014 40124 53019 81050 333 10323 20240 56090 81359=","","","","","","","","","",""
"87470099999","2021-11-20T09:00:00","-32.5","-61.6666666","96.0","EL TREBOL, AR","FM-12","4","","60","74","","","-0.03","1","61","","29.95","29.62","9.32","65","320","","9","","","","","","","","","","","","","","","","","","","","","","","","","","","","","","","","","","","","","","","","","","","","","","","","","","","","","","","","","","","","","","","","","","","","","","","","","","","","","","","","","","","","","","","","","","","SYN06487470 32965 03208 10234 20155 30032 40143 51009 333 10241 20168=","","","","","","","","","",""
"87470099999","2021-11-20T15:00:00","-32.5","-61.6666666","96.0","EL TREBOL, AR","FM-12","4","","50","91","","","+0.07","7","24","","29.85","29.52","9.32","66","360","","15","","","","","","","","","","","","","","","","","","","","","","","","","","","","","","","","","","","","","","","","","","","","","","","","","","","","","","","","","","","","","","","","","","","","","","","","","","","","","","","","","","","","","","","","","","","SYN04887470 32965 03613 10326 20098 39998 40108 57025=","","","","","","","","","",""
"87470099999","2021-11-20T21:00:00","-32.5","-61.6666666","96.0","EL TREBOL, AR","FM-12","4","","54","77","","","-0.05","3","46","","29.85","29.53","9.32","63","050","","6","","","","","","","","","","","","","","","","","","","","","","","","","","","","","","","","","","","","","","","","","","","","","","","","","","","","","","","","","","","","","","","","","","","","","","","","","","","","","","","","","","","","","","","","","","","SYN06487470 32965 00505 10248 20124 30000 40110 53016 333 10331 20234=","","","","","","","","","",""
"87470099999","2021-11-21T09:00:00","-32.5","-61.6666666","96.0","EL TREBOL, AR","FM-12","4","","54","79","","","-0.01","1","42","","29.86","29.54","9.32","64","360","","9","","","","","","","","","","","","","","","","","","","","","","","","","","","","","","","","","","","","","","","","","","","","","","","","","","","","","","","","","","","","","","","","","","","","","","","","","","","","","","","","","","","","","","","","","","","SYN06487470 32965 03608 10260 20121 30004 40113 51002 333 10260 20198=","","","","","","","","","",""
"87470099999","2021-11-21T15:00:00","-32.5","-61.6666666","96.0","EL TREBOL, AR","FM-12","4","","44","93","","","+0.09","7","18","","29.75","29.43","9.32","65","360","","9","","","","","","","","","","","","","","","","","","","","","","","","","","","","","","","","","","","","","","","","","","","","","","","","","","","","","","","","","","","","","","","","","","","","","","","","","","","","","","","","","","","","","","","","","","","SYN04887470 32965 03608 10340 20068 39965 40074 57031=","","","","","","","","","",""
"87470099999","2021-11-21T21:00:00","-32.5","-61.6666666","96.0","EL TREBOL, AR","FM-12","4","","54","78","","","-0.01","3","44","","29.69","29.37","9.32","64","050","","6","","","","","","","","","","","","","","","","","","","","","","","","","","","","","","","","","","","","","","","","","","","","","","","","","","","","","","","","","","","","","","","","","","","","","","","","","","","","","","","","","","","","","","","","","","","SYN06487470 32965 00505 10255 20123 39946 40055 53003 333 10345 20255=","","","","","","","","","",""
"87470099999","2021-11-22T09:00:00","-32.5","-61.6666666","96.0","EL TREBOL, AR","FM-12","4","","61","80","","","-0.06","1","53","","29.75","29.42","9.32","68","360","","0","","","","","","","","","","","","","","","","","","","","","","","","","","","","","","","","","","","","","","","","","","","","","","","","","","","","","","","","","","","","","","","","","","","","","","","","","","","","","","","","","","","","","","","","","","","SYN004BUFR","","","","","","","","","",""
"87470099999","2021-11-22T15:00:00","-32.5","-61.6666666","96.0","EL TREBOL, AR","FM-12","4","","54","96","","","+0.03","6","24","SCT:04 20","29.68","29.36","9.32","69","270","","2","","","","","","","","","","","","","","","","","","","","","","","","","","","","","","","","","","","","","","","","","","","","","","","","","","","","","","","","","","","","","","","","","","","","","","","","","","","","","","","","","","","","","","","","","","","SYN004BUFR","","","","","","","","","",""
"87470099999","2021-11-22T21:00:00","-32.5","-61.6666666","96.0","EL TREBOL, AR","FM-12","4","","58","81","","","-0.09","1","47","FEW:02 20","29.78","29.46","9.32","67","160","","6","","","","","","","","","","","","","","","","","","","","","","","","","","","","","","","","","","","","","","","","","","","","","","","","","","","","","","","","","","","","","","","","","","","","","","","","","","","","","","","","","","","","","","","","","","","SYN004BUFR","","","","","","","","","",""
"87470099999","2021-11-23T09:00:00","-32.5","-61.6666666","96.0","EL TREBOL, AR","FM-12","4","","47","65","","","-0.09","2","52","BKN:05 20 SCT:03 89","30.05","29.72","9.32","55","070","","6","","","","","","","","","","","","","","","","","","","","","","","","","","","","","","","","","","","","","","","","","","","","","","","","","","","","","","","","","","","","","","","","","","","","","","","","","","","","","","","","","","","","","","","","","","","SYN08887470 32565 70705 10182 20082 30064 40175 52030 85550 333 10269 20175 56990 85620 83359=","","","","","","","","","",""
"87470099999","2021-11-23T12:00:00","-32.5","-61.6666666","96.0","EL TREBOL, AR","FM-12","4","","53","72","","","+0.08","7","50","FEW:02 246","29.97","29.64","9.32","61","110","","6","","","","","","","","","","","","","","","","","","","","","","","","","","","","","","","","","","","","","","","","","","","","","","","","","","","","","","","","","","","","","","","","","","","","","","","","","","","","","","","","","","","","","","","","","","","SYN004BUFR","","","","","","","","","",""
"87470099999","2021-11-23T15:00:00","-32.5","-61.6666666","96.0","EL TREBOL, AR","FM-12","4","","42","83","","","+0.06","7","23","","29.90","29.58","9.32","60","090","","6","","","","","","","","","","","","","","","","","","","","","","","","","","","","","","","","","","","","","","","","","","","","","","","","","","","","","","","","","","","","","","","","","","","","","","","","","","","","","","","","","","","","","","","","","","","SYN004BUFR","","","","","","","","","",""
"87470099999","2021-11-23T21:00:00","-32.5","-61.6666666","96.0","EL TREBOL, AR","FM-12","4","","47","72","","","0.00","4","41","","29.90","29.57","9.32","58","050","","2","","","","","","","","","","","","","","","","","","","","","","","","","","","","","","","","","","","","","","","","","","","","","","","","","","","","","","","","","","","","","","","","","","","","","","","","","","","","","","","","","","","","","","","","","","","SYN06487470 32965 00502 10223 20085 30014 40125 54000 333 10292 20182=","","","","","","","","","",""
"87470099999","2021-11-24T09:00:00","-32.5","-61.6666666","96.0","EL TREBOL, AR","FM-12","4","","46","75","","","0.00","4","36","","29.81","29.49","9.32","59","050","","9","","","","","","","","","","","","","","","","","","","","","","","","","","","","","","","","","","","","","","","","","","","","","","","","","","","","","","","","","","","","","","","","","","","","","","","","","","","","","","","","","","","","","","","","","","","SYN06487470 32965 00508 10240 20080 39986 40096 54000 333 10240 20160=","","","","","","","","","",""
"87470099999","2021-11-24T15:00:00","-32.5","-61.6666666","96.0","EL TREBOL, AR","FM-12","4","","53","93","","","+0.12","7","26","","29.64","29.32","9.32","68","360","","15","","","","","","","","","","","","","","","","","","","","","","","","","","","","","","","","","","","","","","","","","","","","","","","","","","","","","","","","","","","","","","","","","","","","","","","","","","","","","","","","","","","","","","","","","","","SYN004BUFR","","","","","","","","","",""
"87470099999","2021-11-24T21:00:00","-32.5","-61.6666666","96.0","EL TREBOL, AR","FM-12","4","","59","81","","","+0.03","6","46","FEW:01 20","29.59","29.27","9.32","67","050","","2","","","","","","","","","","","","","","","","","","","","","","","","","","","","","","","","","","","","","","","","","","","","","","","","","","","","","","","","","","","","","","","","","","","","","","","","","","","","","","","","","","","","","","","","","","","SYN08287470 32565 10502 10275 20148 39912 40020 56009 81700 333 10341 20240 56900 81720=","","","","","","","","","",""
"87470099999","2021-11-25T09:00:00","-32.5","-61.6666666","96.0","EL TREBOL, AR","FM-12","4","","64","69","","","-0.06","2","86","BKN:05 18","29.68","29.36","9.32","66","230","","6","","","","","","","","","","","","","","","","","","","","","","","","","","","","","","","","","","","","","","","","","","","","","","","","","","","","","","","","","","","","","","","","","","","","","","","","","","","","","","","","","","","","","","","","","","","SYN10087470 02465 52305 10204 20180 39942 40052 52020 60714 85200 333 10280 20185 56900 57899 60712 85818=","","","","","","","","","",""
"87470099999","2021-11-25T15:00:00","-32.5","-61.6666666","96.0","EL TREBOL, AR","FM-12","4","","62","76","","","+0.00","7","60","SCT:04 18","29.67","29.35","9.32","67","230","","15","","","","","","","","","","","","","","","","","","","","","","","","","","","","","","","","","","","","","","","","","","","","","","","","","","","","","","","","","","","","","","","","","","","","","","","","","","","","","","","","","","","","","","","","","","","SYN004BUFR","","","","","","","","","",""
"87470099999","2021-11-25T21:00:00","-32.5","-61.6666666","96.0","EL TREBOL, AR","FM-12","4","","63","67","","","-0.09","1","87","","29.79","29.46","9.32","65","160","","9","","","","","","","","","","","","","","","","","","","","","","","","","","","","","","","","","","","","","","","","","","","","","","","","","","","","","","","","","","","","","","","","","","","","","","","","","","","","","","","","","","","","","","","","","","","SYN004BUFR","","","","","","","","","",""
"87470099999","2021-11-26T09:00:00","-32.5","-61.6666666","96.0","EL TREBOL, AR","FM-12","4","","64","72","","","-0.06","2","76","","29.86","29.53","9.32","67","000","","0","","","","","","","","","","","","","","","","","","","","","","","","","","","","","","","","","","","","","","","","","","","","","","","","","","","","","","","","","","","","","","","","","","","","","","","","","","","","","","","","","","","","","","","","","","","SYN06487470 32965 00000 10222 20177 30001 40112 52020 333 10222 20148=","","","","","","","","","",""
"87470099999","2021-11-26T15:00:00","-32.5","-61.6666666","96.0","EL TREBOL, AR","FM-12","4","","58","87","","","+0.06","6","37","","29.75","29.43","9.32","69","110","","6","","","","","","","","","","","","","","","","","","","","","","","","","","","","","","","","","","","","","","","","","","","","","","","","","","","","","","","","","","","","","","","","","","","","","","","","","","","","","","","","","","","","","","","","","","","SYN004BUFR","","","","","","","","","",""
"87470099999","2021-11-26T21:00:00","-32.5","-61.6666666","96.0","EL TREBOL, AR","FM-12","4","","63","75","","","-0.02","1","68","","29.75","29.42","9.32","67","360","","0","","","","","","","","","","","","","","","","","","","","","","","","","","","","","","","","","","","","","","","","","","","","","","","","","","","","","","","","","","","","","","","","","","","","","","","","","","","","","","","","","","","","","","","","","","","SYN004BUFR","","","","","","","","","",""
"87470099999","2021-11-27T09:00:00","-32.5","-61.6666666","96.0","EL TREBOL, AR","FM-12","4","","60","75","","","0.00","4","59","FEW:02 89","29.75","29.43","9.32","66","050","","6","","","","","","","","","","","","","","","","","","","","","","","","","","","","","","","","","","","","","","","","","","","","","","","","","","","","","","","","","","","","","","","","","","","","","","","","","","","","","","","","","","","","","","","","","","","SYN08287470 32965 40505 10237 20153 39965 40075 54000 82054 333 10237 20178 56099 82359=","","","","","","","","","",""
"87470099999","2021-11-27T15:00:00","-32.5","-61.6666666","96.0","EL TREBOL, AR","FM-12","4","","57","85","","","+0.08","6","38","SCT:03 20","29.65","29.32","9.32","67","050","","15","","","","","","","","","","","","","","","","","","","","","","","","","","","","","","","","","","","","","","","","","","","","","","","","","","","","","","","","","","","","","","","","","","","","","","","","","","","","","","","","","","","","","","","","","","","SYN06487470 32565 60513 10295 20139 39930 40040 56027 83739 333 83720=","","","","","","","","","",""
"87470099999","2021-11-27T18:00:00","-32.5","-61.6666666","96.0","EL TREBOL, AR","FM-12","4","","60","83","","","+0.02","6","45","SCT:03 20","29.63","29.31","9.32","68","050","","2","","","","","","","","","","","","","","","","","","","","","","","","","","","","","","","","","","","","","","","","","","","","","","","","","","","","","","","","","","","","","","","","","","","","","","","","","","","","","","","","","","","","","","","","","","","SYN004BUFR","","","","","","","","","",""
"87470099999","2021-11-27T21:00:00","-32.5","-61.6666666","96.0","EL TREBOL, AR","FM-12","4","","63","74","","","-0.05","1","67","BKN:05 20 SCT:03 89","29.67","29.35","9.32","67","140","","6","","","","","","","","","","","","","","","","","","","","","","","","","","","","","","","","","","","","","","","","","","","","","","","","","","","","","","","","","","","","","","","","","","","","","","","","","","","","","","","","","","","","","","","","","","","SYN004BUFR","","","","","","","","","",""
"87470099999","2021-11-28T09:00:00","-32.5","-61.6666666","96.0","EL TREBOL, AR","FM-12","4","","58","62","","","-0.03","1","88","OVC:08 20","29.88","29.55","9.32","60","180","","9","","","","","","","","","","","","","","","","","","","","","","","","","","","","","","","","","","","","","","","","","","","","","","","","","","","","","","","","","","","","","","","","","","","","","","","","","","","","","","","","","","","","","","","","","","","SYN09487470 02565 81808 10168 20147 30008 40119 51010 60174 88700 333 10236 20149 56900 60172 88720=","","","","","","","","","",""
"87470099999","2021-11-28T15:00:00","-32.5","-61.6666666","96.0","EL TREBOL, AR","FM-12","4","","55","74","","","+0.04","6","52","SCT:03 20","29.77","29.44","9.32","63","180","","15","","","","","","","","","","","","","","","","","","","","","","","","","","","","","","","","","","","","","","","","","","","","","","","","","","","","","","","","","","","","","","","","","","","","","","","","","","","","","","","","","","","","","","","","","","","SYN07087470 32565 31813 10232 20129 39969 40080 56013 83100 333 56900 83820=","","","","","","","","","",""
"87470099999","2021-11-28T21:00:00","-32.5","-61.6666666","96.0","EL TREBOL, AR","FM-12","4","","57","64","","","-0.01","1","78","","29.74","29.41","9.32","60","360","","0","","","","","","","","","","","","","","","","","","","","","","","","","","","","","","","","","","","","","","","","","","","","","","","","","","","","","","","","","","","","","","","","","","","","","","","","","","","","","","","","","","","","","","","","","","","SYN004BUFR","","","","","","","","","",""
"87470099999","2021-11-29T09:00:00","-32.5","-61.6666666","96.0","EL TREBOL, AR","FM-12","4","","59","67","","","-0.03","2","75","","29.78","29.45","9.32","62","230","","6","","","","","","","","","","","","","","","","","","","","","","","","","","","","","","","","","","","","","","","","","","","","","","","","","","","","","","","","","","","","","","","","","","","","","","","","","","","","","","","","","","","","","","","","","","","SYN004BUFR","","","","","","","","","",""
"87470099999","2021-11-29T12:00:00","-32.5","-61.6666666","96.0","EL TREBOL, AR","FM-12","4","","52","77","","","0.00","4","41","","29.78","29.45","9.32","62","230","","6","","","","","","","","","","","","","","","","","","","","","","","","","","","","","","","","","","","","","","","","","","","","","","","","","","","","","","","","","","","","","","","","","","","","","","","","","","","","","","","","","","","","","","","","","","","SYN004BUFR","","","","","","","","","",""
"87470099999","2021-11-29T15:00:00","-32.5","-61.6666666","96.0","EL TREBOL, AR","FM-12","4","","46","82","","","+0.05","6","28","","29.73","29.41","9.32","62","160","","9","","","","","","","","","","","","","","","","","","","","","","","","","","","","","","","","","","","","","","","","","","","","","","","","","","","","","","","","","","","","","","","","","","","","","","","","","","","","","","","","","","","","","","","","","","","SYN04887470 32965 01608 10277 20077 39958 40069 56016=","","","","","","","","","",""
"87470099999","2021-11-29T21:00:00","-32.5","-61.6666666","96.0","EL TREBOL, AR","FM-12","4","","58","67","","","-0.04","1","73","","29.75","29.42","9.32","62","360","","0","","","","","","","","","","","","","","","","","","","","","","","","","","","","","","","","","","","","","","","","","","","","","","","","","","","","","","","","","","","","","","","","","","","","","","","","","","","","","","","","","","","","","","","","","","","SYN004BUFR","","","","","","","","","",""
"87470099999","2021-11-30T09:00:00","-32.5","-61.6666666","96.0","EL TREBOL, AR","FM-12","4","","57","70","","","-0.07","2","62","","29.84","29.51","9.32","62","090","","6","","","","","","","","","","","","","","","","","","","","","","","","","","","","","","","","","","","","","","","","","","","","","","","","","","","","","","","","","","","","","","","","","","","","","","","","","","","","","","","","","","","","","","","","","","","SYN06487470 32965 00905 10213 20138 39994 40105 52025 333 10213 20142=","","","","","","","","","",""
"87470099999","2021-11-30T15:00:00","-32.5","-61.6666666","96.0","EL TREBOL, AR","FM-12","4","","55","87","","","+0.06","7","33","FEW:01 20","29.75","29.43","9.32","67","360","","0","","","","","","","","","","","","","","","","","","","","","","","","","","","","","","","","","","","","","","","","","","","","","","","","","","","","","","","","","","","","","","","","","","","","","","","","","","","","","","","","","","","","","","","","","","","SYN004BUFR","","","","","","","","","",""
"87470099999","2021-11-30T21:00:00","-32.5","-61.6666666","96.0","EL TREBOL, AR","FM-12","4","","58","74","","","-0.05","1","57","FEW:01 20","29.77","29.44","9.32","64","090","","6","","","","","","","","","","","","","","","","","","","","","","","","","","","","","","","","","","","","","","","","","","","","","","","","","","","","","","","","","","","","","","","","","","","","","","","","","","","","","","","","","","","","","","","","","","","SYN004BUFR","","","","","","","","","",""
"87470099999","2021-12-01T09:00:00","-32.5","-61.6666666","96.0","EL TREBOL, AR","FM-12","4","","54","72","","","-0.04","2","55","FEW:01 89","29.88","29.56","9.32","61","110","","6","","","","","","","","","","","","","","","","","","","","","","","","","","","","","","","","","","","","","","","","","","","","","","","","","","","","","","","","","","","","","","","","","","","","","","","","","","","","","","","","","","","","","","","","","","","SYN08287470 32965 21105 10220 20124 30009 40120 52015 81038 333 10240 20185 56099 81359=","","","","","","","","","",""
"87470099999","2021-12-01T15:00:00","-32.5","-61.6666666","96.0","EL TREBOL, AR","FM-12","4","","56","85","","","+0.07","7","37","SCT:03 20","29.81","29.49","9.32","67","050","","6","","","","","","","","","","","","","","","","","","","","","","","","","","","","","","","","","","","","","","","","","","","","","","","","","","","","","","","","","","","","","","","","","","","","","","","","","","","","","","","","","","","","","","","","","","","SYN07687470 32565 30505 10292 20132 39985 40095 57023 83200 333 56900 57899 83820=","","","","","","","","","",""
"87470099999","2021-12-01T21:00:00","-32.5","-61.6666666","96.0","EL TREBOL, AR","FM-12","4","","56","72","","","-0.05","1","58","","29.85","29.52","9.32","62","140","","9","","","","","","","","","","","","","","","","","","","","","","","","","","","","","","","","","","","","","","","","","","","","","","","","","","","","","","","","","","","","","","","","","","","","","","","","","","","","","","","","","","","","","","","","","","","SYN004BUFR","","","","","","","","","",""
"87470099999","2021-12-02T09:00:00","-32.5","-61.6666666","96.0","EL TREBOL, AR","FM-12","4","","56","72","","","-0.06","2","58","","29.94","29.61","9.32","63","050","","6","","","","","","","","","","","","","","","","","","","","","","","","","","","","","","","","","","","","","","","","","","","","","","","","","","","","","","","","","","","","","","","","","","","","","","","","","","","","","","","","","","","","","","","","","","","SYN06487470 32965 00505 10223 20136 30026 40138 52020 333 10223 20153=","","","","","","","","","",""
"87470099999","2021-12-02T12:00:00","-32.5","-61.6666666","96.0","EL TREBOL, AR","FM-12","4","","56","82","","","+0.01","7","40","","29.92","29.59","9.32","66","050","","6","","","","","","","","","","","","","","","","","","","","","","","","","","","","","","","","","","","","","","","","","","","","","","","","","","","","","","","","","","","","","","","","","","","","","","","","","","","","","","","","","","","","","","","","","","","SYN004BUFR","","","","","","","","","",""
"87470099999","2021-12-02T15:00:00","-32.5","-61.6666666","96.0","EL TREBOL, AR","FM-12","4","","62","87","","","+0.20","7","43","FEW:02 20","29.71","29.39","9.32","71","140","","6","","","","","","","","","","","","","","","","","","","","","","","","","","","","","","","","","","","","","","","","","","","","","","","","","","","","","","","","","","","","","","","","","","","","","","","","","","","","","","","","","","","","","","","","","","","SYN004BUFR","","","","","","","","","",""
"87470099999","2021-12-02T21:00:00","-32.5","-61.6666666","96.0","EL TREBOL, AR","FM-12","4","","58","75","","","-0.03","1","54","","29.86","29.53","9.32","65","070","","9","","","","","","","","","","","","","","","","","","","","","","","","","","","","","","","","","","","","","","","","","","","","","","","","","","","","","","","","","","","","","","","","","","","","","","","","","","","","","","","","","","","","","","","","","","","SYN06487470 32965 00708 10241 20142 30001 40111 51011 333 10307 20223=","","","","","","","","","",""
"87470099999","2021-12-03T09:00:00","-32.5","-61.6666666","96.0","EL TREBOL, AR","FM-12","4","","57","73","","","-0.03","2","58","SCT:03 20","30.04","29.71","9.32","63","050","","9","","","","","","","","","","","","","","","","","","","","","","","","","","","","","","","","","","","","","","","","","","","","","","","","","","","","","","","","","","","","","","","","","","","","","","","","","","","","","","","","","","","","","","","","","","","SYN08887470 32565 50508 10227 20139 30062 40174 52010 83230 333 10241 20165 56990 57899 83820=","","","","","","","","","",""
"87470099999","2021-12-03T12:00:00","-32.5","-61.6666666","96.0","EL TREBOL, AR","FM-12","4","","56","82","","","+0.18","7","42","SCT:03 20","29.86","29.54","9.32","66","050","","6","","","","","","","","","","","","","","","","","","","","","","","","","","","","","","","","","","","","","","","","","","","","","","","","","","","","","","","","","","","","","","","","","","","","","","","","","","","","","","","","","","","","","","","","","","","SYN004BUFR","","","","","","","","","",""
"87470099999","2021-12-03T15:00:00","-32.5","-61.6666666","96.0","EL TREBOL, AR","FM-12","4","","55","85","","","+0.03","7","35","FEW:02 20","29.83","29.51","9.32","67","050","","6","","","","","","","","","","","","","","","","","","","","","","","","","","","","","","","","","","","","","","","","","","","","","","","","","","","","","","","","","","","","","","","","","","","","","","","","","","","","","","","","","","","","","","","","","","","SYN004BUFR","","","","","","","","","",""
"87470099999","2021-12-03T21:00:00","-32.5","-61.6666666","96.0","EL TREBOL, AR","FM-12","4","","56","75","","","-0.03","1","51","SCT:03 20","29.85","29.52","9.32","64","140","","9","","","","","","","","","","","","","","","","","","","","","","","","","","","","","","","","","","","","","","","","","","","","","","","","","","","","","","","","","","","","","","","","","","","","","","","","","","","","","","","","","","","","","","","","","","","SYN08287470 32565 41408 10239 20132 39998 40108 51011 83650 333 10299 20227 56990 83720=","","","","","","","","","",""
"87470099999","2021-12-04T09:00:00","-32.5","-61.6666666","96.0","EL TREBOL, AR","FM-12","4","","61","67","","","-0.01","2","80","OVC:08 18","30.01","29.67","9.32","63","050","","6","","","","","","","","","","","","","","","","","","","","","","","","","","","","","","","","","","","","","","","","","","","","","","","","","","","","","","","","","","","","","","","","","","","","","","","","","","","","","","","","","","","","","","","","","","","SYN004BUFR","","","","","","","","","",""
"87470099999","2021-12-04T15:00:00","-32.5","-61.6666666","96.0","EL TREBOL, AR","FM-12","4","","55","84","","","+0.06","7","37","FEW:02 20 SCT:03 89","29.95","29.62","9.32","66","140","","6","","","","","","","","","","","","","","","","","","","","","","","","","","","","","","","","","","","","","","","","","","","","","","","","","","","","","","","","","","","","","","","","","","","","","","","","","","","","","","","","","","","","","","","","","","","SYN004BUFR","","","","","","","","","",""
"87470099999","2021-12-04T18:00:00","-32.5","-61.6666666","96.0","EL TREBOL, AR","FM-12","4","","57","81","","","+0.01","7","45","SCT:03 20","29.93","29.61","9.32","66","110","","2","","","","","","","","","","","","","","","","","","","","","","","","","","","","","","","","","","","","","","","","","","","","","","","","","","","","","","","","","","","","","","","","","","","","","","","","","","","","","","","","","","","","","","","","","","","SYN004BUFR","","","","","","","","","",""
"87470099999","2021-12-04T21:00:00","-32.5","-61.6666666","96.0","EL TREBOL, AR","FM-12","4","","56","74","","","-0.03","2","53","SCT:03 20","29.97","29.64","9.32","63","110","","6","","","","","","","","","","","","","","","","","","","","","","","","","","","","","","","","","","","","","","","","","","","","","","","","","","","","","","","","","","","","","","","","","","","","","","","","","","","","","","","","","","","","","","","","","","","SYN08287470 32565 31105 10236 20134 30037 40148 52011 83500 333 10292 20196 56900 83620=","","","","","","","","","",""
"87470099999","2021-12-05T09:00:00","-32.5","-61.6666666","96.0","EL TREBOL, AR","FM-12","4","","62","71","","","-0.03","1","75","SCT:03 20 SCT:03 89","30.08","29.75","9.32","65","180","","2","","","","","","","","","","","","","","","","","","","","","","","","","","","","","","","","","","","","","","","","","","","","","","","","","","","","","","","","","","","","","","","","","","","","","","","","","","","","","","","","","","","","","","","","","","","SYN08887470 32565 61802 10214 20167 30076 40186 51010 83650 333 10236 20168 56990 83720 83359=","","","","","","","","","",""
"87470099999","2021-12-05T15:00:00","-32.5","-61.6666666","96.0","EL TREBOL, AR","FM-12","4","","61","80","","","+0.01","6","52","BKN:05 20 SCT:03 89","30.04","29.71","9.32","68","180","","6","","","","","","","","","","","","","","","","","","","","","","","","","","","","","","","","","","","","","","","","","","","","","","","","","","","","","","","","","","","","","","","","","","","","","","","","","","","","","","","","","","","","","","","","","","","SYN004BUFR","","","","","","","","","",""
"87470099999","2021-12-05T18:00:00","-32.5","-61.6666666","96.0","EL TREBOL, AR","FM-12","4","","62","78","","","+0.01","6","58","BKN:05 20","30.03","29.70","9.32","68","180","","2","","","","","","","","","","","","","","","","","","","","","","","","","","","","","","","","","","","","","","","","","","","","","","","","","","","","","","","","","","","","","","","","","","","","","","","","","","","","","","","","","","","","","","","","","","","SYN004BUFR","","","","","","","","","",""
"87470099999","2021-12-05T21:00:00","-32.5","-61.6666666","96.0","EL TREBOL, AR","FM-12","4","","63","74","","","-0.01","1","68","BKN:05 20","30.03","29.71","9.32","67","180","","6","","","","","","","","","","","","","","","","","","","","","","","","","","","","","","","","","","","","","","","","","","","","","","","","","","","","","","","","","","","","","","","","","","","","","","","","","","","","","","","","","","","","","","","","","","","SYN08287470 32565 71805 10234 20172 30060 40171 51003 85760 333 10278 20214 56990 85720=","","","","","","","","","",""
"87470099999","2021-12-06T09:00:00","-32.5","-61.6666666","96.0","EL TREBOL, AR","FM-12","4","","62","71","","","-0.03","2","76","","30.09","29.76","9.32","65","140","","6","","","","","","","","","","","","","","","","","","","","","","","","","","","","","","","","","","","","","","","","","","","","","","","","","","","","","","","","","","","","","","","","","","","","","","","","","","","","","","","","","","","","","","","","","","","SYN06487470 32965 01405 10214 20169 30077 40188 52010 333 10234 20170=","","","","","","","","","",""
"87470099999","2021-12-06T12:00:00","-32.5","-61.6666666","96.0","EL TREBOL, AR","FM-12","4","","57","81","","","+0.04","7","44","","30.05","29.72","9.32","66","140","","6","","","","","","","","","","","","","","","","","","","","","","","","","","","","","","","","","","","","","","","","","","","","","","","","","","","","","","","","","","","","","","","","","","","","","","","","","","","","","","","","","","","","","","","","","","","SYN004BUFR","","","","","","","","","",""
"87470099999","2021-12-06T15:00:00","-32.5","-61.6666666","96.0","EL TREBOL, AR","FM-12","4","","54","85","","","+0.11","7","34","","29.94","29.62","9.32","66","140","","6","","","","","","","","","","","","","","","","","","","","","","","","","","","","","","","","","","","","","","","","","","","","","","","","","","","","","","","","","","","","","","","","","","","","","","","","","","","","","","","","","","","","","","","","","","","SYN004BUFR","","","","","","","","","",""
"87470099999","2021-12-06T21:00:00","-32.5","-61.6666666","96.0","EL TREBOL, AR","FM-12","4","","56","77","","","-0.01","2","48","","29.98","29.65","9.32","64","140","","6","","","","","","","","","","","","","","","","","","","","","","","","","","","","","","","","","","","","","","","","","","","","","","","","","","","","","","","","","","","","","","","","","","","","","","","","","","","","","","","","","","","","","","","","","","","SYN06487470 32965 01405 10248 20131 30042 40153 52005 333 10305 20214=","","","","","","","","","",""
"87470099999","2021-12-07T09:00:00","-32.5","-61.6666666","96.0","EL TREBOL, AR","FM-12","4","","61","75","","","-0.01","2","62","","30.04","29.72","9.32","66","050","","9","","","","","","","","","","","","","","","","","","","","","","","","","","","","","","","","","","","","","","","","","","","","","","","","","","","","","","","","","","","","","","","","","","","","","","","","","","","","","","","","","","","","","","","","","","","SYN06487470 32965 00508 10240 20162 30064 40174 52005 333 10248 20170=","","","","","","","","","",""
"87470099999","2021-12-07T15:00:00","-32.5","-61.6666666","96.0","EL TREBOL, AR","FM-12","4","","56","87","","","+0.07","7","34","FEW:02 20","29.91","29.58","9.32","68","020","","9","","","","","","","","","","","","","","","","","","","","","","","","","","","","","","","","","","","","","","","","","","","","","","","","","","","","","","","","","","","","","","","","","","","","","","","","","","","","","","","","","","","","","","","","","","","SYN004BUFR","","","","","","","","","",""
"87470099999","2021-12-08T09:00:00","-32.5","-61.6666666","96.0","EL TREBOL, AR","FM-12","4","","56","75","","","-0.03","2","52","","29.98","29.65","9.32","64","020","","6","","","","","","","","","","","","","","","","","","","","","","","","","","","","","","","","","","","","","","","","","","","","","","","","","","","","","","","","","","","","","","","","","","","","","","","","","","","","","","","","","","","","","","","","","","","SYN004BUFR","","","","","","","","","",""
"87470099999","2021-12-08T15:00:00","-32.5","-61.6666666","96.0","EL TREBOL, AR","FM-12","4","","47","89","","","+0.07","7","24","","29.90","29.58","9.32","64","090","","6","","","","","","","","","","","","","","","","","","","","","","","","","","","","","","","","","","","","","","","","","","","","","","","","","","","","","","","","","","","","","","","","","","","","","","","","","","","","","","","","","","","","","","","","","","","SYN004BUFR","","","","","","","","","",""
"87470099999","2021-12-08T18:00:00","-32.5","-61.6666666","96.0","EL TREBOL, AR","FM-12","4","","50","87","","","+0.02","7","28","","29.88","29.56","9.32","65","090","","6","","","","","","","","","","","","","","","","","","","","","","","","","","","","","","","","","","","","","","","","","","","","","","","","","","","","","","","","","","","","","","","","","","","","","","","","","","","","","","","","","","","","","","","","","","","SYN004BUFR","","","","","","","","","",""
"87470099999","2021-12-08T21:00:00","-32.5","-61.6666666","96.0","EL TREBOL, AR","FM-12","4","","54","78","","","-0.01","2","44","","29.90","29.57","9.32","64","090","","6","","","","","","","","","","","","","","","","","","","","","","","","","","","","","","","","","","","","","","","","","","","","","","","","","","","","","","","","","","","","","","","","","","","","","","","","","","","","","","","","","","","","","","","","","","","SYN06487470 32965 00905 10253 20120 30014 40124 52005 333 10320 20238=","","","","","","","","","",""
"87470099999","2021-12-09T09:00:00","-32.5","-61.6666666","96.0","EL TREBOL, AR","FM-12","4","","62","75","","","-0.04","2","64","FEW:02 20 SCT:03 89","29.96","29.64","9.32","67","180","","2","","","","","","","","","","","","","","","","","","","","","","","","","","","","","","","","","","","","","","","","","","","","","","","","","","","","","","","","","","","","","","","","","","","","","","","","","","","","","","","","","","","","","","","","","","","SYN004BUFR","","","","","","","","","",""
"87470099999","2021-12-09T12:00:00","-32.5","-61.6666666","96.0","EL TREBOL, AR","FM-12","4","","62","81","","","+0.07","7","53","SCT:03 20","29.89","29.57","9.32","69","140","","6","","","","","","","","","","","","","","","","","","","","","","","","","","","","","","","","","","","","","","","","","","","","","","","","","","","","","","","","","","","","","","","","","","","","","","","","","","","","","","","","","","","","","","","","","","","SYN004BUFR","","","","","","","","","",""
"87470099999","2021-12-09T21:00:00","-32.5","-61.6666666","96.0","EL TREBOL, AR","FM-12","4","","65","70","","","-0.00","2","86","SCT:03 20","29.88","29.55","9.32","67","180","","6","","","","","","","","","","","","","","","","","","","","","","","","","","","","","","","","","","","","","","","","","","","","","","","","","","","","","","","","","","","","","","","","","","","","","","","","","","","","","","","","","","","","","","","","","","","SYN004BUFR","","","","","","","","","",""
"87470099999","2021-12-10T09:00:00","-32.5","-61.6666666","96.0","EL TREBOL, AR","FM-12","4","","65","68","","","-0.06","2","88","OVC:08 18","29.90","29.57","9.32","66","360","","0","","","","","","","","","","","","","","","","","","","","","","","","","","","","","","","","","","","","","","","","","","","","","","","","","","","","","","","","","","","","","","","","","","","","","","","","","","","","","","","","","","","","","","","","","","","SYN004BUFR","","","","","","","","","",""
"87470099999","2021-12-10T15:00:00","-32.5","-61.6666666","96.0","EL TREBOL, AR","FM-12","4","","60","79","","","+0.08","7","51","SCT:04 20","29.81","29.49","9.32","67","090","","6","","","","","","","","","","","","","","","","","","","","","","","","","","","","","","","","","","","","","","","","","","","","","","","","","","","","","","","","","","","","","","","","","","","","","","","","","","","","","","","","","","","","","","","","","","","SYN004BUFR","","","","","","","","","",""
"87470099999","2021-12-11T09:00:00","-32.5","-61.6666666","96.0","EL TREBOL, AR","FM-12","4","","64","76","","","0.00","4","67","FEW:01 20","29.71","29.39","9.32","68","360","","6","","","","","","","","","","","","","","","","","","","","","","","","","","","","","","","","","","","","","","","","","","","","","","","","","","","","","","","","","","","","","","","","","","","","","","","","","","","","","","","","","","","","","","","","","","","SYN004BUFR","","","","","","","","","",""
"87470099999","2021-12-11T12:00:00","-32.5","-61.6666666","96.0","EL TREBOL, AR","FM-12","4","","63","84","","","+0.03","7","49","FEW:02 20","29.68","29.36","9.32","70","360","","6","","","","","","","","","","","","","","","","","","","","","","","","","","","","","","","","","","","","","","","","","","","","","","","","","","","","","","","","","","","","","","","","","","","","","","","","","","","","","","","","","","","","","","","","","","","SYN004BUFR","","","","","","","","","",""
"87470099999","2021-12-11T15:00:00","-32.5","-61.6666666","96.0","EL TREBOL, AR","FM-12","4","","60","87","","","+0.11","7","40","FEW:02 20","29.57","29.25","9.32","70","360","","6","","","","","","","","","","","","","","","","","","","","","","","","","","","","","","","","","","","","","","","","","","","","","","","","","","","","","","","","","","","","","","","","","","","","","","","","","","","","","","","","","","","","","","","","","","","SYN004BUFR","","","","","","","","","",""
"87470099999","2021-12-11T18:00:00","-32.5","-61.6666666","96.0","EL TREBOL, AR","FM-12","4","","61","85","","","+0.06","7","44","FEW:01 20","29.51","29.19","9.32","70","360","","2","","","","","","","","","","","","","","","","","","","","","","","","","","","","","","","","","","","","","","","","","","","","","","","","","","","","","","","","","","","","","","","","","","","","","","","","","","","","","","","","","","","","","","","","","","","SYN004BUFR","","","","","","","","","",""
"87470099999","2021-12-11T21:00:00","-32.5","-61.6666666","96.0","EL TREBOL, AR","FM-12","4","","62","78","","","-0.04","1","57","FEW:01 20","29.55","29.23","9.32","68","360","","2","","","","","","","","","","","","","","","","","","","","","","","","","","","","","","","","","","","","","","","","","","","","","","","","","","","","","","","","","","","","","","","","","","","","","","","","","","","","","","","","","","","","","","","","","","","SYN08287470 32565 13602 10258 20167 39898 40007 51013 81500 333 10309 20246 56900 81620=","","","","","","","","","",""
"87470099999","2021-12-12T09:00:00","-32.5","-61.6666666","96.0","EL TREBOL, AR","FM-12","4","","64","69","","||RA","-0.12","2","85","BKN:06 20","29.70","29.37","7.46","66","180","","9","","","","","","","","","","","","","","","","","","","","","","","","","","","","","","","","","","","","","","","","","","","","","","","","","","","","","","","","","","","","","","","","","","","","","","","","","","","","","","","","","","","","","","","","","","","SYN10087470 01562 81808 10206 20179 39946 40056 52040 60044 76262 86760 333 10258 20200 56990 60042 86720=","","","","","","","","","",""
"87470099999","2021-12-12T15:00:00","-32.5","-61.6666666","96.0","EL TREBOL, AR","FM-12","4","","63","79","","","+0.06","6","58","SCT:03 20 SCT:03 89","29.59","29.27","9.32","69","140","","15","","","","","","","","","","","","","","","","","","","","","","","","","","","","","","","","","","","","","","","","","","","","","","","","","","","","","","","","","","","","","","","","","","","","","","","","","","","","","","","","","","","","","","","","","","","SYN004BUFR","","","","","","","","","",""
"87470099999","2021-12-12T21:00:00","-32.5","-61.6666666","96.0","EL TREBOL, AR","FM-12","4","","68","69","","","-0.07","1","95","BKN:05 20 SCT:03 89","29.67","29.34","8.08","68","180","","2","","","","","","","","","","","","","","","","","","","","","","","","","","","","","","","","","","","","","","","","","","","","","","","","","","","","","","","","","","","","","","","","","","","","","","","","","","","","","","","","","","","","","","","","","","","SYN10087470 11563 81802 10207 20199 39936 40047 51025 60111 70262 85720 333 10276 20206 56990 85720 83559=","","","","","","","","","",""
"87470099999","2021-12-13T09:00:00","-32.5","-61.6666666","96.0","EL TREBOL, AR","FM-12","4","","64","71","","","-0.09","2","79","SCT:03 20 SCT:04 89","29.85","29.52","9.32","67","140","","6","","","","","","","","","","","","","","","","","","","","","","","","","","","","","","","","","","","","","","","","","","","","","","","","","","","","","","","","","","","","","","","","","","","","","","","","","","","","","","","","","","","","","","","","","","","SYN11287470 01565 71405 10214 20176 39997 40108 52030 60124 70262 83220 333 10214 20190 56990 57899 69952 83820 84559=","","","","","","","","","",""
"87470099999","2021-12-13T15:00:00","-32.5","-61.6666666","96.0","EL TREBOL, AR","FM-12","4","","60","81","","","+0.00","7","49","BKN:05 20","29.85","29.52","9.32","68","140","","6","","","","","","","","","","","","","","","","","","","","","","","","","","","","","","","","","","","","","","","","","","","","","","","","","","","","","","","","","","","","","","","","","","","","","","","","","","","","","","","","","","","","","","","","","","","SYN004BUFR","","","","","","","","","",""
"87470099999","2021-12-13T21:00:00","-32.5","-61.6666666","96.0","EL TREBOL, AR","FM-12","4","","63","73","","","-0.04","1","71","","29.85","29.53","9.32","67","140","","2","","","","","","","","","","","","","","","","","","","","","","","","","","","","","","","","","","","","","","","","","","","","","","","","","","","","","","","","","","","","","","","","","","","","","","","","","","","","","","","","","","","","","","","","","","","SYN004BUFR","","","","","","","","","",""
"87470099999","2021-12-14T09:00:00","-32.5","-61.6666666","96.0","EL TREBOL, AR","FM-12","4","","61","73","","","-0.01","2","67","BKN:05 89","29.88","29.56","9.32","66","090","","6","","","","","","","","","","","","","","","","","","","","","","","","","","","","","","","","","","","","","","","","","","","","","","","","","","","","","","","","","","","","","","","","","","","","","","","","","","","","","","","","","","","","","","","","","","","SYN08287470 32965 50905 10228 20163 30009 40120 52005 85030 333 10228 20185 56090 85359=","","","","","","","","","",""
"87470099999","2021-12-14T15:00:00","-32.5","-61.6666666","96.0","EL TREBOL, AR","FM-12","4","","65","86","","","+0.08","7","49","SCT:04 20","29.76","29.44","9.32","72","050","","6","","","","","","","","","","","","","","","","","","","","","","","","","","","","","","","","","","","","","","","","","","","","","","","","","","","","","","","","","","","","","","","","","","","","","","","","","","","","","","","","","","","","","","","","","","","SYN004BUFR","","","","","","","","","",""
"87470099999","2021-12-14T18:00:00","-32.5","-61.6666666","96.0","EL TREBOL, AR","FM-12","4","","63","65s","","||RA","-0.06","1","94","SCT:04 20","29.83","29.50","6.84","64","180","","6","","","","","","","","","","","","","","","","","","","","","","","","","","","","","","","","","","","","","","","","","","","","","","","","","","","","","","","","","","","","","","","","","","","","","","","","","","","","","","","","","","","","","","","","","","","SYN004BUFR","","","","","","","","","",""
"87470099999","2021-12-14T21:00:00","-32.5","-61.6666666","96.0","EL TREBOL, AR","FM-12","4","","60","63","","","-0.05","1","87","SCT:04 20","29.88","29.54","9.32","61","160","","9","","","","","","","","","","","","","","","","","","","","","","","","","","","","","","","","","","","","","","","","","","","","","","","","","","","","","","","","","","","","","","","","","","","","","","","","","","","","","","","","","","","","","","","","","","","SYN004BUFR","","","","","","","","","",""
"87470099999","2021-12-15T09:00:00","-32.5","-61.6666666","96.0","EL TREBOL, AR","FM-12","4","","60","64","","","-0.03","2","88","BKN:05 246","29.96","29.62","9.32","62","230","","6","","","","","","","","","","","","","","","","","","","","","","","","","","","","","","","","","","","","","","","","","","","","","","","","","","","","","","","","","","","","","","","","","","","","","","","","","","","","","","","","","","","","","","","","","","","SYN08887470 12965 52305 10177 20157 30032 40145 52010 60034 80006 333 10177 20160 56009 85275=","","","","","","","","","",""
"87470099999","2021-12-15T15:00:00","-32.5","-61.6666666","96.0","EL TREBOL, AR","FM-12","4","","59","83","","","+0.06","7","44","","29.88","29.55","9.32","68","180","","6","","","","","","","","","","","","","","","","","","","","","","","","","","","","","","","","","","","","","","","","","","","","","","","","","","","","","","","","","","","","","","","","","","","","","","","","","","","","","","","","","","","","","","","","","","","SYN004BUFR","","","","","","","","","",""
"87470099999","2021-12-15T21:00:00","-32.5","-61.6666666","96.0","EL TREBOL, AR","FM-12","4","","59","73","","","-0.04","1","61","","29.91","29.58","9.32","64","140","","6","","","","","","","","","","","","","","","","","","","","","","","","","","","","","","","","","","","","","","","","","","","","","","","","","","","","","","","","","","","","","","","","","","","","","","","","","","","","","","","","","","","","","","","","","","","SYN004BUFR","","","","","","","","","",""
"87470099999","2021-12-16T09:00:00","-32.5","-61.6666666","96.0","EL TREBOL, AR","FM-12","4","","65","70","","","-0.03","2","83","FEW:02 18","29.97","29.64","9.32","67","140","","6","","","","","","","","","","","","","","","","","","","","","","","","","","","","","","","","","","","","","","","","","","","","","","","","","","","","","","","","","","","","","","","","","","","","","","","","","","","","","","","","","","","","","","","","","","","SYN08887470 32465 21405 10212 20182 30038 40150 52010 82200 333 10228 20148 56900 57899 82818=","","","","","","","","","",""
"87470099999","2021-12-16T12:00:00","-32.5","-61.6666666","96.0","EL TREBOL, AR","FM-12","4","","59","78","","","+0.03","7","52","","29.94","29.62","9.32","66","140","","6","","","","","","","","","","","","","","","","","","","","","","","","","","","","","","","","","","","","","","","","","","","","","","","","","","","","","","","","","","","","","","","","","","","","","","","","","","","","","","","","","","","","","","","","","","","SYN004BUFR","","","","","","","","","",""
"87470099999","2021-12-16T15:00:00","-32.5","-61.6666666","96.0","EL TREBOL, AR","FM-12","4","","54","85","","","+0.04","7","34","","29.90","29.57","9.32","66","140","","6","","","","","","","","","","","","","","","","","","","","","","","","","","","","","","","","","","","","","","","","","","","","","","","","","","","","","","","","","","","","","","","","","","","","","","","","","","","","","","","","","","","","","","","","","","","SYN004BUFR","","","","","","","","","",""
"87470099999","2021-12-16T18:00:00","-32.5","-61.6666666","96.0","EL TREBOL, AR","FM-12","4","","54","85","","","+0.01","6","34","","29.88","29.56","9.32","66","140","","6","","","","","","","","","","","","","","","","","","","","","","","","","","","","","","","","","","","","","","","","","","","","","","","","","","","","","","","","","","","","","","","","","","","","","","","","","","","","","","","","","","","","","","","","","","","SYN004BUFR","","","","","","","","","",""
"87470099999","2021-12-16T21:00:00","-32.5","-61.6666666","96.0","EL TREBOL, AR","FM-12","4","","57","73","","","-0.02","1","58","","29.91","29.58","9.32","63","140","","6","","","","","","","","","","","","","","","","","","","","","","","","","","","","","","","","","","","","","","","","","","","","","","","","","","","","","","","","","","","","","","","","","","","","","","","","","","","","","","","","","","","","","","","","","","","SYN004BUFR","","","","","","","","","",""
"87470099999","2021-12-17T09:00:00","-32.5","-61.6666666","96.0","EL TREBOL, AR","FM-12","4","","61","72","","","-0.04","2","67","","29.99","29.66","9.32","65","090","","6","","","","","","","","","","","","","","","","","","","","","","","","","","","","","","","","","","","","","","","","","","","","","","","","","","","","","","","","","","","","","","","","","","","","","","","","","","","","","","","","","","","","","","","","","","","SYN06487470 32965 00905 10225 20161 30044 40155 52015 333 10226 20160=","","","","","","","","","",""
"87470099999","2021-12-17T12:00:00","-32.5","-61.6666666","96.0","EL TREBOL, AR","FM-12","4","","60","83","","","+0.03","7","45","","29.96","29.63","9.32","68","090","","6","","","","","","","","","","","","","","","","","","","","","","","","","","","","","","","","","","","","","","","","","","","","","","","","","","","","","","","","","","","","","","","","","","","","","","","","","","","","","","","","","","","","","","","","","","","SYN004BUFR","","","","","","","","","",""
"87470099999","2021-12-17T15:00:00","-32.5","-61.6666666","96.0","EL TREBOL, AR","FM-12","4","","59","88","","","+0.06","7","37","FEW:01 246","29.90","29.57","9.32","69","090","","6","","","","","","","","","","","","","","","","","","","","","","","","","","","","","","","","","","","","","","","","","","","","","","","","","","","","","","","","","","","","","","","","","","","","","","","","","","","","","","","","","","","","","","","","","","","SYN004BUFR","","","","","","","","","",""
"87470099999","2021-12-17T21:00:00","-32.5","-61.6666666","96.0","EL TREBOL, AR","FM-12","4","","57","76","","","-0.05","1","50","","29.90","29.58","9.32","64","360","","0","","","","","","","","","","","","","","","","","","","","","","","","","","","","","","","","","","","","","","","","","","","","","","","","","","","","","","","","","","","","","","","","","","","","","","","","","","","","","","","","","","","","","","","","","","","SYN004BUFR","","","","","","","","","",""
"87470099999","2021-12-18T09:00:00","-32.5","-61.6666666","96.0","EL TREBOL, AR","FM-12","4","","62","76","","","-0.03","1","63","","29.94","29.62","9.32","67","070","","6","","","","","","","","","","","","","","","","","","","","","","","","","","","","","","","","","","","","","","","","","","","","","","","","","","","","","","","","","","","","","","","","","","","","","","","","","","","","","","","","","","","","","","","","","","","SYN06487470 32965 00705 10244 20169 30030 40140 51009 333 10248 20178=","","","","","","","","","",""
"87470099999","2021-12-18T15:00:00","-32.5","-61.6666666","96.0","EL TREBOL, AR","FM-12","4","","60","90","","","+0.06","6","36","","29.84","29.52","9.32","71","050","","9","","","","","","","","","","","","","","","","","","","","","","","","","","","","","","","","","","","","","","","","","","","","","","","","","","","","","","","","","","","","","","","","","","","","","","","","","","","","","","","","","","","","","","","","","","","SYN004BUFR","","","","","","","","","",""
"87470099999","2021-12-18T21:00:00","-32.5","-61.6666666","96.0","EL TREBOL, AR","FM-12","4","","62","79","","","-0.02","1","55","","29.82","29.49","9.32","68","050","","2","","","","","","","","","","","","","","","","","","","","","","","","","","","","","","","","","","","","","","","","","","","","","","","","","","","","","","","","","","","","","","","","","","","","","","","","","","","","","","","","","","","","","","","","","","","SYN004BUFR","","","","","","","","","",""
"87470099999","2021-12-19T09:00:00","-32.5","-61.6666666","96.0","EL TREBOL, AR","FM-12","4","","65","77","","","-0.02","1","66","","29.86","29.54","9.32","69","020","","6","","","","","","","","","","","","","","","","","","","","","","","","","","","","","","","","","","","","","","","","","","","","","","","","","","","","","","","","","","","","","","","","","","","","","","","","","","","","","","","","","","","","","","","","","","","SYN06487470 32965 00205 10250 20181 30002 40111 51006 333 10262 20193=","","","","","","","","","",""
"87470099999","2021-12-19T15:00:00","-32.5","-61.6666666","96.0","EL TREBOL, AR","FM-12","4","","60","91","","","+0.06","6","36","","29.76","29.44","9.32","71","050","","2","","","","","","","","","","","","","","","","","","","","","","","","","","","","","","","","","","","","","","","","","","","","","","","","","","","","","","","","","","","","","","","","","","","","","","","","","","","","","","","","","","","","","","","","","","","SYN04887470 32965 00502 10330 20158 39970 40078 56021=","","","","","","","","","",""
"87470099999","2021-12-19T18:00:00","-32.5","-61.6666666","96.0","EL TREBOL, AR","FM-12","4","","63","93","","","+0.05","6","37","","29.71","29.39","9.32","73","140","","2","","","","","","","","","","","","","","","","","","","","","","","","","","","","","","","","","","","","","","","","","","","","","","","","","","","","","","","","","","","","","","","","","","","","","","","","","","","","","","","","","","","","","","","","","","","SYN004BUFR","","","","","","","","","",""
"87470099999","2021-12-19T21:00:00","-32.5","-61.6666666","96.0","EL TREBOL, AR","FM-12","4","","63","81","","","-0.08","1","56","","29.79","29.47","9.32","69","140","","2","","","","","","","","","","","","","","","","","","","","","","","","","","","","","","","","","","","","","","","","","","","","","","","","","","","","","","","","","","","","","","","","","","","","","","","","","","","","","","","","","","","","","","","","","","","SYN004BUFR","","","","","","","","","",""
"87470099999","2021-12-20T09:00:00","-32.5","-61.6666666","96.0","EL TREBOL, AR","FM-12","4","","65","78","","","-0.05","1","63","FEW:02 89","29.89","29.57","9.32","70","180","","2","","","","","","","","","","","","","","","","","","","","","","","","","","","","","","","","","","","","","","","","","","","","","","","","","","","","","","","","","","","","","","","","","","","","","","","","","","","","","","","","","","","","","","","","","","","SYN08287470 32965 41802 10258 20183 30014 40123 51018 82055 333 10270 20223 56099 82359=","","","","","","","","","",""
"87470099999","2021-12-20T12:00:00","-32.5","-61.6666666","96.0","EL TREBOL, AR","FM-12","4","","64","89","","","+0.06","6","43","FEW:01 20 SCT:03 246","29.84","29.52","9.32","72","360","","0","","","","","","","","","","","","","","","","","","","","","","","","","","","","","","","","","","","","","","","","","","","","","","","","","","","","","","","","","","","","","","","","","","","","","","","","","","","","","","","","","","","","","","","","","","","SYN004BUFR","","","","","","","","","",""
"87470099999","2021-12-20T15:00:00","-32.5","-61.6666666","96.0","EL TREBOL, AR","FM-12","4","","63","94","","","+0.08","6","37","FEW:01 20 SCT:03 246","29.76","29.44","9.32","73","000","","0","","","","","","","","","","","","","","","","","","","","","","","","","","","","","","","","","","","","","","","","","","","","","","","","","","","","","","","","","","","","","","","","","","","","","","","","","","","","","","","","","","","","","","","","","","","SYN07087470 32565 50000 10342 20175 39969 40077 56027 81655 333 81720 83275=","","","","","","","","","",""
"87470099999","2021-12-20T18:00:00","-32.5","-61.6666666","96.0","EL TREBOL, AR","FM-12","4","","63","85","","","+0.07","6","49","","29.69","29.37","9.32","71","360","","0","","","","","","","","","","","","","","","","","","","","","","","","","","","","","","","","","","","","","","","","","","","","","","","","","","","","","","","","","","","","","","","","","","","","","","","","","","","","","","","","","","","","","","","","","","","SYN004BUFR","","","","","","","","","",""
"87470099999","2021-12-21T09:00:00","-32.5","-61.6666666","96.0","EL TREBOL, AR","FM-12","4","","65","77","","","+0.01","7","69","BKN:07 246","29.72","29.40","9.32","69","000","","0","","","","","","","","","","","","","","","","","","","","","","","","","","","","","","","","","","","","","","","","","","","","","","","","","","","","","","","","","","","","","","","","","","","","","","","","","","","","","","","","","","","","","","","","","","","SYN08287470 32965 70000 10248 20186 39957 40066 57005 80005 333 10276 20205 56009 87275=","","","","","","","","","",""
"87470099999","2021-12-21T12:00:00","-32.5","-61.6666666","96.0","EL TREBOL, AR","FM-12","4","","67","89","","","+0.02","7","48","FEW:01 20","29.70","29.38","9.32","74","230","","6","","","","","","","","","","","","","","","","","","","","","","","","","","","","","","","","","","","","","","","","","","","","","","","","","","","","","","","","","","","","","","","","","","","","","","","","","","","","","","","","","","","","","","","","","","","SYN004BUFR","","","","","","","","","",""
"87470099999","2021-12-21T15:00:00","-32.5","-61.6666666","96.0","EL TREBOL, AR","FM-12","4","","65","91","","","+0.01","6","43","FEW:01 20","29.69","29.37","9.32","73","180","","6","","","","","","","","","","","","","","","","","","","","","","","","","","","","","","","","","","","","","","","","","","","","","","","","","","","","","","","","","","","","","","","","","","","","","","","","","","","","","","","","","","","","","","","","","","","SYN07687470 32565 11805 10326 20185 39946 40054 56003 81200 333 56900 57899 81820=","","","","","","","","","",""
"87470099999","2021-12-21T18:00:00","-32.5","-61.6666666","96.0","EL TREBOL, AR","FM-12","4","","65","90","","","+0.05","7","44","","29.64","29.32","9.32","73","360","","0","","","","","","","","","","","","","","","","","","","","","","","","","","","","","","","","","","","","","","","","","","","","","","","","","","","","","","","","","","","","","","","","","","","","","","","","","","","","","","","","","","","","","","","","","","","SYN004BUFR","","","","","","","","","",""
"87470099999","2021-12-21T21:00:00","-32.5","-61.6666666","96.0","EL TREBOL, AR","FM-12","4","","66","82","","","-0.02","2","59","","29.67","29.35","9.32","71","000","","0","","","","","","","","","","","","","","","","","","","","","","","","","","","","","","","","","","","","","","","","","","","","","","","","","","","","","","","","","","","","","","","","","","","","","","","","","","","","","","","","","","","","","","","","","","","SYN06487470 32965 00000 10277 20190 39938 40046 52008 333 10335 20240=","","","","","","","","","",""
"87470099999","2021-12-22T09:00:00","-32.5","-61.6666666","96.0","EL TREBOL, AR","FM-12","4","","62","76","","","-0.07","2","62","FEW:01 246","29.88","29.56","9.32","67","160","","6","","","","","","","","","","","","","","","","","","","","","","","","","","","","","","","","","","","","","","","","","","","","","","","","","","","","","","","","","","","","","","","","","","","","","","","","","","","","","","","","","","","","","","","","","","","SYN08287470 32965 11605 10242 20165 30009 40118 52025 80008 333 10277 20195 56009 81275=","","","","","","","","","",""
"87470099999","2021-12-22T12:00:00","-32.5","-61.6666666","96.0","EL TREBOL, AR","FM-12","4","","63","88","","","+0.00","7","43","FEW:01 20","29.87","29.55","9.32","72","110","","6","","","","","","","","","","","","","","","","","","","","","","","","","","","","","","","","","","","","","","","","","","","","","","","","","","","","","","","","","","","","","","","","","","","","","","","","","","","","","","","","","","","","","","","","","","","SYN004BUFR","","","","","","","","","",""
"87470099999","2021-12-22T15:00:00","-32.5","-61.6666666","96.0","EL TREBOL, AR","FM-12","4","","57","91","","","+0.03","7","32","FEW:02 20","29.84","29.52","9.32","69","140","","9","","","","","","","","","","","","","","","","","","","","","","","","","","","","","","","","","","","","","","","","","","","","","","","","","","","","","","","","","","","","","","","","","","","","","","","","","","","","","","","","","","","","","","","","","","","SYN07687470 32565 31408 10329 20139 39997 40106 57011 82208 333 56909 57899 82820=","","","","","","","","","",""
"87470099999","2021-12-22T18:00:00","-32.5","-61.6666666","96.0","EL TREBOL, AR","FM-12","4","","55","90","","","-0.01","1","31","FEW:01 20","29.86","29.54","9.32","68","140","","6","","","","","","","","","","","","","","","","","","","","","","","","","","","","","","","","","","","","","","","","","","","","","","","","","","","","","","","","","","","","","","","","","","","","","","","","","","","","","","","","","","","","","","","","","","","SYN004BUFR","","","","","","","","","",""
"87470099999","2021-12-22T21:00:00","-32.5","-61.6666666","96.0","EL TREBOL, AR","FM-12","4","","60","82","","","-0.03","1","47","","29.89","29.57","9.32","68","140","","2","","","","","","","","","","","","","","","","","","","","","","","","","","","","","","","","","","","","","","","","","","","","","","","","","","","","","","","","","","","","","","","","","","","","","","","","","","","","","","","","","","","","","","","","","","","SYN06487470 32965 01402 10278 20155 30013 40123 51011 333 10333 20242=","","","","","","","","","",""
"87470099999","2021-12-23T09:00:00","-32.5","-61.6666666","96.0","EL TREBOL, AR","FM-12","4","","56","80","","","-0.06","2","44","","29.99","29.67","9.32","65","050","","6","","","","","","","","","","","","","","","","","","","","","","","","","","","","","","","","","","","","","","","","","","","","","","","","","","","","","","","","","","","","","","","","","","","","","","","","","","","","","","","","","","","","","","","","","","","SYN004BUFR","","","","","","","","","",""
"87470099999","2021-12-23T12:00:00","-32.5","-61.6666666","96.0","EL TREBOL, AR","FM-12","4","","53","89","","","+0.04","7","29","","29.95","29.63","9.32","67","050","","6","","","","","","","","","","","","","","","","","","","","","","","","","","","","","","","","","","","","","","","","","","","","","","","","","","","","","","","","","","","","","","","","","","","","","","","","","","","","","","","","","","","","","","","","","","","SYN004BUFR","","","","","","","","","",""
"87470099999","2021-12-23T15:00:00","-32.5","-61.6666666","96.0","EL TREBOL, AR","FM-12","4","","50","94","","","+0.11","7","22","","29.84","29.52","9.32","67","050","","6","","","","","","","","","","","","","","","","","","","","","","","","","","","","","","","","","","","","","","","","","","","","","","","","","","","","","","","","","","","","","","","","","","","","","","","","","","","","","","","","","","","","","","","","","","","SYN004BUFR","","","","","","","","","",""
"87470099999","2021-12-23T18:00:00","-32.5","-61.6666666","96.0","EL TREBOL, AR","FM-12","4","","49","92","","","+0.03","6","23","","29.81","29.49","9.32","66","050","","2","","","","","","","","","","","","","","","","","","","","","","","","","","","","","","","","","","","","","","","","","","","","","","","","","","","","","","","","","","","","","","","","","","","","","","","","","","","","","","","","","","","","","","","","","","","SYN004BUFR","","","","","","","","","",""
"87470099999","2021-12-23T21:00:00","-32.5","-61.6666666","96.0","EL TREBOL, AR","FM-12","4","","54","79","","","-0.02","1","43","","29.84","29.52","9.32","64","050","","2","","","","","","","","","","","","","","","","","","","","","","","","","","","","","","","","","","","","","","","","","","","","","","","","","","","","","","","","","","","","","","","","","","","","","","","","","","","","","","","","","","","","","","","","","","","SYN004BUFR","","","","","","","","","",""
"87470099999","2021-12-24T09:00:00","-32.5","-61.6666666","96.0","EL TREBOL, AR","FM-12","4","","57","76","","","-0.03","2","52","","29.83","29.51","9.32","64","050","","6","","","","","","","","","","","","","","","","","","","","","","","","","","","","","","","","","","","","","","","","","","","","","","","","","","","","","","","","","","","","","","","","","","","","","","","","","","","","","","","","","","","","","","","","","","","SYN06487470 32965 00505 10243 20139 39994 40103 52010 333 10260 20180=","","","","","","","","","",""
"87470099999","2021-12-24T12:00:00","-32.5","-61.6666666","96.0","EL TREBOL, AR","FM-12","4","","54","90","","","+0.07","7","30","","29.77","29.45","9.32","68","050","","6","","","","","","","","","","","","","","","","","","","","","","","","","","","","","","","","","","","","","","","","","","","","","","","","","","","","","","","","","","","","","","","","","","","","","","","","","","","","","","","","","","","","","","","","","","","SYN004BUFR","","","","","","","","","",""
"87470099999","2021-12-24T15:00:00","-32.5","-61.6666666","96.0","EL TREBOL, AR","FM-12","4","","56","95","","","+0.03","6","27","","29.73","29.41","9.32","70","360","","2","","","","","","","","","","","","","","","","","","","","","","","","","","","","","","","","","","","","","","","","","","","","","","","","","","","","","","","","","","","","","","","","","","","","","","","","","","","","","","","","","","","","","","","","","","","SYN004BUFR","","","","","","","","","",""
"87470099999","2021-12-24T21:00:00","-32.5","-61.6666666","96.0","EL TREBOL, AR","FM-12","4","","55","83","","","-0.01","1","38","","29.74","29.42","9.32","66","000","","0","","","","","","","","","","","","","","","","","","","","","","","","","","","","","","","","","","","","","","","","","","","","","","","","","","","","","","","","","","","","","","","","","","","","","","","","","","","","","","","","","","","","","","","","","","","SYN06487470 32965 00000 10286 20128 39962 40071 51003 333 10357 20243=","","","","","","","","","",""
"87470099999","2021-12-25T09:00:00","-32.5","-61.6666666","96.0","EL TREBOL, AR","FM-12","4","","59","78","","","-0.03","2","53","","29.83","29.51","9.32","66","230","","2","","","","","","","","","","","","","","","","","","","","","","","","","","","","","","","","","","","","","","","","","","","","","","","","","","","","","","","","","","","","","","","","","","","","","","","","","","","","","","","","","","","","","","","","","","","SYN06487470 32965 02302 10255 20152 39993 40102 52011 333 10276 20182=","","","","","","","","","",""
"87470099999","2021-12-25T12:00:00","-32.5","-61.6666666","96.0","EL TREBOL, AR","FM-12","4","","55","89","","","+0.01","6","31","","29.82","29.50","9.32","68","200","","6","","","","","","","","","","","","","","","","","","","","","","","","","","","","","","","","","","","","","","","","","","","","","","","","","","","","","","","","","","","","","","","","","","","","","","","","","","","","","","","","","","","","","","","","","","","SYN004BUFR","","","","","","","","","",""
"87470099999","2021-12-25T15:00:00","-32.5","-61.6666666","96.0","EL TREBOL, AR","FM-12","4","","49","92","","","+0.04","6","23","","29.78","29.47","9.32","66","180","","6","","","","","","","","","","","","","","","","","","","","","","","","","","","","","","","","","","","","","","","","","","","","","","","","","","","","","","","","","","","","","","","","","","","","","","","","","","","","","","","","","","","","","","","","","","","SYN04887470 32965 01805 10333 20096 39978 40086 56012=","","","","","","","","","",""
"87470099999","2021-12-25T18:00:00","-32.5","-61.6666666","96.0","EL TREBOL, AR","FM-12","4","","53","90","","","+0.02","6","28","","29.77","29.44","9.32","67","200","","6","","","","","","","","","","","","","","","","","","","","","","","","","","","","","","","","","","","","","","","","","","","","","","","","","","","","","","","","","","","","","","","","","","","","","","","","","","","","","","","","","","","","","","","","","","","SYN004BUFR","","","","","","","","","",""
"87470099999","2021-12-25T21:00:00","-32.5","-61.6666666","96.0","EL TREBOL, AR","FM-12","4","","57","78","","","-0.08","1","48","","29.85","29.52","9.32","65","180","","2","","","","","","","","","","","","","","","","","","","","","","","","","","","","","","","","","","","","","","","","","","","","","","","","","","","","","","","","","","","","","","","","","","","","","","","","","","","","","","","","","","","","","","","","","","","SYN004BUFR","","","","","","","","","",""
"87470099999","2021-12-26T09:00:00","-32.5","-61.6666666","96.0","EL TREBOL, AR","FM-12","4","","58","77","","","-0.04","1","52","","29.94","29.62","9.32","65","050","","6","","","","","","","","","","","","","","","","","","","","","","","","","","","","","","","","","","","","","","","","","","","","","","","","","","","","","","","","","","","","","","","","","","","","","","","","","","","","","","","","","","","","","","","","","","","SYN06487470 32965 00505 10252 20146 30029 40138 51012 333 10254 20192=","","","","","","","","","",""
"87470099999","2021-12-26T15:00:00","-32.5","-61.6666666","96.0","EL TREBOL, AR","FM-12","4","","62","92","","","+0.07","6","36","","29.83","29.51","9.32","72","050","","2","","","","","","","","","","","","","","","","","","","","","","","","","","","","","","","","","","","","","","","","","","","","","","","","","","","","","","","","","","","","","","","","","","","","","","","","","","","","","","","","","","","","","","","","","","","SYN04887470 32965 00502 10336 20165 39993 40102 56024=","","","","","","","","","",""
"87470099999","2021-12-26T21:00:00","-32.5","-61.6666666","96.0","EL TREBOL, AR","FM-12","4","","59","71","","","-0.06","1","66","","29.82","29.50","9.32","64","360","","0","","","","","","","","","","","","","","","","","","","","","","","","","","","","","","","","","","","","","","","","","","","","","","","","","","","","","","","","","","","","","","","","","","","","","","","","","","","","","","","","","","","","","","","","","","","SYN004BUFR","","","","","","","","","",""
"87470099999","2021-12-27T09:00:00","-32.5","-61.6666666","96.0","EL TREBOL, AR","FM-12","4","","51","87","","","-0.03","2","29","FEW:02 246","29.81","29.49","9.32","65","360","","2","","","","","","","","","","","","","","","","","","","","","","","","","","","","","","","","","","","","","","","","","","","","","","","","","","","","","","","","","","","","","","","","","","","","","","","","","","","","","","","","","","","","","","","","","","","SYN004BUFR","","","","","","","","","",""
"87470099999","2021-12-27T12:00:00","-32.5","-61.6666666","96.0","EL TREBOL, AR","FM-12","4","","46","92","","","+0.07","7","20","FEW:02 246","29.73","29.41","9.32","65","140","","2","","","","","","","","","","","","","","","","","","","","","","","","","","","","","","","","","","","","","","","","","","","","","","","","","","","","","","","","","","","","","","","","","","","","","","","","","","","","","","","","","","","","","","","","","","","SYN004BUFR","","","","","","","","","",""
"87470099999","2021-12-27T21:00:00","-32.5","-61.6666666","96.0","EL TREBOL, AR","FM-12","4","","56","81","","","+0.01","6","42","","29.74","29.42","9.32","66","000","","0","","","","","","","","","","","","","","","","","","","","","","","","","","","","","","","","","","","","","","","","","","","","","","","","","","","","","","","","","","","","","","","","","","","","","","","","","","","","","","","","","","","","","","","","","","","SYN06487470 32965 00000 10274 20134 39964 40072 56002 333 10370 20274=","","","","","","","","","",""
"87470099999","2021-12-28T09:00:00","-32.5","-61.6666666","96.0","EL TREBOL, AR","FM-12","4","","55","78","","","-0.06","2","44","SCT:04 246","29.80","29.48","9.32","64","360","","6","","","","","","","","","","","","","","","","","","","","","","","","","","","","","","","","","","","","","","","","","","","","","","","","","","","","","","","","","","","","","","","","","","","","","","","","","","","","","","","","","","","","","","","","","","","SYN08287470 32965 43605 10256 20126 39982 40091 52020 80008 333 10274 20175 56009 84275=","","","","","","","","","",""
"87470099999","2021-12-28T15:00:00","-32.5","-61.6666666","96.0","EL TREBOL, AR","FM-12","4","","49","100","","","+0.03","7","18","BKN:06 246","29.75","29.43","9.32","69","340","","6","","","","","","","","","","","","","","","","","","","","","","","","","","","","","","","","","","","","","","","","","","","","","","","","","","","","","","","","","","","","","","","","","","","","","","","","","","","","","","","","","","","","","","","","","","","SYN004BUFR","","","","","","","","","",""
"87470099999","2021-12-28T21:00:00","-32.5","-61.6666666","96.0","EL TREBOL, AR","FM-12","4","","58","79","","","-0.03","1","49","","29.79","29.47","9.32","66","360","","0","","","","","","","","","","","","","","","","","","","","","","","","","","","","","","","","","","","","","","","","","","","","","","","","","","","","","","","","","","","","","","","","","","","","","","","","","","","","","","","","","","","","","","","","","","","SYN004BUFR","","","","","","","","","",""
"87470099999","2021-12-29T09:00:00","-32.5","-61.6666666","96.0","EL TREBOL, AR","FM-12","4","","57","82","","","-0.04","1","42","FEW:01 246","29.85","29.52","9.32","67","140","","6","","","","","","","","","","","","","","","","","","","","","","","","","","","","","","","","","","","","","","","","","","","","","","","","","","","","","","","","","","","","","","","","","","","","","","","","","","","","","","","","","","","","","","","","","","","SYN08287470 32965 11405 10278 20139 39998 40108 51013 80008 333 10278 20181 56009 81275=","","","","","","","","","",""
"87470099999","2021-12-29T12:00:00","-32.5","-61.6666666","96.0","EL TREBOL, AR","FM-12","4","","49","94","","","+0.10","7","21","","29.74","29.43","9.32","67","020","","6","","","","","","","","","","","","","","","","","","","","","","","","","","","","","","","","","","","","","","","","","","","","","","","","","","","","","","","","","","","","","","","","","","","","","","","","","","","","","","","","","","","","","","","","","","","SYN004BUFR","","","","","","","","","",""
"87470099999","2021-12-29T15:00:00","-32.5","-61.6666666","96.0","EL TREBOL, AR","FM-12","4","","43","100","","","+0.04","7","14","FEW:01 20","29.70","29.38","9.32","66","020","","9","","","","","","","","","","","","","","","","","","","","","","","","","","","","","","","","","","","","","","","","","","","","","","","","","","","","","","","","","","","","","","","","","","","","","","","","","","","","","","","","","","","","","","","","","","","SYN004BUFR","","","","","","","","","",""
"87470099999","2021-12-29T21:00:00","-32.5","-61.6666666","96.0","EL TREBOL, AR","FM-12","4","","56","82","","","-0.04","1","41","","29.69","29.38","9.32","66","360","","0","","","","","","","","","","","","","","","","","","","","","","","","","","","","","","","","","","","","","","","","","","","","","","","","","","","","","","","","","","","","","","","","","","","","","","","","","","","","","","","","","","","","","","","","","","","SYN004BUFR","","","","","","","","","",""
"87470099999","2021-12-30T09:00:00","-32.5","-61.6666666","96.0","EL TREBOL, AR","FM-12","4","","53","83","","","-0.01","2","36","FEW:01 20","29.68","29.36","9.32","65","340","","6","","","","","","","","","","","","","","","","","","","","","","","","","","","","","","","","","","","","","","","","","","","","","","","","","","","","","","","","","","","","","","","","","","","","","","","","","","","","","","","","","","","","","","","","","","","SYN004BUFR","","","","","","","","","",""
"87470099999","2021-12-30T15:00:00","-32.5","-61.6666666","96.0","EL TREBOL, AR","FM-12","4","","55","92","","","+0.01","7","28","FEW:02 20","29.67","29.36","9.32","69","180","","9","","","","","","","","","","","","","","","","","","","","","","","","","","","","","","","","","","","","","","","","","","","","","","","","","","","","","","","","","","","","","","","","","","","","","","","","","","","","","","","","","","","","","","","","","","","SYN004BUFR","","","","","","","","","",""
"87470099999","2021-12-30T21:00:00","-32.5","-61.6666666","96.0","EL TREBOL, AR","FM-12","4","","59","77","","","-0.00","1","54","SCT:04 20","29.72","29.40","9.32","66","160","","9","","","","","","","","","","","","","","","","","","","","","","","","","","","","","","","","","","","","","","","","","","","","","","","","","","","","","","","","","","","","","","","","","","","","","","","","","","","","","","","","","","","","","","","","","","","SYN004BUFR","","","","","","","","","",""
"87470099999","2021-12-31T09:00:00","-32.5","-61.6666666","96.0","EL TREBOL, AR","FM-12","4","","62","79","","","-0.03","2","56","FEW:01 20 SCT:03 89","29.75","29.42","9.32","68","000","","0","","","","","","","","","","","","","","","","","","","","","","","","","","","","","","","","","","","","","","","","","","","","","","","","","","","","","","","","","","","","","","","","","","","","","","","","","","","","","","","","","","","","","","","","","","","SYN10087470 12565 40000 10262 20166 39964 40073 52010 69904 81230 333 10262 20168 56990 57899 81820 83359=","","","","","","","","","",""
"87470099999","2021-12-31T12:00:00","-32.5","-61.6666666","96.0","EL TREBOL, AR","FM-12","4","","61","90","","","+0.09","7","38","FEW:02 20","29.65","29.33","9.32","71","360","","0","","","","","","","","","","","","","","","","","","","","","","","","","","","","","","","","","","","","","","","","","","","","","","","","","","","","","","","","","","","","","","","","","","","","","","","","","","","","","","","","","","","","","","","","","","","SYN004BUFR","","","","","","","","","",""
"87470099999","2021-12-31T15:00:00","-32.5","-61.6666666","96.0","EL TREBOL, AR","FM-12","4","","57","95","","","+0.07","7","28","SCT:03 20","29.58","29.26","9.32","71","000","","0","","","","","","","","","","","","","","","","","","","","","","","","","","","","","","","","","","","","","","","","","","","","","","","","","","","","","","","","","","","","","","","","","","","","","","","","","","","","","","","","","","","","","","","","","","","SYN07687470 32565 50000 10352 20140 39909 40017 57023 83230 333 56990 57899 83820=","","","","","","","","","",""
"87470099999","2021-12-31T21:00:00","-32.5","-61.6666666","96.0","EL TREBOL, AR","FM-12","4","","66","84","","","0.00","4","54","","29.52","29.21","9.32","72","000","","0","","","","","","","","","","","","","","","","","","","","","","","","","","","","","","","","","","","","","","","","","","","","","","","","","","","","","","","","","","","","","","","","","","","","","","","","","","","","","","","","","","","","","","","","","","","SYN06487470 32965 00000 10288 20187 39890 49997 54000 333 10373 20262=","","","","","","","","","",""
