"STATION","DATE","LATITUDE","LONGITUDE","ELEVATION","NAME","REPORT_TYPE","SOURCE","HourlyAltimeterSetting","HourlyDewPointTemperature","HourlyDryBulbTemperature","HourlyPrecipitation","HourlyPresentWeatherType","HourlyPressureChange","HourlyPressureTendency","HourlyRelativeHumidity","HourlySkyConditions","HourlySeaLevelPressure","HourlyStationPressure","HourlyVisibility","HourlyWetBulbTemperature","HourlyWindDirection","HourlyWindGustSpeed","HourlyWindSpeed","Sunrise","Sunset","DailyAverageDewPointTemperature","DailyAverageDryBulbTemperature","DailyAverageRelativeHumidity","DailyAverageSeaLevelPressure","DailyAverageStationPressure","DailyAverageWetBulbTemperature","DailyAverageWindSpeed","DailyCoolingDegreeDays","DailyDepartureFromNormalAverageTemperature","DailyHeatingDegreeDays","DailyMaximumDryBulbTemperature","DailyMinimumDryBulbTemperature","DailyPeakWindDirection","DailyPeakWindSpeed","DailyPrecipitation","DailySnowDepth","DailySnowfall","DailySustainedWindDirection","DailySustainedWindSpeed","DailyWeather","MonthlyAverageRH","MonthlyDaysWithGT001Precip","MonthlyDaysWithGT010Precip","MonthlyDaysWithGT32Temp","MonthlyDaysWithGT90Temp","MonthlyDaysWithLT0Temp","MonthlyDaysWithLT32Temp","MonthlyDepartureFromNormalAverageTemperature","MonthlyDepartureFromNormalCoolingDegreeDays","MonthlyDepartureFromNormalHeatingDegreeDays","MonthlyDepartureFromNormalMaximumTemperature","MonthlyDepartureFromNormalMinimumTemperature","MonthlyDepartureFromNormalPrecipitation","MonthlyDewpointTemperature","MonthlyGreatestPrecip","MonthlyGreatestPrecipDate","MonthlyGreatestSnowDepth","MonthlyGreatestSnowDepthDate","MonthlyGreatestSnowfall","MonthlyGreatestSnowfallDate","MonthlyMaxSeaLevelPressureValue","MonthlyMaxSeaLevelPressureValueDate","MonthlyMaxSeaLevelPressureValueTime","MonthlyMaximumTemperature","MonthlyMeanTemperature","MonthlyMinSeaLevelPressureValue","MonthlyMinSeaLevelPressureValueDate","MonthlyMinSeaLevelPressureValueTime","MonthlyMinimumTemperature","MonthlySeaLevelPressure","MonthlyStationPressure","MonthlyTotalLiquidPrecipitation","MonthlyTotalSnowfall","MonthlyWetBulb","AWND","CDSD","CLDD","DSNW","HDSD","HTDD","DYTS","DYHF","NormalsCoolingDegreeDay","NormalsHeatingDegreeDay","ShortDurationEndDate005","ShortDurationEndDate010","ShortDurationEndDate015","ShortDurationEndDate020","ShortDurationEndDate030","ShortDurationEndDate045","ShortDurationEndDate060","ShortDurationEndDate080","ShortDurationEndDate100","ShortDurationEndDate120","ShortDurationEndDate150","ShortDurationEndDate180","ShortDurationPrecipitationValue005","ShortDurationPrecipitationValue010","ShortDurationPrecipitationValue015","ShortDurationPrecipitationValue020","ShortDurationPrecipitationValue030","ShortDurationPrecipitationValue045","ShortDurationPrecipitationValue060","ShortDurationPrecipitationValue080","ShortDurationPrecipitationValue100","ShortDurationPrecipitationValue120","ShortDurationPrecipitationValue150","ShortDurationPrecipitationValue180","REM","BackupDirection","BackupDistance","BackupDistanceUnit","BackupElements","BackupElevation","BackupEquipment","BackupLatitude","BackupLongitude","BackupName","WindEquipmentChangeDate"
"94213099999","2021-01-01T09:00:00","-17.0166666","128.2166666","205.0","WARMUN, AS","FM-12","4","","71","97","","||HZ","+0.01","7","43","","29.71","29.04","12.43","78","130","","1","","","","","","","","","","","","","","","","","","","","","","","","","","","","","","","","","","","","","","","","","","","","","","","","","","","","","","","","","","","","","","","","","","","","","","","","","","","","","","","","","","","","","","","","","","","SYN004BUFR","","","","","","","","","",""
"94213099999","2021-01-02T09:00:00","-17.0166666","128.2166666","205.0","WARMUN, AS","FM-12","4","","80","99","","||HZ","+0.01","7","56","","29.65","28.99","12.43","84","230","","1","","","","","","","","","","","","","","","","","","","","","","","","","","","","","","","","","","","","","","","","","","","","","","","","","","","","","","","","","","","","","","","","","","","","","","","","","","","","","","","","","","","","","","","","","","","SYN004BUFR","","","","","","","","","",""
"94213099999","2021-01-03T09:00:00","-17.0166666","128.2166666","205.0","WARMUN, AS","FM-12","4","","76","99","","||HZ","+0.01","7","48","","29.63","28.97","12.43","82","230","","1","","","","","","","","","","","","","","","","","","","","","","","","","","","","","","","","","","","","","","","","","","","","","","","","","","","","","","","","","","","","","","","","","","","","","","","","","","","","","","","","","","","","","","","","","","","SYN004BUFR","","","","","","","","","",""
"94213099999","2021-01-04T09:00:00","-17.0166666","128.2166666","205.0","WARMUN, AS","FM-12","4","","83","100","","||HZ","+0.03","7","59","","29.59","28.93","15.53","87","230","","2","","","","","","","","","","","","","","","","","","","","","","","","","","","","","","","","","","","","","","","","","","","","","","","","","","","","","","","","","","","","","","","","","","","","","","","","","","","","","","","","","","","","","","","","","","","SYN004BUFR","","","","","","","","","",""
"94213099999","2021-01-05T09:00:00","-17.0166666","128.2166666","205.0","WARMUN, AS","FM-12","4","","76","90","","||HZ","+0.02","7","63","","29.69","29.03","12.43","80","050","","3","","","","","","","","","","","","","","","","","","","","","","","","","","","","","","","","","","","","","","","","","","","","","","","","","","","","","","","","","","","","","","","","","","","","","","","","","","","","","","","","","","","","","","","","","","","SYN004BUFR","","","","","","","","","",""
"94213099999","2021-01-06T09:00:00","-17.0166666","128.2166666","205.0","WARMUN, AS","FM-12","4","","78","90","","||HZ","+0.01","7","69","","29.76","29.09","12.43","81","360","","2","","","","","","","","","","","","","","","","","","","","","","","","","","","","","","","","","","","","","","","","","","","","","","","","","","","","","","","","","","","","","","","","","","","","","","","","","","","","","","","","","","","","","","","","","","","SYN004BUFR","","","","","","","","","",""
"94213099999","2021-01-08T09:00:00","-17.0166666","128.2166666","205.0","WARMUN, AS","FM-12","4","","55","98","","||HZ","+0.01","7","24","","29.77","29.10","15.53","70","130","","5","","","","","","","","","","","","","","","","","","","","","","","","","","","","","","","","","","","","","","","","","","","","","","","","","","","","","","","","","","","","","","","","","","","","","","","","","","","","","","","","","","","","","","","","","","","SYN004BUFR","","","","","","","","","",""
"94213099999","2021-01-09T09:00:00","-17.0166666","128.2166666","205.0","WARMUN, AS","FM-12","4","","67","98","","||HZ","+0.02","7","36","","29.76","29.09","15.53","76","360","","0","","","","","","","","","","","","","","","","","","","","","","","","","","","","","","","","","","","","","","","","","","","","","","","","","","","","","","","","","","","","","","","","","","","","","","","","","","","","","","","","","","","","","","","","","","","SYN004BUFR","","","","","","","","","",""
"94213099999","2021-01-11T09:00:00","-17.0166666","128.2166666","205.0","WARMUN, AS","FM-12","4","","72","97","","||HZ","+0.02","7","45","","29.75","29.08","12.43","79","090","","2","","","","","","","","","","","","","","","","","","","","","","","","","","","","","","","","","","","","","","","","","","","","","","","","","","","","","","","","","","","","","","","","","","","","","","","","","","","","","","","","","","","","","","","","","","","SYN004BUFR","","","","","","","","","",""
"94213099999","2021-01-12T09:00:00","-17.0166666","128.2166666","205.0","WARMUN, AS","FM-12","4","","71","97","","||HZ","+0.01","7","43","","29.73","29.06","15.53","78","050","","1","","","","","","","","","","","","","","","","","","","","","","","","","","","","","","","","","","","","","","","","","","","","","","","","","","","","","","","","","","","","","","","","","","","","","","","","","","","","","","","","","","","","","","","","","","","SYN004BUFR","","","","","","","","","",""
"94213099999","2021-01-13T09:00:00","-17.0166666","128.2166666","205.0","WARMUN, AS","FM-12","4","","88","99","","||HZ","+0.03","7","72","","29.73","29.06","12.43","90","360","","1","","","","","","","","","","","","","","","","","","","","","","","","","","","","","","","","","","","","","","","","","","","","","","","","","","","","","","","","","","","","","","","","","","","","","","","","","","","","","","","","","","","","","","","","","","","SYN004BUFR","","","","","","","","","",""
"94213099999","2021-01-14T09:00:00","-17.0166666","128.2166666","205.0","WARMUN, AS","FM-12","4","","72","94","","||HZ","+0.03","7","50","","29.75","29.08","12.43","78","050","","1","","","","","","","","","","","","","","","","","","","","","","","","","","","","","","","","","","","","","","","","","","","","","","","","","","","","","","","","","","","","","","","","","","","","","","","","","","","","","","","","","","","","","","","","","","","SYN004BUFR","","","","","","","","","",""
"94213099999","2021-01-15T09:00:00","-17.0166666","128.2166666","205.0","WARMUN, AS","FM-12","4","","76","91","","||HZ","-0.02","2","61","","29.73","29.06","15.53","80","050","","1","","","","","","","","","","","","","","","","","","","","","","","","","","","","","","","","","","","","","","","","","","","","","","","","","","","","","","","","","","","","","","","","","","","","","","","","","","","","","","","","","","","","","","","","","","","SYN004BUFR","","","","","","","","","",""
"94213099999","2021-01-16T09:00:00","-17.0166666","128.2166666","205.0","WARMUN, AS","FM-12","4","","72","97","","||HZ","+0.02","7","45","","29.69","29.02","15.53","79","130","","3","","","","","","","","","","","","","","","","","","","","","","","","","","","","","","","","","","","","","","","","","","","","","","","","","","","","","","","","","","","","","","","","","","","","","","","","","","","","","","","","","","","","","","","","","","","SYN004BUFR","","","","","","","","","",""
"94213099999","2021-01-17T09:00:00","-17.0166666","128.2166666","205.0","WARMUN, AS","FM-12","4","","55","95","","||HZ","+0.02","7","26","","29.74","29.07","15.53","70","130","","2","","","","","","","","","","","","","","","","","","","","","","","","","","","","","","","","","","","","","","","","","","","","","","","","","","","","","","","","","","","","","","","","","","","","","","","","","","","","","","","","","","","","","","","","","","","SYN004BUFR","","","","","","","","","",""
"94213099999","2021-01-18T09:00:00","-17.0166666","128.2166666","205.0","WARMUN, AS","FM-12","4","","71","95","","||HZ","+0.05","7","46","","29.79","29.12","12.43","78","090","","3","","","","","","","","","","","","","","","","","","","","","","","","","","","","","","","","","","","","","","","","","","","","","","","","","","","","","","","","","","","","","","","","","","","","","","","","","","","","","","","","","","","","","","","","","","","SYN004BUFR","","","","","","","","","",""
"94213099999","2021-01-19T09:00:00","-17.0166666","128.2166666","205.0","WARMUN, AS","FM-12","4","","73","92","","||HZ","+0.02","7","53","","29.81","29.14","12.43","78","050","","1","","","","","","","","","","","","","","","","","","","","","","","","","","","","","","","","","","","","","","","","","","","","","","","","","","","","","","","","","","","","","","","","","","","","","","","","","","","","","","","","","","","","","","","","","","","SYN004BUFR","","","","","","","","","",""
"94213099999","2021-01-20T09:00:00","-17.0166666","128.2166666","205.0","WARMUN, AS","FM-12","4","","72","89","","||HZ","+0.04","7","57","","29.81","29.14","12.43","77","050","","2","","","","","","","","","","","","","","","","","","","","","","","","","","","","","","","","","","","","","","","","","","","","","","","","","","","","","","","","","","","","","","","","","","","","","","","","","","","","","","","","","","","","","","","","","","","SYN004BUFR","","","","","","","","","",""
"94213099999","2021-01-21T09:00:00","-17.0166666","128.2166666","205.0","WARMUN, AS","FM-12","4","","75","88","","||HZ","+0.04","7","66","","29.82","29.15","12.43","79","310","","1","","","","","","","","","","","","","","","","","","","","","","","","","","","","","","","","","","","","","","","","","","","","","","","","","","","","","","","","","","","","","","","","","","","","","","","","","","","","","","","","","","","","","","","","","","","SYN07094213 11/70 43101 10310 20238 39872 40099 57012 60004 70522 333 70000=","","","","","","","","","",""
"94213099999","2021-01-22T09:00:00","-17.0166666","128.2166666","205.0","WARMUN, AS","FM-12","4","","69","76","","||DZ","-0.08","2","79","","29.85","29.18","6.21","71","360","","3","","","","","","","","","","","","","","","","","","","","","","","","","","","","","","","","","","","","","","","","","","","","","","","","","","","","","","","","","","","","","","","","","","","","","","","","","","","","","","","","","","","","","","","","","","","SYN004BUFR","","","","","","","","","",""
"94213099999","2021-01-23T09:00:00","-17.0166666","128.2166666","205.0","WARMUN, AS","FM-12","4","","70","89","","||HZ","+0.00","7","54","","29.75","29.08","12.43","76","310","","3","","","","","","","","","","","","","","","","","","","","","","","","","","","","","","","","","","","","","","","","","","","","","","","","","","","","","","","","","","","","","","","","","","","","","","","","","","","","","","","","","","","","","","","","","","","SYN004BUFR","","","","","","","","","",""
"94213099999","2021-01-24T09:00:00","-17.0166666","128.2166666","205.0","WARMUN, AS","FM-12","4","","79","85","","||HZ","+0.01","7","81","","29.72","29.05","12.43","81","090","","1","","","","","","","","","","","","","","","","","","","","","","","","","","","","","","","","","","","","","","","","","","","","","","","","","","","","","","","","","","","","","","","","","","","","","","","","","","","","","","","","","","","","","","","","","","","SYN004BUFR","","","","","","","","","",""
"94213099999","2021-01-25T09:00:00","-17.0166666","128.2166666","205.0","WARMUN, AS","FM-12","4","","75","81","","||HZ","-0.04","2","84","","29.69","29.02","12.43","77","230","","2","","","","","","","","","","","","","","","","","","","","","","","","","","","","","","","","","","","","","","","","","","","","","","","","","","","","","","","","","","","","","","","","","","","","","","","","","","","","","","","","","","","","","","","","","","","SYN004BUFR","","","","","","","","","",""
"94213099999","2021-01-26T09:00:00","-17.0166666","128.2166666","205.0","WARMUN, AS","FM-12","4","","76","85","","||HZ","+0.03","7","75","","29.63","28.97","12.43","79","360","","0","","","","","","","","","","","","","","","","","","","","","","","","","","","","","","","","","","","","","","","","","","","","","","","","","","","","","","","","","","","","","","","","","","","","","","","","","","","","","","","","","","","","","","","","","","","SYN004BUFR","","","","","","","","","",""
"94213099999","2021-01-27T09:00:00","-17.0166666","128.2166666","205.0","WARMUN, AS","FM-12","4","","74","84","","||HZ","+0.06","7","71","","29.57","28.91","12.43","77","230","","3","","","","","","","","","","","","","","","","","","","","","","","","","","","","","","","","","","","","","","","","","","","","","","","","","","","","","","","","","","","","","","","","","","","","","","","","","","","","","","","","","","","","","","","","","","","SYN004BUFR","","","","","","","","","",""
"94213099999","2021-01-28T09:00:00","-17.0166666","128.2166666","205.0","WARMUN, AS","FM-12","4","","78","81","","||DZ","+0.01","7","88","","29.59","28.93","6.21","79","360","","0","","","","","","","","","","","","","","","","","","","","","","","","","","","","","","","","","","","","","","","","","","","","","","","","","","","","","","","","","","","","","","","","","","","","","","","","","","","","","","","","","","","","","","","","","","","SYN004BUFR","","","","","","","","","",""
"94213099999","2021-01-29T09:00:00","-17.0166666","128.2166666","205.0","WARMUN, AS","FM-12","4","","77","83","","||HZ","+0.01","7","81","","29.57","28.90","12.43","79","090","","3","","","","","","","","","","","","","","","","","","","","","","","","","","","","","","","","","","","","","","","","","","","","","","","","","","","","","","","","","","","","","","","","","","","","","","","","","","","","","","","","","","","","","","","","","","","SYN004BUFR","","","","","","","","","",""
"94213099999","2021-01-30T09:00:00","-17.0166666","128.2166666","205.0","WARMUN, AS","FM-12","4","","79","82","","||HZ","+0.03","7","88","","29.59","28.93","12.43","80","360","","3","","","","","","","","","","","","","","","","","","","","","","","","","","","","","","","","","","","","","","","","","","","","","","","","","","","","","","","","","","","","","","","","","","","","","","","","","","","","","","","","","","","","","","","","","","","SYN004BUFR","","","","","","","","","",""
"94213099999","2021-01-31T09:00:00","-17.0166666","128.2166666","205.0","WARMUN, AS","FM-12","4","","78","83","","||HZ","+0.01","7","85","","29.67","29.01","6.21","79","050","","2","","","","","","","","","","","","","","","","","","","","","","","","","","","","","","","","","","","","","","","","","","","","","","","","","","","","","","","","","","","","","","","","","","","","","","","","","","","","","","","","","","","","","","","","","","","SYN004BUFR","","","","","","","","","",""
"94213099999","2021-02-01T09:00:00","-17.0166666","128.2166666","205.0","WARMUN, AS","FM-12","4","","78","83","","||HZ","-0.04","2","85","","29.72","29.05","12.43","79","360","","0","","","","","","","","","","","","","","","","","","","","","","","","","","","","","","","","","","","","","","","","","","","","","","","","","","","","","","","","","","","","","","","","","","","","","","","","","","","","","","","","","","","","","","","","","","","SYN004BUFR","","","","","","","","","",""
"94213099999","2021-02-02T09:00:00","-17.0166666","128.2166666","205.0","WARMUN, AS","FM-12","4","","80","90","","||HZ","+0.03","7","72","","29.72","29.05","15.53","83","360","","0","","","","","","","","","","","","","","","","","","","","","","","","","","","","","","","","","","","","","","","","","","","","","","","","","","","","","","","","","","","","","","","","","","","","","","","","","","","","","","","","","","","","","","","","","","","SYN004BUFR","","","","","","","","","",""
"94213099999","2021-02-03T09:00:00","-17.0166666","128.2166666","205.0","WARMUN, AS","FM-12","4","","79","89","","||HZ","+0.01","7","72","","29.67","29.01","15.53","82","360","","0","","","","","","","","","","","","","","","","","","","","","","","","","","","","","","","","","","","","","","","","","","","","","","","","","","","","","","","","","","","","","","","","","","","","","","","","","","","","","","","","","","","","","","","","","","","SYN004BUFR","","","","","","","","","",""
"94213099999","2021-02-04T09:00:00","-17.0166666","128.2166666","205.0","WARMUN, AS","FM-12","4","","78","81","","","+0.04","7","92","","29.71","29.04","6.21","79","360","","0","","","","","","","","","","","","","","","","","","","","","","","","","","","","","","","","","","","","","","","","","","","","","","","","","","","","","","","","","","","","","","","","","","","","","","","","","","","","","","","","","","","","","","","","","","","SYN004BUFR","","","","","","","","","",""
"94213099999","2021-02-05T09:00:00","-17.0166666","128.2166666","205.0","WARMUN, AS","FM-12","4","","75","90","","||HZ","+0.03","7","61","","29.67","29.00","12.43","79","250","","2","","","","","","","","","","","","","","","","","","","","","","","","","","","","","","","","","","","","","","","","","","","","","","","","","","","","","","","","","","","","","","","","","","","","","","","","","","","","","","","","","","","","","","","","","","","SYN004BUFR","","","","","","","","","",""
"94213099999","2021-02-07T09:00:00","-17.0166666","128.2166666","205.0","WARMUN, AS","FM-12","4","","73","89","","||HZ","-0.02","2","60","","29.66","28.99","6.21","78","230","","2","","","","","","","","","","","","","","","","","","","","","","","","","","","","","","","","","","","","","","","","","","","","","","","","","","","","","","","","","","","","","","","","","","","","","","","","","","","","","","","","","","","","","","","","","","","SYN004BUFR","","","","","","","","","",""
"94213099999","2021-02-08T09:00:00","-17.0166666","128.2166666","205.0","WARMUN, AS","FM-12","4","","71","88","","||HZ","-0.04","2","57","","29.63","28.97","12.43","76","200","","2","","","","","","","","","","","","","","","","","","","","","","","","","","","","","","","","","","","","","","","","","","","","","","","","","","","","","","","","","","","","","","","","","","","","","","","","","","","","","","","","","","","","","","","","","","","SYN004BUFR","","","","","","","","","",""
"94213099999","2021-02-10T09:00:00","-17.0166666","128.2166666","205.0","WARMUN, AS","FM-12","4","","78","81","","||DZ","+0.05","7","92","","29.67","29.00","12.43","79","310","","1","","","","","","","","","","","","","","","","","","","","","","","","","","","","","","","","","","","","","","","","","","","","","","","","","","","","","","","","","","","","","","","","","","","","","","","","","","","","","","","","","","","","","","","","","","","SYN07094213 11/70 83101 10270 20256 39822 40048 57017 60144 75055 333 70140=","","","","","","","","","",""
"94213099999","2021-02-14T09:00:00","-17.0166666","128.2166666","205.0","WARMUN, AS","FM-12","4","","76","82","","||HZ","+0.01","7","81","","29.76","29.09","12.43","78","160","","1","","","","","","","","","","","","","","","","","","","","","","","","","","","","","","","","","","","","","","","","","","","","","","","","","","","","","","","","","","","","","","","","","","","","","","","","","","","","","","","","","","","","","","","","","","","SYN004BUFR","","","","","","","","","",""
"94213099999","2021-02-15T09:00:00","-17.0166666","128.2166666","205.0","WARMUN, AS","FM-12","4","","80","89","","||HZ","+0.04","7","75","","29.73","29.06","15.53","82","130","","1","","","","","","","","","","","","","","","","","","","","","","","","","","","","","","","","","","","","","","","","","","","","","","","","","","","","","","","","","","","","","","","","","","","","","","","","","","","","","","","","","","","","","","","","","","","SYN07094213 11/75 21301 10315 20266 39842 40069 57012 60034 70511 333 70030=","","","","","","","","","",""
"94213099999","2021-02-16T09:00:00","-17.0166666","128.2166666","205.0","WARMUN, AS","FM-12","4","","77","83","","||HZ","+0.00","7","81","","29.74","29.07","6.21","79","000","","0","","","","","","","","","","","","","","","","","","","","","","","","","","","","","","","","","","","","","","","","","","","","","","","","","","","","","","","","","","","","","","","","","","","","","","","","","","","","","","","","","","","","","","","","","","","SYN07094213 11/60 80000 10285 20249 39844 40071 57001 60294 70511 333 70290=","","","","","","","","","",""
"94213099999","2021-02-17T09:00:00","-17.0166666","128.2166666","205.0","WARMUN, AS","FM-12","4","","82","90","","||HZ","-0.04","2","79","","29.72","29.05","6.21","84","130","","1","","","","","","","","","","","","","","","","","","","","","","","","","","","","","","","","","","","","","","","","","","","","","","","","","","","","","","","","","","","","","","","","","","","","","","","","","","","","","","","","","","","","","","","","","","","SYN004BUFR","","","","","","","","","",""
"94213099999","2021-02-18T09:00:00","-17.0166666","128.2166666","205.0","WARMUN, AS","FM-12","4","","81","92","","||HZ","-0.06","1","70","","29.67","29.00","12.43","84","230","","2","","","","","","","","","","","","","","","","","","","","","","","","","","","","","","","","","","","","","","","","","","","","","","","","","","","","","","","","","","","","","","","","","","","","","","","","","","","","","","","","","","","","","","","","","","","SYN07094213 11/70 32302 10335 20273 39822 40048 51021 60004 70511 333 70000=","","","","","","","","","",""
"94213099999","2021-02-23T09:00:00","-17.0166666","128.2166666","205.0","WARMUN, AS","FM-12","4","","75","79","","||DZ","+0.05","7","88","","29.80","29.13","6.21","76","310","","6","","","","","","","","","","","","","","","","","","","","","","","","","","","","","","","","","","","","","","","","","","","","","","","","","","","","","","","","","","","","","","","","","","","","","","","","","","","","","","","","","","","","","","","","","","","SYN07094213 11/60 83105 10260 20238 39866 40093 57017 69924 75011 333 70002=","","","","","","","","","",""
"94213099999","2021-02-24T09:00:00","-17.0166666","128.2166666","205.0","WARMUN, AS","FM-12","4","","77","90","","||HZ","-0.05","2","66","","29.77","29.10","15.53","80","130","","1","","","","","","","","","","","","","","","","","","","","","","","","","","","","","","","","","","","","","","","","","","","","","","","","","","","","","","","","","","","","","","","","","","","","","","","","","","","","","","","","","","","","","","","","","","","SYN07094213 11/75 31301 10320 20249 39855 40082 52017 60004 70511 333 70000=","","","","","","","","","",""
"94213099999","2021-02-25T09:00:00","-17.0166666","128.2166666","205.0","WARMUN, AS","FM-12","4","","79","85","","||DU","+0.03","7","81","","29.76","29.09","12.43","81","090","","1","","","","","","","","","","","","","","","","","","","","","","","","","","","","","","","","","","","","","","","","","","","","","","","","","","","","","","","","","","","","","","","","","","","","","","","","","","","","","","","","","","","","","","","","","","","SYN07094213 11/70 70901 10295 20260 39850 40077 57009 60074 70922 333 70070=","","","","","","","","","",""
"94213099999","2021-02-26T09:00:00","-17.0166666","128.2166666","205.0","WARMUN, AS","FM-12","4","","76","90","","||HZ","+0.01","7","63","","29.70","29.04","15.53","80","000","","0","","","","","","","","","","","","","","","","","","","","","","","","","","","","","","","","","","","","","","","","","","","","","","","","","","","","","","","","","","","","","","","","","","","","","","","","","","","","","","","","","","","","","","","","","","","SYN07094213 11/75 10000 10325 20247 39833 40059 57004 60094 70511 333 70090=","","","","","","","","","",""
"94213099999","2021-02-27T09:00:00","-17.0166666","128.2166666","205.0","WARMUN, AS","FM-12","4","","78","90","","||HZ","+0.04","7","69","","29.75","29.08","15.53","81","000","","0","","","","","","","","","","","","","","","","","","","","","","","","","","","","","","","","","","","","","","","","","","","","","","","","","","","","","","","","","","","","","","","","","","","","","","","","","","","","","","","","","","","","","","","","","","","SYN07094213 11975 00000 10320 20257 39846 40073 57013 60004 70500 333 70000=","","","","","","","","","",""
"94213099999","2021-02-28T09:00:00","-17.0166666","128.2166666","205.0","WARMUN, AS","FM-12","4","","70","92","","||HZ","-0.06","2","48","","29.79","29.12","15.53","77","130","","1","","","","","","","","","","","","","","","","","","","","","","","","","","","","","","","","","","","","","","","","","","","","","","","","","","","","","","","","","","","","","","","","","","","","","","","","","","","","","","","","","","","","","","","","","","","SYN07094213 11975 01301 10335 20209 39860 40087 52019 60004 70500 333 70000=","","","","","","","","","",""
"94213099999","2021-03-01T09:00:00","-17.0166666","128.2166666","205.0","WARMUN, AS","FM-12","4","","78","93","","||HZ","+0.02","7","62","","29.80","29.13","15.53","82","130","","1","","","","","","","","","","","","","","","","","","","","","","","","","","","","","","","","","","","","","","","","","","","","","","","","","","","","","","","","","","","","","","","","","","","","","","","","","","","","","","","","","","","","","","","","","","","SYN004BUFR","","","","","","","","","",""
"94213099999","2021-03-02T09:00:00","-17.0166666","128.2166666","205.0","WARMUN, AS","FM-12","4","","78","93","","||HZ","+0.01","7","62","","29.79","29.12","15.53","82","130","","2","","","","","","","","","","","","","","","","","","","","","","","","","","","","","","","","","","","","","","","","","","","","","","","","","","","","","","","","","","","","","","","","","","","","","","","","","","","","","","","","","","","","","","","","","","","SYN07094213 11975 01302 10340 20256 39860 40088 57004 60004 70500 333 70000=","","","","","","","","","",""
"94213099999","2021-03-15T09:00:00","-17.0166666","128.2166666","205.0","WARMUN, AS","FM-12","4","","76","78","","","+0.01","7","95","","29.90","29.23","15.53","77","110","","1","","","","","","","","","","","","","","","","","","","","","","","","","","","","","","","","","","","","","","","","","","","","","","","","","","","","","","","","","","","","","","","","","","","","","","","","","","","","","","","","","","","","","","","","","","","SYN004BUFR","","","","","","","","","",""
"94213099999","2021-03-16T09:00:00","-17.0166666","128.2166666","205.0","WARMUN, AS","FM-12","4","","76","79","","","-0.03","2","92","","29.94","29.26","15.53","77","130","","2","","","","","","","","","","","","","","","","","","","","","","","","","","","","","","","","","","","","","","","","","","","","","","","","","","","","","","","","","","","","","","","","","","","","","","","","","","","","","","","","","","","","","","","","","","","SYN07094213 11/75 71302 10260 20246 39910 40139 52011 60004 70011 333 70000=","","","","","","","","","",""
"94213099999","2021-03-17T09:00:00","-17.0166666","128.2166666","205.0","WARMUN, AS","FM-12","4","","66","88","","","+0.01","7","48","","29.82","29.15","15.53","73","090","","2","","","","","","","","","","","","","","","","","","","","","","","","","","","","","","","","","","","","","","","","","","","","","","","","","","","","","","","","","","","","","","","","","","","","","","","","","","","","","","","","","","","","","","","","","","","SYN004BUFR","","","","","","","","","",""
"94213099999","2021-03-18T09:00:00","-17.0166666","128.2166666","205.0","WARMUN, AS","FM-12","4","","69","76","","||RA","+0.01","7","79","","29.85","29.18","15.53","71","000","","0","","","","","","","","","","","","","","","","","","","","","","","","","","","","","","","","","","","","","","","","","","","","","","","","","","","","","","","","","","","","","","","","","","","","","","","","","","","","","","","","","","","","","","","","","","","SYN07094213 11/75 70000 10245 20207 39880 40108 57003 60224 76222 333 70220=","","","","","","","","","",""
"94213099999","2021-03-19T09:00:00","-17.0166666","128.2166666","205.0","WARMUN, AS","FM-12","4","","73","74","","","+0.04","7","96","","29.80","29.13","15.53","73","310","","1","","","","","","","","","","","","","","","","","","","","","","","","","","","","","","","","","","","","","","","","","","","","","","","","","","","","","","","","","","","","","","","","","","","","","","","","","","","","","","","","","","","","","","","","","","","SYN004BUFR","","","","","","","","","",""
"94213099999","2021-03-20T09:00:00","-17.0166666","128.2166666","205.0","WARMUN, AS","FM-12","4","","71","79","","||RA","+0.00","7","76","","29.74","29.07","15.53","74","020","","5","","","","","","","","","","","","","","","","","","","","","","","","","","","","","","","","","","","","","","","","","","","","","","","","","","","","","","","","","","","","","","","","","","","","","","","","","","","","","","","","","","","","","","","","","","","SYN004BUFR","","","","","","","","","",""
"94213099999","2021-03-21T09:00:00","-17.0166666","128.2166666","205.0","WARMUN, AS","FM-12","4","","74","78","","","+0.04","7","88","","29.72","29.05","15.53","75","050","","3","","","","","","","","","","","","","","","","","","","","","","","","","","","","","","","","","","","","","","","","","","","","","","","","","","","","","","","","","","","","","","","","","","","","","","","","","","","","","","","","","","","","","","","","","","","SYN07094213 11/75 80503 10255 20233 39837 40064 57015 60074 70062 333 70070=","","","","","","","","","",""
"94213099999","2021-03-22T09:00:00","-17.0166666","128.2166666","205.0","WARMUN, AS","FM-12","4","","75","82","","","+0.02","7","78","","29.77","29.09","15.53","77","230","","1","","","","","","","","","","","","","","","","","","","","","","","","","","","","","","","","","","","","","","","","","","","","","","","","","","","","","","","","","","","","","","","","","","","","","","","","","","","","","","","","","","","","","","","","","","","SYN004BUFR","","","","","","","","","",""
"94213099999","2021-03-23T09:00:00","-17.0166666","128.2166666","205.0","WARMUN, AS","FM-12","4","","77","86","","||RA","-0.03","2","75","","29.79","29.12","15.53","79","130","","2","","","","","","","","","","","","","","","","","","","","","","","","","","","","","","","","","","","","","","","","","","","","","","","","","","","","","","","","","","","","","","","","","","","","","","","","","","","","","","","","","","","","","","","","","","","SYN004BUFR","","","","","","","","","",""
"94213099999","2021-03-24T09:00:00","-17.0166666","128.2166666","205.0","WARMUN, AS","FM-12","4","","76","86","","","+0.03","7","72","","29.79","29.12","15.53","79","250","","2","","","","","","","","","","","","","","","","","","","","","","","","","","","","","","","","","","","","","","","","","","","","","","","","","","","","","","","","","","","","","","","","","","","","","","","","","","","","","","","","","","","","","","","","","","","SYN004BUFR","","","","","","","","","",""
"94213099999","2021-03-25T09:00:00","-17.0166666","128.2166666","205.0","WARMUN, AS","FM-12","4","","76","90","","","+0.04","7","63","","29.78","29.11","15.53","80","090","","2","","","","","","","","","","","","","","","","","","","","","","","","","","","","","","","","","","","","","","","","","","","","","","","","","","","","","","","","","","","","","","","","","","","","","","","","","","","","","","","","","","","","","","","","","","","SYN004BUFR","","","","","","","","","",""
"94213099999","2021-03-26T09:00:00","-17.0166666","128.2166666","205.0","WARMUN, AS","FM-12","4","","76","90","","","-0.04","2","63","","29.82","29.14","15.53","80","230","","2","","","","","","","","","","","","","","","","","","","","","","","","","","","","","","","","","","","","","","","","","","","","","","","","","","","","","","","","","","","","","","","","","","","","","","","","","","","","","","","","","","","","","","","","","","","SYN07094213 11/75 12302 10320 20242 39869 40097 52013 60004 70100 333 70000=","","","","","","","","","",""
"94213099999","2021-03-27T09:00:00","-17.0166666","128.2166666","205.0","WARMUN, AS","FM-12","4","","79","93","","||HZ","-0.02","2","64","","29.81","29.14","15.53","83","050","","6","","","","","","","","","","","","","","","","","","","","","","","","","","","","","","","","","","","","","","","","","","","","","","","","","","","","","","","","","","","","","","","","","","","","","","","","","","","","","","","","","","","","","","","","","","","SYN004BUFR","","","","","","","","","",""
"94213099999","2021-03-28T09:00:00","-17.0166666","128.2166666","205.0","WARMUN, AS","FM-12","4","","89","91","","","-0.03","0","93","","29.83","29.16","15.53","89","160","","6","","","","","","","","","","","","","","","","","","","","","","","","","","","","","","","","","","","","","","","","","","","","","","","","","","","","","","","","","","","","","","","","","","","","","","","","","","","","","","","","","","","","","","","","","","","SYN004BUFR","","","","","","","","","",""
"94213099999","2021-03-29T09:00:00","-17.0166666","128.2166666","205.0","WARMUN, AS","FM-12","4","","66","87","","","-0.04","2","50","","29.88","29.21","15.53","73","180","","5","","","","","","","","","","","","","","","","","","","","","","","","","","","","","","","","","","","","","","","","","","","","","","","","","","","","","","","","","","","","","","","","","","","","","","","","","","","","","","","","","","","","","","","","","","","SYN07094213 11/75 71804 10306 20189 39890 40118 52015 60004 70322 333 70000=","","","","","","","","","",""
"94213099999","2021-03-30T09:00:00","-17.0166666","128.2166666","205.0","WARMUN, AS","FM-12","4","","44","87","","","-0.01","2","22","","29.86","29.19","15.53","62","160","","18","","","","","","","","","","","","","","","","","","","","","","","","","","","","","","","","","","","","","","","","","","","","","","","","","","","","","","","","","","","","","","","","","","","","","","","","","","","","","","","","","","","","","","","","","","","SYN004BUFR","","","","","","","","","",""
"94213099999","2021-03-31T09:00:00","-17.0166666","128.2166666","205.0","WARMUN, AS","FM-12","4","","56","89","","","-0.03","2","33","","29.82","29.15","15.53","68","230","","1","","","","","","","","","","","","","","","","","","","","","","","","","","","","","","","","","","","","","","","","","","","","","","","","","","","","","","","","","","","","","","","","","","","","","","","","","","","","","","","","","","","","","","","","","","","SYN004BUFR","","","","","","","","","",""
"94213099999","2021-04-01T09:00:00","-17.0166666","128.2166666","205.0","WARMUN, AS","FM-12","4","","42","88","","","-0.06","2","20","","29.85","29.18","15.53","62","090","","14","","","","","","","","","","","","","","","","","","","","","","","","","","","","","","","","","","","","","","","","","","","","","","","","","","","","","","","","","","","","","","","","","","","","","","","","","","","","","","","","","","","","","","","","","","","SYN07094213 11/75 40912 10309 20057 39880 40110 52021 60004 70200 333 70000=","","","","","","","","","",""
"94213099999","2021-04-02T09:00:00","-17.0166666","128.2166666","205.0","WARMUN, AS","FM-12","4","","61","90","","","-0.02","2","37","","29.84","29.16","15.53","71","090","","2","","","","","","","","","","","","","","","","","","","","","","","","","","","","","","","","","","","","","","","","","","","","","","","","","","","","","","","","","","","","","","","","","","","","","","","","","","","","","","","","","","","","","","","","","","","SYN004BUFR","","","","","","","","","",""
"94213099999","2021-04-03T09:00:00","-17.0166666","128.2166666","205.0","WARMUN, AS","FM-12","4","","61","88","","","-0.03","0","41","","29.81","29.13","15.53","70","360","","0","","","","","","","","","","","","","","","","","","","","","","","","","","","","","","","","","","","","","","","","","","","","","","","","","","","","","","","","","","","","","","","","","","","","","","","","","","","","","","","","","","","","","","","","","","","SYN004BUFR","","","","","","","","","",""
"94213099999","2021-04-04T09:00:00","-17.0166666","128.2166666","205.0","WARMUN, AS","FM-12","4","","54","89","","","-0.04","1","31","","29.82","29.14","15.53","67","130","","1","","","","","","","","","","","","","","","","","","","","","","","","","","","","","","","","","","","","","","","","","","","","","","","","","","","","","","","","","","","","","","","","","","","","","","","","","","","","","","","","","","","","","","","","","","","SYN07094213 11/75 11301 10316 20124 39868 40098 51012 60004 70000 333 70000=","","","","","","","","","",""
"94213099999","2021-04-05T09:00:00","-17.0166666","128.2166666","205.0","WARMUN, AS","FM-12","4","","36","94","","||HZ","+0.02","7","13","","29.83","29.15","15.53","62","090","","3","","","","","","","","","","","","","","","","","","","","","","","","","","","","","","","","","","","","","","","","","","","","","","","","","","","","","","","","","","","","","","","","","","","","","","","","","","","","","","","","","","","","","","","","","","","SYN07094213 11975 00903 10345 20025 39872 40102 57008 60004 70500 333 70000=","","","","","","","","","",""
"94213099999","2021-04-06T09:00:00","-17.0166666","128.2166666","205.0","WARMUN, AS","FM-12","4","","56","88","","","-0.01","0","34","","29.86","29.18","15.53","68","360","","0","","","","","","","","","","","","","","","","","","","","","","","","","","","","","","","","","","","","","","","","","","","","","","","","","","","","","","","","","","","","","","","","","","","","","","","","","","","","","","","","","","","","","","","","","","","SYN004BUFR","","","","","","","","","",""
"94213099999","2021-04-07T09:00:00","-17.0166666","128.2166666","205.0","WARMUN, AS","FM-12","4","","59","92","","","-0.02","0","34","","29.85","29.18","15.53","71","090","","8","","","","","","","","","","","","","","","","","","","","","","","","","","","","","","","","","","","","","","","","","","","","","","","","","","","","","","","","","","","","","","","","","","","","","","","","","","","","","","","","","","","","","","","","","","","SYN004BUFR","","","","","","","","","",""
"94213099999","2021-04-08T09:00:00","-17.0166666","128.2166666","205.0","WARMUN, AS","FM-12","4","","62","92","","","-0.02","2","36","","29.80","29.13","21.75","72","360","","0","","","","","","","","","","","","","","","","","","","","","","","","","","","","","","","","","","","","","","","","","","","","","","","","","","","","","","","","","","","","","","","","","","","","","","","","","","","","","","","","","","","","","","","","","","","SYN004BUFR","","","","","","","","","",""
"94213099999","2021-04-09T09:00:00","-17.0166666","128.2166666","205.0","WARMUN, AS","FM-12","4","","57","93","","","-0.02","0","30","","29.83","29.15","21.75","70","360","","0","","","","","","","","","","","","","","","","","","","","","","","","","","","","","","","","","","","","","","","","","","","","","","","","","","","","","","","","","","","","","","","","","","","","","","","","","","","","","","","","","","","","","","","","","","","SYN004BUFR","","","","","","","","","",""
"94213099999","2021-04-10T09:00:00","-17.0166666","128.2166666","205.0","WARMUN, AS","FM-12","4","","60","93","","","-0.03","1","33","","29.84","29.16","21.75","71","180","","1","","","","","","","","","","","","","","","","","","","","","","","","","","","","","","","","","","","","","","","","","","","","","","","","","","","","","","","","","","","","","","","","","","","","","","","","","","","","","","","","","","","","","","","","","","","SYN004BUFR","","","","","","","","","",""
"94213099999","2021-04-11T09:00:00","-17.0166666","128.2166666","205.0","WARMUN, AS","FM-12","4","","57","92","","","-0.04","1","31","","29.86","29.18","21.75","70","180","","5","","","","","","","","","","","","","","","","","","","","","","","","","","","","","","","","","","","","","","","","","","","","","","","","","","","","","","","","","","","","","","","","","","","","","","","","","","","","","","","","","","","","","","","","","","","SYN004BUFR","","","","","","","","","",""
"94213099999","2021-04-12T09:00:00","-17.0166666","128.2166666","205.0","WARMUN, AS","FM-12","4","","42","90","","","-0.05","2","19","","29.94","29.26","21.75","63","230","","9","","","","","","","","","","","","","","","","","","","","","","","","","","","","","","","","","","","","","","","","","","","","","","","","","","","","","","","","","","","","","","","","","","","","","","","","","","","","","","","","","","","","","","","","","","","SYN004BUFR","","","","","","","","","",""
"94213099999","2021-04-13T09:00:00","-17.0166666","128.2166666","205.0","WARMUN, AS","FM-12","4","","51","90","","","-0.00","0","26","","29.94","29.26","21.75","66","360","","7","","","","","","","","","","","","","","","","","","","","","","","","","","","","","","","","","","","","","","","","","","","","","","","","","","","","","","","","","","","","","","","","","","","","","","","","","","","","","","","","","","","","","","","","","","","SYN004BUFR","","","","","","","","","",""
"94213099999","2021-04-14T09:00:00","-17.0166666","128.2166666","205.0","WARMUN, AS","FM-12","4","","54","89","","","-0.00","0","30","","29.92","29.23","21.75","67","050","","1","","","","","","","","","","","","","","","","","","","","","","","","","","","","","","","","","","","","","","","","","","","","","","","","","","","","","","","","","","","","","","","","","","","","","","","","","","","","","","","","","","","","","","","","","","","SYN004BUFR","","","","","","","","","",""
"94213099999","2021-04-15T09:00:00","-17.0166666","128.2166666","205.0","WARMUN, AS","FM-12","4","","51","91","","","-0.03","2","26","","29.91","29.23","21.75","67","050","","2","","","","","","","","","","","","","","","","","","","","","","","","","","","","","","","","","","","","","","","","","","","","","","","","","","","","","","","","","","","","","","","","","","","","","","","","","","","","","","","","","","","","","","","","","","","SYN004BUFR","","","","","","","","","",""
"94213099999","2021-04-16T09:00:00","-17.0166666","128.2166666","205.0","WARMUN, AS","FM-12","4","","53","90","","","-0.04","2","28","","29.95","29.26","21.75","67","090","","2","","","","","","","","","","","","","","","","","","","","","","","","","","","","","","","","","","","","","","","","","","","","","","","","","","","","","","","","","","","","","","","","","","","","","","","","","","","","","","","","","","","","","","","","","","","SYN07094213 11981 00902 10322 20114 39910 40141 52013 60004 70000 333 70000=","","","","","","","","","",""
"94213099999","2021-04-17T09:00:00","-17.0166666","128.2166666","205.0","WARMUN, AS","FM-12","4","","50","84","","","-0.04","1","31","","30.03","29.35","24.85","64","110","","21","","","","","","","","","","","","","","","","","","","","","","","","","","","","","","","","","","","","","","","","","","","","","","","","","","","","","","","","","","","","","","","","","","","","","","","","","","","","","","","","","","","","","","","","","","","SYN004BUFR","","","","","","","","","",""
"94213099999","2021-04-18T09:00:00","-17.0166666","128.2166666","205.0","WARMUN, AS","FM-12","4","","35","79","","","-0.03","1","21","","30.02","29.34","21.75","56","110","","26","","","","","","","","","","","","","","","","","","","","","","","","","","","","","","","","","","","","","","","","","","","","","","","","","","","","","","","","","","","","","","","","","","","","","","","","","","","","","","","","","","","","","","","","","","","SYN004BUFR","","","","","","","","","",""
"94213099999","2021-04-19T09:00:00","-17.0166666","128.2166666","205.0","WARMUN, AS","FM-12","4","","44","82","","","0.01","9","27","","29.93","29.24","24.85","61","270","","1","","","","","","","","","","","","","","","","","","","","","","","","","","","","","","","","","","","","","","","","","","","","","","","","","","","","","","","","","","","","","","","","","","","","","","","","","","","","","","","","","","","","","","","","","","","SYN07094213 11/82 12701 10277 20069 39903 40134 50005 60004 70200 333 70000=","","","","","","","","","",""
"94213099999","2021-04-20T09:00:00","-17.0166666","128.2166666","205.0","WARMUN, AS","FM-12","4","","44","85","","","-0.03","1","24","","29.90","29.22","21.75","62","110","","1","","","","","","","","","","","","","","","","","","","","","","","","","","","","","","","","","","","","","","","","","","","","","","","","","","","","","","","","","","","","","","","","","","","","","","","","","","","","","","","","","","","","","","","","","","","SYN004BUFR","","","","","","","","","",""
"94213099999","2021-04-21T09:00:00","-17.0166666","128.2166666","205.0","WARMUN, AS","FM-12","4","","53","86","","","-0.04","1","32","","29.94","29.26","24.85","66","290","","1","","","","","","","","","","","","","","","","","","","","","","","","","","","","","","","","","","","","","","","","","","","","","","","","","","","","","","","","","","","","","","","","","","","","","","","","","","","","","","","","","","","","","","","","","","","SYN004BUFR","","","","","","","","","",""
"94213099999","2021-04-22T09:00:00","-17.0166666","128.2166666","205.0","WARMUN, AS","FM-12","4","","48","86","","","-0.03","1","27","","29.93","29.25","27.96","64","130","","9","","","","","","","","","","","","","","","","","","","","","","","","","","","","","","","","","","","","","","","","","","","","","","","","","","","","","","","","","","","","","","","","","","","","","","","","","","","","","","","","","","","","","","","","","","","SYN004BUFR","","","","","","","","","",""
"94213099999","2021-04-23T09:00:00","-17.0166666","128.2166666","205.0","WARMUN, AS","FM-12","4","","38","86","","","-0.05","1","18","","29.97","29.29","24.85","60","130","","5","","","","","","","","","","","","","","","","","","","","","","","","","","","","","","","","","","","","","","","","","","","","","","","","","","","","","","","","","","","","","","","","","","","","","","","","","","","","","","","","","","","","","","","","","","","SYN07094213 11982 01304 10302 20036 39919 40150 51018 60004 70100 333 70000=","","","","","","","","","",""
"94213099999","2021-04-24T09:00:00","-17.0166666","128.2166666","205.0","WARMUN, AS","FM-12","4","","78","84","","","-0.04","1","82","","30.04","29.36","27.96","80","050","","21","","","","","","","","","","","","","","","","","","","","","","","","","","","","","","","","","","","","","","","","","","","","","","","","","","","","","","","","","","","","","","","","","","","","","","","","","","","","","","","","","","","","","","","","","","","SYN004BUFR","","","","","","","","","",""
"94213099999","2021-04-25T09:00:00","-17.0166666","128.2166666","205.0","WARMUN, AS","FM-12","4","","38","82","","","-0.04","2","21","","30.02","29.34","27.96","58","090","","21","","","","","","","","","","","","","","","","","","","","","","","","","","","","","","","","","","","","","","","","","","","","","","","","","","","","","","","","","","","","","","","","","","","","","","","","","","","","","","","","","","","","","","","","","","","SYN004BUFR","","","","","","","","","",""
"94213099999","2021-04-26T09:00:00","-17.0166666","128.2166666","205.0","WARMUN, AS","FM-12","4","","46","85","","","-0.03","1","26","","29.98","29.30","31.07","63","090","","5","","","","","","","","","","","","","","","","","","","","","","","","","","","","","","","","","","","","","","","","","","","","","","","","","","","","","","","","","","","","","","","","","","","","","","","","","","","","","","","","","","","","","","","","","","","SYN07094213 11984 00904 10295 20080 39922 40153 51011 60004 70200 333 70000=","","","","","","","","","",""
"94213099999","2021-04-27T09:00:00","-17.0166666","128.2166666","205.0","WARMUN, AS","FM-12","4","","54","85","","","0.05","9","35","","29.99","29.31","21.75","66","090","","6","","","","","","","","","","","","","","","","","","","","","","","","","","","","","","","","","","","","","","","","","","","","","","","","","","","","","","","","","","","","","","","","","","","","","","","","","","","","","","","","","","","","","","","","","","","SYN07094213 11/81 50905 10296 20125 39924 40155 50017 60004 70111 333 70000=","","","","","","","","","",""
"94213099999","2021-04-28T09:00:00","-17.0166666","128.2166666","205.0","WARMUN, AS","FM-12","4","","53","89","","","-0.03","1","30","","29.97","29.29","24.85","67","110","","5","","","","","","","","","","","","","","","","","","","","","","","","","","","","","","","","","","","","","","","","","","","","","","","","","","","","","","","","","","","","","","","","","","","","","","","","","","","","","","","","","","","","","","","","","","","SYN07094213 11/82 11104 10314 20116 39919 40150 51011 60004 70100 333 70000=","","","","","","","","","",""
"94213099999","2021-04-29T09:00:00","-17.0166666","128.2166666","205.0","WARMUN, AS","FM-12","4","","48","90","","","-0.02","2","23","","29.96","29.28","6.21","65","130","","6","","","","","","","","","","","","","","","","","","","","","","","","","","","","","","","","","","","","","","","","","","","","","","","","","","","","","","","","","","","","","","","","","","","","","","","","","","","","","","","","","","","","","","","","","","","SYN004BUFR","","","","","","","","","",""
"94213099999","2021-04-30T09:00:00","-17.0166666","128.2166666","205.0","WARMUN, AS","FM-12","4","","","","","","","","","","","","","","","","","","","","","","","","","","","","","","","","","","","","","","","","","","","","","","","","","","","","","","","","","","","","","","","","","","","","","","","","","","","","","","","","","","","","","","","","","","","","","","","","","","","","","","","","","","","SYN004BUFR","","","","","","","","","",""
"94213099999","2021-05-01T09:00:00","-17.0166666","128.2166666","205.0","WARMUN, AS","FM-12","4","","48","85","","","0.03","9","27","","30.02","29.33","21.75","63","050","","1","","","","","","","","","","","","","","","","","","","","","","","","","","","","","","","","","","","","","","","","","","","","","","","","","","","","","","","","","","","","","","","","","","","","","","","","","","","","","","","","","","","","","","","","","","","SYN07094213 11981 00501 10296 20087 39931 40165 50009 60004 70200 333 70000=","","","","","","","","","",""
"94213099999","2021-05-02T09:00:00","-17.0166666","128.2166666","205.0","WARMUN, AS","FM-12","4","","55","87","","","-0.02","0","34","","29.98","29.29","24.85","67","360","","3","","","","","","","","","","","","","","","","","","","","","","","","","","","","","","","","","","","","","","","","","","","","","","","","","","","","","","","","","","","","","","","","","","","","","","","","","","","","","","","","","","","","","","","","","","","SYN004BUFR","","","","","","","","","",""
"94213099999","2021-05-03T09:00:00","-17.0166666","128.2166666","205.0","WARMUN, AS","FM-12","4","","51","87","","","-0.02","1","29","","29.94","29.26","24.85","65","020","","5","","","","","","","","","","","","","","","","","","","","","","","","","","","","","","","","","","","","","","","","","","","","","","","","","","","","","","","","","","","","","","","","","","","","","","","","","","","","","","","","","","","","","","","","","","","SYN07094213 11982 00204 10306 20106 39907 40140 51007 60004 70200 333 70000=","","","","","","","","","",""
"94213099999","2021-05-04T09:00:00","-17.0166666","128.2166666","205.0","WARMUN, AS","FM-12","4","","55","87","","","-0.04","1","33","","29.95","29.26","27.96","67","090","","1","","","","","","","","","","","","","","","","","","","","","","","","","","","","","","","","","","","","","","","","","","","","","","","","","","","","","","","","","","","","","","","","","","","","","","","","","","","","","","","","","","","","","","","","","","","SYN07094213 11983 00901 10307 20127 39908 40142 51015 60004 70200 333 70000=","","","","","","","","","",""
"94213099999","2021-05-05T09:00:00","-17.0166666","128.2166666","205.0","WARMUN, AS","FM-12","4","","48","87","","","-0.03","1","26","","29.93","29.24","24.85","64","130","","5","","","","","","","","","","","","","","","","","","","","","","","","","","","","","","","","","","","","","","","","","","","","","","","","","","","","","","","","","","","","","","","","","","","","","","","","","","","","","","","","","","","","","","","","","","","SYN07094213 11982 01304 10305 20091 39902 40135 51010 60004 70200 333 70000=","","","","","","","","","",""
"94213099999","2021-05-06T09:00:00","-17.0166666","128.2166666","205.0","WARMUN, AS","FM-12","4","","49","85","","","-0.04","1","28","","29.97","29.28","27.96","64","090","","8","","","","","","","","","","","","","","","","","","","","","","","","","","","","","","","","","","","","","","","","","","","","","","","","","","","","","","","","","","","","","","","","","","","","","","","","","","","","","","","","","","","","","","","","","","","SYN004BUFR","","","","","","","","","",""
"94213099999","2021-05-07T09:00:00","-17.0166666","128.2166666","205.0","WARMUN, AS","FM-12","4","","44","86","","||FU","-0.02","0","23","","29.94","29.26","21.75","62","090","","3","","","","","","","","","","","","","","","","","","","","","","","","","","","","","","","","","","","","","","","","","","","","","","","","","","","","","","","","","","","","","","","","","","","","","","","","","","","","","","","","","","","","","","","","","","","SYN004BUFR","","","","","","","","","",""
"94213099999","2021-05-08T09:00:00","-17.0166666","128.2166666","205.0","WARMUN, AS","FM-12","4","","41","86","","","-0.04","1","21","","29.92","29.23","18.64","61","090","","1","","","","","","","","","","","","","","","","","","","","","","","","","","","","","","","","","","","","","","","","","","","","","","","","","","","","","","","","","","","","","","","","","","","","","","","","","","","","","","","","","","","","","","","","","","","SYN07094213 11980 00901 10298 20049 39899 40132 51012 60004 70200 333 70000=","","","","","","","","","",""
"94213099999","2021-05-09T09:00:00","-17.0166666","128.2166666","205.0","WARMUN, AS","FM-12","4","","43","86","","","-0.04","1","22","","29.91","29.22","27.96","62","020","","1","","","","","","","","","","","","","","","","","","","","","","","","","","","","","","","","","","","","","","","","","","","","","","","","","","","","","","","","","","","","","","","","","","","","","","","","","","","","","","","","","","","","","","","","","","","SYN07094213 11983 00201 10300 20062 39896 40129 51014 60004 70200 333 70000=","","","","","","","","","",""
"94213099999","2021-05-10T09:00:00","-17.0166666","128.2166666","205.0","WARMUN, AS","FM-12","4","","42","89","","","-0.04","1","19","","29.96","29.27","24.85","62","090","","8","","","","","","","","","","","","","","","","","","","","","","","","","","","","","","","","","","","","","","","","","","","","","","","","","","","","","","","","","","","","","","","","","","","","","","","","","","","","","","","","","","","","","","","","","","","SYN004BUFR","","","","","","","","","",""
"94213099999","2021-05-11T09:00:00","-17.0166666","128.2166666","205.0","WARMUN, AS","FM-12","4","","51","87","","","-0.03","2","29","","30.00","29.31","21.75","65","090","","8","","","","","","","","","","","","","","","","","","","","","","","","","","","","","","","","","","","","","","","","","","","","","","","","","","","","","","","","","","","","","","","","","","","","","","","","","","","","","","","","","","","","","","","","","","","SYN07094213 11981 00907 10305 20105 39924 40158 52011 60004 70200 333 70000=","","","","","","","","","",""
"94213099999","2021-05-12T09:00:00","-17.0166666","128.2166666","205.0","WARMUN, AS","FM-12","4","","50","84","","","0.02","9","32","","30.02","29.33","24.85","64","130","","8","","","","","","","","","","","","","","","","","","","","","","","","","","","","","","","","","","","","","","","","","","","","","","","","","","","","","","","","","","","","","","","","","","","","","","","","","","","","","","","","","","","","","","","","","","","SYN07094213 11982 01307 10287 20102 39931 40165 50007 60004 70200 333 70000=","","","","","","","","","",""
"94213099999","2021-05-13T09:00:00","-17.0166666","128.2166666","205.0","WARMUN, AS","FM-12","4","","43","82","","","-0.02","0","25","","29.99","29.30","21.75","60","110","","11","","","","","","","","","","","","","","","","","","","","","","","","","","","","","","","","","","","","","","","","","","","","","","","","","","","","","","","","","","","","","","","","","","","","","","","","","","","","","","","","","","","","","","","","","","","SYN004BUFR","","","","","","","","","",""
"94213099999","2021-05-14T09:00:00","-17.0166666","128.2166666","205.0","WARMUN, AS","FM-12","4","","28","80","","","-0.03","2","15","","30.00","29.31","27.96","55","130","","11","","","","","","","","","","","","","","","","","","","","","","","","","","","","","","","","","","","","","","","","","","","","","","","","","","","","","","","","","","","","","","","","","","","","","","","","","","","","","","","","","","","","","","","","","","","SYN07094213 11983 01310 10266 21023 39926 40160 52011 60004 70200 333 70000=","","","","","","","","","",""
"94213099999","2021-05-16T09:00:00","-17.0166666","128.2166666","205.0","WARMUN, AS","FM-12","4","","37","74","","","-0.03","1","26","","30.04","29.35","27.96","55","090","","8","","","","","","","","","","","","","","","","","","","","","","","","","","","","","","","","","","","","","","","","","","","","","","","","","","","","","","","","","","","","","","","","","","","","","","","","","","","","","","","","","","","","","","","","","","","SYN07094213 11983 00907 10235 20028 39939 40173 51009 60000 70200 333 7////=","","","","","","","","","",""
"94213099999","2021-05-17T09:00:00","-17.0166666","128.2166666","205.0","WARMUN, AS","FM-12","4","","36","76","","","0.02","9","23","","30.04","29.35","24.85","55","130","","6","","","","","","","","","","","","","","","","","","","","","","","","","","","","","","","","","","","","","","","","","","","","","","","","","","","","","","","","","","","","","","","","","","","","","","","","","","","","","","","","","","","","","","","","","","","SYN07094213 11982 01305 10245 20023 39938 40172 50008 60004 70200 333 70000=","","","","","","","","","",""
"94213099999","2021-05-18T09:00:00","-17.0166666","128.2166666","205.0","WARMUN, AS","FM-12","4","","23","76","","","-0.01","1","14","","30.02","29.33","24.85","52","050","","14","","","","","","","","","","","","","","","","","","","","","","","","","","","","","","","","","","","","","","","","","","","","","","","","","","","","","","","","","","","","","","","","","","","","","","","","","","","","","","","","","","","","","","","","","","","SYN07094213 11982 00512 10246 21048 39933 40167 51005 60004 70200 333 70000=","","","","","","","","","",""
"94213099999","2021-05-19T09:00:00","-17.0166666","128.2166666","205.0","WARMUN, AS","FM-12","4","","29","79","","","-0.03","0","16","","30.00","29.31","24.85","55","070","","8","","","","","","","","","","","","","","","","","","","","","","","","","","","","","","","","","","","","","","","","","","","","","","","","","","","","","","","","","","","","","","","","","","","","","","","","","","","","","","","","","","","","","","","","","","","SYN004BUFR","","","","","","","","","",""
"94213099999","2021-05-20T09:00:00","-17.0166666","128.2166666","205.0","WARMUN, AS","FM-12","4","","44","84","","","-0.02","1","25","","29.99","29.30","24.85","61","130","","3","","","","","","","","","","","","","","","","","","","","","","","","","","","","","","","","","","","","","","","","","","","","","","","","","","","","","","","","","","","","","","","","","","","","","","","","","","","","","","","","","","","","","","","","","","","SYN07094213 11982 01303 10287 20069 39923 40157 51008 60004 70200 333 70000=","","","","","","","","","",""
"94213099999","2021-05-21T09:00:00","-17.0166666","128.2166666","205.0","WARMUN, AS","FM-12","4","","53","85","","","0.02","9","33","","29.98","29.29","27.96","66","050","","3","","","","","","","","","","","","","","","","","","","","","","","","","","","","","","","","","","","","","","","","","","","","","","","","","","","","","","","","","","","","","","","","","","","","","","","","","","","","","","","","","","","","","","","","","","","SYN07094213 11/83 20503 10293 20116 39918 40152 50006 60004 70300 333 70000=","","","","","","","","","",""
"94213099999","2021-05-22T09:00:00","-17.0166666","128.2166666","205.0","WARMUN, AS","FM-12","4","","45","85","","","0.03","9","25","","29.94","29.25","27.96","62","070","","6","","","","","","","","","","","","","","","","","","","","","","","","","","","","","","","","","","","","","","","","","","","","","","","","","","","","","","","","","","","","","","","","","","","","","","","","","","","","","","","","","","","","","","","","","","","SYN07094213 11983 00705 10295 20074 39905 40138 50011 60004 70200 333 70000=","","","","","","","","","",""
"94213099999","2021-05-23T09:00:00","-17.0166666","128.2166666","205.0","WARMUN, AS","FM-12","4","","53","85","","","0.03","9","33","","29.94","29.25","27.96","66","050","","2","","","","","","","","","","","","","","","","","","","","","","","","","","","","","","","","","","","","","","","","","","","","","","","","","","","","","","","","","","","","","","","","","","","","","","","","","","","","","","","","","","","","","","","","","","","SYN07094213 11983 00502 10293 20116 39906 40139 50011 60004 70200 333 70000=","","","","","","","","","",""
"94213099999","2021-05-24T09:00:00","-17.0166666","128.2166666","205.0","WARMUN, AS","FM-12","4","","55","85","","","-0.04","1","35","","30.00","29.31","27.96","67","050","","9","","","","","","","","","","","","","","","","","","","","","","","","","","","","","","","","","","","","","","","","","","","","","","","","","","","","","","","","","","","","","","","","","","","","","","","","","","","","","","","","","","","","","","","","","","","SYN004BUFR","","","","","","","","","",""
"94213099999","2021-05-25T09:00:00","-17.0166666","128.2166666","205.0","WARMUN, AS","FM-12","4","","57","86","","","-0.03","1","38","","30.00","29.31","27.96","68","180","","1","","","","","","","","","","","","","","","","","","","","","","","","","","","","","","","","","","","","","","","","","","","","","","","","","","","","","","","","","","","","","","","","","","","","","","","","","","","","","","","","","","","","","","","","","","","SYN07094213 11983 01801 10300 20140 39924 40158 51011 60004 70100 333 70000=","","","","","","","","","",""
"94213099999","2021-05-26T09:00:00","-17.0166666","128.2166666","205.0","WARMUN, AS","FM-12","4","","56","86","","","-0.03","2","36","","30.03","29.34","24.85","67","360","","3","","","","","","","","","","","","","","","","","","","","","","","","","","","","","","","","","","","","","","","","","","","","","","","","","","","","","","","","","","","","","","","","","","","","","","","","","","","","","","","","","","","","","","","","","","","SYN004BUFR","","","","","","","","","",""
"94213099999","2021-05-27T09:00:00","-17.0166666","128.2166666","205.0","WARMUN, AS","FM-12","4","","43","81","","","-0.01","0","26","","30.13","29.44","24.85","60","090","","6","","","","","","","","","","","","","","","","","","","","","","","","","","","","","","","","","","","","","","","","","","","","","","","","","","","","","","","","","","","","","","","","","","","","","","","","","","","","","","","","","","","","","","","","","","","SYN004BUFR","","","","","","","","","",""
"94213099999","2021-05-29T09:00:00","-17.0166666","128.2166666","205.0","WARMUN, AS","FM-12","4","","40","77","","","-0.06","1","27","","30.09","29.39","24.85","57","090","","2","","","","","","","","","","","","","","","","","","","","","","","","","","","","","","","","","","","","","","","","","","","","","","","","","","","","","","","","","","","","","","","","","","","","","","","","","","","","","","","","","","","","","","","","","","","SYN004BUFR","","","","","","","","","",""
"94213099999","2021-05-30T09:00:00","-17.0166666","128.2166666","205.0","WARMUN, AS","FM-12","4","","39","77","","","-0.04","2","25","","30.00","29.31","24.85","57","020","","14","","","","","","","","","","","","","","","","","","","","","","","","","","","","","","","","","","","","","","","","","","","","","","","","","","","","","","","","","","","","","","","","","","","","","","","","","","","","","","","","","","","","","","","","","","","SYN07094213 11982 00212 10252 20039 39924 40158 52012 60004 70200 333 70000=","","","","","","","","","",""
"94213099999","2021-05-31T09:00:00","-17.0166666","128.2166666","205.0","WARMUN, AS","FM-12","4","","35","79","","","0.00","9","20","","29.94","29.26","24.85","56","020","","14","","","","","","","","","","","","","","","","","","","","","","","","","","","","","","","","","","","","","","","","","","","","","","","","","","","","","","","","","","","","","","","","","","","","","","","","","","","","","","","","","","","","","","","","","","","SYN07094213 11982 00212 10261 20015 39907 40140 50001 60004 70200 333 70000=","","","","","","","","","",""
"94213099999","2021-06-01T09:00:00","-17.0166666","128.2166666","205.0","WARMUN, AS","FM-12","4","","48","81","","","-0.03","0","31","","29.96","29.27","24.85","62","360","","2","","","","","","","","","","","","","","","","","","","","","","","","","","","","","","","","","","","","","","","","","","","","","","","","","","","","","","","","","","","","","","","","","","","","","","","","","","","","","","","","","","","","","","","","","","","SYN004BUFR","","","","","","","","","",""
"94213099999","2021-06-03T09:00:00","-17.0166666","128.2166666","205.0","WARMUN, AS","FM-12","4","","49","82","","","-0.04","1","32","","30.03","29.33","18.64","63","230","","6","","","","","","","","","","","","","","","","","","","","","","","","","","","","","","","","","","","","","","","","","","","","","","","","","","","","","","","","","","","","","","","","","","","","","","","","","","","","","","","","","","","","","","","","","","","SYN004BUFR","","","","","","","","","",""
"94213099999","2021-06-04T09:00:00","-17.0166666","128.2166666","205.0","WARMUN, AS","FM-12","4","","47","82","","","-0.03","1","29","","30.06","29.36","21.75","62","090","","9","","","","","","","","","","","","","","","","","","","","","","","","","","","","","","","","","","","","","","","","","","","","","","","","","","","","","","","","","","","","","","","","","","","","","","","","","","","","","","","","","","","","","","","","","","","SYN07094213 11/81 40908 10276 20081 39943 40180 51010 60004 70311 333 70000=","","","","","","","","","",""
"94213099999","2021-06-05T09:00:00","-17.0166666","128.2166666","205.0","WARMUN, AS","FM-12","4","","41","74","","","-0.04","1","30","","30.11","29.41","12.43","56","130","","9","","","","","","","","","","","","","","","","","","","","","","","","","","","","","","","","","","","","","","","","","","","","","","","","","","","","","","","","","","","","","","","","","","","","","","","","","","","","","","","","","","","","","","","","","","","SYN004BUFR","","","","","","","","","",""
"94213099999","2021-06-06T09:00:00","-17.0166666","128.2166666","205.0","WARMUN, AS","FM-12","4","","39","76","","","0.02","9","27","","30.07","29.37","27.96","57","090","","8","","","","","","","","","","","","","","","","","","","","","","","","","","","","","","","","","","","","","","","","","","","","","","","","","","","","","","","","","","","","","","","","","","","","","","","","","","","","","","","","","","","","","","","","","","","SYN07094213 11983 00907 10243 20039 39947 40184 50007 60004 70200 333 70000=","","","","","","","","","",""
"94213099999","2021-06-07T09:00:00","-17.0166666","128.2166666","205.0","WARMUN, AS","FM-12","4","","36","77","","","-0.02","0","23","","30.04","29.34","24.85","56","050","","5","","","","","","","","","","","","","","","","","","","","","","","","","","","","","","","","","","","","","","","","","","","","","","","","","","","","","","","","","","","","","","","","","","","","","","","","","","","","","","","","","","","","","","","","","","","SYN004BUFR","","","","","","","","","",""
"94213099999","2021-06-08T09:00:00","-17.0166666","128.2166666","205.0","WARMUN, AS","FM-12","4","","47","80","","","-0.03","1","31","","30.04","29.34","24.85","61","180","","2","","","","","","","","","","","","","","","","","","","","","","","","","","","","","","","","","","","","","","","","","","","","","","","","","","","","","","","","","","","","","","","","","","","","","","","","","","","","","","","","","","","","","","","","","","","SYN07094213 11982 01802 10267 20083 39935 40172 51010 60004 70200 333 70000=","","","","","","","","","",""
"94213099999","2021-06-09T09:00:00","-17.0166666","128.2166666","205.0","WARMUN, AS","FM-12","4","","33","77","","","-0.06","2","19","","30.05","29.35","24.85","55","130","","8","","","","","","","","","","","","","","","","","","","","","","","","","","","","","","","","","","","","","","","","","","","","","","","","","","","","","","","","","","","","","","","","","","","","","","","","","","","","","","","","","","","","","","","","","","","SYN07094213 11982 01307 10252 20003 39939 40176 52019 60004 70200 333 70000=","","","","","","","","","",""
"94213099999","2021-06-10T09:00:00","-17.0166666","128.2166666","205.0","WARMUN, AS","FM-12","4","","38","71","","||HZ","-0.04","2","31","","30.06","29.36","21.75","54","130","","7","","","","","","","","","","","","","","","","","","","","","","","","","","","","","","","","","","","","","","","","","","","","","","","","","","","","","","","","","","","","","","","","","","","","","","","","","","","","","","","","","","","","","","","","","","","SYN004BUFR","","","","","","","","","",""
"94213099999","2021-06-11T09:00:00","-17.0166666","128.2166666","205.0","WARMUN, AS","FM-12","4","","30","70","","","-0.04","1","22","","30.04","29.34","24.85","51","050","","1","","","","","","","","","","","","","","","","","","","","","","","","","","","","","","","","","","","","","","","","","","","","","","","","","","","","","","","","","","","","","","","","","","","","","","","","","","","","","","","","","","","","","","","","","","","SYN004BUFR","","","","","","","","","",""
"94213099999","2021-06-12T09:00:00","-17.0166666","128.2166666","205.0","WARMUN, AS","FM-12","4","","24","73","","","-0.04","2","16","","30.05","29.35","24.85","51","050","","7","","","","","","","","","","","","","","","","","","","","","","","","","","","","","","","","","","","","","","","","","","","","","","","","","","","","","","","","","","","","","","","","","","","","","","","","","","","","","","","","","","","","","","","","","","","SYN004BUFR","","","","","","","","","",""
"94213099999","2021-06-13T09:00:00","-17.0166666","128.2166666","205.0","WARMUN, AS","FM-12","4","","42","79","","","-0.01","0","27","","29.99","29.29","24.85","59","360","","0","","","","","","","","","","","","","","","","","","","","","","","","","","","","","","","","","","","","","","","","","","","","","","","","","","","","","","","","","","","","","","","","","","","","","","","","","","","","","","","","","","","","","","","","","","","SYN004BUFR","","","","","","","","","",""
"94213099999","2021-06-14T09:00:00","-17.0166666","128.2166666","205.0","WARMUN, AS","FM-12","4","","36","81","","","-0.02","1","20","","29.94","29.24","24.85","57","050","","1","","","","","","","","","","","","","","","","","","","","","","","","","","","","","","","","","","","","","","","","","","","","","","","","","","","","","","","","","","","","","","","","","","","","","","","","","","","","","","","","","","","","","","","","","","","SYN004BUFR","","","","","","","","","",""
"94213099999","2021-06-15T09:00:00","-17.0166666","128.2166666","205.0","WARMUN, AS","FM-12","4","","54","82","","","-0.04","1","38","","29.94","29.24","24.85","65","180","","6","","","","","","","","","","","","","","","","","","","","","","","","","","","","","","","","","","","","","","","","","","","","","","","","","","","","","","","","","","","","","","","","","","","","","","","","","","","","","","","","","","","","","","","","","","","SYN004BUFR","","","","","","","","","",""
"94213099999","2021-06-16T09:00:00","-17.0166666","128.2166666","205.0","WARMUN, AS","FM-12","4","","43","80","","","-0.04","1","27","","30.01","29.31","24.85","60","180","","1","","","","","","","","","","","","","","","","","","","","","","","","","","","","","","","","","","","","","","","","","","","","","","","","","","","","","","","","","","","","","","","","","","","","","","","","","","","","","","","","","","","","","","","","","","","SYN004BUFR","","","","","","","","","",""
"94213099999","2021-06-17T09:00:00","-17.0166666","128.2166666","205.0","WARMUN, AS","FM-12","4","","36","77","","","-0.04","1","23","","30.07","29.37","21.75","56","230","","5","","","","","","","","","","","","","","","","","","","","","","","","","","","","","","","","","","","","","","","","","","","","","","","","","","","","","","","","","","","","","","","","","","","","","","","","","","","","","","","","","","","","","","","","","","","SYN07094213 11981 02304 10248 20025 39946 40183 51014 60004 70200 333 70000=","","","","","","","","","",""
"94213099999","2021-06-18T09:00:00","-17.0166666","128.2166666","205.0","WARMUN, AS","FM-12","4","","37","78","","","-0.04","1","23","","30.12","29.42","24.85","57","090","","3","","","","","","","","","","","","","","","","","","","","","","","","","","","","","","","","","","","","","","","","","","","","","","","","","","","","","","","","","","","","","","","","","","","","","","","","","","","","","","","","","","","","","","","","","","","SYN07094213 11982 00903 10253 20028 39962 40199 51012 60004 70300 333 70000=","","","","","","","","","",""
"94213099999","2021-06-19T09:00:00","-17.0166666","128.2166666","205.0","WARMUN, AS","FM-12","4","","31","75","","","-0.04","2","19","","30.11","29.41","24.85","53","160","","1","","","","","","","","","","","","","","","","","","","","","","","","","","","","","","","","","","","","","","","","","","","","","","","","","","","","","","","","","","","","","","","","","","","","","","","","","","","","","","","","","","","","","","","","","","","SYN07094213 11982 01601 10240 21007 39959 40196 52014 60004 70111 333 70000=","","","","","","","","","",""
"94213099999","2021-06-20T09:00:00","-17.0166666","128.2166666","205.0","WARMUN, AS","FM-12","4","","26","72","","","-0.01","0","18","","30.08","29.38","24.85","51","090","","6","","","","","","","","","","","","","","","","","","","","","","","","","","","","","","","","","","","","","","","","","","","","","","","","","","","","","","","","","","","","","","","","","","","","","","","","","","","","","","","","","","","","","","","","","","","SYN004BUFR","","","","","","","","","",""
"94213099999","2021-06-21T09:00:00","-17.0166666","128.2166666","205.0","WARMUN, AS","FM-12","4","","28","76","","","-0.03","1","17","","30.05","29.35","27.96","53","360","","6","","","","","","","","","","","","","","","","","","","","","","","","","","","","","","","","","","","","","","","","","","","","","","","","","","","","","","","","","","","","","","","","","","","","","","","","","","","","","","","","","","","","","","","","","","","SYN004BUFR","","","","","","","","","",""
"94213099999","2021-06-22T09:00:00","-17.0166666","128.2166666","205.0","WARMUN, AS","FM-12","4","","44","78","","||HZ","0.03","9","29","","29.98","29.28","18.64","59","360","","1","","","","","","","","","","","","","","","","","","","","","","","","","","","","","","","","","","","","","","","","","","","","","","","","","","","","","","","","","","","","","","","","","","","","","","","","","","","","","","","","","","","","","","","","","","","SYN07094213 11980 03601 10258 20065 39916 40152 50009 60004 70500 333 70000=","","","","","","","","","",""
"94213099999","2021-06-26T09:00:00","-17.0166666","128.2166666","205.0","WARMUN, AS","FM-12","4","","41","73","","","-0.03","0","32","","30.11","29.41","24.85","56","090","","1","","","","","","","","","","","","","","","","","","","","","","","","","","","","","","","","","","","","","","","","","","","","","","","","","","","","","","","","","","","","","","","","","","","","","","","","","","","","","","","","","","","","","","","","","","","SYN004BUFR","","","","","","","","","",""
"94213099999","2021-06-27T09:00:00","-17.0166666","128.2166666","205.0","WARMUN, AS","FM-12","4","","37","70","","","-0.04","1","30","","30.15","29.45","24.85","53","090","","2","","","","","","","","","","","","","","","","","","","","","","","","","","","","","","","","","","","","","","","","","","","","","","","","","","","","","","","","","","","","","","","","","","","","","","","","","","","","","","","","","","","","","","","","","","","SYN004BUFR","","","","","","","","","",""
"94213099999","2021-06-28T09:00:00","-17.0166666","128.2166666","205.0","WARMUN, AS","FM-12","4","","38","74","","","-0.02","0","27","","30.09","29.39","27.96","55","020","","2","","","","","","","","","","","","","","","","","","","","","","","","","","","","","","","","","","","","","","","","","","","","","","","","","","","","","","","","","","","","","","","","","","","","","","","","","","","","","","","","","","","","","","","","","","","SYN004BUFR","","","","","","","","","",""
"94213099999","2021-06-29T09:00:00","-17.0166666","128.2166666","205.0","WARMUN, AS","FM-12","4","","46","76","","","-0.02","0","35","","30.06","29.36","24.85","59","340","","6","","","","","","","","","","","","","","","","","","","","","","","","","","","","","","","","","","","","","","","","","","","","","","","","","","","","","","","","","","","","","","","","","","","","","","","","","","","","","","","","","","","","","","","","","","","SYN004BUFR","","","","","","","","","",""
"94213099999","2021-06-30T09:00:00","-17.0166666","128.2166666","205.0","WARMUN, AS","FM-12","4","","43","81","","","-0.02","0","26","","30.04","29.34","24.85","60","050","","3","","","","","","","","","","","","","","","","","","","","","","","","","","","","","","","","","","","","","","","","","","","","","","","","","","","","","","","","","","","","","","","","","","","","","","","","","","","","","","","","","","","","","","","","","","","SYN004BUFR","","","","","","","","","",""
"94213099999","2021-07-01T09:00:00","-17.0166666","128.2166666","205.0","WARMUN, AS","FM-12","4","","38","83","","","-0.04","0","20","","30.08","29.37","24.85","59","090","","5","","","","","","","","","","","","","","","","","","","","","","","","","","","","","","","","","","","","","","","","","","","","","","","","","","","","","","","","","","","","","","","","","","","","","","","","","","","","","","","","","","","","","","","","","","","SYN004BUFR","","","","","","","","","",""
"94213099999","2021-07-02T09:00:00","-17.0166666","128.2166666","205.0","WARMUN, AS","FM-12","4","","32","78","","","-0.03","0","18","","30.06","29.36","27.96","55","050","","13","","","","","","","","","","","","","","","","","","","","","","","","","","","","","","","","","","","","","","","","","","","","","","","","","","","","","","","","","","","","","","","","","","","","","","","","","","","","","","","","","","","","","","","","","","","SYN004BUFR","","","","","","","","","",""
"94213099999","2021-07-03T09:00:00","-17.0166666","128.2166666","205.0","WARMUN, AS","FM-12","4","","26","75","","","-0.03","1","16","","30.09","29.39","27.96","52","090","","11","","","","","","","","","","","","","","","","","","","","","","","","","","","","","","","","","","","","","","","","","","","","","","","","","","","","","","","","","","","","","","","","","","","","","","","","","","","","","","","","","","","","","","","","","","","SYN004BUFR","","","","","","","","","",""
"94213099999","2021-07-04T09:00:00","-17.0166666","128.2166666","205.0","WARMUN, AS","FM-12","4","","32","69","","","-0.04","0","25","","30.10","29.40","27.96","51","090","","17","","","","","","","","","","","","","","","","","","","","","","","","","","","","","","","","","","","","","","","","","","","","","","","","","","","","","","","","","","","","","","","","","","","","","","","","","","","","","","","","","","","","","","","","","","","SYN004BUFR","","","","","","","","","",""
"94213099999","2021-07-05T09:00:00","-17.0166666","128.2166666","205.0","WARMUN, AS","FM-12","4","","27","67","","","-0.03","0","22","","30.07","29.37","27.96","49","090","","6","","","","","","","","","","","","","","","","","","","","","","","","","","","","","","","","","","","","","","","","","","","","","","","","","","","","","","","","","","","","","","","","","","","","","","","","","","","","","","","","","","","","","","","","","","","SYN004BUFR","","","","","","","","","",""
"94213099999","2021-07-06T09:00:00","-17.0166666","128.2166666","205.0","WARMUN, AS","FM-12","4","","27","70","","","-0.04","1","20","","30.01","29.31","27.96","50","050","","3","","","","","","","","","","","","","","","","","","","","","","","","","","","","","","","","","","","","","","","","","","","","","","","","","","","","","","","","","","","","","","","","","","","","","","","","","","","","","","","","","","","","","","","","","","","SYN07094213 11/83 10503 10210 21028 39927 40164 51013 60004 70300 333 70000=","","","","","","","","","",""
"94213099999","2021-07-07T09:00:00","-17.0166666","128.2166666","205.0","WARMUN, AS","FM-12","4","","42","74","","","-0.05","1","31","","29.99","29.29","27.96","57","310","","5","","","","","","","","","","","","","","","","","","","","","","","","","","","","","","","","","","","","","","","","","","","","","","","","","","","","","","","","","","","","","","","","","","","","","","","","","","","","","","","","","","","","","","","","","","","SYN07094213 11983 03104 10233 20053 39920 40157 51016 60004 70200 333 70000=","","","","","","","","","",""
"94213099999","2021-07-08T09:00:00","-17.0166666","128.2166666","205.0","WARMUN, AS","FM-12","4","","50","79","","","-0.04","1","36","","29.97","29.27","18.64","62","000","","0","","","","","","","","","","","","","","","","","","","","","","","","","","","","","","","","","","","","","","","","","","","","","","","","","","","","","","","","","","","","","","","","","","","","","","","","","","","","","","","","","","","","","","","","","","","SYN07094213 11/80 10000 10260 20098 39912 40149 51013 60004 70200 333 70000=","","","","","","","","","",""
"94213099999","2021-07-09T09:00:00","-17.0166666","128.2166666","205.0","WARMUN, AS","FM-12","4","","35","80","","","-0.04","1","20","","29.99","29.29","27.96","57","310","","2","","","","","","","","","","","","","","","","","","","","","","","","","","","","","","","","","","","","","","","","","","","","","","","","","","","","","","","","","","","","","","","","","","","","","","","","","","","","","","","","","","","","","","","","","","","SYN07094213 11/83 13102 10264 20018 39919 40156 51014 60004 70200 333 70000=","","","","","","","","","",""
"94213099999","2021-07-10T09:00:00","-17.0166666","128.2166666","205.0","WARMUN, AS","FM-12","4","","39","81","","","-0.04","2","22","","30.00","29.30","21.75","58","050","","3","","","","","","","","","","","","","","","","","","","","","","","","","","","","","","","","","","","","","","","","","","","","","","","","","","","","","","","","","","","","","","","","","","","","","","","","","","","","","","","","","","","","","","","","","","","SYN07094213 11981 00503 10275 20037 39922 40159 52014 60004 70200 333 70000=","","","","","","","","","",""
"94213099999","2021-07-11T09:00:00","-17.0166666","128.2166666","205.0","WARMUN, AS","FM-12","4","","31","81","","","-0.03","1","16","","30.04","29.34","24.85","56","050","","5","","","","","","","","","","","","","","","","","","","","","","","","","","","","","","","","","","","","","","","","","","","","","","","","","","","","","","","","","","","","","","","","","","","","","","","","","","","","","","","","","","","","","","","","","","","SYN07094213 11982 00504 10272 21008 39936 40173 51009 60004 70200 333 70000=","","","","","","","","","",""
"94213099999","2021-07-12T09:00:00","-17.0166666","128.2166666","205.0","WARMUN, AS","FM-12","4","","38","82","","","-0.04","2","21","","30.02","29.32","24.85","58","360","","3","","","","","","","","","","","","","","","","","","","","","","","","","","","","","","","","","","","","","","","","","","","","","","","","","","","","","","","","","","","","","","","","","","","","","","","","","","","","","","","","","","","","","","","","","","","SYN07094213 11982 03603 10279 20034 39929 40166 52012 60004 70200 333 70000=","","","","","","","","","",""
"94213099999","2021-07-13T09:00:00","-17.0166666","128.2166666","205.0","WARMUN, AS","FM-12","4","","35","80","","","0.03","9","20","","29.98","29.28","24.85","57","050","","7","","","","","","","","","","","","","","","","","","","","","","","","","","","","","","","","","","","","","","","","","","","","","","","","","","","","","","","","","","","","","","","","","","","","","","","","","","","","","","","","","","","","","","","","","","","SYN07094213 11982 00506 10267 20017 39915 40152 50011 60004 70200 333 70000=","","","","","","","","","",""
"94213099999","2021-07-14T09:00:00","-17.0166666","128.2166666","205.0","WARMUN, AS","FM-12","4","","45","76","","","-0.02","2","33","","29.94","29.24","24.85","59","360","","0","","","","","","","","","","","","","","","","","","","","","","","","","","","","","","","","","","","","","","","","","","","","","","","","","","","","","","","","","","","","","","","","","","","","","","","","","","","","","","","","","","","","","","","","","","","SYN004BUFR","","","","","","","","","",""
"94213099999","2021-07-15T09:00:00","-17.0166666","128.2166666","205.0","WARMUN, AS","FM-12","4","","42","83","","","-0.03","0","23","","29.94","29.24","24.85","60","090","","2","","","","","","","","","","","","","","","","","","","","","","","","","","","","","","","","","","","","","","","","","","","","","","","","","","","","","","","","","","","","","","","","","","","","","","","","","","","","","","","","","","","","","","","","","","","SYN004BUFR","","","","","","","","","",""
"94213099999","2021-07-16T09:00:00","-17.0166666","128.2166666","205.0","WARMUN, AS","FM-12","4","","47","79","","","-0.06","1","33","","30.02","29.32","27.96","61","180","","7","","","","","","","","","","","","","","","","","","","","","","","","","","","","","","","","","","","","","","","","","","","","","","","","","","","","","","","","","","","","","","","","","","","","","","","","","","","","","","","","","","","","","","","","","","","SYN004BUFR","","","","","","","","","",""
"94213099999","2021-07-17T09:00:00","-17.0166666","128.2166666","205.0","WARMUN, AS","FM-12","4","","37","76","","","-0.03","1","25","","30.02","29.32","27.96","56","270","","5","","","","","","","","","","","","","","","","","","","","","","","","","","","","","","","","","","","","","","","","","","","","","","","","","","","","","","","","","","","","","","","","","","","","","","","","","","","","","","","","","","","","","","","","","","","SYN004BUFR","","","","","","","","","",""
"94213099999","2021-07-18T09:00:00","-17.0166666","128.2166666","205.0","WARMUN, AS","FM-12","4","","39","79","","","-0.03","1","24","","30.00","29.30","27.96","58","050","","2","","","","","","","","","","","","","","","","","","","","","","","","","","","","","","","","","","","","","","","","","","","","","","","","","","","","","","","","","","","","","","","","","","","","","","","","","","","","","","","","","","","","","","","","","","","SYN004BUFR","","","","","","","","","",""
"94213099999","2021-07-19T09:00:00","-17.0166666","128.2166666","205.0","WARMUN, AS","FM-12","4","","31","80","","","-0.02","1","17","","30.04","29.34","27.96","55","090","","1","","","","","","","","","","","","","","","","","","","","","","","","","","","","","","","","","","","","","","","","","","","","","","","","","","","","","","","","","","","","","","","","","","","","","","","","","","","","","","","","","","","","","","","","","","","SYN004BUFR","","","","","","","","","",""
"94213099999","2021-07-20T09:00:00","-17.0166666","128.2166666","205.0","WARMUN, AS","FM-12","4","","18","80","","","-0.03","1","10","","30.07","29.37","27.96","52","050","","5","","","","","","","","","","","","","","","","","","","","","","","","","","","","","","","","","","","","","","","","","","","","","","","","","","","","","","","","","","","","","","","","","","","","","","","","","","","","","","","","","","","","","","","","","","","SYN004BUFR","","","","","","","","","",""
"94213099999","2021-07-22T09:00:00","-17.0166666","128.2166666","205.0","WARMUN, AS","FM-12","4","","35","81","","","","","19","","29.99","29.29","27.96","57","090","","1","","","","","","","","","","","","","","","","","","","","","","","","","","","","","","","","","","","","","","","","","","","","","","","","","","","","","","","","","","","","","","","","","","","","","","","","","","","","","","","","","","","","","","","","","","","SYN004BUFR","","","","","","","","","",""
"94213099999","2021-07-23T09:00:00","-17.0166666","128.2166666","205.0","WARMUN, AS","FM-12","4","","41","83","","","-0.03","1","23","","29.95","29.25","27.96","60","130","","1","","","","","","","","","","","","","","","","","","","","","","","","","","","","","","","","","","","","","","","","","","","","","","","","","","","","","","","","","","","","","","","","","","","","","","","","","","","","","","","","","","","","","","","","","","","SYN004BUFR","","","","","","","","","",""
"94213099999","2021-07-24T09:00:00","-17.0166666","128.2166666","205.0","WARMUN, AS","FM-12","4","","44","84","","","-0.05","1","25","","30.01","29.31","27.96","61","090","","14","","","","","","","","","","","","","","","","","","","","","","","","","","","","","","","","","","","","","","","","","","","","","","","","","","","","","","","","","","","","","","","","","","","","","","","","","","","","","","","","","","","","","","","","","","","SYN004BUFR","","","","","","","","","",""
"94213099999","2021-07-25T09:00:00","-17.0166666","128.2166666","205.0","WARMUN, AS","FM-12","4","","40","81","","","-0.03","1","24","","30.04","29.34","27.96","59","230","","1","","","","","","","","","","","","","","","","","","","","","","","","","","","","","","","","","","","","","","","","","","","","","","","","","","","","","","","","","","","","","","","","","","","","","","","","","","","","","","","","","","","","","","","","","","","SYN004BUFR","","","","","","","","","",""
"94213099999","2021-07-26T09:00:00","-17.0166666","128.2166666","205.0","WARMUN, AS","FM-12","4","","33","81","","","-0.05","2","18","","30.01","29.31","27.96","56","050","","5","","","","","","","","","","","","","","","","","","","","","","","","","","","","","","","","","","","","","","","","","","","","","","","","","","","","","","","","","","","","","","","","","","","","","","","","","","","","","","","","","","","","","","","","","","","SYN004BUFR","","","","","","","","","",""
"94213099999","2021-07-27T09:00:00","-17.0166666","128.2166666","205.0","WARMUN, AS","FM-12","4","","49","83","","","-0.04","1","31","","29.99","29.29","18.64","63","130","","1","","","","","","","","","","","","","","","","","","","","","","","","","","","","","","","","","","","","","","","","","","","","","","","","","","","","","","","","","","","","","","","","","","","","","","","","","","","","","","","","","","","","","","","","","","","SYN07094213 11/80 21301 10286 20097 39920 40157 51012 60004 70222 333 70000=","","","","","","","","","",""
"94213099999","2021-07-28T09:00:00","-17.0166666","128.2166666","205.0","WARMUN, AS","FM-12","4","","59","86","","","-0.03","2","40","","29.99","29.29","18.64","69","130","","6","","","","","","","","","","","","","","","","","","","","","","","","","","","","","","","","","","","","","","","","","","","","","","","","","","","","","","","","","","","","","","","","","","","","","","","","","","","","","","","","","","","","","","","","","","","SYN004BUFR","","","","","","","","","",""
"94213099999","2021-07-29T09:00:00","-17.0166666","128.2166666","205.0","WARMUN, AS","FM-12","4","","51","87","","","-0.04","2","29","","29.99","29.29","27.96","65","230","","1","","","","","","","","","","","","","","","","","","","","","","","","","","","","","","","","","","","","","","","","","","","","","","","","","","","","","","","","","","","","","","","","","","","","","","","","","","","","","","","","","","","","","","","","","","","SYN07094213 11983 02301 10306 20104 39919 40156 52014 60004 70222 333 70000=","","","","","","","","","",""
"94213099999","2021-07-30T09:00:00","-17.0166666","128.2166666","205.0","WARMUN, AS","FM-12","4","","54","86","","","-0.04","1","33","","29.98","29.28","27.96","66","230","","1","","","","","","","","","","","","","","","","","","","","","","","","","","","","","","","","","","","","","","","","","","","","","","","","","","","","","","","","","","","","","","","","","","","","","","","","","","","","","","","","","","","","","","","","","","","SYN07094213 11983 02301 10302 20120 39915 40152 51013 60004 70222 333 70000=","","","","","","","","","",""
"94213099999","2021-07-31T09:00:00","-17.0166666","128.2166666","205.0","WARMUN, AS","FM-12","4","","54","87","","","-0.02","0","33","","29.98","29.28","27.96","67","180","","1","","","","","","","","","","","","","","","","","","","","","","","","","","","","","","","","","","","","","","","","","","","","","","","","","","","","","","","","","","","","","","","","","","","","","","","","","","","","","","","","","","","","","","","","","","","SYN004BUFR","","","","","","","","","",""
"94213099999","2021-08-01T09:00:00","-17.0166666","128.2166666","205.0","WARMUN, AS","FM-12","4","","56","86","","","-0.03","0","36","","29.97","29.28","24.85","67","270","","6","","","","","","","","","","","","","","","","","","","","","","","","","","","","","","","","","","","","","","","","","","","","","","","","","","","","","","","","","","","","","","","","","","","","","","","","","","","","","","","","","","","","","","","","","","","SYN004BUFR","","","","","","","","","",""
"94213099999","2021-08-02T09:00:00","-17.0166666","128.2166666","205.0","WARMUN, AS","FM-12","4","","51","86","","","-0.04","1","30","","29.97","29.27","27.96","65","230","","1","","","","","","","","","","","","","","","","","","","","","","","","","","","","","","","","","","","","","","","","","","","","","","","","","","","","","","","","","","","","","","","","","","","","","","","","","","","","","","","","","","","","","","","","","","","SYN004BUFR","","","","","","","","","",""
"94213099999","2021-08-03T09:00:00","-17.0166666","128.2166666","205.0","WARMUN, AS","FM-12","4","","36","79","","","-0.06","1","22","","30.09","29.39","27.96","57","130","","1","","","","","","","","","","","","","","","","","","","","","","","","","","","","","","","","","","","","","","","","","","","","","","","","","","","","","","","","","","","","","","","","","","","","","","","","","","","","","","","","","","","","","","","","","","","SYN07094213 11/83 41301 10260 20024 39953 40189 51020 60004 70122 333 70000=","","","","","","","","","",""
"94213099999","2021-08-04T09:00:00","-17.0166666","128.2166666","205.0","WARMUN, AS","FM-12","4","","31","76","","","-0.04","1","19","","30.15","29.46","27.96","54","130","","1","","","","","","","","","","","","","","","","","","","","","","","","","","","","","","","","","","","","","","","","","","","","","","","","","","","","","","","","","","","","","","","","","","","","","","","","","","","","","","","","","","","","","","","","","","","SYN004BUFR","","","","","","","","","",""
"94213099999","2021-08-05T09:00:00","-17.0166666","128.2166666","205.0","WARMUN, AS","FM-12","4","","27","72","","","-0.03","1","18","","30.19","29.49","27.96","51","090","","1","","","","","","","","","","","","","","","","","","","","","","","","","","","","","","","","","","","","","","","","","","","","","","","","","","","","","","","","","","","","","","","","","","","","","","","","","","","","","","","","","","","","","","","","","","","SYN004BUFR","","","","","","","","","",""
"94213099999","2021-08-06T09:00:00","-17.0166666","128.2166666","205.0","WARMUN, AS","FM-12","4","","24","72","","","-0.04","0","16","","30.22","29.52","27.96","50","130","","5","","","","","","","","","","","","","","","","","","","","","","","","","","","","","","","","","","","","","","","","","","","","","","","","","","","","","","","","","","","","","","","","","","","","","","","","","","","","","","","","","","","","","","","","","","","SYN004BUFR","","","","","","","","","",""
"94213099999","2021-08-07T09:00:00","-17.0166666","128.2166666","205.0","WARMUN, AS","FM-12","4","","27","72","","","-0.03","0","18","","30.21","29.51","27.96","51","050","","5","","","","","","","","","","","","","","","","","","","","","","","","","","","","","","","","","","","","","","","","","","","","","","","","","","","","","","","","","","","","","","","","","","","","","","","","","","","","","","","","","","","","","","","","","","","SYN004BUFR","","","","","","","","","",""
"94213099999","2021-08-08T09:00:00","-17.0166666","128.2166666","205.0","WARMUN, AS","FM-12","4","","30","74","","","-0.02","0","20","","30.15","29.45","27.96","53","090","","5","","","","","","","","","","","","","","","","","","","","","","","","","","","","","","","","","","","","","","","","","","","","","","","","","","","","","","","","","","","","","","","","","","","","","","","","","","","","","","","","","","","","","","","","","","","SYN004BUFR","","","","","","","","","",""
"94213099999","2021-08-09T09:00:00","-17.0166666","128.2166666","205.0","WARMUN, AS","FM-12","4","","53","78","","","-0.02","0","41","","30.08","29.39","27.96","63","130","","2","","","","","","","","","","","","","","","","","","","","","","","","","","","","","","","","","","","","","","","","","","","","","","","","","","","","","","","","","","","","","","","","","","","","","","","","","","","","","","","","","","","","","","","","","","","SYN004BUFR","","","","","","","","","",""
"94213099999","2021-08-10T09:00:00","-17.0166666","128.2166666","205.0","WARMUN, AS","FM-12","4","","51","81","","","-0.03","1","35","","30.01","29.31","27.96","63","090","","1","","","","","","","","","","","","","","","","","","","","","","","","","","","","","","","","","","","","","","","","","","","","","","","","","","","","","","","","","","","","","","","","","","","","","","","","","","","","","","","","","","","","","","","","","","","SYN004BUFR","","","","","","","","","",""
"94213099999","2021-08-12T09:00:00","-17.0166666","128.2166666","205.0","WARMUN, AS","FM-12","4","","44","84","","","-0.04","1","24","","30.07","29.38","27.96","61","130","","1","","","","","","","","","","","","","","","","","","","","","","","","","","","","","","","","","","","","","","","","","","","","","","","","","","","","","","","","","","","","","","","","","","","","","","","","","","","","","","","","","","","","","","","","","","","SYN07094213 11983 01301 10290 20065 39948 40184 51013 60004 70200 333 70000=","","","","","","","","","",""
"94213099999","2021-08-13T09:00:00","-17.0166666","128.2166666","205.0","WARMUN, AS","FM-12","4","","39","84","","","","","20","","30.09","29.39","18.64","60","130","","9","","","","","","","","","","","","","","","","","","","","","","","","","","","","","","","","","","","","","","","","","","","","","","","","","","","","","","","","","","","","","","","","","","","","","","","","","","","","","","","","","","","","","","","","","","","SYN004BUFR","","","","","","","","","",""
"94213099999","2021-08-14T09:00:00","-17.0166666","128.2166666","205.0","WARMUN, AS","FM-12","4","","38","83","","","-0.04","1","20","","30.09","29.39","21.75","59","090","","6","","","","","","","","","","","","","","","","","","","","","","","","","","","","","","","","","","","","","","","","","","","","","","","","","","","","","","","","","","","","","","","","","","","","","","","","","","","","","","","","","","","","","","","","","","","SYN07094213 11981 00905 10284 20031 39954 40190 51014 60004 70200 333 70000=","","","","","","","","","",""
"94213099999","2021-08-15T09:00:00","-17.0166666","128.2166666","205.0","WARMUN, AS","FM-12","4","","41","85","","","-0.06","1","21","","30.12","29.43","21.75","61","090","","6","","","","","","","","","","","","","","","","","","","","","","","","","","","","","","","","","","","","","","","","","","","","","","","","","","","","","","","","","","","","","","","","","","","","","","","","","","","","","","","","","","","","","","","","","","","SYN004BUFR","","","","","","","","","",""
"94213099999","2021-08-16T09:00:00","-17.0166666","128.2166666","205.0","WARMUN, AS","FM-12","4","","36","84","","","-0.06","1","18","","30.16","29.46","24.85","59","130","","9","","","","","","","","","","","","","","","","","","","","","","","","","","","","","","","","","","","","","","","","","","","","","","","","","","","","","","","","","","","","","","","","","","","","","","","","","","","","","","","","","","","","","","","","","","","SYN004BUFR","","","","","","","","","",""
"94213099999","2021-08-17T09:00:00","-17.0166666","128.2166666","205.0","WARMUN, AS","FM-12","4","","19","77","","","-0.01","2","11","","30.13","29.43","24.85","51","090","","11","","","","","","","","","","","","","","","","","","","","","","","","","","","","","","","","","","","","","","","","","","","","","","","","","","","","","","","","","","","","","","","","","","","","","","","","","","","","","","","","","","","","","","","","","","","SYN004BUFR","","","","","","","","","",""
"94213099999","2021-08-18T09:00:00","-17.0166666","128.2166666","205.0","WARMUN, AS","FM-12","4","","29","80","","","-0.01","2","16","","30.03","29.33","24.85","55","090","","5","","","","","","","","","","","","","","","","","","","","","","","","","","","","","","","","","","","","","","","","","","","","","","","","","","","","","","","","","","","","","","","","","","","","","","","","","","","","","","","","","","","","","","","","","","","SYN07094213 11982 00904 10264 21015 39933 40168 52004 60004 70111 333 70000=","","","","","","","","","",""
"94213099999","2021-08-19T09:00:00","-17.0166666","128.2166666","205.0","WARMUN, AS","FM-12","4","","44","85","","","-0.03","1","24","","29.99","29.30","27.96","62","110","","5","","","","","","","","","","","","","","","","","","","","","","","","","","","","","","","","","","","","","","","","","","","","","","","","","","","","","","","","","","","","","","","","","","","","","","","","","","","","","","","","","","","","","","","","","","","SYN004BUFR","","","","","","","","","",""
"94213099999","2021-08-20T09:00:00","-17.0166666","128.2166666","205.0","WARMUN, AS","FM-12","4","","42","86","","","-0.04","1","21","","30.02","29.33","27.96","61","050","","1","","","","","","","","","","","","","","","","","","","","","","","","","","","","","","","","","","","","","","","","","","","","","","","","","","","","","","","","","","","","","","","","","","","","","","","","","","","","","","","","","","","","","","","","","","","SYN004BUFR","","","","","","","","","",""
"94213099999","2021-08-21T09:00:00","-17.0166666","128.2166666","205.0","WARMUN, AS","FM-12","4","","45","88","","","0.04","9","22","","29.99","29.30","27.96","63","090","","1","","","","","","","","","","","","","","","","","","","","","","","","","","","","","","","","","","","","","","","","","","","","","","","","","","","","","","","","","","","","","","","","","","","","","","","","","","","","","","","","","","","","","","","","","","","SYN07094213 11983 00901 10310 20072 39921 40156 50012 60004 70200 333 70000=","","","","","","","","","",""
"94213099999","2021-08-22T09:00:00","-17.0166666","128.2166666","205.0","WARMUN, AS","FM-12","4","","55","87","","","-0.03","1","34","","29.98","29.29","27.96","67","050","","1","","","","","","","","","","","","","","","","","","","","","","","","","","","","","","","","","","","","","","","","","","","","","","","","","","","","","","","","","","","","","","","","","","","","","","","","","","","","","","","","","","","","","","","","","","","SYN004BUFR","","","","","","","","","",""
"94213099999","2021-08-23T09:00:00","-17.0166666","128.2166666","205.0","WARMUN, AS","FM-12","4","","39","88","","","-0.04","1","18","","29.96","29.26","27.96","61","090","","1","","","","","","","","","","","","","","","","","","","","","","","","","","","","","","","","","","","","","","","","","","","","","","","","","","","","","","","","","","","","","","","","","","","","","","","","","","","","","","","","","","","","","","","","","","","SYN004BUFR","","","","","","","","","",""
"94213099999","2021-08-24T09:00:00","-17.0166666","128.2166666","205.0","WARMUN, AS","FM-12","4","","35","82","","","-0.04","3","18","","30.00","29.31","12.43","57","130","","6","","","","","","","","","","","","","","","","","","","","","","","","","","","","","","","","","","","","","","","","","","","","","","","","","","","","","","","","","","","","","","","","","","","","","","","","","","","","","","","","","","","","","","","","","","","SYN07094213 11970 01305 10280 20018 39925 40160 53012 60004 70200 333 70000=","","","","","","","","","",""
"94213099999","2021-08-25T09:00:00","-17.0166666","128.2166666","205.0","WARMUN, AS","FM-12","4","","19","79","","","-0.04","1","11","","30.04","29.34","12.43","52","050","","6","","","","","","","","","","","","","","","","","","","","","","","","","","","","","","","","","","","","","","","","","","","","","","","","","","","","","","","","","","","","","","","","","","","","","","","","","","","","","","","","","","","","","","","","","","","SYN004BUFR","","","","","","","","","",""
"94213099999","2021-08-26T09:00:00","-17.0166666","128.2166666","205.0","WARMUN, AS","FM-12","4","","29","81","","","-0.03","2","15","","30.01","29.32","18.64","55","050","","2","","","","","","","","","","","","","","","","","","","","","","","","","","","","","","","","","","","","","","","","","","","","","","","","","","","","","","","","","","","","","","","","","","","","","","","","","","","","","","","","","","","","","","","","","","","SYN004BUFR","","","","","","","","","",""
"94213099999","2021-08-27T09:00:00","-17.0166666","128.2166666","205.0","WARMUN, AS","FM-12","4","","33","83","","","-0.04","1","16","","29.99","29.30","21.75","57","360","","3","","","","","","","","","","","","","","","","","","","","","","","","","","","","","","","","","","","","","","","","","","","","","","","","","","","","","","","","","","","","","","","","","","","","","","","","","","","","","","","","","","","","","","","","","","","SYN004BUFR","","","","","","","","","",""
"94213099999","2021-08-28T09:00:00","-17.0166666","128.2166666","205.0","WARMUN, AS","FM-12","4","","36","88","","","-0.03","1","16","","29.95","29.26","24.85","60","360","","0","","","","","","","","","","","","","","","","","","","","","","","","","","","","","","","","","","","","","","","","","","","","","","","","","","","","","","","","","","","","","","","","","","","","","","","","","","","","","","","","","","","","","","","","","","","SYN004BUFR","","","","","","","","","",""
"94213099999","2021-08-29T09:00:00","-17.0166666","128.2166666","205.0","WARMUN, AS","FM-12","4","","44","88","","","-0.03","1","22","","29.93","29.24","21.75","63","180","","6","","","","","","","","","","","","","","","","","","","","","","","","","","","","","","","","","","","","","","","","","","","","","","","","","","","","","","","","","","","","","","","","","","","","","","","","","","","","","","","","","","","","","","","","","","","SYN004BUFR","","","","","","","","","",""
"94213099999","2021-08-30T09:00:00","-17.0166666","128.2166666","205.0","WARMUN, AS","FM-12","4","","19","89","","","-0.05","1","8","","29.95","29.26","24.85","56","360","","0","","","","","","","","","","","","","","","","","","","","","","","","","","","","","","","","","","","","","","","","","","","","","","","","","","","","","","","","","","","","","","","","","","","","","","","","","","","","","","","","","","","","","","","","","","","SYN004BUFR","","","","","","","","","",""
"94213099999","2021-08-31T09:00:00","-17.0166666","128.2166666","205.0","WARMUN, AS","FM-12","4","","24","90","","","-0.02","2","9","","29.97","29.28","21.75","58","050","","2","","","","","","","","","","","","","","","","","","","","","","","","","","","","","","","","","","","","","","","","","","","","","","","","","","","","","","","","","","","","","","","","","","","","","","","","","","","","","","","","","","","","","","","","","","","SYN07094213 11/81 20502 10325 21047 39914 40149 52008 60004 70200 333 70000=","","","","","","","","","",""
"94213099999","2021-09-01T09:00:00","-17.0166666","128.2166666","205.0","WARMUN, AS","FM-12","4","","24","90","","","-0.02","2","9","","29.96","29.27","21.75","58","090","","6","","","","","","","","","","","","","","","","","","","","","","","","","","","","","","","","","","","","","","","","","","","","","","","","","","","","","","","","","","","","","","","","","","","","","","","","","","","","","","","","","","","","","","","","","","","SYN004BUFR","","","","","","","","","",""
"94213099999","2021-09-02T09:00:00","-17.0166666","128.2166666","205.0","WARMUN, AS","FM-12","4","","46","92","","||HZ","-0.02","0","20","","29.92","29.24","15.53","65","230","","2","","","","","","","","","","","","","","","","","","","","","","","","","","","","","","","","","","","","","","","","","","","","","","","","","","","","","","","","","","","","","","","","","","","","","","","","","","","","","","","","","","","","","","","","","","","SYN004BUFR","","","","","","","","","",""
"94213099999","2021-09-03T09:00:00","-17.0166666","128.2166666","205.0","WARMUN, AS","FM-12","4","","57","92","","","-0.02","1","31","","29.88","29.20","18.64","70","230","","5","","","","","","","","","","","","","","","","","","","","","","","","","","","","","","","","","","","","","","","","","","","","","","","","","","","","","","","","","","","","","","","","","","","","","","","","","","","","","","","","","","","","","","","","","","","SYN07094213 11/80 12304 10334 20140 39887 40118 51006 60004 70300 333 70000=","","","","","","","","","",""
"94213099999","2021-09-04T09:00:00","-17.0166666","128.2166666","205.0","WARMUN, AS","FM-12","4","","48","88","","","-0.04","1","25","","29.90","29.21","24.85","64","360","","0","","","","","","","","","","","","","","","","","","","","","","","","","","","","","","","","","","","","","","","","","","","","","","","","","","","","","","","","","","","","","","","","","","","","","","","","","","","","","","","","","","","","","","","","","","","SYN004BUFR","","","","","","","","","",""
"94213099999","2021-09-05T09:00:00","-17.0166666","128.2166666","205.0","WARMUN, AS","FM-12","4","","60","76","","","-0.06","1","59","","30.08","29.39","18.64","66","130","","7","","","","","","","","","","","","","","","","","","","","","","","","","","","","","","","","","","","","","","","","","","","","","","","","","","","","","","","","","","","","","","","","","","","","","","","","","","","","","","","","","","","","","","","","","","","SYN004BUFR","","","","","","","","","",""
"94213099999","2021-09-06T09:00:00","-17.0166666","128.2166666","205.0","WARMUN, AS","FM-12","4","","33","76","","","-0.03","0","21","","30.18","29.49","24.85","55","130","","14","","","","","","","","","","","","","","","","","","","","","","","","","","","","","","","","","","","","","","","","","","","","","","","","","","","","","","","","","","","","","","","","","","","","","","","","","","","","","","","","","","","","","","","","","","","SYN004BUFR","","","","","","","","","",""
"94213099999","2021-09-07T09:00:00","-17.0166666","128.2166666","205.0","WARMUN, AS","FM-12","4","","28","73","","","-0.02","0","19","","30.19","29.50","27.96","52","110","","14","","","","","","","","","","","","","","","","","","","","","","","","","","","","","","","","","","","","","","","","","","","","","","","","","","","","","","","","","","","","","","","","","","","","","","","","","","","","","","","","","","","","","","","","","","","SYN004BUFR","","","","","","","","","",""
"94213099999","2021-09-08T09:00:00","-17.0166666","128.2166666","205.0","WARMUN, AS","FM-12","4","","27","80","","","-0.02","0","15","","30.12","29.44","27.96","54","110","","9","","","","","","","","","","","","","","","","","","","","","","","","","","","","","","","","","","","","","","","","","","","","","","","","","","","","","","","","","","","","","","","","","","","","","","","","","","","","","","","","","","","","","","","","","","","SYN004BUFR","","","","","","","","","",""
"94213099999","2021-09-09T09:00:00","-17.0166666","128.2166666","205.0","WARMUN, AS","FM-12","4","","50","85","","","-0.02","0","30","","30.10","29.41","27.96","64","070","","23","","","","","","","","","","","","","","","","","","","","","","","","","","","","","","","","","","","","","","","","","","","","","","","","","","","","","","","","","","","","","","","","","","","","","","","","","","","","","","","","","","","","","","","","","","","SYN004BUFR","","","","","","","","","",""
"94213099999","2021-09-10T09:00:00","-17.0166666","128.2166666","205.0","WARMUN, AS","FM-12","4","","49","88","","","-0.01","0","26","","30.03","29.35","27.96","65","050","","14","","","","","","","","","","","","","","","","","","","","","","","","","","","","","","","","","","","","","","","","","","","","","","","","","","","","","","","","","","","","","","","","","","","","","","","","","","","","","","","","","","","","","","","","","","","SYN004BUFR","","","","","","","","","",""
"94213099999","2021-09-11T09:00:00","-17.0166666","128.2166666","205.0","WARMUN, AS","FM-12","4","","34","89","","","-0.01","0","14","","29.94","29.26","27.96","60","090","","7","","","","","","","","","","","","","","","","","","","","","","","","","","","","","","","","","","","","","","","","","","","","","","","","","","","","","","","","","","","","","","","","","","","","","","","","","","","","","","","","","","","","","","","","","","","SYN004BUFR","","","","","","","","","",""
"94213099999","2021-09-12T09:00:00","-17.0166666","128.2166666","205.0","WARMUN, AS","FM-12","4","","52","90","","","-0.01","0","27","","29.87","29.19","27.96","67","360","","0","","","","","","","","","","","","","","","","","","","","","","","","","","","","","","","","","","","","","","","","","","","","","","","","","","","","","","","","","","","","","","","","","","","","","","","","","","","","","","","","","","","","","","","","","","","SYN004BUFR","","","","","","","","","",""
"94213099999","2021-09-13T09:00:00","-17.0166666","128.2166666","205.0","WARMUN, AS","FM-12","4","","87","91","","","+0.01","8","86","","29.90","29.22","27.96","88","360","","0","","","","","","","","","","","","","","","","","","","","","","","","","","","","","","","","","","","","","","","","","","","","","","","","","","","","","","","","","","","","","","","","","","","","","","","","","","","","","","","","","","","","","","","","","","","SYN004BUFR","","","","","","","","","",""
"94213099999","2021-09-14T09:00:00","-17.0166666","128.2166666","205.0","WARMUN, AS","FM-12","4","","53","95","","","-0.02","1","24","","29.94","29.26","24.85","69","360","","0","","","","","","","","","","","","","","","","","","","","","","","","","","","","","","","","","","","","","","","","","","","","","","","","","","","","","","","","","","","","","","","","","","","","","","","","","","","","","","","","","","","","","","","","","","","SYN004BUFR","","","","","","","","","",""
"94213099999","2021-09-15T09:00:00","-17.0166666","128.2166666","205.0","WARMUN, AS","FM-12","4","","60","92","","","-0.03","0","34","","29.95","29.27","24.85","71","050","","23","","","","","","","","","","","","","","","","","","","","","","","","","","","","","","","","","","","","","","","","","","","","","","","","","","","","","","","","","","","","","","","","","","","","","","","","","","","","","","","","","","","","","","","","","","","SYN004BUFR","","","","","","","","","",""
"94213099999","2021-09-16T09:00:00","-17.0166666","128.2166666","205.0","WARMUN, AS","FM-12","4","","60","93","","","-0.03","1","33","","29.91","29.22","24.85","71","050","","7","","","","","","","","","","","","","","","","","","","","","","","","","","","","","","","","","","","","","","","","","","","","","","","","","","","","","","","","","","","","","","","","","","","","","","","","","","","","","","","","","","","","","","","","","","","SYN004BUFR","","","","","","","","","",""
"94213099999","2021-09-17T09:00:00","-17.0166666","128.2166666","205.0","WARMUN, AS","FM-12","4","","60","93","","","-0.01","0","33","","29.91","29.22","21.75","71","310","","7","","","","","","","","","","","","","","","","","","","","","","","","","","","","","","","","","","","","","","","","","","","","","","","","","","","","","","","","","","","","","","","","","","","","","","","","","","","","","","","","","","","","","","","","","","","SYN004BUFR","","","","","","","","","",""
"94213099999","2021-09-18T09:00:00","-17.0166666","128.2166666","205.0","WARMUN, AS","FM-12","4","","58","93","","","-0.03","2","31","","29.93","29.24","24.85","70","310","","8","","","","","","","","","","","","","","","","","","","","","","","","","","","","","","","","","","","","","","","","","","","","","","","","","","","","","","","","","","","","","","","","","","","","","","","","","","","","","","","","","","","","","","","","","","","SYN07094213 11/82 43107 10340 20147 39903 40134 52010 60004 70322 333 70000=","","","","","","","","","",""
"94213099999","2021-09-19T09:00:00","-17.0166666","128.2166666","205.0","WARMUN, AS","FM-12","4","","62","91","","","-0.02","1","37","","29.98","29.30","18.64","72","310","","1","","","","","","","","","","","","","","","","","","","","","","","","","","","","","","","","","","","","","","","","","","","","","","","","","","","","","","","","","","","","","","","","","","","","","","","","","","","","","","","","","","","","","","","","","","","SYN004BUFR","","","","","","","","","",""
"94213099999","2021-09-20T09:00:00","-17.0166666","128.2166666","205.0","WARMUN, AS","FM-12","4","","47","96","","","-0.01","0","18","","29.95","29.26","24.85","67","090","","6","","","","","","","","","","","","","","","","","","","","","","","","","","","","","","","","","","","","","","","","","","","","","","","","","","","","","","","","","","","","","","","","","","","","","","","","","","","","","","","","","","","","","","","","","","","SYN004BUFR","","","","","","","","","",""
"94213099999","2021-09-21T09:00:00","-17.0166666","128.2166666","205.0","WARMUN, AS","FM-12","4","","39","90","","","-0.07","1","17","","30.05","29.37","15.53","62","090","","33","","","","","","","","","","","","","","","","","","","","","","","","","","","","","","","","","","","","","","","","","","","","","","","","","","","","","","","","","","","","","","","","","","","","","","","","","","","","","","","","","","","","","","","","","","","SYN004BUFR","","","","","","","","","",""
"94213099999","2021-09-22T09:00:00","-17.0166666","128.2166666","205.0","WARMUN, AS","FM-12","4","","20","81","","","-0.02","0","10","","30.12","29.43","15.53","53","130","","7","","","","","","","","","","","","","","","","","","","","","","","","","","","","","","","","","","","","","","","","","","","","","","","","","","","","","","","","","","","","","","","","","","","","","","","","","","","","","","","","","","","","","","","","","","","SYN004BUFR","","","","","","","","","",""
"94213099999","2021-09-23T09:00:00","-17.0166666","128.2166666","205.0","WARMUN, AS","FM-12","4","","19","77","","","-0.00","0","11","","30.07","29.38","24.85","51","130","","33","","","","","","","","","","","","","","","","","","","","","","","","","","","","","","","","","","","","","","","","","","","","","","","","","","","","","","","","","","","","","","","","","","","","","","","","","","","","","","","","","","","","","","","","","","","SYN004BUFR","","","","","","","","","",""
"94213099999","2021-09-24T09:00:00","-17.0166666","128.2166666","205.0","WARMUN, AS","FM-12","4","","84","84","","","-0.01","0","100","","29.96","29.28","27.96","84","050","","7","","","","","","","","","","","","","","","","","","","","","","","","","","","","","","","","","","","","","","","","","","","","","","","","","","","","","","","","","","","","","","","","","","","","","","","","","","","","","","","","","","","","","","","","","","","SYN004BUFR","","","","","","","","","",""
"94213099999","2021-09-25T09:00:00","-17.0166666","128.2166666","205.0","WARMUN, AS","FM-12","4","","88","88","","","+0.00","8","100","","29.90","29.21","24.85","88","180","","1","","","","","","","","","","","","","","","","","","","","","","","","","","","","","","","","","","","","","","","","","","","","","","","","","","","","","","","","","","","","","","","","","","","","","","","","","","","","","","","","","","","","","","","","","","","SYN004BUFR","","","","","","","","","",""
"94213099999","2021-09-26T09:00:00","-17.0166666","128.2166666","205.0","WARMUN, AS","FM-12","4","","62","91","","","-0.01","0","38","","29.88","29.19","18.64","72","360","","0","","","","","","","","","","","","","","","","","","","","","","","","","","","","","","","","","","","","","","","","","","","","","","","","","","","","","","","","","","","","","","","","","","","","","","","","","","","","","","","","","","","","","","","","","","","SYN004BUFR","","","","","","","","","",""
"94213099999","2021-09-27T09:00:00","-17.0166666","128.2166666","205.0","WARMUN, AS","FM-12","4","","58","94","","","+0.01","8","30","","29.84","29.16","24.85","71","360","","0","","","","","","","","","","","","","","","","","","","","","","","","","","","","","","","","","","","","","","","","","","","","","","","","","","","","","","","","","","","","","","","","","","","","","","","","","","","","","","","","","","","","","","","","","","","SYN004BUFR","","","","","","","","","",""
"94213099999","2021-09-28T09:00:00","-17.0166666","128.2166666","205.0","WARMUN, AS","FM-12","4","","59","95","","","-0.02","0","30","","29.82","29.14","15.53","71","360","","0","","","","","","","","","","","","","","","","","","","","","","","","","","","","","","","","","","","","","","","","","","","","","","","","","","","","","","","","","","","","","","","","","","","","","","","","","","","","","","","","","","","","","","","","","","","SYN004BUFR","","","","","","","","","",""
"94213099999","2021-09-30T09:00:00","-17.0166666","128.2166666","205.0","WARMUN, AS","FM-12","4","","60","96","","","-0.03","0","31","","29.87","29.19","21.75","72","270","","1","","","","","","","","","","","","","","","","","","","","","","","","","","","","","","","","","","","","","","","","","","","","","","","","","","","","","","","","","","","","","","","","","","","","","","","","","","","","","","","","","","","","","","","","","","","SYN004BUFR","","","","","","","","","",""
"94213099999","2021-10-01T09:00:00","-17.0166666","128.2166666","205.0","WARMUN, AS","FM-12","4","","48","95","","","-0.02","0","20","","29.86","29.19","24.85","67","050","","14","","","","","","","","","","","","","","","","","","","","","","","","","","","","","","","","","","","","","","","","","","","","","","","","","","","","","","","","","","","","","","","","","","","","","","","","","","","","","","","","","","","","","","","","","","","SYN004BUFR","","","","","","","","","",""
"94213099999","2021-10-02T09:00:00","-17.0166666","128.2166666","205.0","WARMUN, AS","FM-12","4","","58","97","","","+0.00","8","28","","29.79","29.12","18.64","72","180","","3","","","","","","","","","","","","","","","","","","","","","","","","","","","","","","","","","","","","","","","","","","","","","","","","","","","","","","","","","","","","","","","","","","","","","","","","","","","","","","","","","","","","","","","","","","","SYN004BUFR","","","","","","","","","",""
"94213099999","2021-10-03T09:00:00","-17.0166666","128.2166666","205.0","WARMUN, AS","FM-12","4","","51","97","","","+0.02","8","21","","29.79","29.11","21.75","68","230","","2","","","","","","","","","","","","","","","","","","","","","","","","","","","","","","","","","","","","","","","","","","","","","","","","","","","","","","","","","","","","","","","","","","","","","","","","","","","","","","","","","","","","","","","","","","","SYN004BUFR","","","","","","","","","",""
"94213099999","2021-10-04T09:00:00","-17.0166666","128.2166666","205.0","WARMUN, AS","FM-12","4","","40","96","","","-0.01","0","14","","29.77","29.10","21.75","64","360","","0","","","","","","","","","","","","","","","","","","","","","","","","","","","","","","","","","","","","","","","","","","","","","","","","","","","","","","","","","","","","","","","","","","","","","","","","","","","","","","","","","","","","","","","","","","","SYN004BUFR","","","","","","","","","",""
"94213099999","2021-10-06T09:00:00","-17.0166666","128.2166666","205.0","WARMUN, AS","FM-12","4","","51","96","","","-0.04","1","22","","29.79","29.11","24.85","68","130","","5","","","","","","","","","","","","","","","","","","","","","","","","","","","","","","","","","","","","","","","","","","","","","","","","","","","","","","","","","","","","","","","","","","","","","","","","","","","","","","","","","","","","","","","","","","","SYN07094213 11/82 61304 10354 20105 39859 40087 51013 60004 70311 333 70000=","","","","","","","","","",""
"94213099999","2021-10-07T09:00:00","-17.0166666","128.2166666","205.0","WARMUN, AS","FM-12","4","","49","98","","","0.02","9","19","","29.80","29.13","24.85","68","180","","3","","","","","","","","","","","","","","","","","","","","","","","","","","","","","","","","","","","","","","","","","","","","","","","","","","","","","","","","","","","","","","","","","","","","","","","","","","","","","","","","","","","","","","","","","","","SYN07094213 11/82 11803 10367 20092 39865 40093 50006 60004 70311 333 70000=","","","","","","","","","",""
"94213099999","2021-10-08T09:00:00","-17.0166666","128.2166666","205.0","WARMUN, AS","FM-12","4","","42","99","","","0.02","9","14","","29.81","29.14","24.85","66","160","","6","","","","","","","","","","","","","","","","","","","","","","","","","","","","","","","","","","","","","","","","","","","","","","","","","","","","","","","","","","","","","","","","","","","","","","","","","","","","","","","","","","","","","","","","","","","SYN07094213 11982 01605 10375 20057 39867 40095 50007 60004 70200 333 70000=","","","","","","","","","",""
"94213099999","2021-10-09T09:00:00","-17.0166666","128.2166666","205.0","WARMUN, AS","FM-12","4","","58","97","","","-0.02","0","27","","29.81","29.13","21.75","72","050","","5","","","","","","","","","","","","","","","","","","","","","","","","","","","","","","","","","","","","","","","","","","","","","","","","","","","","","","","","","","","","","","","","","","","","","","","","","","","","","","","","","","","","","","","","","","","SYN004BUFR","","","","","","","","","",""
"94213099999","2021-10-10T09:00:00","-17.0166666","128.2166666","205.0","WARMUN, AS","FM-12","4","","65","97","","","-0.00","0","36","","29.79","29.12","21.75","75","230","","3","","","","","","","","","","","","","","","","","","","","","","","","","","","","","","","","","","","","","","","","","","","","","","","","","","","","","","","","","","","","","","","","","","","","","","","","","","","","","","","","","","","","","","","","","","","SYN004BUFR","","","","","","","","","",""
"94213099999","2021-10-11T09:00:00","-17.0166666","128.2166666","205.0","WARMUN, AS","FM-12","4","","49","93","","","-0.04","1","22","","29.80","29.12","24.85","66","130","","1","","","","","","","","","","","","","","","","","","","","","","","","","","","","","","","","","","","","","","","","","","","","","","","","","","","","","","","","","","","","","","","","","","","","","","","","","","","","","","","","","","","","","","","","","","","SYN004BUFR","","","","","","","","","",""
"94213099999","2021-10-12T09:00:00","-17.0166666","128.2166666","205.0","WARMUN, AS","FM-12","4","","","95","","","-0.03","0","","","29.79","29.11","24.85","","090","","2","","","","","","","","","","","","","","","","","","","","","","","","","","","","","","","","","","","","","","","","","","","","","","","","","","","","","","","","","","","","","","","","","","","","","","","","","","","","","","","","","","","","","","","","","","","SYN004BUFR","","","","","","","","","",""
"94213099999","2021-10-13T09:00:00","-17.0166666","128.2166666","205.0","WARMUN, AS","FM-12","4","","35","97","","","-0.02","0","11","","29.82","29.14","24.85","63","070","","5","","","","","","","","","","","","","","","","","","","","","","","","","","","","","","","","","","","","","","","","","","","","","","","","","","","","","","","","","","","","","","","","","","","","","","","","","","","","","","","","","","","","","","","","","","","SYN004BUFR","","","","","","","","","",""
"94213099999","2021-10-15T09:00:00","-17.0166666","128.2166666","205.0","WARMUN, AS","FM-12","4","","26","95","","","-0.02","0","8","","29.87","29.19","24.85","60","180","","1","","","","","","","","","","","","","","","","","","","","","","","","","","","","","","","","","","","","","","","","","","","","","","","","","","","","","","","","","","","","","","","","","","","","","","","","","","","","","","","","","","","","","","","","","","","SYN004BUFR","","","","","","","","","",""
"94213099999","2021-10-16T09:00:00","-17.0166666","128.2166666","205.0","WARMUN, AS","FM-12","4","","55","96","","","-0.02","0","25","","29.83","29.15","24.85","70","020","","5","","","","","","","","","","","","","","","","","","","","","","","","","","","","","","","","","","","","","","","","","","","","","","","","","","","","","","","","","","","","","","","","","","","","","","","","","","","","","","","","","","","","","","","","","","","SYN004BUFR","","","","","","","","","",""
"94213099999","2021-10-17T09:00:00","-17.0166666","128.2166666","205.0","WARMUN, AS","FM-12","4","","58","97","","","-0.03","0","27","","29.83","29.16","24.85","72","310","","6","","","","","","","","","","","","","","","","","","","","","","","","","","","","","","","","","","","","","","","","","","","","","","","","","","","","","","","","","","","","","","","","","","","","","","","","","","","","","","","","","","","","","","","","","","","SYN004BUFR","","","","","","","","","",""
"94213099999","2021-10-18T09:00:00","-17.0166666","128.2166666","205.0","WARMUN, AS","FM-12","4","","57","98","","||HZ","0.04","9","25","","29.89","29.21","12.43","71","290","","6","","","","","","","","","","","","","","","","","","","","","","","","","","","","","","","","","","","","","","","","","","","","","","","","","","","","","","","","","","","","","","","","","","","","","","","","","","","","","","","","","","","","","","","","","","","SYN07094213 11/70 22905 10367 20137 39893 40121 50012 60004 70511 333 70000=","","","","","","","","","",""
"94213099999","2021-10-19T09:00:00","-17.0166666","128.2166666","205.0","WARMUN, AS","FM-12","4","","90","103","","","0.01","9","69","","29.89","29.22","9.32","92","160","","2","","","","","","","","","","","","","","","","","","","","","","","","","","","","","","","","","","","","","","","","","","","","","","","","","","","","","","","","","","","","","","","","","","","","","","","","","","","","","","","","","","","","","","","","","","","SYN07094213 11965 01602 10393 20325 39894 40122 50002 60004 70200 333 70000=","","","","","","","","","",""
"94213099999","2021-10-20T09:00:00","-17.0166666","128.2166666","205.0","WARMUN, AS","FM-12","4","","55","99","","||FU","+0.00","8","23","","29.88","29.20","12.43","71","130","","2","","","","","","","","","","","","","","","","","","","","","","","","","","","","","","","","","","","","","","","","","","","","","","","","","","","","","","","","","","","","","","","","","","","","","","","","","","","","","","","","","","","","","","","","","","","SYN07094213 11970 01302 10374 20129 39889 40117 58001 60004 70411 333 70000=","","","","","","","","","",""
"94213099999","2021-10-21T09:00:00","-17.0166666","128.2166666","205.0","WARMUN, AS","FM-12","4","","52","104","","","-0.02","0","17","","29.79","29.12","12.43","71","160","","7","","","","","","","","","","","","","","","","","","","","","","","","","","","","","","","","","","","","","","","","","","","","","","","","","","","","","","","","","","","","","","","","","","","","","","","","","","","","","","","","","","","","","","","","","","","SYN004BUFR","","","","","","","","","",""
"94213099999","2021-10-22T09:00:00","-17.0166666","128.2166666","205.0","WARMUN, AS","FM-12","4","","31","100","","","-0.02","1","9","","29.83","29.16","9.32","63","340","","1","","","","","","","","","","","","","","","","","","","","","","","","","","","","","","","","","","","","","","","","","","","","","","","","","","","","","","","","","","","","","","","","","","","","","","","","","","","","","","","","","","","","","","","","","","","SYN004BUFR","","","","","","","","","",""
"94213099999","2021-10-23T09:00:00","-17.0166666","128.2166666","205.0","WARMUN, AS","FM-12","4","","68","96","","","0.01","9","40","","29.85","29.18","6.21","76","160","","3","","","","","","","","","","","","","","","","","","","","","","","","","","","","","","","","","","","","","","","","","","","","","","","","","","","","","","","","","","","","","","","","","","","","","","","","","","","","","","","","","","","","","","","","","","","SYN07094213 11960 01603 10353 20199 39882 40110 50005 60004 70211 333 70000=","","","","","","","","","",""
"94213099999","2021-10-24T09:00:00","-17.0166666","128.2166666","205.0","WARMUN, AS","FM-12","4","","64","94","","","-0.01","0","37","","29.86","29.19","9.32","74","340","","8","","","","","","","","","","","","","","","","","","","","","","","","","","","","","","","","","","","","","","","","","","","","","","","","","","","","","","","","","","","","","","","","","","","","","","","","","","","","","","","","","","","","","","","","","","","SYN004BUFR","","","","","","","","","",""
"94213099999","2021-10-25T09:00:00","-17.0166666","128.2166666","205.0","WARMUN, AS","FM-12","4","","67","88","","||HZ","-0.04","3","51","","29.87","29.20","12.43","74","020","","9","","","","","","","","","","","","","","","","","","","","","","","","","","","","","","","","","","","","","","","","","","","","","","","","","","","","","","","","","","","","","","","","","","","","","","","","","","","","","","","","","","","","","","","","","","","SYN07094213 11/70 70208 10310 20196 39887 40115 53015 60014 70511 333 70010=","","","","","","","","","",""
"94213099999","2021-10-26T09:00:00","-17.0166666","128.2166666","205.0","WARMUN, AS","FM-12","4","","68","92","","","0.01","9","46","","29.87","29.19","15.53","75","290","","1","","","","","","","","","","","","","","","","","","","","","","","","","","","","","","","","","","","","","","","","","","","","","","","","","","","","","","","","","","","","","","","","","","","","","","","","","","","","","","","","","","","","","","","","","","","SYN07094213 11/75 32901 10331 20199 39886 40114 50002 69954 70111 333 70005=","","","","","","","","","",""
"94213099999","2021-10-27T09:00:00","-17.0166666","128.2166666","205.0","WARMUN, AS","FM-12","4","","67","94","","","-0.01","0","41","","29.89","29.21","12.43","75","130","","2","","","","","","","","","","","","","","","","","","","","","","","","","","","","","","","","","","","","","","","","","","","","","","","","","","","","","","","","","","","","","","","","","","","","","","","","","","","","","","","","","","","","","","","","","","","SYN004BUFR","","","","","","","","","",""
"94213099999","2021-10-28T09:00:00","-17.0166666","128.2166666","205.0","WARMUN, AS","FM-12","4","","69","95","","","+0.02","8","43","","29.85","29.17","9.32","77","360","","3","","","","","","","","","","","","","","","","","","","","","","","","","","","","","","","","","","","","","","","","","","","","","","","","","","","","","","","","","","","","","","","","","","","","","","","","","","","","","","","","","","","","","","","","","","","SYN004BUFR","","","","","","","","","",""
"94213099999","2021-10-29T09:00:00","-17.0166666","128.2166666","205.0","WARMUN, AS","FM-12","4","","66","96","","","+0.01","8","37","","29.83","29.15","6.21","75","160","","3","","","","","","","","","","","","","","","","","","","","","","","","","","","","","","","","","","","","","","","","","","","","","","","","","","","","","","","","","","","","","","","","","","","","","","","","","","","","","","","","","","","","","","","","","","","SYN07094213 11960 01603 10358 20191 39873 40101 58002 60024 70111 333 70020=","","","","","","","","","",""
"94213099999","2021-10-30T09:00:00","-17.0166666","128.2166666","205.0","WARMUN, AS","FM-12","4","","65","97","","||HZ","0.01","9","36","","29.85","29.17","6.21","75","180","","1","","","","","","","","","","","","","","","","","","","","","","","","","","","","","","","","","","","","","","","","","","","","","","","","","","","","","","","","","","","","","","","","","","","","","","","","","","","","","","","","","","","","","","","","","","","SYN07094213 11/60 11801 10360 20185 39879 40107 50002 60004 70511 333 70000=","","","","","","","","","",""
"94213099999","2021-10-31T09:00:00","-17.0166666","128.2166666","205.0","WARMUN, AS","FM-12","4","","68","84","","","0.02","9","57","","29.94","29.26","9.32","73","110","","2","","","","","","","","","","","","","","","","","","","","","","","","","","","","","","","","","","","","","","","","","","","","","","","","","","","","","","","","","","","","","","","","","","","","","","","","","","","","","","","","","","","","","","","","","","","SYN07094213 11/65 71102 10291 20198 39909 40138 50006 60024 70311 333 70022=","","","","","","","","","",""
"94213099999","2021-11-01T09:00:00","-17.0166666","128.2166666","205.0","WARMUN, AS","FM-12","4","","65","88","","","-0.00","0","47","","29.92","29.25","12.43","73","070","","5","","","","","","","","","","","","","","","","","","","","","","","","","","","","","","","","","","","","","","","","","","","","","","","","","","","","","","","","","","","","","","","","","","","","","","","","","","","","","","","","","","","","","","","","","","","SYN004BUFR","","","","","","","","","",""
"94213099999","2021-11-02T09:00:00","-17.0166666","128.2166666","205.0","WARMUN, AS","FM-12","4","","64","95","","","0.01","9","36","","29.88","29.21","12.43","74","130","","7","","","","","","","","","","","","","","","","","","","","","","","","","","","","","","","","","","","","","","","","","","","","","","","","","","","","","","","","","","","","","","","","","","","","","","","","","","","","","","","","","","","","","","","","","","","SYN07094213 11/70 21306 10350 20176 39893 40120 50004 60004 70100 333 70000=","","","","","","","","","",""
"94213099999","2021-11-04T09:00:00","-17.0166666","128.2166666","205.0","WARMUN, AS","FM-12","4","","75","85","","","+0.02","6","71","","29.93","29.26","15.53","78","110","","5","","","","","","","","","","","","","","","","","","","","","","","","","","","","","","","","","","","","","","","","","","","","","","","","","","","","","","","","","","","","","","","","","","","","","","","","","","","","","","","","","","","","","","","","","","","SYN07094213 11/75 61104 10295 20237 39907 40134 56006 60580 70111 333 7////=","","","","","","","","","",""
"94213099999","2021-11-05T09:00:00","-17.0166666","128.2166666","205.0","WARMUN, AS","FM-12","4","","71","94","","","-0.03","1","48","","29.83","29.16","12.43","78","130","","1","","","","","","","","","","","","","","","","","","","","","","","","","","","","","","","","","","","","","","","","","","","","","","","","","","","","","","","","","","","","","","","","","","","","","","","","","","","","","","","","","","","","","","","","","","","SYN07094213 11/70 41301 10346 20219 39875 40102 51011 60004 70311 333 70000=","","","","","","","","","",""
"94213099999","2021-11-06T09:00:00","-17.0166666","128.2166666","205.0","WARMUN, AS","FM-12","4","","72","87","","","0.04","9","61","","29.78","29.11","15.53","76","230","","2","","","","","","","","","","","","","","","","","","","","","","","","","","","","","","","","","","","","","","","","","","","","","","","","","","","","","","","","","","","","","","","","","","","","","","","","","","","","","","","","","","","","","","","","","","","SYN07094213 11/75 52302 10308 20223 39857 40083 50012 60064 70111 333 70060=","","","","","","","","","",""
"94213099999","2021-11-07T09:00:00","-17.0166666","128.2166666","205.0","WARMUN, AS","FM-12","4","","72","81","","","0.01","9","74","","29.78","29.11","9.32","75","090","","3","","","","","","","","","","","","","","","","","","","","","","","","","","","","","","","","","","","","","","","","","","","","","","","","","","","","","","","","","","","","","","","","","","","","","","","","","","","","","","","","","","","","","","","","","","","SYN07094213 11/65 70903 10274 20224 39859 40085 50002 60044 71622 333 70036=","","","","","","","","","",""
"94213099999","2021-11-08T09:00:00","-17.0166666","128.2166666","205.0","WARMUN, AS","FM-12","4","","74","91","","","0.03","9","57","","29.79","29.13","9.32","79","180","","1","","","","","","","","","","","","","","","","","","","","","","","","","","","","","","","","","","","","","","","","","","","","","","","","","","","","","","","","","","","","","","","","","","","","","","","","","","","","","","","","","","","","","","","","","","","SYN07094213 11/65 41801 10326 20231 39863 40089 50010 60004 70122 333 70000=","","","","","","","","","",""
"94213099999","2021-11-09T09:00:00","-17.0166666","128.2166666","205.0","WARMUN, AS","FM-12","4","","74","90","","","0.01","9","60","","29.77","29.10","18.64","79","130","","3","","","","","","","","","","","","","","","","","","","","","","","","","","","","","","","","","","","","","","","","","","","","","","","","","","","","","","","","","","","","","","","","","","","","","","","","","","","","","","","","","","","","","","","","","","","SYN07094213 11980 01303 10322 20234 39856 40082 50002 60134 70111 333 70134=","","","","","","","","","",""
"94213099999","2021-11-10T09:00:00","-17.0166666","128.2166666","205.0","WARMUN, AS","FM-12","4","","70","94","","","-0.00","0","46","","29.72","29.06","9.32","77","290","","2","","","","","","","","","","","","","","","","","","","","","","","","","","","","","","","","","","","","","","","","","","","","","","","","","","","","","","","","","","","","","","","","","","","","","","","","","","","","","","","","","","","","","","","","","","","SYN004BUFR","","","","","","","","","",""
"94213099999","2021-11-11T09:00:00","-17.0166666","128.2166666","205.0","WARMUN, AS","FM-12","4","","61","92","","","-0.04","1","35","","29.73","29.07","18.64","72","180","","9","","","","","","","","","","","","","","","","","","","","","","","","","","","","","","","","","","","","","","","","","","","","","","","","","","","","","","","","","","","","","","","","","","","","","","","","","","","","","","","","","","","","","","","","","","","SYN004BUFR","","","","","","","","","",""
"94213099999","2021-11-12T09:00:00","-17.0166666","128.2166666","205.0","WARMUN, AS","FM-12","4","","44","85","","","0.02","9","24","","29.83","29.16","15.53","62","160","","5","","","","","","","","","","","","","","","","","","","","","","","","","","","","","","","","","","","","","","","","","","","","","","","","","","","","","","","","","","","","","","","","","","","","","","","","","","","","","","","","","","","","","","","","","","","SYN07094213 11975 01604 10294 20066 39876 40103 50006 60004 70200 333 70000=","","","","","","","","","",""
"94213099999","2021-11-13T09:00:00","-17.0166666","128.2166666","205.0","WARMUN, AS","FM-12","4","","37","89","","","-0.02","1","15","","29.88","29.21","21.75","61","050","","6","","","","","","","","","","","","","","","","","","","","","","","","","","","","","","","","","","","","","","","","","","","","","","","","","","","","","","","","","","","","","","","","","","","","","","","","","","","","","","","","","","","","","","","","","","","SYN07094213 11981 00505 10319 20026 39891 40118 51008 60004 70200 333 70000=","","","","","","","","","",""
"94213099999","2021-11-14T09:00:00","-17.0166666","128.2166666","205.0","WARMUN, AS","FM-12","4","","44","90","","","0.01","9","20","","29.89","29.22","18.64","63","090","","6","","","","","","","","","","","","","","","","","","","","","","","","","","","","","","","","","","","","","","","","","","","","","","","","","","","","","","","","","","","","","","","","","","","","","","","","","","","","","","","","","","","","","","","","","","","SYN07094213 11/80 10905 10320 20066 39894 40121 50003 60004 70300 333 70000=","","","","","","","","","",""
"94213099999","2021-11-15T09:00:00","-17.0166666","128.2166666","205.0","WARMUN, AS","FM-12","4","","34","92","","","-0.02","0","13","","29.89","29.22","24.85","61","050","","2","","","","","","","","","","","","","","","","","","","","","","","","","","","","","","","","","","","","","","","","","","","","","","","","","","","","","","","","","","","","","","","","","","","","","","","","","","","","","","","","","","","","","","","","","","","SYN004BUFR","","","","","","","","","",""
"94213099999","2021-11-16T09:00:00","-17.0166666","128.2166666","205.0","WARMUN, AS","FM-12","4","","29","91","","","0.03","9","11","","29.90","29.23","24.85","59","050","","11","","","","","","","","","","","","","","","","","","","","","","","","","","","","","","","","","","","","","","","","","","","","","","","","","","","","","","","","","","","","","","","","","","","","","","","","","","","","","","","","","","","","","","","","","","","SYN07094213 11/82 20510 10330 21015 39897 40124 50009 60004 70300 333 70000=","","","","","","","","","",""
"94213099999","2021-11-17T09:00:00","-17.0166666","128.2166666","205.0","WARMUN, AS","FM-12","4","","30","95","","","-0.01","0","10","","29.90","29.23","24.85","61","130","","6","","","","","","","","","","","","","","","","","","","","","","","","","","","","","","","","","","","","","","","","","","","","","","","","","","","","","","","","","","","","","","","","","","","","","","","","","","","","","","","","","","","","","","","","","","","SYN004BUFR","","","","","","","","","",""
"94213099999","2021-11-18T09:00:00","-17.0166666","128.2166666","205.0","WARMUN, AS","FM-12","4","","37","96","","","-0.01","0","12","","29.83","29.16","24.85","63","050","","7","","","","","","","","","","","","","","","","","","","","","","","","","","","","","","","","","","","","","","","","","","","","","","","","","","","","","","","","","","","","","","","","","","","","","","","","","","","","","","","","","","","","","","","","","","","SYN004BUFR","","","","","","","","","",""
"94213099999","2021-11-19T09:00:00","-17.0166666","128.2166666","205.0","WARMUN, AS","FM-12","4","","53","100","","","-0.00","2","20","","29.75","29.09","27.96","70","130","","1","","","","","","","","","","","","","","","","","","","","","","","","","","","","","","","","","","","","","","","","","","","","","","","","","","","","","","","","","","","","","","","","","","","","","","","","","","","","","","","","","","","","","","","","","","","SYN004BUFR","","","","","","","","","",""
"94213099999","2021-11-20T09:00:00","-17.0166666","128.2166666","205.0","WARMUN, AS","FM-12","4","","60","96","","","0.02","9","31","","29.80","29.13","6.21","72","020","","3","","","","","","","","","","","","","","","","","","","","","","","","","","","","","","","","","","","","","","","","","","","","","","","","","","","","","","","","","","","","","","","","","","","","","","","","","","","","","","","","","","","","","","","","","","","SYN07094213 11960 00203 10355 20158 39864 40090 50006 60004 70200 333 70000=","","","","","","","","","",""
"94213099999","2021-11-21T09:00:00","-17.0166666","128.2166666","205.0","WARMUN, AS","FM-12","4","","","98","","","0.01","9","","","29.79","29.12","6.21","","000","","0","","","","","","","","","","","","","","","","","","","","","","","","","","","","","","","","","","","","","","","","","","","","","","","","","","","","","","","","","","","","","","","","","","","","","","","","","","","","","","","","","","","","","","","","","","","SYN06494213 11/60 10000 10364 39861 40087 50004 60004 70200 333 70000=","","","","","","","","","",""
"94213099999","2021-11-22T09:00:00","-17.0166666","128.2166666","205.0","WARMUN, AS","FM-12","4","","67","97","","","0.01","9","38","","29.75","29.08","6.21","76","310","","1","","","","","","","","","","","","","","","","","","","","","","","","","","","","","","","","","","","","","","","","","","","","","","","","","","","","","","","","","","","","","","","","","","","","","","","","","","","","","","","","","","","","","","","","","","","SYN07094213 11/60 63101 10359 20196 39849 40075 50002 60004 70111 333 70000=","","","","","","","","","",""
"94213099999","2021-11-23T09:00:00","-17.0166666","128.2166666","205.0","WARMUN, AS","FM-12","4","","67","100","","","0.02","9","34","","29.73","29.06","9.32","77","180","","5","","","","","","","","","","","","","","","","","","","","","","","","","","","","","","","","","","","","","","","","","","","","","","","","","","","","","","","","","","","","","","","","","","","","","","","","","","","","","","","","","","","","","","","","","","","SYN07094213 11/65 21804 10377 20193 39841 40067 50008 60004 70211 333 70000=","","","","","","","","","",""
"94213099999","2021-11-24T09:00:00","-17.0166666","128.2166666","205.0","WARMUN, AS","FM-12","4","","73","90","","","-0.02","0","58","","29.77","29.10","9.32","78","050","","5","","","","","","","","","","","","","","","","","","","","","","","","","","","","","","","","","","","","","","","","","","","","","","","","","","","","","","","","","","","","","","","","","","","","","","","","","","","","","","","","","","","","","","","","","","","SYN004BUFR","","","","","","","","","",""
"94213099999","2021-11-25T09:00:00","-17.0166666","128.2166666","205.0","WARMUN, AS","FM-12","4","","56","92","","","0.02","9","29","","29.77","29.10","24.85","69","160","","3","","","","","","","","","","","","","","","","","","","","","","","","","","","","","","","","","","","","","","","","","","","","","","","","","","","","","","","","","","","","","","","","","","","","","","","","","","","","","","","","","","","","","","","","","","","SYN07094213 11/82 11603 10334 20131 39854 40080 50006 60114 70211 333 70112=","","","","","","","","","",""
"94213099999","2021-11-26T09:00:00","-17.0166666","128.2166666","205.0","WARMUN, AS","FM-12","4","","58","92","","","","","32","","29.77","29.10","18.64","70","070","","5","","","","","","","","","","","","","","","","","","","","","","","","","","","","","","","","","","","","","","","","","","","","","","","","","","","","","","","","","","","","","","","","","","","","","","","","","","","","","","","","","","","","","","","","","","","SYN06494213 11/80 10704 10336 20147 39856 40082 60004 70300 333 70000=","","","","","","","","","",""
"94213099999","2021-11-27T09:00:00","-17.0166666","128.2166666","205.0","WARMUN, AS","FM-12","4","","54","96","","","0.01","9","25","","29.82","29.15","27.96","69","090","","11","","","","","","","","","","","","","","","","","","","","","","","","","","","","","","","","","","","","","","","","","","","","","","","","","","","","","","","","","","","","","","","","","","","","","","","","","","","","","","","","","","","","","","","","","","","SYN07094213 11983 00910 10355 20123 39871 40097 50002 60004 70200 333 70000=","","","","","","","","","",""
"94213099999","2021-11-28T09:00:00","-17.0166666","128.2166666","205.0","WARMUN, AS","FM-12","4","","49","96","","","-0.00","0","20","","29.83","29.16","18.64","67","090","","6","","","","","","","","","","","","","","","","","","","","","","","","","","","","","","","","","","","","","","","","","","","","","","","","","","","","","","","","","","","","","","","","","","","","","","","","","","","","","","","","","","","","","","","","","","","SYN004BUFR","","","","","","","","","",""
"94213099999","2021-11-29T09:00:00","-17.0166666","128.2166666","205.0","WARMUN, AS","FM-12","4","","51","97","","","-0.00","0","21","","29.80","29.14","12.43","68","020","","7","","","","","","","","","","","","","","","","","","","","","","","","","","","","","","","","","","","","","","","","","","","","","","","","","","","","","","","","","","","","","","","","","","","","","","","","","","","","","","","","","","","","","","","","","","","SYN004BUFR","","","","","","","","","",""
"94213099999","2021-11-30T09:00:00","-17.0166666","128.2166666","205.0","WARMUN, AS","FM-12","4","","66","99","","","-0.00","0","34","","29.75","29.09","12.43","76","180","","3","","","","","","","","","","","","","","","","","","","","","","","","","","","","","","","","","","","","","","","","","","","","","","","","","","","","","","","","","","","","","","","","","","","","","","","","","","","","","","","","","","","","","","","","","","","SYN004BUFR","","","","","","","","","",""
"94213099999","2021-12-01T09:00:00","-17.0166666","128.2166666","205.0","WARMUN, AS","FM-12","4","","53","103","","","+0.01","8","19","","29.75","29.09","15.53","71","130","","6","","","","","","","","","","","","","","","","","","","","","","","","","","","","","","","","","","","","","","","","","","","","","","","","","","","","","","","","","","","","","","","","","","","","","","","","","","","","","","","","","","","","","","","","","","","SYN004BUFR","","","","","","","","","",""
"94213099999","2021-12-02T09:00:00","-17.0166666","128.2166666","205.0","WARMUN, AS","FM-12","4","","55","106","","","-0.00","0","19","","29.77","29.10","9.32","73","180","","6","","","","","","","","","","","","","","","","","","","","","","","","","","","","","","","","","","","","","","","","","","","","","","","","","","","","","","","","","","","","","","","","","","","","","","","","","","","","","","","","","","","","","","","","","","","SYN004BUFR","","","","","","","","","",""
"94213099999","2021-12-03T09:00:00","-17.0166666","128.2166666","205.0","WARMUN, AS","FM-12","4","","66","101","","","-0.02","1","32","","29.78","29.11","12.43","77","050","","3","","","","","","","","","","","","","","","","","","","","","","","","","","","","","","","","","","","","","","","","","","","","","","","","","","","","","","","","","","","","","","","","","","","","","","","","","","","","","","","","","","","","","","","","","","","SYN07094213 11/70 60503 10385 20190 39858 40084 51008 60004 70322 333 70000=","","","","","","","","","",""
"94213099999","2021-12-04T09:00:00","-17.0166666","128.2166666","205.0","WARMUN, AS","FM-12","4","","65","104","","","0.01","9","28","","29.76","29.09","15.53","77","180","","6","","","","","","","","","","","","","","","","","","","","","","","","","","","","","","","","","","","","","","","","","","","","","","","","","","","","","","","","","","","","","","","","","","","","","","","","","","","","","","","","","","","","","","","","","","","SYN07094213 11/75 51805 10400 20181 39851 40077 50005 60004 70322 333 70000=","","","","","","","","","",""
"94213099999","2021-12-05T09:00:00","-17.0166666","128.2166666","205.0","WARMUN, AS","FM-12","4","","68","104","","","-0.00","0","31","","29.71","29.04","15.53","78","360","","5","","","","","","","","","","","","","","","","","","","","","","","","","","","","","","","","","","","","","","","","","","","","","","","","","","","","","","","","","","","","","","","","","","","","","","","","","","","","","","","","","","","","","","","","","","","SYN004BUFR","","","","","","","","","",""
"94213099999","2021-12-06T09:00:00","-17.0166666","128.2166666","205.0","WARMUN, AS","FM-12","4","","73","88","","||RA","-0.01","0","62","","29.75","29.08","12.43","77","050","","8","","","","","","","","","","","","","","","","","","","","","","","","","","","","","","","","","","","","","","","","","","","","","","","","","","","","","","","","","","","","","","","","","","","","","","","","","","","","","","","","","","","","","","","","","","","SYN004BUFR","","","","","","","","","",""
"94213099999","2021-12-07T09:00:00","-17.0166666","128.2166666","205.0","WARMUN, AS","FM-12","4","","86","97","","","-0.02","0","71","","29.73","29.06","15.53","88","230","","1","","","","","","","","","","","","","","","","","","","","","","","","","","","","","","","","","","","","","","","","","","","","","","","","","","","","","","","","","","","","","","","","","","","","","","","","","","","","","","","","","","","","","","","","","","","SYN004BUFR","","","","","","","","","",""
"94213099999","2021-12-08T09:00:00","-17.0166666","128.2166666","205.0","WARMUN, AS","FM-12","4","","71","92","","","-0.00","0","50","","29.81","29.14","12.43","77","130","","3","","","","","","","","","","","","","","","","","","","","","","","","","","","","","","","","","","","","","","","","","","","","","","","","","","","","","","","","","","","","","","","","","","","","","","","","","","","","","","","","","","","","","","","","","","","SYN004BUFR","","","","","","","","","",""
"94213099999","2021-12-09T09:00:00","-17.0166666","128.2166666","205.0","WARMUN, AS","FM-12","4","","73","85","","","+0.02","8","68","","29.80","29.14","12.43","77","160","","1","","","","","","","","","","","","","","","","","","","","","","","","","","","","","","","","","","","","","","","","","","","","","","","","","","","","","","","","","","","","","","","","","","","","","","","","","","","","","","","","","","","","","","","","","","","SYN07094213 11/70 81601 10295 20229 39867 40093 58007 60394 70362 333 70390=","","","","","","","","","",""
"94213099999","2021-12-10T09:00:00","-17.0166666","128.2166666","205.0","WARMUN, AS","FM-12","4","","74","86","","","-0.01","1","68","","29.80","29.13","12.43","77","360","","0","","","","","","","","","","","","","","","","","","","","","","","","","","","","","","","","","","","","","","","","","","","","","","","","","","","","","","","","","","","","","","","","","","","","","","","","","","","","","","","","","","","","","","","","","","","SYN004BUFR","","","","","","","","","",""
"94213099999","2021-12-12T09:00:00","-17.0166666","128.2166666","205.0","WARMUN, AS","FM-12","4","","65","98","","","-0.01","0","33","","29.77","29.10","12.43","75","360","","0","","","","","","","","","","","","","","","","","","","","","","","","","","","","","","","","","","","","","","","","","","","","","","","","","","","","","","","","","","","","","","","","","","","","","","","","","","","","","","","","","","","","","","","","","","","SYN004BUFR","","","","","","","","","",""
"94213099999","2021-12-13T09:00:00","-17.0166666","128.2166666","205.0","WARMUN, AS","FM-12","4","","71","98","","","0.02","9","42","","29.72","29.05","12.43","79","270","","1","","","","","","","","","","","","","","","","","","","","","","","","","","","","","","","","","","","","","","","","","","","","","","","","","","","","","","","","","","","","","","","","","","","","","","","","","","","","","","","","","","","","","","","","","","","SYN07094213 11/70 22701 10366 20216 39837 40063 50007 60004 70000 333 70000=","","","","","","","","","",""
"94213099999","2021-12-14T09:00:00","-17.0166666","128.2166666","205.0","WARMUN, AS","FM-12","4","","69","99","","","-0.01","2","37","","29.70","29.03","15.53","78","130","","2","","","","","","","","","","","","","","","","","","","","","","","","","","","","","","","","","","","","","","","","","","","","","","","","","","","","","","","","","","","","","","","","","","","","","","","","","","","","","","","","","","","","","","","","","","","SYN07094213 11975 01302 10375 20206 39832 40058 52004 60004 70000 333 70000=","","","","","","","","","",""
"94213099999","2021-12-15T09:00:00","-17.0166666","128.2166666","205.0","WARMUN, AS","FM-12","4","","72","98","","","-0.03","1","43","","29.74","29.08","12.43","79","360","","3","","","","","","","","","","","","","","","","","","","","","","","","","","","","","","","","","","","","","","","","","","","","","","","","","","","","","","","","","","","","","","","","","","","","","","","","","","","","","","","","","","","","","","","","","","","SYN004BUFR","","","","","","","","","",""
"94213099999","2021-12-16T09:00:00","-17.0166666","128.2166666","205.0","WARMUN, AS","FM-12","4","","69","102","","","0.00","9","35","","29.73","29.06","15.53","78","360","","3","","","","","","","","","","","","","","","","","","","","","","","","","","","","","","","","","","","","","","","","","","","","","","","","","","","","","","","","","","","","","","","","","","","","","","","","","","","","","","","","","","","","","","","","","","","SYN07094213 11/75 13603 10390 20207 39841 40067 50000 60004 70000 333 70000=","","","","","","","","","",""
"94213099999","2021-12-17T09:00:00","-17.0166666","128.2166666","205.0","WARMUN, AS","FM-12","4","","74","99","","","+0.00","8","45","","29.72","29.05","15.53","81","310","","3","","","","","","","","","","","","","","","","","","","","","","","","","","","","","","","","","","","","","","","","","","","","","","","","","","","","","","","","","","","","","","","","","","","","","","","","","","","","","","","","","","","","","","","","","","","SYN004BUFR","","","","","","","","","",""
"94213099999","2021-12-18T09:00:00","-17.0166666","128.2166666","205.0","WARMUN, AS","FM-12","4","","71","92","","","-0.02","1","51","","29.76","29.09","12.43","77","050","","6","","","","","","","","","","","","","","","","","","","","","","","","","","","","","","","","","","","","","","","","","","","","","","","","","","","","","","","","","","","","","","","","","","","","","","","","","","","","","","","","","","","","","","","","","","","SYN07094213 11/70 80505 10333 20219 39851 40077 51008 60004 70322 333 70000=","","","","","","","","","",""
"94213099999","2021-12-19T09:00:00","-17.0166666","128.2166666","205.0","WARMUN, AS","FM-12","4","","76","96","","","-0.00","0","52","","29.80","29.13","12.43","81","310","","1","","","","","","","","","","","","","","","","","","","","","","","","","","","","","","","","","","","","","","","","","","","","","","","","","","","","","","","","","","","","","","","","","","","","","","","","","","","","","","","","","","","","","","","","","","","SYN004BUFR","","","","","","","","","",""
"94213099999","2021-12-20T09:00:00","-17.0166666","128.2166666","205.0","WARMUN, AS","FM-12","4","","75","93","","","-0.03","3","56","","29.81","29.15","12.43","80","310","","1","","","","","","","","","","","","","","","","","","","","","","","","","","","","","","","","","","","","","","","","","","","","","","","","","","","","","","","","","","","","","","","","","","","","","","","","","","","","","","","","","","","","","","","","","","","SYN07094213 11/70 73101 10340 20240 39870 40096 53009 60044 70322 333 70040=","","","","","","","","","",""
"94213099999","2021-12-21T09:00:00","-17.0166666","128.2166666","205.0","WARMUN, AS","FM-12","4","","71","87","","","-0.03","2","59","","29.85","29.18","12.43","76","070","","1","","","","","","","","","","","","","","","","","","","","","","","","","","","","","","","","","","","","","","","","","","","","","","","","","","","","","","","","","","","","","","","","","","","","","","","","","","","","","","","","","","","","","","","","","","","SYN004BUFR","","","","","","","","","",""
"94213099999","2021-12-22T09:00:00","-17.0166666","128.2166666","205.0","WARMUN, AS","FM-12","4","","70","95","","","-0.02","1","43","","29.77","29.10","15.53","77","180","","1","","","","","","","","","","","","","","","","","","","","","","","","","","","","","","","","","","","","","","","","","","","","","","","","","","","","","","","","","","","","","","","","","","","","","","","","","","","","","","","","","","","","","","","","","","","SYN07094213 11/75 51801 10351 20209 39854 40080 51007 60004 70322 333 70000=","","","","","","","","","",""
"94213099999","2021-12-23T09:00:00","-17.0166666","128.2166666","205.0","WARMUN, AS","FM-12","4","","68","87","","||RA","+0.01","8","53","","29.71","29.04","12.43","74","130","","1","","","","","","","","","","","","","","","","","","","","","","","","","","","","","","","","","","","","","","","","","","","","","","","","","","","","","","","","","","","","","","","","","","","","","","","","","","","","","","","","","","","","","","","","","","","SYN07094213 11/70 51301 10305 20199 39834 40060 58005 60154 76022 333 70150=","","","","","","","","","",""
"94213099999","2021-12-24T09:00:00","-17.0166666","128.2166666","205.0","WARMUN, AS","FM-12","4","","67","94","","","-0.04","1","41","","29.74","29.08","12.43","75","180","","3","","","","","","","","","","","","","","","","","","","","","","","","","","","","","","","","","","","","","","","","","","","","","","","","","","","","","","","","","","","","","","","","","","","","","","","","","","","","","","","","","","","","","","","","","","","SYN07094213 11/70 61803 10345 20196 39846 40072 51014 60004 70322 333 70000=","","","","","","","","","",""
"94213099999","2021-12-25T09:00:00","-17.0166666","128.2166666","205.0","WARMUN, AS","FM-12","4","","73","87","","","0.02","9","63","","29.72","29.06","13.05","77","020","","2","","","","","","","","","","","","","","","","","","","","","","","","","","","","","","","","","","","","","","","","","","","","","","","","","","","","","","","","","","","","","","","","","","","","","","","","","","","","","","","","","","","","","","","","","","","SYN07094213 11/71 70202 10305 20226 39840 40066 50006 60084 70322 333 70080=","","","","","","","","","",""
"94213099999","2021-12-27T09:00:00","-17.0166666","128.2166666","205.0","WARMUN, AS","FM-12","4","","67","89","","","0.02","9","49","","29.68","29.02","13.67","74","200","","1","","","","","","","","","","","","","","","","","","","","","","","","","","","","","","","","","","","","","","","","","","","","","","","","","","","","","","","","","","","","","","","","","","","","","","","","","","","","","","","","","","","","","","","","","","","SYN07094213 11/72 82001 10316 20195 39826 40051 50008 60050 70322 333 7////=","","","","","","","","","",""
"94213099999","2021-12-28T09:00:00","-17.0166666","128.2166666","205.0","WARMUN, AS","FM-12","4","","68","90","","","-0.02","0","47","","29.67","29.00","13.05","75","360","","2","","","","","","","","","","","","","","","","","","","","","","","","","","","","","","","","","","","","","","","","","","","","","","","","","","","","","","","","","","","","","","","","","","","","","","","","","","","","","","","","","","","","","","","","","","","SYN004BUFR","","","","","","","","","",""
"94213099999","2021-12-29T09:00:00","-17.0166666","128.2166666","205.0","WARMUN, AS","FM-12","4","","68","95","","","-0.03","1","42","","29.67","29.00","13.67","76","230","","1","","","","","","","","","","","","","","","","","","","","","","","","","","","","","","","","","","","","","","","","","","","","","","","","","","","","","","","","","","","","","","","","","","","","","","","","","","","","","","","","","","","","","","","","","","","SYN07094213 11/72 22301 10349 20201 39822 40047 51009 60004 70200 333 70000=","","","","","","","","","",""
"94213099999","2021-12-30T09:00:00","-17.0166666","128.2166666","205.0","WARMUN, AS","FM-12","4","","66","92","","","+0.04","8","42","","29.69","29.03","12.43","74","110","","2","","","","","","","","","","","","","","","","","","","","","","","","","","","","","","","","","","","","","","","","","","","","","","","","","","","","","","","","","","","","","","","","","","","","","","","","","","","","","","","","","","","","","","","","","","","SYN004BUFR","","","","","","","","","",""
"94213099999","2021-12-31T09:00:00","-17.0166666","128.2166666","205.0","WARMUN, AS","FM-12","4","","74","94","","","0.03","9","51","","29.76","29.09","13.67","80","230","","3","","","","","","","","","","","","","","","","","","","","","","","","","","","","","","","","","","","","","","","","","","","","","","","","","","","","","","","","","","","","","","","","","","","","","","","","","","","","","","","","","","","","","","","","","","","SYN07094213 11/72 42303 10346 20231 39851 40077 50010 60054 70022 333 70050=","","","","","","","","","",""
